{"version": 0.6, "generator": "Overpass API 0.7.62.7 375dc00a", "osm3s": {"timestamp_osm_base": "2025-06-14T13:12:52Z", "copyright": "The data included in this document is from www.openstreetmap.org. The data is made available under ODbL."}, "elements": [{"type": "node", "id": 240979740, "lat": 41.3868448, "lon": 2.1817238}, {"type": "node", "id": 364838793, "lat": 41.3836716, "lon": 2.1806392, "tags": {"addr:city": "Barcelona", "addr:housenumber": "51", "addr:postcode": "08003", "addr:street": "Carrer de l'Argenteria", "amenity": "restaurant", "cuisine": "spanish", "diet:gluten_free": "yes", "name": "Taller de Tapas", "opening_hours": "Su-Th 12:00-00:00; Fr-Sa 12:00-00:30", "phone": "+34 932 68 85 59", "website": "https://tallerdetapas.com"}}, {"type": "node", "id": 476327681, "lat": 41.3817618, "lon": 2.1834151, "tags": {"addr:housenumber": "7", "addr:street": "Carrer de la Reina Cristina", "air_conditioning": "yes", "amenity": "restaurant", "bar": "yes", "check_date": "2023-08-23", "cuisine": "burger", "drink:beer": "no", "drink:champagne": "served", "indoor_seating": "no", "name": "Can Paixano", "name:ca": "La Xampanyeria", "name:es": "La champagneria", "note": "Voor 21.00 cava fles voor 5\u20ac", "opening_hours": "Mo-Sa 09:00-22:30", "outdoor_seating": "no", "payment:contactless": "yes", "payment:mastercard": "yes", "payment:visa": "yes"}}, {"type": "node", "id": 643654725, "lat": 41.3823086, "lon": 2.1765833, "tags": {"addr:housenumber": "59", "addr:postcode": "08002", "addr:street": "Carrer de Ferran", "amenity": "restaurant", "cuisine": "tapas", "name": "Antic Tapas Ferran"}}, {"type": "node", "id": 644874849, "lat": 41.3824742, "lon": 2.1815472, "tags": {"addr:housenumber": "9", "addr:street": "Carrer dels Agullers", "amenity": "restaurant", "name": "Vila Viniteca", "opening_hours": "Mo-Sa 08:30-20:30", "phone": "+34 902 32 77 77", "website": "https://www.vilaviniteca.es/"}}, {"type": "node", "id": 674680026, "lat": 41.3753402, "lon": 2.1894951, "tags": {"addr:city": "Barcelona", "addr:housenumber": "1", "addr:postcode": "08003", "addr:street": "Pla\u00e7a del Mar", "amenity": "cafe", "brand": "Buenas Migas", "brand:wikidata": "Q115258266", "cuisine": "coffee_shop", "diet:gluten_free": "yes", "internet_access": "wlan", "name": "Buenas Migas", "opening_hours": "Mo-Su, PH 08:00-21:00", "phone": "+34 932 21 63 16", "takeaway": "yes", "website": "http://www.buenasmigas.com", "wheelchair": "limited"}}, {"type": "node", "id": 674680688, "lat": 41.3753694, "lon": 2.1896344, "tags": {"addr:housenumber": "1-4", "addr:postcode": "08003", "addr:street": "Pla\u00e7a del Mar", "amenity": "restaurant", "name": "Mar", "name:ca": "Mar", "old_name": "Restaurant Kaiku"}}, {"type": "node", "id": 911777985, "lat": 41.3813599, "lon": 2.1763298, "tags": {"addr:housenumber": "9", "addr:postcode": "08002", "addr:street": "Carrer d'Aviny\u00f3", "amenity": "restaurant"}}, {"type": "node", "id": 984101560, "lat": 41.3768216, "lon": 2.1774883, "tags": {"addr:housenumber": "4", "addr:postcode": "08002", "addr:street": "Pla\u00e7a del Portal de la Pau", "amenity": "cafe", "name": "La Cava Universal", "wheelchair": "limited"}}, {"type": "node", "id": 1014356745, "lat": 41.3758, "lon": 2.1874945, "tags": {"addr:housenumber": "22", "addr:street": "Carrer de l'Escar", "amenity": "restaurant", "check_date": "2024-06-28", "name": "Barceloneta", "name:ca": "Barceloneta", "payment:cash": "yes", "payment:credit_cards": "yes", "payment:debit_cards": "yes", "wheelchair": "yes"}}, {"type": "node", "id": 1072761322, "lat": 41.3852913, "lon": 2.1771925, "tags": {"addr:city": "Barcelona", "addr:country": "ES", "addr:housenumber": "32", "addr:postcode": "08003", "addr:street": "Via Laietana", "amenity": "cafe", "brand": "Starbucks", "brand:wikidata": "Q37158", "brand:wikipedia": "en:Starbucks", "cuisine": "coffee_shop", "diet:gluten_free": "yes", "name": "Starbucks", "name:ca": "Starbucks", "official_name": "Starbucks Coffee", "opening_hours": "Mo-Sa 07:30-22:00; Su,PH 08:00-22:00", "takeaway": "yes"}}, {"type": "node", "id": 1072798261, "lat": 41.3849254, "lon": 2.1766628, "tags": {"addr:housenumber": "6", "addr:postcode": "08002", "addr:street": "Avinguda de la Catedral", "amenity": "restaurant", "check_date": "2023-04-23", "name": "Taverna del Bisbe", "name:ca": "Taverna del Bisbe", "outdoor_seating": "yes"}}, {"type": "node", "id": 1072800838, "lat": 41.3847931, "lon": 2.1767008, "tags": {"addr:housenumber": "12", "addr:postcode": "08002", "addr:street": "Carrer de la Tapineria", "amenity": "cafe", "check_date": "2023-04-23", "name": "El Caf\u00e8 D'en Victor", "outdoor_seating": "yes", "wheelchair": "yes"}}, {"type": "node", "id": 1083144027, "lat": 41.3796584, "lon": 2.1765082, "tags": {"addr:city": "Barcelona", "addr:housename": "Casa Bofarull", "addr:housenumber": "14", "addr:postcode": "08002", "addr:street": "Carrer dels Escudellers", "amenity": "restaurant", "indoor_seating": "yes", "name": "Los Caracoles", "name:zh": "\u8778\u725b", "outdoor_seating": "no", "toilets:wheelchair": "yes", "website": "https://www.loscaracoles.es/", "wheelchair": "yes", "wikidata": "Q9023922", "wikimedia_commons": "Category:Restaurant Los Caracoles (carrer Escudellers)"}}, {"type": "node", "id": 1192701218, "lat": 41.3839345, "lon": 2.1833856, "tags": {"amenity": "restaurant", "email": "calpep@calpep.com", "name": "Cal PEP", "name:ca": "Cal PEP", "opening_hours": "Mo 19:30-23:30; Tu-Fr 13:00-15:45,19:30-23:30; Sa 13:15-15:45,19:30-23:30", "phone": "+34 93 310 79 61", "website": "https://www.calpep.com/"}}, {"type": "node", "id": 1192702494, "lat": 41.3821717, "lon": 2.1832472, "tags": {"addr:housenumber": "14", "addr:postcode": "08003", "addr:street": "Passeig d'Isabel II", "amenity": "restaurant", "cuisine": "spanish", "diet:vegetarian": "yes", "name": "7 Portes", "name:ca": "7 Portes", "name:ru": "\u0420\u0435\u0441\u0442\u043e\u0440\u0430\u043d 7 Portes", "opening_hours": "Mo-Su 13:00-01:00", "phone": "+34 933 19 30 33", "website": "https://7portes.com/catala/index2.php", "wheelchair": "limited", "wikidata": "Q8179723", "wikimedia_commons": "Category:Restaurant 7 Portes", "wikipedia": "ca:Set Portes"}}, {"type": "node", "id": 1192709211, "lat": 41.3845086, "lon": 2.1816748, "tags": {"addr:housenumber": "22", "addr:street": "Carrer de Montcada", "amenity": "restaurant", "cuisine": "tapas;spanish", "name": "El Xampanyet", "name:ca": "El Xampanyet", "name:ko": "\ud0c0\ud30c\uc2a4", "opening_hours": "Tu-Sa 12:00-15:30,19:00-23:00; Su 12:00-15:30", "phone": "+34 933 19 70 03", "website": "https://www.elxampanyet.com/", "wheelchair": "limited"}}, {"type": "node", "id": 1368197009, "lat": 41.3790356, "lon": 2.1918671}, {"type": "node", "id": 1368197027, "lat": 41.3790337, "lon": 2.1917806}, {"type": "node", "id": 1368197066, "lat": 41.37915, "lon": 2.1920023}, {"type": "node", "id": 1368197082, "lat": 41.3791927, "lon": 2.1918764}, {"type": "node", "id": 1380389623, "lat": 41.3852602, "lon": 2.1892753}, {"type": "node", "id": 1380389687, "lat": 41.3852066, "lon": 2.189107}, {"type": "node", "id": 1380389695, "lat": 41.3849108, "lon": 2.1892744}, {"type": "node", "id": 1380389745, "lat": 41.3849645, "lon": 2.1894427}, {"type": "node", "id": 1400647993, "lat": 41.3868791, "lon": 2.1818907}, {"type": "node", "id": 1404140482, "lat": 41.3790103, "lon": 2.1918482}, {"type": "node", "id": 1404140484, "lat": 41.3790176, "lon": 2.1919223}, {"type": "node", "id": 1404140486, "lat": 41.3791802, "lon": 2.1919134}, {"type": "node", "id": 1419848103, "lat": 41.3805658, "lon": 2.1877114, "tags": {"addr:housenumber": "3", "addr:postcode": "08003", "addr:street": "Carrer de la Maquinista", "amenity": "restaurant", "cuisine": "spanish;tapas", "email": "bombetaredes@gmail.com", "kids_area": "no", "name": "La Bombeta", "toilets": "yes", "toilets:access": "customers"}}, {"type": "node", "id": 1430537485, "lat": 41.3827219, "lon": 2.1847191, "tags": {"amenity": "restaurant", "diet:vegetarian": "no", "indoor_seating": "yes", "name": "Oasis Restaurant", "outdoor_seating": "no", "wheelchair": "yes"}}, {"type": "node", "id": 1430547830, "lat": 41.3786578, "lon": 2.1905772, "tags": {"addr:housenumber": "25", "addr:postcode": "08003", "addr:street": "Carrer de Pepe Rubianes", "amenity": "restaurant", "cuisine": "fish", "name": "Can Santi", "name:ca": "Can Santi", "name:en": "Con Sardi", "opening_hours": "We-Su 13:30-16:30, 20:00-22:30"}}, {"type": "node", "id": 1430547831, "lat": 41.378649, "lon": 2.1905467, "tags": {"amenity": "cafe", "internet_access": "service", "name": "World Conexion"}}, {"type": "node", "id": 1430547842, "lat": 41.379111, "lon": 2.1919227, "tags": {"addr:housenumber": "1", "addr:street": "Paseo Barceloneta", "amenity": "restaurant", "name": "Woki organic market", "phone": "+34 93 224 12 51", "website": "https://www.wokiorganicmarket.com/"}}, {"type": "node", "id": 1438235540, "lat": 41.3844325, "lon": 2.1845326, "tags": {"amenity": "restaurant", "name": "Restaurant Terminus", "wheelchair": "yes", "wheelchair:description": "Toilette"}}, {"type": "node", "id": 1488979953, "lat": 41.3820204, "lon": 2.1942551, "tags": {"amenity": "restaurant", "cuisine": "spanish", "name": "Arenal", "name:ca": "Arenal"}}, {"type": "node", "id": 1488979954, "lat": 41.3834281, "lon": 2.1805838, "tags": {"amenity": "restaurant", "cuisine": "arab;barbecue;bavarian;peruvian;russian", "name": "CheeseMe", "name:en": "Chee", "opening_hours": "Mo-Su 00:00-02:00,12:00-24:00", "website": "http://www.cheeseme.org"}}, {"type": "node", "id": 1488979956, "lat": 41.3834986, "lon": 2.1809045, "tags": {"amenity": "restaurant", "check_date": "2023-12-29", "cuisine": "spanish", "name": "Sagardi", "toilets:wheelchair": "yes", "wheelchair": "yes"}}, {"type": "node", "id": 1488979957, "lat": 41.3836466, "lon": 2.1807296, "tags": {"amenity": "restaurant", "cuisine": "spanish", "name": "Taberna De Cobre", "name:en": "Tet"}}, {"type": "node", "id": 1501426309, "lat": 41.3716053, "lon": 2.1821776, "tags": {"amenity": "restaurant", "cuisine": "regional", "name": "Norte"}}, {"type": "node", "id": 1596371259, "lat": 41.3820657, "lon": 2.1882839, "tags": {"amenity": "restaurant", "cuisine": "regional", "name": "Restaurant Ca la Montse"}}, {"type": "node", "id": 1640963945, "lat": 41.3808197, "lon": 2.1889159, "tags": {"addr:city": "Barcelona", "addr:housenumber": "17", "addr:postcode": "08003", "addr:street": "Carrer de La Maquinista", "amenity": "restaurant", "check_date": "2022-05-28", "cuisine": "regional;fish;seafood;mediterranean", "internet_access": "no", "name": "Can Ramonet", "name:ca": "Can Ramonet", "payment:mastercard": "yes", "payment:visa": "yes", "phone": "+34 933 19 30 64", "website": "https://www.elnouramonet.com/", "wheelchair": "yes", "wikidata": "Q47171072", "wikimedia_commons": "Category:Restaurant Casa Ramonet", "wikipedia": "ca:Restaurant Casa Ramonet"}}, {"type": "node", "id": 1643207884, "lat": 41.383572, "lon": 2.1777123, "tags": {"addr:city": "Barcelona", "addr:housenumber": "1-3", "addr:postcode": "08002", "addr:street": "Baixada de la Llibreteria", "amenity": "cafe", "check_date": "2024-05-03", "cuisine": "coffee_shop", "internet_access": "no", "level": "0", "name": "Tostaderos Bon Mercat", "opening_hours": "Mo-Sa 08:00-20:00; Su off", "outdoor_seating": "no", "payment:cash": "yes", "payment:credit_cards": "yes", "payment:debit_cards": "yes", "phone": "+34933152908", "wheelchair": "limited"}}, {"type": "node", "id": 1643645280, "lat": 41.3840164, "lon": 2.1825456, "tags": {"amenity": "restaurant", "cuisine": "regional", "name": "La Llavor dels Or\u00edgens", "website": "https://www.lallavordelsorigens.com/"}}, {"type": "node", "id": 1660356642, "lat": 41.3818704, "lon": 2.1799219, "tags": {"addr:housenumber": "14", "addr:postcode": "08002", "addr:street": "Carrer del Correu Vell", "amenity": "cafe", "cuisine": "spanish", "name": "Caf\u00e9 Babel"}}, {"type": "node", "id": 1676887354, "lat": 41.3894426, "lon": 2.183741, "tags": {"addr:city": "Barcelona", "addr:housenumber": "5", "addr:postcode": "08018", "addr:street": "Passeig de Pujades", "amenity": "restaurant", "cuisine": "spanish", "email": "restaurante@ciudadelaparc.com", "mobile": "+34 647 886 651", "name": "Ciudadela", "opening_hours": "Mo-Su 08:00-12:00,13:00-16:00,19:30-23:00", "outdoor_seating": "yes", "phone": "+34 933 099 557", "website": "https://restaurante.ciudadelaparc.com/"}}, {"type": "node", "id": 1676888054, "lat": 41.3894566, "lon": 2.1839803, "tags": {"amenity": "cafe", "name": "Coffee"}}, {"type": "node", "id": 1736097046, "lat": 41.3774531, "lon": 2.1784062, "tags": {"addr:housenumber": "1", "addr:postcode": "08002", "addr:street": "Carrer del Parc", "amenity": "restaurant", "name": "El Paraguayo", "website": "http://www.e-paraguayo.com/"}}, {"type": "node", "id": 1804162651, "lat": 41.3818627, "lon": 2.1785643, "tags": {"addr:housenumber": "13", "addr:postcode": "08002", "addr:street": "Carrer de la Ciutat", "amenity": "restaurant", "name": "Shinjuku", "wheelchair": "limited"}}, {"type": "node", "id": 1867973631, "lat": 41.3867889, "lon": 2.1787946, "tags": {"addr:city": "Barcelona", "addr:housenumber": "30", "addr:postcode": "08003", "addr:street": "Avinguda de Francesc Camb\u00f3", "amenity": "restaurant", "cuisine": "italian", "description": "Pizzeria amb segell AVPN", "name": "N.A.P", "name:en": "NAP Antic", "name:es": "NAP Antic", "opening_hours": "Mo-Fr 13:30-16:30,20:00-24:00; Sa-Su 13:30-24:00", "phone": "+34686192690"}}, {"type": "node", "id": 1867973686, "lat": 41.3873714, "lon": 2.1817262}, {"type": "node", "id": 1867973752, "lat": 41.3874634, "lon": 2.1805924, "tags": {"addr:housenumber": "46", "addr:place": "Carrer dels Carders", "amenity": "restaurant", "check_date": "2023-10-10", "cuisine": "asian;vietnamese", "name": "Mosquito", "name:es": "Mosquito", "payment:cash": "yes", "payment:mastercard": "yes", "payment:visa": "yes", "phone": "+34 932 687 569", "website": "https://www.mosquitotapas.com/"}}, {"type": "node", "id": 1875029139, "lat": 41.3836361, "lon": 2.1800339, "tags": {"amenity": "restaurant", "name": "Bilbao Berria"}}, {"type": "node", "id": 1876037835, "lat": 41.384443, "lon": 2.1770622, "tags": {"amenity": "cafe", "contact:website": "http://www.cafedestiu.com/", "leisure": "outdoor_seating", "name": "Caf\u00e8 d'Estiu", "name:ca": "Caf\u00e8 d'Estiu"}}, {"type": "node", "id": 1878684097, "lat": 41.3907428, "lon": 2.1979509, "tags": {"addr:housenumber": "168", "addr:postcode": "08005", "addr:street": "Avinguda d'Ic\u00e0ria", "amenity": "restaurant", "branch": "Vila Ol\u00edmpica", "cuisine": "arab", "name": "Ugarit", "phone": "+34932212328", "reservation": "yes", "website": "https://ugarit.es/"}}, {"type": "node", "id": 1878684101, "lat": 41.390451, "lon": 2.1981964, "tags": {"amenity": "cafe", "cuisine": "crepe;ice_cream;grill;pizza;spanish", "internet_access": "wlan", "name": "George\u2018s Bar y Cafet\u00e9ria", "name:ca": "George\u2018s Bar i Cafeter\u00eda", "name:de": "George\u2018s Bar und Cafeteria", "name:en": "George\u2018s Bar and Cafeteria"}}, {"type": "node", "id": 1948912981, "lat": 41.3886058, "lon": 2.181614, "tags": {"addr:city": "Barcelona", "addr:country": "ES", "addr:housenumber": "1-3", "addr:postcode": "08003", "addr:street": "Carrer del Comer\u00e7", "amenity": "restaurant", "cuisine": "american", "name": "Picnic", "outdoor_seating": "yes", "smoking": "outside"}}, {"type": "node", "id": 1948986220, "lat": 41.3900298, "lon": 2.1901118, "tags": {"addr:city": "Barcelona", "addr:country": "ES", "addr:postcode": "08005", "amenity": "cafe", "internet_access": "wlan", "name": "Cafeteria UPF Jaume I", "outdoor_seating": "yes", "smoking": "outside", "takeaway": "yes"}}, {"type": "node", "id": 1948987514, "lat": 41.3886776, "lon": 2.1915119, "tags": {"amenity": "cafe", "cuisine": "spanish", "internet_access": "wlan", "name": "Cafeteria UPF Roger de Lluria", "outdoor_seating": "no", "smoking": "no", "takeaway": "yes"}}, {"type": "node", "id": 1998961100, "lat": 41.3872829, "lon": 2.1817557}, {"type": "node", "id": 2085728878, "lat": 41.3915034, "lon": 2.1980784, "tags": {"amenity": "cafe"}}, {"type": "node", "id": 2085902132, "lat": 41.3910559, "lon": 2.1909419, "tags": {"addr:housenumber": "13", "addr:postcode": "08005", "addr:street": "Ram\u00f3n Turr\u00f3", "amenity": "restaurant", "cuisine": "chicken", "diet:gluten_free": "yes", "name": "Els 'Pollos' de Llull", "opening_hours": "Mo-Th 12:00-18:00; We off; Fr-Sa 12:00-23:00; Su 12:00-20:00", "phone": "+34 607 35 02 89", "website": "https://www.elspollos.com/"}}, {"type": "node", "id": 2085902179, "lat": 41.391629, "lon": 2.1916632, "tags": {"addr:housenumber": "19", "addr:postcode": "08005", "addr:street": "Carrer de Ramon Turr\u00f3", "amenity": "restaurant", "entrance": "yes", "name": "Brasseria La Collita", "website": "http://www.letseat.at/lacollita"}}, {"type": "node", "id": 2091604711, "lat": 41.3832994, "lon": 2.1828533, "tags": {"amenity": "restaurant", "cuisine": "tapas", "name": "Lonja de Tapas", "name:es": "Esquina que se comen buenas tapas", "source": "survey"}}, {"type": "node", "id": 2122271605, "lat": 41.3848871, "lon": 2.1844705, "tags": {"addr:city": "Barcelona", "addr:country": "ES", "addr:housenumber": "27", "addr:street": "Carrer del Comer\u00e7", "amenity": "restaurant", "cuisine": "mexican", "name": "Tlaxcal", "opening_hours": "Mo-Fr 13:00-16:00, 20:00-00:00; Sa, Su 12:00-00:00"}}, {"type": "node", "id": 2164013360, "lat": 41.3773258, "lon": 2.1886316, "tags": {"amenity": "restaurant", "cuisine": "spanish;seafood;fish", "name": "El Rey de la Gamba", "opening_hours": "Mo-Th 12:00-17:00; Fr-Su 12:00-24:00", "wheelchair": "yes"}}, {"type": "node", "id": 2184104530, "lat": 41.3775229, "lon": 2.190889, "tags": {"addr:housenumber": "23", "addr:street": "Carrer d'Em\u00edlia Llorca Mart\u00edn", "amenity": "restaurant", "name": "Can Maj\u00f3", "opening_hours": "Tu-Sa 13:00-15:30, 20:00-23:30; Su 13:00-15:30", "phone": "+34 932 21 54 55", "website": "https://www.canmajo.es/ca/"}}, {"type": "node", "id": 2213812848, "lat": 41.3829782, "lon": 2.18114, "tags": {"amenity": "restaurant", "name": "El Casal", "name:ca": "El Casal", "opening_hours": "Mo-We 07:00-16:00; Th-Su 18:00-00:00"}}, {"type": "node", "id": 2239890971, "lat": 41.3855314, "lon": 2.1854577, "tags": {"addr:housenumber": "27", "addr:postcode": "08003", "addr:street": "Avinguda del Marqu\u00e8s de l'Argentera", "amenity": "restaurant", "cuisine": "greek", "name": "Dionisos Borne", "name:ca": "Dionisos Borne", "phone": "+34 2682472"}}, {"type": "node", "id": 2247720455, "lat": 41.386252, "lon": 2.1839263, "tags": {"addr:city": "Barcelona", "addr:housenumber": "7", "addr:postcode": "08003", "addr:street": "Carrer Comercial", "amenity": "restaurant", "cuisine": "seafood", "name": "La Paradeta", "opening_hours": "Tu-Su 13:00-16:00", "phone": "+34 932 681 939", "source": "+34 932 68 19 39", "website": "https://www.laparadeta.com/restaurantes/la-paradeta-born/"}}, {"type": "node", "id": 2247733112, "lat": 41.382955, "lon": 2.1825442, "tags": {"addr:housenumber": "2", "addr:street": "Pla de Palau", "amenity": "restaurant", "cuisine": "seafood", "name": "Passad\u00eds del Pep", "name:ca": "Passad\u00eds del Pep", "source": "+34 933 10 10 21", "website": "https://www.passadis.com/"}}, {"type": "node", "id": 2262989599, "lat": 41.3771412, "lon": 2.1773093, "tags": {"amenity": "cafe", "name": "El Bosc de les Fades", "name:ca": "El Bosc de les Fades", "name:en": "Hidden Fairy Cafe"}}, {"type": "node", "id": 2267959308, "lat": 41.3869226, "lon": 2.181698}, {"type": "node", "id": 2268404105, "lat": 41.3750955, "lon": 2.1885746, "tags": {"amenity": "restaurant", "cuisine": "indian", "name": "Rangoli"}}, {"type": "node", "id": 2268404106, "lat": 41.3750077, "lon": 2.1885458, "tags": {"amenity": "restaurant", "cuisine": "italian", "name": "La Taggliatella"}}, {"type": "node", "id": 2268406109, "lat": 41.3757239, "lon": 2.1885823, "tags": {"alt_name": "Maca Maca;Maka Maka", "amenity": "restaurant", "check_date": "2024-06-28", "name": "Makamaka Beach Burger Cafe"}}, {"type": "node", "id": 2268406110, "lat": 41.3758021, "lon": 2.1880694, "tags": {"amenity": "restaurant", "name": "Jerusalem"}}, {"type": "node", "id": 2268684579, "lat": 41.3923752, "lon": 2.2046628}, {"type": "node", "id": 2268684582, "lat": 41.392393, "lon": 2.204605}, {"type": "node", "id": 2268684586, "lat": 41.3924002, "lon": 2.2046112}, {"type": "node", "id": 2268684590, "lat": 41.3924441, "lon": 2.2045173}, {"type": "node", "id": 2268684600, "lat": 41.3925583, "lon": 2.2048205}, {"type": "node", "id": 2268684609, "lat": 41.3925806, "lon": 2.2047744}, {"type": "node", "id": 2268684613, "lat": 41.3926088, "lon": 2.2047987}, {"type": "node", "id": 2268684653, "lat": 41.3944695, "lon": 2.2061941}, {"type": "node", "id": 2268684659, "lat": 41.394543, "lon": 2.2060818}, {"type": "node", "id": 2268684662, "lat": 41.3945995, "lon": 2.2063455}, {"type": "node", "id": 2268684664, "lat": 41.3946121, "lon": 2.2063263}, {"type": "node", "id": 2268684665, "lat": 41.3946469, "lon": 2.2063667}, {"type": "node", "id": 2268684668, "lat": 41.3946593, "lon": 2.2063478}, {"type": "node", "id": 2268684670, "lat": 41.3946839, "lon": 2.2063765}, {"type": "node", "id": 2308130199, "lat": 41.3811949, "lon": 2.1884561, "tags": {"addr:housenumber": "12", "addr:street": "Carrer del Baluard", "amenity": "restaurant", "cuisine": "spanish", "name": "Can Ma\u00f1o"}}, {"type": "node", "id": 2364075420, "lat": 41.3877555, "lon": 2.1978758, "tags": {"addr:housenumber": "16", "addr:street": "Carrer de la Marina", "amenity": "restaurant", "contact:email": "restaurantepatopekin@gmail.es", "contact:fax": "+34 932254939", "contact:phone": "+34 932254111", "cuisine": "chinese", "level": "1", "name": "Pato Pek\u00edn", "website": "https://www.patopekin.es/"}}, {"type": "node", "id": 2366679888, "lat": 41.3781446, "lon": 2.1911518, "tags": {"addr:city": "Barcelona", "addr:housenumber": "52", "addr:postcode": "08003", "addr:street": "Carrer de la Vila Joiosa", "amenity": "restaurant", "name": "El Pac\u00edfico", "opening_hours": "Mo-Su 10:00-24:00", "opening_hours:covid19": "Mo-Su 09:00-21:00", "phone": "+34931977744", "takeaway": "yes"}}, {"type": "node", "id": 2381398389, "lat": 41.3830033, "lon": 2.1759851, "tags": {"addr:city": "Barcelona", "addr:housenumber": "7", "addr:postcode": "08002", "addr:street": "Carrer de Sant Honorat", "amenity": "restaurant", "check_date": "2023-04-23", "email": "restaurantelpintor@gruptravi.com", "fax": "+34934122820", "name": "El Pintor", "name:ca": "El Pintor", "phone": "+34933014065", "website": "https://gruptravi.com/el-pintor/"}}, {"type": "node", "id": 2389431210, "lat": 41.3840982, "lon": 2.1827414, "tags": {"amenity": "restaurant", "cuisine": "regional", "name": "La Llavor dels Or\u00edgens", "website": "https://www.lallavordelsorigens.com/"}}, {"type": "node", "id": 2455795580, "lat": 41.3731453, "lon": 2.1879727, "tags": {"addr:city": "Barcelona", "addr:housenumber": "88", "addr:postcode": "08039", "addr:street": "Passeig de Joan de Borb\u00f3", "amenity": "restaurant", "fax": "+34 93 221 0090", "name": "Torre d'Alta Mar", "opening_hours": "Su-Mo 19:00-23:30;Tu-Sa 13:00-15:30,19:00-23:30", "phone": "+34 93 221 0007", "smoking": "no", "website": "https://www.torredealtamar.com/"}}, {"type": "node", "id": 2457828399, "lat": 41.3796054, "lon": 2.1790385, "tags": {"addr:housenumber": "21", "addr:postcode": "08002", "addr:street": "Carrer d'en Serra", "amenity": "restaurant", "name": "Bidasoa"}}, {"type": "node", "id": 2457862016, "lat": 41.3822938, "lon": 2.1787603, "tags": {"addr:housenumber": "7", "addr:postcode": "08002", "addr:street": "Carrer de la Palma de Sant Just", "amenity": "restaurant", "check_date": "2024-06-15", "email": "bodega@bodegalapalma.com", "internet_access": "wlan", "internet_access:fee": "customers", "level": "0", "name": "Bodega la Palma", "opening_hours": "12:00-17:00,19:00-24:00", "phone": "+34 933 150 656", "website": "http://www.bodegalapalma.com/", "website:menu": "https://drive.google.com/file/d/1pXnL_R6roOV39uqyx4D8mgM2FEbc6mwq/view?pli=1"}}, {"type": "node", "id": 2482696173, "lat": 41.3869464, "lon": 2.1818682, "tags": {"entrance": "main"}}, {"type": "node", "id": 2511213137, "lat": 41.3785758, "lon": 2.1911528, "tags": {"addr:housenumber": "34", "addr:postcode": "08003", "addr:street": "Carrer de Pepe Rubianes", "amenity": "restaurant", "cuisine": "spanish", "name": "Salamanca"}}, {"type": "node", "id": 2598482829, "lat": 41.3835218, "lon": 2.1810138, "tags": {"addr:city": "Barcelona", "addr:housenumber": "64-66", "addr:postcode": "08003", "addr:street": "Carrer de l'Argenteria", "amenity": "cafe", "cuisine": "coffee_shop", "name": "Caf\u00e9s El Magnifico", "opening_hours": "Mo-Sa 09:00-20:00", "website": "https://cafeselmagnifico.com/", "wheelchair": "limited"}}, {"type": "node", "id": 2598482920, "lat": 41.3838079, "lon": 2.1773128, "tags": {"addr:city": "Barcelona", "addr:housenumber": "2", "addr:postcode": "08002", "addr:street": "Baixada de Santa Clara", "alt_name": "BuenasMigas Focacceria", "amenity": "cafe", "brand": "Buenas Migas", "brand:wikidata": "Q115258266", "cuisine": "coffee_shop", "diet:gluten_free": "yes", "internet_access": "wlan", "name": "Buenas Migas", "opening_hours": "Mo-Fr 08:00-22:00; Sa-Su 09:00-22:00", "phone": "+34 933 19 13 80", "takeaway": "yes", "website": "http://www.buenasmigas.com"}}, {"type": "node", "id": 2618447073, "lat": 41.3802824, "lon": 2.1773136, "tags": {"addr:city": "Barcelona", "addr:housenumber": "42", "addr:postcode": "08002", "addr:street": "Carrer dels Escudellers", "amenity": "cafe", "cuisine": "greek", "diet:vegetarian": "yes", "name": "Dionisos The Quick Greek"}}, {"type": "node", "id": 2618447074, "lat": 41.3803973, "lon": 2.1776952, "tags": {"addr:city": "Barcelona", "addr:housenumber": "54", "addr:postcode": "08002", "addr:street": "Carrer dels Escudellers", "amenity": "restaurant", "check_date": "2023-02-19", "cuisine": "burger;pizza;tapas", "diet:gluten_free": "yes", "diet:vegan": "yes", "diet:vegetarian": "yes", "indoor_seating": "yes", "internet_access": "wlan", "internet_access:fee": "customers", "internet_access:ssid": "vegetalia gotico", "name": "Vegetalia", "outdoor_seating": "yes", "payment:credit_cards": "yes", "payment:debit_cards": "yes", "phone": "+34 93 3173331", "website": "https://www.restaurantvegetalia.com/"}}, {"type": "node", "id": 2621285054, "lat": 41.3818117, "lon": 2.1784152, "tags": {"addr:housenumber": "12", "addr:postcode": "08002", "addr:street": "Carrer de la Ciutat", "amenity": "restaurant", "name": "Pizzeria San Marino", "opening_hours": "Jan-Dec: Mo-Su 13:00-16:00; Mo-Su 20:00-00:00", "phone": "+34 933020182"}}, {"type": "node", "id": 2691127106, "lat": 41.3807514, "lon": 2.1860546, "tags": {"addr:housenumber": "3", "addr:postcode": "08039", "addr:street": "Pla\u00e7a de Pau Vila", "amenity": "restaurant", "brand": "Sagardi", "level": "4", "name": "Restaurant 1881", "note": "Entrance through the mesum", "opening_hours": "13:00-24:00", "operator": "Grupo Sagardi", "phone": "+34 932 21 00 50", "toilets:wheelchair": "yes", "website": "https://gruposagardi.com/ca/restaurant/1881-per-sagardi", "wheelchair": "yes"}}, {"type": "node", "id": 2737964876, "lat": 41.379378, "lon": 2.190448, "tags": {"addr:city": "Barcelona", "addr:housenumber": "28", "addr:street": "Carrer de Sant Carles", "amenity": "restaurant", "cuisine": "spanish", "name": "Maians", "name:ca": "Maians", "outdoor_seating": "no", "smoking": "no", "takeaway": "no"}}, {"type": "node", "id": 2738000799, "lat": 41.379627, "lon": 2.191283, "tags": {"addr:city": "Barcelona", "addr:housenumber": "29", "addr:postcode": "08003", "addr:street": "Carrer de Sant Carles", "amenity": "restaurant", "cuisine": "mediterranean", "name": "Compa Barceloneta", "outdoor_seating": "yes", "smoking": "outside"}}, {"type": "node", "id": 2848228512, "lat": 41.3839149, "lon": 2.1817695, "tags": {"addr:city": "Barcelona", "addr:housenumber": "13", "addr:postcode": "08003", "addr:street": "Carrer dels Sombrerers", "amenity": "restaurant", "cuisine": "regional;mediterranean", "name": "Petra", "name:ca": "Petra", "opening_hours": "Mo-Th 13:15-16:00,20:30-23:00; Fr,Sa 13:15-16:00,21:00-24:00", "phone": "+34 933 199 999", "website": "https://www.restaurantpetra.com/"}}, {"type": "node", "id": 2865897023, "lat": 41.380178, "lon": 2.1890706, "tags": {"addr:city": "Barcelona", "addr:housenumber": "2", "addr:postcode": "08003", "addr:street": "Pla\u00e7a del Poeta Bosc\u00e0", "amenity": "restaurant", "name": "El Mercat", "phone": "+34 677 46 46 32", "website": "https://www.be-rayangroup.com/mercat"}}, {"type": "node", "id": 2883832906, "lat": 41.3821, "lon": 2.17816, "tags": {"addr:city": "Barcelona", "addr:housenumber": "9", "addr:postcode": "08002", "addr:street": "Carrer de la Ciutat", "amenity": "restaurant", "cuisine": "regional", "name": "Mes\u00f3n Burgal\u00e9s El Cid"}}, {"type": "node", "id": 2883832907, "lat": 41.382275, "lon": 2.1871782, "tags": {"addr:housenumber": "6-8", "addr:postcode": "08003", "addr:street": "Carrer del Doctor Aiguader", "amenity": "restaurant", "cuisine": "tapas;spanish", "name": "Restaurante Pasa Tapas", "phone": "+34933194233"}}, {"type": "node", "id": 2883865905, "lat": 41.3896689, "lon": 2.1834095, "tags": {"addr:city": "Barcelona", "addr:housenumber": "4", "addr:postcode": "08018", "addr:street": "Passeig de Llu\u00eds Companys", "amenity": "restaurant", "cuisine": "regional", "name": "Mes\u00f3n Castellano", "phone": "+34 93 309 29 25"}}, {"type": "node", "id": 2883876801, "lat": 41.3804705, "lon": 2.1787083, "tags": {"addr:city": "Barcelona", "addr:housenumber": "31", "addr:postcode": "08002", "addr:street": "Carrer d'Aviny\u00f3", "amenity": "restaurant", "cuisine": "regional", "name": "Tasca La Musiqueta"}}, {"type": "node", "id": 2905294409, "lat": 41.3838435, "lon": 2.1848659, "tags": {"addr:housenumber": "2", "addr:street": "Carrer d'Ocata", "amenity": "restaurant", "name": "Bar Angel"}}, {"type": "node", "id": 2923438698, "lat": 41.3919179, "lon": 2.1872076, "tags": {"addr:city": "Barcelona", "addr:country": "ES", "addr:housenumber": "2", "addr:postcode": "08018", "addr:street": "Avinguda Meridiana", "amenity": "restaurant", "check_date": "2023-09-27", "cuisine": "italian", "name": "La Forchetta", "phone": "+34 933285896", "website": "https://www.laforchetta.es/"}}, {"type": "node", "id": 2927944587, "lat": 41.3745104, "lon": 2.1829399, "tags": {"addr:postcode": "08039", "amenity": "restaurant", "changing_table": "yes", "changing_table:count": "1", "changing_table:fee": "no", "changing_table:location": "wheelchair_toilet", "level": "0", "name": "Tapas Tapas!", "name:es": "Tapa Tapa Maremagnum", "outdoor_seating": "yes", "phone": "+34 932 25 86 97", "toilets": "yes", "toilets:access": "customers", "toilets:wheelchair": "designated", "website": "https://tapataparestaurant.com/", "wheelchair": "designated"}}, {"type": "node", "id": 2977289617, "lat": 41.3850931, "lon": 2.1805881, "tags": {"addr:city": "Barcelona", "addr:housenumber": "8", "addr:postcode": "08003", "addr:street": "Carrer de la Barra de Ferro", "amenity": "cafe", "check_date": "2024-07-02", "internet_access": "wlan", "name": "Cafe Bobe"}}, {"type": "node", "id": 2977296009, "lat": 41.3833614, "lon": 2.1828957, "tags": {"addr:housenumber": "8", "addr:street": "Pla de Palau", "amenity": "restaurant", "cuisine": "pizza", "name": "Al Passatore", "smoking": "isolated", "wheelchair": "yes"}}, {"type": "node", "id": 2977297774, "lat": 41.383426, "lon": 2.1832134, "tags": {"addr:housenumber": "11", "addr:street": "Pla de Palau", "air_conditioning": "yes", "amenity": "restaurant", "bar": "no", "branch": "Born", "brand": "Honest Greens", "brand:wikidata": "Q116859710", "changing_table": "yes", "check_date": "2024-07-20", "diet:vegan": "yes", "diet:vegetarian": "yes", "indoor_seating": "yes", "name": "Honest Greens", "opening_hours": "PH,Mo-Su 09:30-23:00", "payment:credit_cards": "yes", "payment:debit_cards": "yes", "self_service": "yes", "takeaway": "yes", "toilets:wheelchair": "yes", "website": "https://honestgreens.com/"}}, {"type": "node", "id": 3076807047, "lat": 41.3821116, "lon": 2.187671, "tags": {"addr:city": "Barcelona", "addr:housenumber": "1", "addr:postcode": "08003", "addr:street": "Carrer de Balboa", "amenity": "restaurant", "cuisine": "tapas", "name": "Bitacora", "phone": "+34933153588", "source": "business card"}}, {"type": "node", "id": 3079351580, "lat": 41.3754575, "lon": 2.1834919, "tags": {"amenity": "restaurant", "diet:gluten_free": "yes", "name": "Ginos"}}, {"type": "node", "id": 3084370508, "lat": 41.3863077, "lon": 2.1975017, "tags": {"addr:housenumber": "19-21", "addr:street": "Calle de la Marina", "amenity": "restaurant", "check_date": "2024-09-28", "diet:vegan": "limited", "diet:vegetarian": "yes", "indoor_seating": "yes", "name": "Marina Bay By Moncho's", "outdoor_seating": "yes", "phone": "+34932211514"}}, {"type": "node", "id": 3107541790, "lat": 41.3691463, "lon": 2.1899766, "tags": {"addr:city": "Barcelona", "addr:housenumber": "19-21", "addr:postcode": "08039", "addr:street": "Passeig Mare Nostrum", "amenity": "restaurant", "contact:email": "reservas.pezvela@grupotragaluz.com", "name": "Pez Vela Chiringuito", "phone": "+34932216317", "website": "https://grupotragaluz.com/restaurante/pez-vela/"}}, {"type": "node", "id": 3116632976, "lat": 41.3871078, "lon": 2.1792831, "tags": {"addr:city": "Barcelona", "addr:housenumber": "18", "addr:postcode": "08003", "addr:street": "Carrer de Gombau", "amenity": "restaurant", "name": "yPunt Bar"}}, {"type": "node", "id": 3126271608, "lat": 41.3804099, "lon": 2.1779709, "tags": {"addr:city": "Barcelona", "addr:housenumber": "3", "addr:postcode": "08002", "addr:street": "Carrer d'en Carabassa", "amenity": "restaurant", "cuisine": "regional", "name": "Afrodita", "opening_hours": "Mo-Su 12:30-23:30", "phone": "+34 936 24 18 53", "smoking": "outside", "website": "http://www.afroditarestaurant.com"}}, {"type": "node", "id": 3126378413, "lat": 41.3809552, "lon": 2.1783221, "tags": {"addr:city": "Barcelona", "addr:housenumber": "4", "addr:postcode": "08002", "addr:street": "Carrer de la Comtessa de Sobradiel", "amenity": "restaurant", "cuisine": "regional", "name": "La T\u00eate", "opening_hours": "Mo-Su 09:30-23:00", "phone": "+34 655 26 51 50", "smoking": "no"}}, {"type": "node", "id": 3126422361, "lat": 41.3798549, "lon": 2.1767194, "tags": {"addr:housenumber": "24", "addr:street": "Carrer dels Escudellers", "amenity": "restaurant", "delivery": "Mo,Th 19:00-23:00; Fr-Sa 13:00-16:00,19:30-23:00; Su 13:00-16:00", "email": "info@vianabcn.com", "internet_access": "wlan", "internet_access:fee": "no", "name": "Gran Viana", "name:en": "Gran Viana", "opening_hours": "Mo,We-Fr 18:00-23:30; Sa-Su 13:00-15:30,18:30-23:30", "opening_hours:kitchen": "18:00-24:00", "phone": "+34 933 48 55 94", "reservation": "recommended", "toilets": "yes", "toilets:access": "customers", "website": "https://www.vianabcn.com/", "wheelchair": "yes"}}, {"type": "node", "id": 3306298147, "lat": 41.3765661, "lon": 2.1894837, "tags": {"addr:city": "Barcelona", "addr:housenumber": "5", "addr:postcode": "08003", "addr:street": "Carrer del Judici", "amenity": "restaurant", "name": "Nass Restaurant", "phone": "+34 931193724", "website": "http://www.nassrestaurant.com"}}, {"type": "node", "id": 3326612257, "lat": 41.3851014, "lon": 2.1780191, "tags": {"addr:city": "Barcelona", "addr:housenumber": "3", "addr:street": "Carrer del Pare Gallifa", "amenity": "restaurant", "cuisine": "spanish", "name": "\u00c1valon restaurant", "website": "https://www.avalonrestaurant.es/"}}, {"type": "node", "id": 3326857954, "lat": 41.3798961, "lon": 2.1792406, "tags": {"addr:city": "Barcelona", "addr:housenumber": "19", "addr:postcode": "08002", "addr:street": "Carrer d'en Carabassa", "amenity": "restaurant", "cuisine": "japanese;ramen", "name": "KOKU KITCHEN", "website": "https://www.kokukitchen.es/"}}, {"type": "node", "id": 3328694166, "lat": 41.3867531, "lon": 2.1801142, "tags": {"amenity": "restaurant", "name": "el atril"}}, {"type": "node", "id": 3339670930, "lat": 41.3803265, "lon": 2.1774842, "tags": {"addr:housenumber": "46", "addr:street": "Carrer dels Escudellers", "amenity": "cafe", "cuisine": "tapas", "indoor_seating": "yes", "name": "Bahia", "name:ca": "Bahia", "outdoor_seating": "no"}}, {"type": "node", "id": 3350102469, "lat": 41.392498, "lon": 2.2046843, "tags": {"addr:housenumber": "40", "addr:street": "Passeig Mar\u00edtim del Bogatell", "amenity": "restaurant", "cuisine": "seafood", "name": "L'Escamarla", "operator": "Grupo Happy", "phone": "+34 932 211 366", "website": "https://happy.es/"}}, {"type": "node", "id": 3378386417, "lat": 41.3854015, "lon": 2.1819519, "tags": {"addr:city": "Barcelona", "addr:housenumber": "30", "addr:street": "Carrer dels Flassaders", "amenity": "restaurant", "diet:vegetarian": "yes", "name": "La B\u00e1scula", "phone": "+34 933199866"}}, {"type": "node", "id": 3393536159, "lat": 41.3712163, "lon": 2.1812689, "tags": {"addr:city": "Barcelona", "addr:postcode": "08039", "addr:province": "Barcelona", "addr:street": "Avinguda Moll de Barcelona", "amenity": "restaurant", "fixme": "revisar en persona si se llama international cafe", "internet_access": "wlan", "name": "Eat", "name:en": "Eat"}}, {"type": "node", "id": 3401473535, "lat": 41.3814264, "lon": 2.1831122, "tags": {"addr:city": "Barcelona", "addr:housenumber": "3", "addr:postcode": "08003", "addr:street": "Carrer de la Reina Cristina", "amenity": "restaurant", "cuisine": "spanish", "name": "Carballeira", "opening_hours": "Mo-Su 13:00-24:00", "website": "https://www.carballeira.com/"}}, {"type": "node", "id": 3439844694, "lat": 41.3861342, "lon": 2.1800813, "tags": {"amenity": "restaurant", "cuisine": "tapas", "name": "La Bona Sort"}}, {"type": "node", "id": 3443582494, "lat": 41.3841996, "lon": 2.1831308, "tags": {"addr:city": "Barcelona", "addr:housenumber": "10", "addr:postcode": "08003", "addr:street": "Carrer de l'Esparteria", "amenity": "restaurant", "cuisine": "tapas", "name": "Artesans", "url": "http://www.artesansbarcelona.com/"}}, {"type": "node", "id": 3476983495, "lat": 41.3861408, "lon": 2.1840991, "tags": {"addr:housenumber": "1", "addr:street": "Passatge Mercantil", "amenity": "restaurant", "cuisine": "seafood", "name": "Chao Pescao", "website": "https://chaopescaoseafood.com"}}, {"type": "node", "id": 3476983496, "lat": 41.3864386, "lon": 2.1831448, "tags": {"addr:city": "Barcelona", "addr:housenumber": "7", "addr:postcode": "08003", "addr:street": "Carrer de la Fusina", "amenity": "restaurant", "diet:gluten_free": "yes", "diet:vegan": "yes", "diet:vegetarian": "yes", "email": "info@llamber.com", "name": "Llamber", "opening_hours": "Mo-Su 13:00-00:00", "website": "https://llamber.com"}}, {"type": "node", "id": 3491481408, "lat": 41.385651, "lon": 2.180117, "tags": {"addr:city": "Barcelona", "amenity": "restaurant", "name": "La Cantonada", "name:ca": "La Cantonada", "source": "Local knowledge", "wheelchair": "limited"}}, {"type": "node", "id": 3504769718, "lat": 41.3907358, "lon": 2.1903752, "tags": {"addr:street": "Carrer de Ram\u00f3n Turr\u00f3", "amenity": "restaurant", "cuisine": "regional", "name": "Menssana", "opening_hours": "Mo-Su 09:30-23:30", "smoking": "no"}}, {"type": "node", "id": 3612047255, "lat": 41.3837923, "lon": 2.1786953, "tags": {"addr:housenumber": "5", "addr:postcode": "08002", "addr:street": "Pla\u00e7a de l'\u00c0ngel", "amenity": "cafe", "internet_access": "wlan", "name": "CappUKccino", "wheelchair": "limited"}}, {"type": "node", "id": 3612054150, "lat": 41.3807163, "lon": 2.1798299, "tags": {"addr:housenumber": "33 bis", "addr:postcode": "08002", "addr:street": "Carrer Ample", "amenity": "restaurant", "name": "El Callej\u00f3n", "phone": "+34 931742424"}}, {"type": "node", "id": 3612059307, "lat": 41.3869732, "lon": 2.1822156, "tags": {"addr:housenumber": "53", "addr:street": "Carrer de la Princesa", "amenity": "restaurant", "name": "El Foro", "opening_hours": "Mo-Th, Su 11:30-23:00, 09:00-18:00; Fr, Sa 12:30-23:00", "phone": "+34 933 10 10 20"}}, {"type": "node", "id": 3620986554, "lat": 41.3868061, "lon": 2.1808426, "tags": {"addr:city": "Barcelona", "addr:housenumber": "10", "addr:postcode": "08003", "addr:street": "Carrer d'Allada-Vermell", "amenity": "restaurant", "check_date": "2023-10-29", "cuisine": "japanese", "description": "Japanese food", "description:en": "Terrace compartible with bar 'Casa-Paco'.", "name": "Yamane", "outdoor_seating": "terrace", "outdoor_seating:description": "terrace at bar 'Casa_Paco'", "phone": "+34616527729", "takeaway": "yes", "website": "http://www.yamane-bcn.com"}}, {"type": "node", "id": 3650465501, "lat": 41.3776216, "lon": 2.1780111, "tags": {"addr:city": "Barcelona", "addr:housenumber": "19", "addr:postcode": "08002", "addr:street": "Carrer de Josep Anselm Clav\u00e9", "amenity": "restaurant", "capacity": "50", "cuisine": "mediterranean;international;tapas;burger", "description:en": "Best Cocktail, Vegetarian & Vegan food in the quarter...", "diet:vegan": "yes", "diet:vegetarian": "yes", "name": "Guru Bcn Food & Cocktails", "opening_hours": "Mo-Su 17:00-03:00", "phone": "+34 93 342 64 22", "smoking": "isolated", "takeaway": "yes"}}, {"type": "node", "id": 3700169311, "lat": 41.3765259, "lon": 2.1890771, "tags": {"amenity": "restaurant", "name": "Puda Can Manel"}}, {"type": "node", "id": 3761195248, "lat": 41.379183, "lon": 2.1892072, "tags": {"addr:postcode": "08003", "amenity": "restaurant", "contact:email": "hola@barlavioleta.com", "contact:phone": "+34 932 219 581", "description": "Bar de vinos naturales", "name": "La Violeta", "source": "survey 05-2022", "website": "https://aquilacarta.com/carta/AE529895950053A7090A970FB1A0692E"}}, {"type": "node", "id": 3777075876, "lat": 41.3821041, "lon": 2.1838988, "tags": {"addr:housenumber": "19", "addr:street": "Pla de Palau", "amenity": "restaurant", "check_date": "2024-07-20", "contact:instagram": "https://www.instagram.com/oaxacabcn", "contact:mobile": "+34679202040", "cuisine": "mexican", "email": "reserves@sagardi.com", "indoor_seating": "yes", "name": "Oaxaca", "operator": "Grup Sagardi", "outdoor_seating": "yes", "payment:cash": "yes", "payment:credit_cards": "yes", "payment:debit_cards": "yes", "phone": "+34 93 319 00 64", "website": "https://oaxacacuinamexicana.com/", "wheelchair": "yes"}}, {"type": "node", "id": 3785980168, "lat": 41.3811462, "lon": 2.1813152, "tags": {"addr:city": "Barcelona", "addr:housenumber": "6", "addr:postcode": "08002", "addr:street": "Pla\u00e7a d'Antonio L\u00f3pez", "amenity": "restaurant", "cuisine": "spanish", "name": "Bar Restaurant La casa de les Lletres", "opening_hours": "Su-Th 08:00-24:00; Fr 08:00-01:00", "phone": "+34 933 193723", "toilets:wheelchair": "no", "website": "http://www.lacasadeleslletres.com", "wheelchair": "limited", "wheelchair:description": "The terrace on Pla\u00e7a d'Antonio L\u00f3pez is wheelchair accessible, the inside of the restaurant is not."}}, {"type": "node", "id": 3786043157, "lat": 41.3811751, "lon": 2.1812291, "tags": {"addr:city": "Barcelona", "addr:housenumber": "7", "addr:postcode": "08002", "addr:street": "Pla\u00e7a d'Antonio L\u00f3pez", "amenity": "restaurant", "cuisine": "spanish", "name": "Cervecer\u00eda Vendimia", "opening_hours": "Su-Th 08:00-24:00; Fr 08:00-01:00", "toilets:wheelchair": "yes", "wheelchair": "yes"}}, {"type": "node", "id": 3815929006, "lat": 41.3802042, "lon": 2.189413, "tags": {"amenity": "restaurant", "name": "Caballa Canalla"}}, {"type": "node", "id": 3815929010, "lat": 41.3792983, "lon": 2.1891943, "tags": {"addr:housenumber": "56", "addr:street": "Carrer del Baluard", "amenity": "restaurant", "cuisine": "tapas", "name": "La Cova Fumada", "name:ca": "La Cova Fumada", "name:es": "La Cova Fumada", "opening_hours": "Mo-We 09:00-15:15; Th-Fr 09:00-15:15, 18:00-20:15; Sa 09:00-13:00", "phone": "+34 932 21 40 61", "wikidata": "Q118765953", "wikipedia": "ca:La Cova Fumada"}}, {"type": "node", "id": 3815929012, "lat": 41.3823222, "lon": 2.181995, "tags": {"addr:housenumber": "23", "addr:postcode": "08003", "addr:street": "Carrer del Consolat de Mar", "alt_name": "luisvins", "amenity": "restaurant", "cuisine": "spanish", "name": "Luis Vins"}}, {"type": "node", "id": 3901403358, "lat": 41.3866097, "lon": 2.1802613, "tags": {"addr:housenumber": "22", "addr:street": "Calle Carders", "amenity": "restaurant", "description": "Pizza restaurant and takeaway", "indoor_seating": "yes", "name": "Les Dues Sicilies", "opening_hours": "Mo-Su 09:00-00:00", "outdoor_seating": "no"}}, {"type": "node", "id": 3961174416, "lat": 41.385788, "lon": 2.1970425}, {"type": "node", "id": 3961174417, "lat": 41.3857501, "lon": 2.1970935}, {"type": "node", "id": 3961174418, "lat": 41.3857101, "lon": 2.1970405}, {"type": "node", "id": 3961174419, "lat": 41.385748, "lon": 2.1969896}, {"type": "node", "id": 4001010203, "lat": 41.3850046, "lon": 2.1786227, "tags": {"addr:city": "Barcelona", "addr:housenumber": "10", "addr:postcode": "08003", "addr:street": "Carrer de Mercaders", "amenity": "restaurant", "cuisine": "regional;mediterranean;spanish;catalan;beef;meat;fish;special_ocasions;lunch;tasting_menu", "name": "Arcano Restaurant Barcelona", "opening_hours": "Mo-Su 13:00-17:00 18:30-23:00", "phone": "+34 93 295 64 67", "takeaway": "no", "website": "https://arcanobarcelona.com"}}, {"type": "node", "id": 4025265804, "lat": 41.381234, "lon": 2.1780994, "tags": {"addr:housenumber": "5", "addr:postcode": "08002", "addr:street": "Carrer de Palau", "amenity": "restaurant", "cuisine": "regional;fine_dining", "diet:gluten_free": "yes", "diet:vegan": "only", "diet:vegetarian": "only", "name": "Rasoterra", "opening_hours": "We-Su 13:00-16:00,19:00-23:00", "phone": "+34 933186926", "website": "https://www.rasoterra.cat/"}}, {"type": "node", "id": 4068052629, "lat": 41.3869654, "lon": 2.1761111, "tags": {"addr:city": "Barcelona", "addr:housenumber": "4", "addr:postcode": "08003", "addr:street": "Carrer de Verdaguer i Call\u00eds", "amenity": "restaurant", "check_date": "2023-06-25", "cuisine": "italian", "name": "Le Cucine Mandarosso", "opening_hours": "Tu-Sa 13:30-16:00, 21:00-00:00; Su 13:30-16:30, 21:00-00:00", "phone": "+34932690780", "website": "http://www.lecucinemandarosso.com/"}}, {"type": "node", "id": 4070066903, "lat": 41.3795415, "lon": 2.1882532, "tags": {"amenity": "restaurant", "name": "Can Ganassa", "name:ca": "Can Ganassa"}}, {"type": "node", "id": 4077861461, "lat": 41.3850168, "lon": 2.1962905}, {"type": "node", "id": 4077861462, "lat": 41.3849855, "lon": 2.1963277}, {"type": "node", "id": 4077861463, "lat": 41.3849329, "lon": 2.1962488}, {"type": "node", "id": 4077861464, "lat": 41.3849643, "lon": 2.1962117}, {"type": "node", "id": 4098019692, "lat": 41.385736, "lon": 2.1823309, "tags": {"addr:housenumber": "18", "addr:postcode": "08003", "addr:street": "Carrer del Rec", "amenity": "restaurant", "name": "DIECI8", "old_name": "Pim Pam Burger", "wheelchair": "limited"}}, {"type": "node", "id": 4101996853, "lat": 41.3835968, "lon": 2.1812069, "tags": {"addr:housenumber": "61-63", "addr:street": "Carrer de l'Argenteria", "amenity": "cafe", "cuisine": "american", "name": "Cafe-bar Xador"}}, {"type": "node", "id": 4137545492, "lat": 41.3772889, "lon": 2.1891745, "tags": {"addr:housenumber": "5", "addr:street": "Carrer de l'Almirall Aixada", "amenity": "restaurant", "cuisine": "tapas", "diet:vegetarian": "no", "name": "Bar Cal Chusco", "opening_hours": "Fr-We 08:30-20:30", "phone": "+34 637 01 00 10"}}, {"type": "node", "id": 4137545789, "lat": 41.3905438, "lon": 2.1791837, "tags": {"addr:housenumber": "6", "addr:street": "Passatge de Sant Benet", "amenity": "cafe", "name": "True Artisan Cafe", "opening_hours": "Tu-Fr 09:00-18:00; Sa 10:00-19:00"}}, {"type": "node", "id": 4137545790, "lat": 41.3845278, "lon": 2.1819636, "tags": {"addr:city": "Barcelona", "addr:housenumber": "1", "addr:postcode": "08003", "addr:street": "Placeta de Montcada", "amenity": "restaurant", "check_date": "2024-07-20", "cuisine": "tapas", "name": "Euskal Etxea Taberna", "opening_hours": "Su-Th 10:00-00:30; Fr-Sa 10:00-01:00", "phone": "+34 933 102 185"}}, {"type": "node", "id": 4137545989, "lat": 41.3845835, "lon": 2.1817692, "tags": {"addr:housenumber": "29", "addr:street": "Carrer de Montcada", "amenity": "restaurant", "cuisine": "tapas", "name": "Tapeo", "opening_hours": "Mo-Su 12:00-24:00", "phone": "+34 933 10 16 07", "website": "http://www.tapeoborn.cat/"}}, {"type": "node", "id": 4138815989, "lat": 41.3889108, "lon": 2.1771731, "tags": {"addr:city": "Barcelona", "addr:housenumber": "12", "addr:postcode": "08003", "addr:street": "Passatge de Sert", "amenity": "cafe", "internet_access": "no", "name": "N\u00f8mad C\u00f8ffee", "opening_hours": "Mo-Fr 08:30-17:30", "outdoor_seating": "no", "phone": "+34 628 56 62 35", "source": "http://nomadcoffee.es/contacto/", "website": "https://nomadcoffee.es/"}}, {"type": "node", "id": 4147476639, "lat": 41.3769755, "lon": 2.1888209, "tags": {"addr:housenumber": "55", "addr:street": "Passeig de Joan de Borb\u00f3", "amenity": "cafe", "name": "Vioko", "name:ru": "\u041a\u0430\u0444\u0435 \u043c\u043e\u0440\u043e\u0436\u0435\u043d\u043d\u043e\u0435", "wheelchair": "limited"}}, {"type": "node", "id": 4149862954, "lat": 41.3801339, "lon": 2.1796136, "tags": {"addr:housenumber": "27", "addr:postcode": "08002", "addr:street": "Carrer Ample", "amenity": "restaurant", "name": "Forneria Tiana", "name:ca": "Forneria Tiana", "shop": "bakery"}}, {"type": "node", "id": 4159247203, "lat": 41.3780531, "lon": 2.1778033, "tags": {"addr:housenumber": "11", "addr:postcode": "08002", "addr:street": "Passatge de la Pau", "amenity": "restaurant", "email": "barcelonagotic@federalcafe.es", "internet_access": "wlan", "name": "Federal", "opening_hours": "Mo-Th 09:00-23:00; Fr-Sa 09:00-24:00; Su 09:00-17:00", "phone": "+34 932808171", "website": "https://federalcafe.es/"}}, {"type": "node", "id": 4159503892, "lat": 41.3858734, "lon": 2.1826027, "tags": {"amenity": "restaurant", "cuisine": "tapas", "name": "Bormuth", "name:ca": "Bormuth", "wheelchair": "no"}}, {"type": "node", "id": 4172828897, "lat": 41.3813653, "lon": 2.1774484, "tags": {"addr:housenumber": "7", "addr:postcode": "08002", "addr:street": "Carrer de Cervantes", "amenity": "restaurant", "cuisine": "regional", "name": "Cervantes", "name:ca": "Cervantes"}}, {"type": "node", "id": 4190903489, "lat": 41.3897918, "lon": 2.1797847, "tags": {"addr:housenumber": "11", "addr:street": "Carrer del Rec Comtal", "amenity": "restaurant", "name": "Elsa y Fred", "opening_hours": "Mo-Fr 08:30-01:30; Sa-Su 09:00-01:30"}}, {"type": "node", "id": 4190947692, "lat": 41.3772889, "lon": 2.1891745, "tags": {"addr:housenumber": "5", "addr:street": "Carrer de l'Almirall Aixada", "amenity": "restaurant", "diet:vegetarian": "no", "name": "Bar Cal Chusco", "opening_hours": "Fr-We 08:30-20:30"}}, {"type": "node", "id": 4215643189, "lat": 41.3857566, "lon": 2.1783217, "tags": {"amenity": "cafe", "name": "Blau", "name:ca": "Blau"}}, {"type": "node", "id": 4215909090, "lat": 41.3873922, "lon": 2.1756251, "tags": {"addr:housenumber": "8", "addr:street": "Carrer de Sant Pere M\u00e9s Alt", "amenity": "restaurant", "name": "Tosca Tapas y Vino", "opening_hours": "Mo-Su 09:00-01:30", "phone": "+34 933 15 10 72", "toilets:wheelchair": "yes", "website": "http://www.toscabarcelona.com", "wheelchair": "yes"}}, {"type": "node", "id": 4221429313, "lat": 41.3803396, "lon": 2.1800186, "tags": {"addr:city": "Barcelona", "addr:housenumber": "26", "addr:postcode": "08002", "addr:street": "Carrer Ample", "amenity": "restaurant", "cuisine": "french;mediterranean", "name": "La Dentelli\u00e8re", "opening_hours": "We-Mo 19:00-24:00", "phone": "+34 933 19 68 21", "website": "https://www.ladentellierebarcelona.com/"}}, {"type": "node", "id": 4225945025, "lat": 41.3906361, "lon": 2.1790875, "tags": {"addr:city": "Barcelona", "addr:housenumber": "74", "addr:postcode": "08010", "addr:street": "Carrer de Trafalgar", "amenity": "restaurant", "name": "Sr. Ceviche"}}, {"type": "node", "id": 4226760647, "lat": 41.379825, "lon": 2.1764897, "tags": {"addr:housenumber": "33", "addr:street": "Carrer dels Escudellers", "amenity": "restaurant", "cuisine": "paella;seafood", "indoor_seating": "yes", "name": "Colom", "name:ca": "Colom", "outdoor_seating": "no"}}, {"type": "node", "id": 4228932689, "lat": 41.3824268, "lon": 2.1933587}, {"type": "node", "id": 4228932690, "lat": 41.3824652, "lon": 2.1932852}, {"type": "node", "id": 4228932691, "lat": 41.3824452, "lon": 2.1932667}, {"type": "node", "id": 4228932692, "lat": 41.3824068, "lon": 2.1933401}, {"type": "node", "id": 4232017993, "lat": 41.3866752, "lon": 2.1823685, "tags": {"addr:housenumber": "50", "addr:postcode": "08003", "addr:street": "Carrer de la Princesa", "amenity": "restaurant", "cuisine": "spanish;seafood;mediterranean;tapas", "name": "Bar Celta Pulperia", "opening_hours": "Mo-Su 08:30-00:00", "phone": "+34933151510", "website": "http://www.barcelta.com/"}}, {"type": "node", "id": 4232426779, "lat": 41.3878228, "lon": 2.1933186}, {"type": "node", "id": 4232426780, "lat": 41.3878309, "lon": 2.1932978}, {"type": "node", "id": 4232426781, "lat": 41.3877333, "lon": 2.1932374}, {"type": "node", "id": 4232426782, "lat": 41.3877268, "lon": 2.1932575}, {"type": "node", "id": 4233959493, "lat": 41.3795042, "lon": 2.1792309, "tags": {"addr:housenumber": "15", "addr:postcode": "08002", "addr:street": "Carrer Ample", "amenity": "cafe", "indoor_seating": "yes", "internet_access": "wlan", "name": "Pastisseria Granja", "name:ca": "Pastisseria Granja", "outdoor_seating": "yes"}}, {"type": "node", "id": 4241344690, "lat": 41.3798048, "lon": 2.1877357, "tags": {"amenity": "restaurant", "name": "Port Vell"}}, {"type": "node", "id": 4247196393, "lat": 41.3791754, "lon": 2.1898206, "tags": {"amenity": "restaurant", "name": "Casa Ricardo"}}, {"type": "node", "id": 4248379695, "lat": 41.3800996, "lon": 2.1767848, "tags": {"addr:housenumber": "47", "addr:street": "Carrer dels Escudellers", "amenity": "restaurant", "name": "Pasta bar"}}, {"type": "node", "id": 4252286271, "lat": 41.3857337, "lon": 2.1822011, "tags": {"amenity": "restaurant", "name": "Mercat Princesa", "name:ca": "Mercat Princesa"}}, {"type": "node", "id": 4254043290, "lat": 41.3762335, "lon": 2.1891166, "tags": {"amenity": "restaurant", "name": "Vicino pizza bar"}}, {"type": "node", "id": 4254716602, "lat": 41.3911175, "lon": 2.1897833, "tags": {"amenity": "restaurant", "check_date": "2023-10-10", "cuisine": "asian;spanish;regional", "diet:vegetarian": "yes", "name": "Casa de Lina", "payment:mastercard": "yes", "payment:visa": "yes"}}, {"type": "node", "id": 4254719919, "lat": 41.3915479, "lon": 2.1887873, "tags": {"amenity": "cafe", "name": "Ivin"}}, {"type": "node", "id": 4254721225, "lat": 41.3917707, "lon": 2.1889144, "tags": {"amenity": "cafe", "name": "Dulce Parque"}}, {"type": "node", "id": 4254742420, "lat": 41.3837691, "lon": 2.1800743, "tags": {"addr:housenumber": "37", "addr:postcode": "08003", "addr:street": "Carrer de l'Argenteria", "amenity": "restaurant", "cuisine": "regional", "email": "fonda@senyorparellada.com", "name": "Senyor Parellada", "name:ca": "Carmina", "phone": "+34 933 10 5094", "website": "https://carminarestaurante.com/"}}, {"type": "node", "id": 4270124378, "lat": 41.3835525, "lon": 2.1825506, "tags": {"addr:city": "Barcelona", "addr:housenumber": "4B", "addr:postcode": "08003", "addr:street": "Pla\u00e7a del Fossar de les Moreres", "amenity": "restaurant", "check_date": "2023-10-29", "contact:phone": "+34930177256", "contact:website": "https://www.restaurantvegetalia.com/", "description": "Vegetarian Restaurant", "diet:gluten_free": "yes", "diet:vegan": "yes", "diet:vegetarian": "only", "name": "Vegetalia", "opening_hours": "Mo-Su 11:00-23:30", "toilets:wheelchair": "yes", "wheelchair": "yes", "wheelchair:description": "Bon resto v\u00e9g\u00e9tarien, plut\u00f4t bon march\u00e9 pour le quartier. Les tables sont peut-\u00eatre un peu serr\u00e9es entre elles mais pas de probl\u00e8mes pour les faire d\u00e9placer."}}, {"type": "node", "id": 4275254890, "lat": 41.3757035, "lon": 2.1828939, "tags": {"amenity": "restaurant", "name": "Udon"}}, {"type": "node", "id": 4278033118, "lat": 41.3881559, "lon": 2.1806616, "tags": {"addr:city": "Barcelona", "addr:housenumber": "10", "addr:postcode": "08003", "addr:street": "Pla\u00e7a de Sant Agust\u00ed Vell", "amenity": "restaurant", "contact:email": "enjoyvegetariano@gmail.com", "contact:mobile": "+34 635 849 199", "contact:phone": "+34 931 426 386", "contact:website": "http://www.comidavegetarianabarcelona.com/", "cuisine": "tapas;pizza", "diet:vegan": "only", "diet:vegetarian": "only", "name": "Enjoy Vegan", "opening_hours": "Mo-Fr 11:00-23:30; Sa-Su 11:00-22:30", "takeaway": "yes"}}, {"type": "node", "id": 4278204689, "lat": 41.3887421, "lon": 2.1806512, "tags": {"addr:housenumber": "23", "addr:street": "Carrer del Portal Nou", "amenity": "cafe", "name": "Pony Cafe"}}, {"type": "node", "id": 4294672648, "lat": 41.3872671, "lon": 2.1977129, "tags": {"addr:housenumber": "16", "addr:street": "Carrer de la Marina", "amenity": "restaurant", "description": "Chicken restaurant in front of the sea", "name": "Chicken bar", "opening_hours": "Mo-Su 12:00-01:00", "phone": "+34932213883", "website": "https://chickenbar.es/"}}, {"type": "node", "id": 4300565590, "lat": 41.3908121, "lon": 2.1800057, "tags": {"addr:housenumber": "19", "addr:street": "Passeig de Llu\u00eds Companys", "amenity": "restaurant", "check_date": "2023-10-10", "cuisine": "japanese", "name": "Maguro"}}, {"type": "node", "id": 4307593994, "lat": 41.3879608, "lon": 2.1803902, "tags": {"addr:street": "Pla\u00e7a de Sant Agust\u00ed Vell", "amenity": "restaurant", "name": "Joanet & sant augustini"}}, {"type": "node", "id": 4321293789, "lat": 41.3768604, "lon": 2.1899727, "tags": {"addr:city": "Barcelona", "addr:housenumber": "70", "addr:postcode": "08003", "addr:street": "Carrer de Sevilla", "amenity": "restaurant", "cuisine": "spanish;local", "diet:raw": "yes", "diet:vegan": "only", "name": "Bar Celoneta Sangria Bar", "opening_hours": "Mo 19:00-23:00; We-Th 13:00-15:30, 19:00-23:30; Fr 13:00-15:30, 19:00-24:00; Sa 13:00-24:00; Su 13:00-20:00", "organic": "yes", "phone": "+34 931 722 280", "website": "http://www.bar-celoneta.es/"}}, {"type": "node", "id": 4322554496, "lat": 41.3917842, "lon": 2.1862048, "tags": {"amenity": "restaurant", "cuisine": "gallega", "name": "Taberna Gallega"}}, {"type": "node", "id": 4326842393, "lat": 41.3865283, "lon": 2.1799001, "tags": {"amenity": "restaurant", "name": "Alsur", "opening_hours": "Mo-We 11:15-00:30; Th 11:15-01:30; Fr 11:15-02:30; Sa 10:00-02:30; Su 10:00-00:30"}}, {"type": "node", "id": 4333903390, "lat": 41.3842142, "lon": 2.1843426, "tags": {"amenity": "restaurant", "name": "Ten's tapas restaurant", "toilets:wheelchair": "yes", "wheelchair": "yes"}}, {"type": "node", "id": 4341830390, "lat": 41.3817513, "lon": 2.1769976, "tags": {"addr:housenumber": "2Bis", "addr:postcode": "08002", "addr:street": "Carrer del Pas de l'Ensenyan\u00e7a", "amenity": "restaurant", "name": "El Beso y La Lluna"}}, {"type": "node", "id": 4345179289, "lat": 41.3774686, "lon": 2.1908362, "tags": {"addr:housenumber": "22", "addr:postcode": "08003", "addr:street": "Carrer de l'Almirall Aixada", "amenity": "restaurant", "cuisine": "burger;sandwich", "internet_access": "wlan", "name": "Surf House Barcelona", "phone": "+34 932507023", "website": "http://www.surfhousebarcelona.com"}}, {"type": "node", "id": 4346058258, "lat": 41.3819459, "lon": 2.1875804, "tags": {"amenity": "restaurant", "name": "La Tasqueta 1800"}}, {"type": "node", "id": 4349925690, "lat": 41.3810051, "lon": 2.1772158, "tags": {"addr:housenumber": "1", "addr:postcode": "08002", "addr:street": "Carrer de Cervantes", "amenity": "cafe", "name": "Nemrut"}}, {"type": "node", "id": 4350019284, "lat": 41.3808122, "lon": 2.1772701, "tags": {"amenity": "restaurant", "name": "Palosanto", "wikidata": "Q21903353", "wikimedia_commons": "Category:Casa dels Quatre Rius", "wikipedia": "ca:Casa dels Quatre Rius"}}, {"type": "node", "id": 4359183899, "lat": 41.3793286, "lon": 2.1891827, "tags": {"addr:housenumber": "54", "addr:street": "Carrer del Baluard", "amenity": "cafe", "name": "K\u00e9=?", "name:es": "K\u00e9=?"}}, {"type": "node", "id": 4374244822, "lat": 41.3935502, "lon": 2.205339, "tags": {"addr:housenumber": "62", "addr:postcode": "08005", "addr:street": "Avinguda del Litoral", "amenity": "restaurant", "cuisine": "mediterranean", "name": "Escrib\u00e0", "name:en": "Xiringuito Escriba", "opening_hours": "Mo-Su 12:00-00:00", "phone": "+34 932 210 729", "website": "https://www.xiringuitoescriba.com/"}}, {"type": "node", "id": 4374244854, "lat": 41.3916487, "lon": 2.2034829, "tags": {"amenity": "restaurant", "check_date": "2023-12-25", "name": "Xiroi"}}, {"type": "node", "id": 4374245300, "lat": 41.3911095, "lon": 2.2020613, "tags": {"amenity": "restaurant", "check_date": "2024-10-13", "cuisine": "regional;seafood", "name": "Chiringuito Las Sardinitas", "operator": "Moncho's"}}, {"type": "node", "id": 4384817989, "lat": 41.3802646, "lon": 2.1887984, "tags": {"addr:housenumber": "34", "addr:postcode": "08003", "addr:street": "Carrer del Baluard", "amenity": "restaurant", "check_date": "2024-08-15", "cuisine": "italian;pizza", "name": "Pulcinella pasta e pizza", "phone": "+34 931 787 381", "website": "https://pulcinellabcn.my.canva.site"}}, {"type": "node", "id": 4386702690, "lat": 41.3880129, "lon": 2.1810961, "tags": {"amenity": "restaurant", "indoor_seating": "yes", "name": "Red Ant Noodle Bar", "name:es": "Red Ant Noodle Bar", "outdoor_seating": "no"}}, {"type": "node", "id": 4386728790, "lat": 41.3856176, "lon": 2.177588, "tags": {"addr:housenumber": "28", "addr:postcode": "08003", "addr:street": "Carrer de Mercaders", "amenity": "restaurant", "cuisine": "mediterranean", "name": "Fa Patxoca"}}, {"type": "node", "id": 4387192390, "lat": 41.3825826, "lon": 2.1822817, "tags": {"amenity": "restaurant", "name": "Pisa Morena", "name:es": "Pisa Morena"}}, {"type": "node", "id": 4391707691, "lat": 41.3922258, "lon": 2.198576, "tags": {"amenity": "cafe"}}, {"type": "node", "id": 4393925492, "lat": 41.3918921, "lon": 2.1909106, "tags": {"amenity": "restaurant", "name": "Urretxu", "name:es": "Urretxu", "opening_hours:covid19": "off"}}, {"type": "node", "id": 4396244190, "lat": 41.3891657, "lon": 2.1969678, "tags": {"addr:housenumber": "31-35", "addr:street": "Carrer de Salvador Espriu", "amenity": "restaurant", "name": "Fresc Co", "name:es": "Fresc Co", "outdoor_seating": "yes", "phone": "+34 932219038", "takeaway": "yes", "website": "http://www.frescco.com"}}, {"type": "node", "id": 4397298984, "lat": 41.3878475, "lon": 2.182336, "tags": {"amenity": "restaurant", "name": "Dans Le Noir Barcelona", "website": "https://barcelona.danslenoir.com/"}}, {"type": "node", "id": 4407251389, "lat": 41.3787692, "lon": 2.1910583, "tags": {"addr:housenumber": "31", "addr:postcode": "08003", "addr:street": "Carrer de l'Almirall Cervera", "amenity": "restaurant", "cuisine": "turkish", "name": "Luna de Istanbul", "old_name": "Mar Brava"}}, {"type": "node", "id": 4407259289, "lat": 41.3812277, "lon": 2.1902148, "tags": {"addr:street": "carrer de la maquinista", "amenity": "restaurant", "cuisine": "pizza;italian_pizza", "internet_access": "wlan", "name": "Buon Appetito", "name:es": "Buon Appetito", "phone": "+34 932684016"}}, {"type": "node", "id": 4407815502, "lat": 41.3846737, "lon": 2.1795101, "tags": {"amenity": "restaurant", "check_date": "2023-08-29", "cuisine": "spanish", "internet_access": "wlan", "name": "txirimiri", "name:en": "txirimiri", "name:es": "txirimiri"}}, {"type": "node", "id": 4412613789, "lat": 41.3810436, "lon": 2.1800329, "tags": {"addr:housenumber": "26", "addr:postcode": "08002", "addr:street": "Carrer del Regomir", "amenity": "restaurant", "cuisine": "tapas", "name": "El Tropez\u00f3n"}}, {"type": "node", "id": 4439412389, "lat": 41.3832546, "lon": 2.1818655, "tags": {"addr:housenumber": "5", "addr:postcode": "08003", "addr:street": "Pla\u00e7a de Santa Maria", "amenity": "restaurant", "indoor_seating": "yes", "name": "La Vinya del Senyor", "name:ca": "La Vinya del Senyor", "outdoor_seating": "yes", "phone": "+34 933 10 33 79", "website": "https://lavinyadelsenyor.es/"}}, {"type": "node", "id": 4440352791, "lat": 41.3807532, "lon": 2.1853211, "tags": {"addr:city": "Barcelona", "addr:housenumber": "1", "addr:postcode": "08039", "addr:street": "Pla\u00e7a de Pau Vila", "amenity": "restaurant", "cuisine": "mediterranean;seafood", "diet:gluten_free": "yes", "diet:lactose_free": "yes", "email": "reservas@lagavina.es", "indoor_seating": "yes", "name": "La Gavina", "name:ca": "La Gavina", "opening_hours": "Mo-Su 12:00-22:30", "outdoor_seating": "yes", "phone": "+34 932 21 05 95", "website": "https://lagavina.es/", "wheelchair": "yes"}}, {"type": "node", "id": 4442156890, "lat": 41.3820722, "lon": 2.1795271, "tags": {"addr:housenumber": "3", "addr:postcode": "08002", "addr:street": "Pla\u00e7a dels Traginers", "amenity": "restaurant", "name": "L'Antic Bocoi del G\u00f2tic", "wikidata": "Q81100738", "wikimedia_commons": "Category:Baixada Viladecols 3"}}, {"type": "node", "id": 4443972190, "lat": 41.3885281, "lon": 2.1813229, "tags": {"addr:housenumber": "24", "addr:street": "Carrer del Comer\u00e7", "amenity": "restaurant", "name": "comert\u00e7 24", "name:es": "comert\u00e7 24"}}, {"type": "node", "id": 4449224228, "lat": 41.376969, "lon": 2.1906382, "tags": {"amenity": "restaurant", "name": "TapaTapa Xiringuito"}}, {"type": "node", "id": 4457189290, "lat": 41.3802366, "lon": 2.1878011, "tags": {"addr:housenumber": "29", "addr:postcode": "08003", "addr:street": "Carrer del Mar", "amenity": "restaurant", "name": "Bodega La Peninsular", "name:ca": "Bodega La Peninsular", "name:en": "Bodega La Peninsular", "name:es": "Bodega La Peninsular", "name:ro": "Bodega La Peninsular", "phone": "+34 932 21 40 89", "website": "http://www.tabernaycafetin.es"}}, {"type": "node", "id": 4459666392, "lat": 41.3846669, "lon": 2.1794746, "tags": {"amenity": "restaurant", "check_date": "2023-08-29", "name": "Txirimiri", "name:tr": "tximiri"}}, {"type": "node", "id": 4461808419, "lat": 41.3851342, "lon": 2.1793056, "tags": {"addr:housenumber": "9", "addr:postcode": "08003", "addr:street": "Pla\u00e7a de la Llana", "amenity": "restaurant", "cuisine": "japanese", "name": "Grasshopper", "opening_hours": "Tu-Su 13:00-23:30", "phone": "+34 93 017 84 84", "smoking": "no", "website": "https://www.mosquitotapas.com/grasshopper/cat"}}, {"type": "node", "id": 4463537689, "lat": 41.378983, "lon": 2.1883542, "tags": {"amenity": "restaurant", "name": "Can Sol\u00e9", "name:es": "Can Sol\u00e9"}}, {"type": "node", "id": 4467840190, "lat": 41.3778087, "lon": 2.1911969, "tags": {"addr:housenumber": "52-54", "addr:postcode": "08003", "addr:street": "Carrer Vila Joiosa", "amenity": "restaurant", "email": "info@elpacifico.es", "internet_access": "wlan", "name": "El Pac\u00edfico", "phone": "+34935257164", "website": "http://elpacifico.es"}}, {"type": "node", "id": 4470091161, "lat": 41.380947, "lon": 2.1799439, "tags": {"addr:city": "Barcelona", "addr:housenumber": "16", "addr:postcode": "08002", "addr:street": "Carrer d'en Gign\u00e0s", "amenity": "restaurant", "name": "Agut", "phone": "+34933151709", "website": "http://www.restaurantagut.com/"}}, {"type": "node", "id": 4470509689, "lat": 41.384149, "lon": 2.1816649, "tags": {"addr:housenumber": "3", "addr:postcode": "08003", "addr:street": "Carrer de Sant Antoni dels Sombrerers", "amenity": "restaurant", "name": "Estimar"}}, {"type": "node", "id": 4511513890, "lat": 41.3787095, "lon": 2.177738, "tags": {"amenity": "cafe", "name:en": "Remedy"}}, {"type": "node", "id": 4529902289, "lat": 41.3886411, "lon": 2.1812605, "tags": {"addr:housenumber": "20", "addr:street": "Carrer del Comer\u00e7", "amenity": "restaurant", "name": "Laksa", "name:es": "Laksa"}}, {"type": "node", "id": 4582173789, "lat": 41.3810054, "lon": 2.1936373, "tags": {"amenity": "restaurant", "name": "Sal Caf\u00e9", "name:es": "Sal Caf\u00e9"}}, {"type": "node", "id": 4599931999, "lat": 41.3802184, "lon": 2.1771592, "tags": {"amenity": "restaurant", "name": "Victor\u2018s", "toilets:wheelchair": "yes", "wheelchair": "limited"}}, {"type": "node", "id": 4602957463, "lat": 41.3861633, "lon": 2.1813225, "tags": {"addr:city": "Barcelona", "addr:housenumber": "41", "addr:postcode": "08003", "addr:street": "Carrer de la Princesa", "amenity": "cafe", "cuisine": "japanese", "description": "Homemade Japanese Sweets Collection snacks from Japan Vintage Japanese Fair", "internet_access": "no", "name": "Otafuku Daifuku", "opening_hours": "16:00-19:00", "outdoor_seating": "no"}}, {"type": "node", "id": 4607906137, "lat": 41.3870833, "lon": 2.1776131, "tags": {"amenity": "cafe", "name": "Sanz Bar"}}, {"type": "node", "id": 4667580289, "lat": 41.3790441, "lon": 2.1919022, "tags": {"addr:housenumber": "1", "addr:street": "Passeig Mar\u00edtim de la Barceloneta", "amenity": "restaurant", "name": "Barraca", "name:ca": "Barraca"}}, {"type": "node", "id": 4667802489, "lat": 41.3810196, "lon": 2.1809626, "tags": {"addr:city": "Barcelona", "addr:housenumber": "29", "addr:postcode": "08002", "addr:street": "Carrer de la Merc\u00e8", "amenity": "restaurant", "cuisine": "burger", "diet:vegan": "only", "drink:craft_beer": "yes", "name": "CatBar", "old_name": "Belmonte", "opening_hours": "Tu,We 19:00-23:00; Th 13:00-16:00,18:30-23:00; Fr 14:00-23:00; Sa 13:00-23:00; Su 12:45-16:00; Mo off", "phone": "+34 931 294274", "website": "https://catbarcat.wixsite.com/menu"}}, {"type": "node", "id": 4693342892, "lat": 41.3813942, "lon": 2.1801802, "tags": {"addr:housenumber": "23", "addr:postcode": "08002", "addr:street": "Carrer d'en Gign\u00e0s", "amenity": "restaurant", "cuisine": "spanish", "name": "B\u00e9n\u00e9dict", "name:ca": "The Benedict", "name:de": "The Benedict", "name:en": "The Benedict", "name:es": "The Benedict", "opening_hours": "Mo-Fr 09:00-01:00; Sa 18:00-01:00", "phone": "+34933151504", "website": "https://www.benedictbcn.com/"}}, {"type": "node", "id": 4707104899, "lat": 41.3830101, "lon": 2.1948645, "tags": {"addr:city": "Barcelona", "addr:housenumber": "55", "addr:postcode": "08003", "addr:street": "Passeig Mar\u00edtim de la Barceloneta", "amenity": "restaurant", "cuisine": "fish;mediterranean", "email": "info@restaurantcalanuri.com", "name": "Ca la Nuri", "phone": "+34 932213775", "website": "https://restaurantcalanuri.com/"}}, {"type": "node", "id": 4708119889, "lat": 41.3805038, "lon": 2.1794005, "tags": {"addr:housenumber": "3", "addr:postcode": "08002", "addr:street": "Gign\u00e0s", "amenity": "restaurant", "cuisine": "japanese", "name": "Ramen Shop", "phone": "+34931157884"}}, {"type": "node", "id": 4711505278, "lat": 41.3821642, "lon": 2.1905844, "tags": {"addr:postcode": "08003", "amenity": "restaurant", "name": "Red Lobster", "opening_hours": "Mo-Sa 10:00-21:00", "website": "http://rebloster.com"}}, {"type": "node", "id": 4711659235, "lat": 41.3888056, "lon": 2.1771897, "tags": {"addr:city": "Barcelona", "addr:housenumber": "49", "addr:street": "Carrer de Sant Pere M\u00e9s Alt", "amenity": "restaurant", "check_date": "2024-01-14", "cuisine": "regional", "email": "hola@casalolea.com", "name": "Casa Lolea", "opening_hours": "Mo-Su 09:00-01:00", "opening_hours:kitchen": "12:00-24:00", "outdoor_seating": "no", "phone": "+34936241016", "source": "http://casalolea.com/reservations/?lang=en", "toilets:wheelchair": "yes", "website": "http://casalolea.com/", "wheelchair": "yes"}}, {"type": "node", "id": 4726582894, "lat": 41.3862071, "lon": 2.1793039, "tags": {"amenity": "cafe", "indoor_seating": "yes", "name": "Catalina Cafe", "name:es": "Catalina Cafe", "outdoor_seating": "yes"}}, {"type": "node", "id": 4726583199, "lat": 41.3866625, "lon": 2.178509, "tags": {"amenity": "cafe", "name": "Vivari", "name:ca": "Vivari", "opening_hours": "PH,Mo-Su 09:00-22:00"}}, {"type": "node", "id": 4730855012, "lat": 41.3810908, "lon": 2.1857114, "tags": {"addr:city": "Barcelona", "addr:housenumber": "1", "addr:postcode": "08039", "addr:street": "Pla\u00e7a de Pau Vila", "amenity": "restaurant", "name": "Port Bay", "opening_hours": "Mo-Th 07:30-23:30, Fr 07:30-01:00, Sa 09:00-01:00, Su 09:00-23:30", "wheelchair": "yes"}}, {"type": "node", "id": 4735960222, "lat": 41.3837493, "lon": 2.177219, "tags": {"addr:housenumber": "5", "addr:postcode": "08002", "addr:street": "Carrer de Freneria", "amenity": "restaurant", "name": "Grill Restaurante - Steak house", "website": "https://grillrestaurante.com"}}, {"type": "node", "id": 4745966852, "lat": 41.3926541, "lon": 2.2047102}, {"type": "node", "id": 4745966861, "lat": 41.3947372, "lon": 2.2062983}, {"type": "node", "id": 4760916821, "lat": 41.3771386, "lon": 2.1901746, "tags": {"addr:housenumber": "49", "addr:street": "Carrer de la Mestran\u00e7a", "amenity": "restaurant", "name": "La Helader\u00eda Mexicana", "name:es": "La Helader\u00eda Mexicana", "opening_hours": "Mo-Fr 11:00-18:00; Sa 11:00-17:00; Su 11:00-20:00", "phone": "+34 931743498"}}, {"type": "node", "id": 4788621926, "lat": 41.3899184, "lon": 2.1798326, "tags": {"addr:housenumber": "15", "addr:street": "Carrer del Rec Comtal", "amenity": "restaurant", "check_date": "2024-06-14", "cuisine": "japanese;sushi", "internet_access": "wlan", "name": "Nakashita", "name:ca": "Nakashita", "name:en": "Nakashita", "name:es": "Nakashita", "opening_hours": "Mo-Su 13:30-16:30, 20:30-00:00", "phone": "+34 93 2955378", "website": "http://www.nakashitabcn.com"}}, {"type": "node", "id": 4792715522, "lat": 41.3815145, "lon": 2.1804022, "tags": {"addr:housenumber": "12", "addr:postcode": "08002", "addr:street": "Carrer de l'Hostal d'en Sol", "amenity": "cafe", "name": "Caf\u00e8 Caracas", "name:ca": "Caf\u00e8 Caracas", "name:en": "Cafe Caracas", "name:es": "Caf\u00e9 Caracas"}}, {"type": "node", "id": 4792724121, "lat": 41.3807065, "lon": 2.1779781, "tags": {"addr:housenumber": "25", "addr:postcode": "08002", "addr:street": "Carrer d'Aviny\u00f3", "amenity": "restaurant", "name": "Venus Delicatessen Barcelona", "name:ca": "Venus Delicatessen Barcelona", "name:en": "Venus Delicatessen Barcelona", "name:es": "Venus Delicatessen Barcelona", "opening_hours": "Mo-Fr 08:30-00:00; Sa-Su 09:30-00:00", "phone": "+34 936 76 03 15"}}, {"type": "node", "id": 4833189827, "lat": 41.3824551, "lon": 2.1777699, "tags": {"addr:housenumber": "5", "addr:postcode": "08002", "addr:street": "Carrer de la Ciutat", "amenity": "cafe", "cuisine": "coffee_shop", "internet_access": "wlan", "name": "Black remedy", "name:ca": "Black Remedy", "name:de": "Black Remedy", "name:en": "Black Remedy", "name:es": "Black Remedy", "opening_hours": "Mo-Fr 09:00-19:00; Sa-Su 10:00-19:00", "phone": "+34 934 61 92 12", "website": "http://blackremedy.com"}}, {"type": "node", "id": 4835800021, "lat": 41.3827592, "lon": 2.1824616, "tags": {"addr:housenumber": "47", "addr:postcode": "08003", "addr:street": "Carrer del Consolat de Mar", "amenity": "cafe", "name": "Hidden Coffee BCN"}}, {"type": "node", "id": 4838962523, "lat": 41.3848204, "lon": 2.1960272, "tags": {"amenity": "restaurant", "name": "Agua", "name:de": "Restaurant Agua"}}, {"type": "node", "id": 4846123521, "lat": 41.3846973, "lon": 2.1775099, "tags": {"addr:housenumber": "29", "addr:postcode": "08003", "addr:street": "Via Laietana", "amenity": "restaurant", "cuisine": "spanish", "name": "Gloria", "opening_hours": "PH,Su-Th 06:00-02:30"}}, {"type": "node", "id": 4846251725, "lat": 41.3832968, "lon": 2.1814661, "tags": {"addr:housenumber": "10", "addr:postcode": "08003", "addr:street": "Carrer dels Abaixadors", "amenity": "restaurant", "name": "La Luna", "name:es": "La Luna"}}, {"type": "node", "id": 4859446904, "lat": 41.3691792, "lon": 2.1897373, "tags": {"addr:city": "Barcelona", "addr:housenumber": "19-21", "addr:postcode": "08039", "addr:province": "Barcelona", "addr:street": "Passeig del Mare Nostrum", "amenity": "restaurant", "local_ref": "1728", "name": "W Lounge", "ref:ES:catastro": "2204319DF3820C", "website": "https://www.w-barcelona.cat/w-lounge"}}, {"type": "node", "id": 4859447432, "lat": 41.3718301, "lon": 2.1814451, "tags": {"addr:city": "Barcelona", "addr:postcode": "08039", "addr:province": "Barcelona", "addr:street": "Avinguda Moll de Barcelona", "amenity": "restaurant", "local_ref": "1802", "name": "Take Eat Easy", "name:en": "Take Eat Easy", "nohousenumber": "yes", "ref:ES:catastro": "1406301DF3810E"}}, {"type": "node", "id": 4859447459, "lat": 41.3755549, "lon": 2.182, "tags": {"addr:city": "Barcelona", "addr:postcode": "08039", "addr:province": "Barcelona", "addr:street": "Moll d'Espanya", "amenity": "restaurant", "local_ref": "1795", "name": "Restaurant Reial Club Maritim", "nohousenumber": "yes", "ref:ES:catastro": "1813204DF3811D"}}, {"type": "node", "id": 4859447469, "lat": 41.3755109, "lon": 2.1875835, "tags": {"addr:city": "Barcelona", "addr:housenumber": "7", "addr:postcode": "08039", "addr:province": "Barcelona", "addr:street": "Carrer de l'Escar", "amenity": "restaurant", "local_ref": "1755", "name": "Casa Juanito", "ref:ES:catastro": "2204308DF3820C"}}, {"type": "node", "id": 4859447476, "lat": 41.3691325, "lon": 2.1903908, "tags": {"addr:city": "Barcelona", "addr:housenumber": "19-21", "addr:postcode": "08039", "addr:province": "Barcelona", "addr:street": "Passeig del Mare Nostrum", "amenity": "restaurant", "local_ref": "1725", "name": "Salt Restaurant & Beach Club", "phone": "+34932952819", "ref:ES:catastro": "2204319DF3820C", "website": "https://www.saltbeachclub.com/"}}, {"type": "node", "id": 4859448353, "lat": 41.3692177, "lon": 2.1894117, "tags": {"addr:city": "Barcelona", "addr:housenumber": "19-21", "addr:postcode": "08039", "addr:province": "Barcelona", "addr:street": "Passeig del Mare Nostrum", "amenity": "restaurant", "local_ref": "1727", "name": "Gallito", "phone": "+34933123585", "ref:ES:catastro": "2204319DF3820C", "website": "https://encompaniadelobos.com/gallito"}}, {"type": "node", "id": 4859448381, "lat": 41.3690801, "lon": 2.1906631, "tags": {"addr:city": "Barcelona", "addr:housenumber": "19-21", "addr:postcode": "08039", "addr:province": "Barcelona", "addr:street": "Passeig del Mare Nostrum", "amenity": "restaurant", "cuisine": "mediterranean;italian", "local_ref": "1724", "name": "Mamarosa Beach", "ref:ES:catastro": "2204319DF3820C", "website": "http://mamarosabeach.com"}}, {"type": "node", "id": 4859449960, "lat": 41.3805096, "lon": 2.1863595, "tags": {"addr:city": "Barcelona", "addr:housenumber": "1", "addr:postcode": "08039", "addr:province": "Barcelona", "addr:street": "Pla\u00e7a de Pau Vila", "amenity": "restaurant", "facebook": "https://facebook.com/restauranteelmagatzem", "indoor_seating": "yes", "local_ref": "1785", "name": "Restaurant el Magatzem", "outdoor_seating": "yes", "phone": "+34 932 21 06 31", "ref:ES:catastro": "2112401DF3821C"}}, {"type": "node", "id": 4859450265, "lat": 41.3765906, "lon": 2.1834781, "tags": {"addr:city": "Barcelona", "addr:postcode": "08039", "addr:province": "Barcelona", "addr:street": "Moll d'Espanya", "amenity": "restaurant", "check_date": "2023-10-17", "local_ref": "1797", "name": "Restaurant Sweet", "nohousenumber": "yes", "ref:ES:catastro": "1813208DF3811D"}}, {"type": "node", "id": 4859450597, "lat": 41.3806265, "lon": 2.1855795, "tags": {"addr:city": "Barcelona", "addr:housenumber": "1", "addr:postcode": "08039", "addr:province": "Barcelona", "addr:street": "Pla\u00e7a de Pau Vila", "amenity": "restaurant", "indoor_seating": "yes", "local_ref": "1786", "name": "Restaurant Cal Pinxo", "outdoor_seating": "yes", "ref:ES:catastro": "2112401DF3821C", "wheelchair": "yes"}}, {"type": "node", "id": 4881667127, "lat": 41.376426, "lon": 2.1893563, "tags": {"addr:housenumber": "4", "addr:postcode": "08003", "addr:street": "Carrer del Judici", "amenity": "restaurant", "cuisine": "spanish", "name": "El Refugio del Puerto", "name:es": "El Refugio del Puerto"}}, {"type": "node", "id": 4893836321, "lat": 41.3851443, "lon": 2.1835937, "tags": {"addr:housenumber": "10", "addr:street": "Pla\u00e7a Comercial", "amenity": "cafe", "name": "Caf\u00e9 del Born"}}, {"type": "node", "id": 4911887543, "lat": 41.3812687, "lon": 2.1804979, "tags": {"addr:housenumber": "51", "addr:postcode": "08002", "addr:street": "Carrer Ample", "amenity": "restaurant", "cuisine": "italian", "name": "Sports bar", "wheelchair": "yes"}}, {"type": "node", "id": 4936558529, "lat": 41.3774571, "lon": 2.1906307, "tags": {"amenity": "cafe", "internet_access": "wlan", "name:en": "surf house"}}, {"type": "node", "id": 4973805121, "lat": 41.3871399, "lon": 2.1753762, "tags": {"addr:housenumber": "4", "addr:street": "Carrer de Sant Pere M\u00e9s Alt", "amenity": "cafe", "name": "Alsur Caf\u00e9 (Palau)", "name:es": "Alsur Caf\u00e9 (Palau)", "website": "http://www.alsurcafe.com"}}, {"type": "node", "id": 4973805122, "lat": 41.3864967, "lon": 2.1800947, "tags": {"addr:housenumber": "1", "addr:postcode": "08003", "addr:street": "Pla\u00e7a de Sant Cugat", "amenity": "cafe", "email": "elborn@alsurcafe.com", "name": "Alsur Caf\u00e9 (El Born)", "name:es": "Alsur Caf\u00e9 (El Born)", "opening_hours": "Mo-Tu 11:15-00:30; We 11:15-01:30; Fr 11:15-02:30; Sa 10:00-02:30; Su 10:00-00:30", "phone": "+34 931 825 407", "website": "http://www.alsurcafe.com/born.html"}}, {"type": "node", "id": 4973805221, "lat": 41.3809714, "lon": 2.1872568, "tags": {"addr:housenumber": "5", "addr:street": "Passeig de Joan de Borb\u00f3", "amenity": "cafe", "name": "Brunch & Cake by the sea", "name:es": "Brunch & Cake by the sea", "outdoor_seating": "yes", "website": "https://brunchandcake.com"}}, {"type": "node", "id": 4991221422, "lat": 41.3825107, "lon": 2.1760837, "tags": {"addr:housenumber": "4", "addr:postcode": "08002", "addr:street": "Carrer de Sant Dom\u00e8nec del Call", "amenity": "restaurant", "diet:vegan": "yes", "diet:vegetarian": "only", "drink:tea": "served", "name": "Salterio"}}, {"type": "node", "id": 5000957821, "lat": 41.3863947, "lon": 2.1756977, "tags": {"addr:housenumber": "46", "addr:postcode": "08003", "addr:street": "Via Laietana", "amenity": "cafe", "cuisine": "churro;regional", "name": "Churrer\u00eda Laietana", "name:en": "Churrer\u00eda Laietana", "name:es": "Churrer\u00eda Laietana", "opening_hours": "Mo-Fr 07:00-13:00; Su 08:00-13:30", "phone": "+34 932 681 263"}}, {"type": "node", "id": 5010838224, "lat": 41.3833546, "lon": 2.1803283, "tags": {"addr:housenumber": "4", "addr:postcode": "08003", "addr:street": "Carrer de Manresa", "amenity": "restaurant", "name": "Vegan Junk Food Bar"}}, {"type": "node", "id": 5017987523, "lat": 41.3863929, "lon": 2.1830388, "tags": {"amenity": "restaurant", "cuisine": "spanish;steak_house;tapas", "name": "Bananas", "name:en": "Bananas", "name:es": "Bananas", "operator": "Peterpuder"}}, {"type": "node", "id": 5018712121, "lat": 41.3845998, "lon": 2.1835545, "tags": {"amenity": "restaurant", "cuisine": "mexican", "name": "La Hacienda", "name:ca": "La Hacienda", "name:en": "La Hacienda", "name:es": "La Hacienda", "name:sv": "La Hacienda"}}, {"type": "node", "id": 5020154350, "lat": 41.387025, "lon": 2.1810401, "tags": {"addr:city": "Barcelona", "addr:housenumber": "11", "addr:postcode": "08003", "addr:street": "Carrer de l'Allada-Vermell", "amenity": "restaurant", "cuisine": "pizza", "diet:vegan": "yes", "name": "Pizza Paco", "outdoor_seating": "yes"}}, {"type": "node", "id": 5037900607, "lat": 41.3819545, "lon": 2.1763606, "tags": {"addr:housenumber": "38", "addr:postcode": "08002", "addr:street": "Carrer de Ferran", "amenity": "restaurant", "branch": "G\u00f2tic", "indoor_seating": "yes", "name": "Orio", "outdoor_seating": "yes", "phone": "+34933179407", "reservation": "yes", "website": "https://oriogastronomiavasca.com/"}}, {"type": "node", "id": 5039329321, "lat": 41.385209, "lon": 2.1833615, "tags": {"amenity": "restaurant", "name": "Casa Delf\u00edn", "name:es": "Casa Delf\u00edn"}}, {"type": "node", "id": 5046120426, "lat": 41.3863745, "lon": 2.184376, "tags": {"amenity": "restaurant", "name": "Ikibana", "name:es": "Ikibana"}}, {"type": "node", "id": 5054944608, "lat": 41.3865777, "lon": 2.1778235, "tags": {"addr:housename": "Avinguda de Francesc Camb\u00f3", "addr:housenumber": "23", "addr:postcode": "08003", "addr:street": "Avinguda de Francesc Camb\u00f3", "amenity": "restaurant", "branch": "Born", "name": "Orio", "phone": "+34933101818", "reservation": "yes", "website": "https://oriogastronomiavasca.com/"}}, {"type": "node", "id": 5063620523, "lat": 41.3687343, "lon": 2.1884028, "tags": {"addr:housenumber": "101", "addr:postcode": "08039", "addr:street": "Passeig de Joan de Borb\u00f3", "amenity": "restaurant", "cuisine": "spanish;fish", "internet_access": "wlan", "name": "Man\u00e1 75\u00b0", "name:es": "Man\u00e1 75", "opening_hours": "Mo-Su 13:00-23:30", "phone": "+34938326415", "website": "https://www.mana75.es/"}}, {"type": "node", "id": 5066107923, "lat": 41.3847092, "lon": 2.1798081, "tags": {"amenity": "restaurant", "name:en": "Story"}}, {"type": "node", "id": 5082606535, "lat": 41.3860118, "lon": 2.1805926, "tags": {"addr:housenumber": "13", "addr:street": "Carrer dels Assaonadors", "amenity": "restaurant", "description": "Excellente katalanische K\u00fcche", "name": "Pla de la Garsa", "name:ca": "Pla de la Garsa", "opening_hours": "Tu-Su 19:00-01:00", "phone": "+34933152413", "website": "http://www.pladelagarsa.com/"}}, {"type": "node", "id": 5082607066, "lat": 41.3863305, "lon": 2.1787827, "tags": {"addr:housenumber": "2", "addr:street": "Carrer d'en Giralt i Pellicer", "amenity": "restaurant", "description": "Fr\u00fchst\u00fcck und Mittagsmen\u00fc", "name": "Bar Joan", "opening_hours": "Mo-Sa 07:30-15:30", "phone": "+34933106150"}}, {"type": "node", "id": 5082607265, "lat": 41.3868667, "lon": 2.1807523, "tags": {"addr:housenumber": "10", "addr:street": "Carrer d'Allada-Vermell", "amenity": "restaurant", "description": "Restaurant und Bar", "name": "Casa Paco", "name:ca": "Casa Paco", "opening_hours": "Mo-Th, Su 09:30-01:00; Fr, Sa 09:30-03:00", "phone": "+34932955118"}}, {"type": "node", "id": 5082607325, "lat": 41.384978, "lon": 2.1801374, "tags": {"addr:housenumber": "16", "addr:street": "Carrer de la Princesa", "amenity": "restaurant", "name": "Nou Celler", "name:ca": "Nou Celler", "opening_hours": "Mo-Fr 08:00-23:30; Sa 10:00-23:30", "phone": "+34933104773"}}, {"type": "node", "id": 5091650621, "lat": 41.3772044, "lon": 2.1777523, "tags": {"addr:housenumber": "9", "addr:postcode": "08002", "addr:street": "Carrer de Josep Anselm Clav\u00e9", "amenity": "restaurant", "name": "Txikiteo"}}, {"type": "node", "id": 5094352740, "lat": 41.3840509, "lon": 2.1802488, "tags": {"addr:housenumber": "5", "addr:postcode": "08003", "addr:street": "Carrer de Gruny\u00ed", "amenity": "restaurant", "contact:facebook": "ziryabbcn", "contact:instagram": "ziryabbcn", "cuisine": "arab", "email": "info@ziryab.es", "name": "Ziryab Fusion Tapas Bar", "name:es": "Ziryab Fusion Tapas Bar", "opening_hours": "Mo-Su 13:00-00:00", "phone": "+34 931 874 210", "website": "http://www.ziryab.es"}}, {"type": "node", "id": 5094360342, "lat": 41.3856261, "lon": 2.1818153, "tags": {"addr:housenumber": "19", "addr:postcode": "08003", "addr:street": "Carrer dels Flassaders", "amenity": "restaurant", "name": "Restaurante Montiel", "name:es": "Restaurante Montiel", "opening_hours": "We-Mo 13:00-14:30, 19:00-22:30", "phone": "+34 932 68 37 29", "website": "http://www.grupmontiel.com"}}, {"type": "node", "id": 5102744421, "lat": 41.3791628, "lon": 2.1890426, "tags": {"addr:housenumber": "11", "addr:street": "Carrer de Sant Carles", "amenity": "restaurant", "name": "Somorrostro", "name:es": "Somorrostro", "opening_hours": "Mo-Su 13:00-00:00", "website": "http://www.restaurantesomorrostro.com"}}, {"type": "node", "id": 5107534323, "lat": 41.3806019, "lon": 2.1874858, "tags": {"addr:housenumber": "10", "addr:street": "Passeig de Joan de Borb\u00f3", "amenity": "restaurant", "name:en": "Meson Barceloneta"}}, {"type": "node", "id": 5107550028, "lat": 41.3796649, "lon": 2.1793303, "tags": {"addr:housenumber": "19", "addr:postcode": "08002", "addr:street": "Carrer Ample", "amenity": "restaurant", "name": "Los Pergaminos", "opening_hours": "Mo-Su 19:30-23:00"}}, {"type": "node", "id": 5151532723, "lat": 41.383029, "lon": 2.1801992, "tags": {"addr:city": "Barcelona", "addr:housenumber": "12", "addr:postcode": "08003", "addr:street": "Via Laietana", "amenity": "restaurant", "check_date": "2024-05-03", "contact:facebook": "https://www.facebook.com/theburgermakerbcn/", "cuisine": "argentinian", "diet:vegan": "yes", "diet:vegetarian": "only", "internet_access": "no", "level": "0", "name": "The Burger Maker", "opening_hours": "Mo-Th 10:00-22:00; Fr 10:00-18:00; Sa closed; Su 11:30-22:00", "payment:cash": "yes", "payment:credit_cards": "yes", "payment:debit_cards": "yes", "phone": "+34 673 33 66 64", "wheelchair": "yes"}}, {"type": "node", "id": 5152324668, "lat": 41.3804667, "lon": 2.1778401, "tags": {"addr:city": "Barcelona", "addr:housenumber": "56", "addr:postcode": "08002", "addr:street": "Carrer dels Escudellers", "amenity": "cafe", "contact:facebook": "https://www.facebook.com/karlitosbcn", "cuisine": "juice;smoothie;coffee", "diet:vegan": "yes", "name": "Karlito's", "opening_hours": "Tu-Su 10:00-20:00", "phone": "+34 674 81 90 87", "takeaway": "yes"}}, {"type": "node", "id": 5156647125, "lat": 41.3856415, "lon": 2.1796609, "tags": {"addr:street": "Carrer dels Carders", "amenity": "restaurant", "name": "La parrila", "name:ca": "La parrila"}}, {"type": "node", "id": 5168232525, "lat": 41.3837103, "lon": 2.1785663, "tags": {"addr:housenumber": "5", "addr:postcode": "08002", "addr:street": "Pla\u00e7a de l'\u00c0ngel", "amenity": "restaurant", "name": "Tapafina"}}, {"type": "node", "id": 5168232623, "lat": 41.3825115, "lon": 2.1766198, "tags": {"addr:housenumber": "3", "addr:postcode": "08002", "addr:street": "Pla\u00e7a de Sant Jaume", "amenity": "cafe", "brand": "Starbucks", "brand:wikidata": "Q37158", "check_date": "2023-10-29", "cuisine": "coffee_shop", "diet:gluten_free": "yes", "name": "Starbucks", "name:ca": "Starbucks", "official_name": "Starbucks Coffee", "takeaway": "yes"}}, {"type": "node", "id": 5171486521, "lat": 41.3806249, "lon": 2.1795241, "tags": {"addr:city": "Barcelona", "addr:housenumber": "4", "addr:postcode": "08002", "addr:street": "Carrer de Milans", "amenity": "restaurant", "cuisine": "spanish", "name": "Gourmet tapas by SENSI", "opening_hours": "Mo-Su 18:30-00:00", "phone": "+34 932 955 752", "website": "https://sensi.es/gourmet/"}}, {"type": "node", "id": 5181662394, "lat": 41.3895716, "lon": 2.176955, "tags": {"addr:city": "Barcelona", "addr:housenumber": "50", "addr:postcode": "08003", "addr:street": "Carrer de Trafalgar", "amenity": "restaurant", "cuisine": "international;tapas;healthy;coffee_shop;sandwich", "name": "Buenaventura", "opening_hours": "Mo-Sa 09:00-21:00", "organic": "only", "phone": "+34 93 541 79 24", "website": "https://buenaventuracafe.es/"}}, {"type": "node", "id": 5197630121, "lat": 41.3777448, "lon": 2.1780848, "tags": {"addr:housenumber": "23", "addr:postcode": "08002", "addr:street": "Carrer de Josep Anselm Clav\u00e9", "amenity": "restaurant", "name": "Bar Gato Pardo"}}, {"type": "node", "id": 5204027792, "lat": 41.3816417, "lon": 2.1788555, "tags": {"addr:city": "Barcelona", "addr:housenumber": "2", "addr:postcode": "08002", "addr:street": "Pla\u00e7a del Regomir", "amenity": "cafe", "contact:facebook": "https://www.facebook.com/elfuiterdelgotic", "cuisine": "smoothies;juice", "diet:vegan": "yes", "name": "El Fruiter del Gotic", "opening_hours": "Mo-Sa 09:00-21:00; Su closed", "phone": "+34 687 45 96 72", "takeaway": "yes"}}, {"type": "node", "id": 5235654922, "lat": 41.3862324, "lon": 2.1759654, "tags": {"amenity": "cafe", "name": "Cappukccino", "name:ca": "Cappukccino", "opening_hours:signed": "no"}}, {"type": "node", "id": 5235672021, "lat": 41.3851679, "lon": 2.1773397, "tags": {"addr:street": "Via Laietana", "amenity": "restaurant", "cuisine": "italian", "name": "La Perla Nera", "name:ca": "La Perla Nera"}}, {"type": "node", "id": 5235672022, "lat": 41.3864741, "lon": 2.1755926, "tags": {"amenity": "restaurant", "cuisine": "mexican", "name": "Rosa Negra", "name:ca": "Rosa Negra"}}, {"type": "node", "id": 5271977122, "lat": 41.3819409, "lon": 2.1795918, "tags": {"addr:postcode": "08002", "amenity": "restaurant", "name": "glaciers 100% bio", "name:es": "glaciers 100% bio"}}, {"type": "node", "id": 5271980421, "lat": 41.3814609, "lon": 2.1789786, "tags": {"addr:city": "Barcelona", "addr:housenumber": "4", "addr:postcode": "08002", "addr:street": "Carrer del Regomir", "amenity": "restaurant", "name": "Sensi bistro", "opening_hours": "Mo-Fr 18:30-24:00; Sa-Su 13:00-24:00", "phone": "+34 931 799 545", "website": "https://sensi.es/bistro/"}}, {"type": "node", "id": 5271980422, "lat": 41.3818117, "lon": 2.1769112, "tags": {"addr:housenumber": "2Bis", "addr:postcode": "08002", "addr:street": "Carrer del Pas de l'Ensenyan\u00e7a", "amenity": "restaurant", "name": "Tapas San Miguel", "survey:date": "2022-12-06"}}, {"type": "node", "id": 5302971723, "lat": 41.3799813, "lon": 2.1797259, "tags": {"addr:housenumber": "18", "addr:postcode": "08002", "addr:street": "Carrer Ample", "amenity": "restaurant", "name": "Safr\u00e0 18", "name:ca": "Safr\u00e0 18"}}, {"type": "node", "id": 5311496821, "lat": 41.3861655, "lon": 2.1780161, "tags": {"amenity": "restaurant", "name": "Santa Caterina Cuines", "name:en": "Cuines Santa Caterina (tapas)"}}, {"type": "node", "id": 5324377281, "lat": 41.3851961, "lon": 2.1803933, "tags": {"addr:housenumber": "20", "addr:postcode": "08003", "addr:street": "Carrer de la Princesa", "amenity": "restaurant", "cuisine": "spanish", "name": "Taperia Princesa", "opening_hours:signed": "no", "phone": "+34 632 272 392"}}, {"type": "node", "id": 5375068791, "lat": 41.3808945, "lon": 2.1803735, "tags": {"addr:housenumber": "44", "addr:postcode": "08002", "addr:street": "Carrer Ample", "amenity": "restaurant", "cuisine": "pizza", "name": "La Pizza Pazza", "phone": "+34 931 79 44 37", "website": "http://www.pizzapazza-bcn.com"}}, {"type": "node", "id": 5375096944, "lat": 41.3850424, "lon": 2.1993288, "tags": {"addr:postcode": "08005", "addr:street": "Moll de la Marina", "amenity": "restaurant", "contact:instagram": "redfishbarcelona", "description": "Beach Club, Bar and Restaurant by the sea", "name": "Red Fish", "nohousenumber": "yes", "phone": "+34931716894", "website": "https://www.redfishbcn.com/"}}, {"type": "node", "id": 5418243448, "lat": 41.3793623, "lon": 2.1879402, "tags": {"amenity": "restaurant", "name": "La Pampa", "outdoor_seating": "yes"}}, {"type": "node", "id": 5418243450, "lat": 41.3786757, "lon": 2.1882219, "tags": {"amenity": "restaurant", "name": "els maians", "name:ca": "els maians", "outdoor_seating": "yes", "wheelchair": "yes"}}, {"type": "node", "id": 5418243451, "lat": 41.3791653, "lon": 2.1879988, "tags": {"amenity": "restaurant", "name": "no30", "outdoor_seating": "yes"}}, {"type": "node", "id": 5418243452, "lat": 41.3783615, "lon": 2.1882936, "tags": {"amenity": "restaurant", "name": "Lolita", "outdoor_seating": "yes", "wheelchair": "yes"}}, {"type": "node", "id": 5418243453, "lat": 41.378976, "lon": 2.1881069, "tags": {"amenity": "restaurant", "name": "Toc de mar", "outdoor_seating": "yes"}}, {"type": "node", "id": 5418243454, "lat": 41.3792655, "lon": 2.1879835, "tags": {"amenity": "restaurant", "name": "Reina Margherita", "outdoor_seating": "yes"}}, {"type": "node", "id": 5422033121, "lat": 41.3757365, "lon": 2.1827027, "tags": {"amenity": "restaurant", "level": "0", "name": "Fresc Co"}}, {"type": "node", "id": 5427027621, "lat": 41.3749029, "lon": 2.1820279, "tags": {"addr:city": "Barcelona", "addr:housenumber": "5", "addr:street": "Moll d'Espanya", "amenity": "restaurant", "name": "The Chipir\u00f3n", "phone": "+34 93 225 80 40"}}, {"type": "node", "id": 5462777835, "lat": 41.377457, "lon": 2.1778922, "tags": {"addr:housenumber": "11", "addr:postcode": "08002", "addr:street": "Carrer de Josep Anselm Clav\u00e9", "amenity": "restaurant", "cuisine": "italian;italian_pizza;mediterranean", "diet:vegan": "yes", "diet:vegetarian": "yes", "name": "Il Mercante", "name:en": "Il Mercante Di Venezia (See Opening Hours)", "name:es": "Il Mercante Di Venezia", "website": "https://www.ilmercantedivenezia.es/"}}, {"type": "node", "id": 5465258223, "lat": 41.3761185, "lon": 2.1891728, "tags": {"addr:housenumber": "66", "addr:postcode": "08003", "addr:street": "Passeig de Joan de Borb\u00f3", "amenity": "restaurant", "cuisine": "japanese;sushi", "name": "sushik\u00f4"}}, {"type": "node", "id": 5465332221, "lat": 41.3830233, "lon": 2.1774383, "tags": {"addr:housenumber": "3", "addr:postcode": "08002", "addr:street": "Carrer de Jaume I", "amenity": "restaurant", "name": "Haiti Bar", "opening_hours:covid19": "off"}}, {"type": "node", "id": 5502065621, "lat": 41.3784379, "lon": 2.1795362, "tags": {"addr:housenumber": "20", "addr:postcode": "08002", "addr:street": "Passeig de Colom", "amenity": "restaurant", "check_date": "2023-09-27", "name": "Cecconi's", "phone": "+34 932204640"}}, {"type": "node", "id": 5535999160, "lat": 41.3884173, "lon": 2.1765204, "tags": {"addr:housenumber": "31-33", "addr:street": "Carrer de Sant Pere M\u00e9s Alt", "amenity": "restaurant", "check_date": "2024-01-14", "diet:gluten_free": "yes", "diet:vegan": "yes", "diet:vegetarian": "yes", "internet_access": "no", "name": "Flax & Kale", "opening_hours": "Mo-Su 12:00-17:00, 19:00-24:00", "payment:cash": "yes", "payment:mastercard": "yes", "payment:visa": "yes", "phone": "+34 935 24 00 52", "website": "https://flaxandkale.com/es/flax-and-kale-passage"}}, {"type": "node", "id": 5590791521, "lat": 41.3780456, "lon": 2.1887098, "tags": {"addr:housenumber": "4", "addr:street": "Carrer de l'Almirall Cervera", "amenity": "restaurant", "name": "Carne a La Brasa Iguazu", "phone": "+34 930231908"}}, {"type": "node", "id": 5623863121, "lat": 41.3808648, "lon": 2.1894392, "tags": {"amenity": "cafe", "name": "The new Orleans, coffee & tee"}}, {"type": "node", "id": 5623870821, "lat": 41.3808001, "lon": 2.1887649, "tags": {"amenity": "cafe", "name": "Tostadero Salvador", "payment:cards": "no", "payment:credit_cards": "no", "payment:debit_cards": "no"}}, {"type": "node", "id": 5672107821, "lat": 41.3773337, "lon": 2.1897527, "tags": {"addr:housenumber": "12", "addr:postcode": "08003", "addr:street": "Carrer d'Em\u00edlia Llorca Mart\u00edn", "amenity": "restaurant", "cuisine": "spanish", "email": "pacoalcalderestaurante@gmail.com", "name": "Paco Alcalde", "name:en": "Paco Alcalde", "opening_hours": "We-Mo 13:00-23:30", "phone": "+34932215026", "website": "https://www.pacoalcalde.es"}}, {"type": "node", "id": 5695625621, "lat": 41.3826706, "lon": 2.1789133, "tags": {"addr:housenumber": "7", "addr:postcode": "08002", "addr:street": "Carrer de Lled\u00f3", "amenity": "restaurant", "name": "Le Bouchon"}}, {"type": "node", "id": 5695625921, "lat": 41.3820287, "lon": 2.179383, "tags": {"addr:housenumber": "2", "addr:postcode": "08002", "addr:street": "Baixada de Viladecols", "amenity": "cafe", "internet_access": "wlan", "name": "La Teteria"}}, {"type": "node", "id": 5802535354, "lat": 41.3895741, "lon": 2.1798565, "tags": {"addr:street": "Carrer del Rec Comtal", "amenity": "restaurant", "name": "Sophie", "old_name": "ginette"}}, {"type": "node", "id": 5802535453, "lat": 41.3817746, "lon": 2.1800492, "tags": {"addr:housenumber": "6", "addr:postcode": "08002", "addr:street": "Carrer de l'Hostal d'en Sol", "amenity": "restaurant", "name": "El Sal\u00f3n"}}, {"type": "node", "id": 5802535454, "lat": 41.3831276, "lon": 2.1795974, "tags": {"addr:housenumber": "13", "addr:postcode": "08003", "addr:street": "Via Laietana", "amenity": "restaurant", "name": "Arr\u00f2s i Peix", "name:ca": "Arr\u00f2s i Peix"}}, {"type": "node", "id": 5883966685, "lat": 41.381278, "lon": 2.1826134, "tags": {"amenity": "cafe", "check_date": "2023-10-14", "name": "Carabela"}}, {"type": "node", "id": 5910291400, "lat": 41.3912016, "lon": 2.196642, "tags": {"addr:city": "Barcelona", "addr:housenumber": "149", "addr:postcode": "08005", "addr:street": "Avinguda d' Ic\u00e0ria", "amenity": "restaurant", "cuisine": "pizza", "delivery": "no", "name": "Pizzeria La Vela", "payment:cash": "yes", "payment:coins": "yes", "payment:mastercard": "yes", "payment:visa": "yes", "phone": "+34 932 211 504", "takeaway": "only", "website": "http://lavelabcn.awardspace.com/"}}, {"type": "node", "id": 5915792089, "lat": 41.3810082, "lon": 2.1798816, "tags": {"addr:housenumber": "13", "addr:postcode": "08002", "addr:street": "Carrer d'en Gign\u00e0s", "amenity": "restaurant", "cuisine": "spanish;seafood;mediterranean", "name": "Bodega Vasconia", "phone": "+34677360375"}}, {"type": "node", "id": 5916148104, "lat": 41.3797373, "lon": 2.1764164, "tags": {"addr:housenumber": "21", "addr:street": "Carrer dels Escudellers", "amenity": "restaurant"}}, {"type": "node", "id": 5916148891, "lat": 41.3841474, "lon": 2.1818352, "tags": {"amenity": "cafe", "cuisine": "american", "name:en": "Casa Gisper"}}, {"type": "node", "id": 5923944283, "lat": 41.3842047, "lon": 2.1791191, "tags": {"addr:city": "Barcelona", "addr:housenumber": "2", "addr:postcode": "08003", "addr:street": "Carrer de la Princesa", "amenity": "restaurant", "name": "Restaurante Nervi\u00f3n", "phone": "+34 933 152 103", "website": "https://www.restaurantenervion.com/"}}, {"type": "node", "id": 5923944284, "lat": 41.3845287, "lon": 2.1795174, "tags": {"addr:city": "Barcelona", "addr:housenumber": "12", "addr:street": "Carrer de la Princesa", "amenity": "restaurant", "bar": "yes", "name": "Les Dues Sicilies"}}, {"type": "node", "id": 5924253709, "lat": 41.3801404, "lon": 2.1802477, "tags": {"addr:city": "Barcelona", "addr:housenumber": "13", "addr:postcode": "08002", "addr:street": "Carrer de la Merc\u00e8", "amenity": "restaurant", "name": "La Republica", "operator": "argentinian", "phone": "+34 932 95 66 84"}}, {"type": "node", "id": 5943272562, "lat": 41.3801634, "lon": 2.1798648, "tags": {"addr:city": "Barcelona", "addr:housenumber": "22", "addr:postcode": "08002", "addr:street": "Carrer Ample", "amenity": "restaurant", "cuisine": "tapas", "name": "Sensi Mezzanine Tapas", "opening_hours": "Mo-Su 18:30-24:00", "phone": "+34 935 414 459", "website": "http://www.sensi.es/mezzanine/"}}, {"type": "node", "id": 5949642988, "lat": 41.3892725, "lon": 2.1789088, "tags": {"addr:city": "Barcelona", "addr:housenumber": "12", "addr:postcode": "08003", "addr:street": "Pla\u00e7a de Sant Pere", "amenity": "restaurant", "check_date": "2023-10-11", "contact:instagram": "https://www.instagram.com/la_candela_restaurante/", "contact:phone": "+34930940227", "name": "La Candela", "opening_hours": "Mo off; Tu off; We 10:00-17:00; Th 10:00-17:00; Fr 10:00-17:00; Sa 10:00-17:00; Su 10:00-17:00", "toilets:wheelchair": "no", "website": "https://la-candela-restaurant.business.site/", "wheelchair": "no"}}, {"type": "node", "id": 5949690086, "lat": 41.3880544, "lon": 2.1806686, "tags": {"addr:housenumber": "13", "addr:postcode": "08003", "addr:street": "Pla\u00e7a de Sant Agust\u00ed Vell", "amenity": "restaurant", "contact:facebook": "https://facebook.com/pg/costapacificobcn", "contact:instagram": "costapacificobcn", "cuisine": "mexican", "name": "Costa Pacifico", "not:brand:wikidata": "Q608845", "opening_hours": "Th-Su 13:00-24:00; Mo-We 01:00-16:00,20:00-24:00", "phone": "+34 936 31 70 62", "website": "https://costapacifico.es/", "website:menu": "https://costapacifico.es/html/carta/CP_Menu_ENG.pdf"}}, {"type": "node", "id": 5951660889, "lat": 41.3766733, "lon": 2.1889641, "tags": {"amenity": "restaurant", "name": "Bivio", "toilets:wheelchair": "yes", "wheelchair": "yes"}}, {"type": "node", "id": 5951979985, "lat": 41.3844536, "lon": 2.1782952, "tags": {"amenity": "cafe", "name": "Tastap\u00e0", "wheelchair": "yes"}}, {"type": "node", "id": 6016782085, "lat": 41.3840597, "lon": 2.1810506, "tags": {"amenity": "restaurant", "cuisine": "arab"}}, {"type": "node", "id": 6026638288, "lat": 41.3901336, "lon": 2.1799602, "tags": {"addr:housenumber": "17", "addr:street": "Carrer del Rec Comtal", "amenity": "restaurant", "name": "Fismuler", "opening_hours": "Mo-Su 13:30-14:00, 15:00-16:00", "phone": "+34 935140050"}}, {"type": "node", "id": 6038797085, "lat": 41.3845664, "lon": 2.1828742, "tags": {"addr:housenumber": "22", "addr:street": "Passeig del Born", "amenity": "restaurant", "check_date": "2023-10-29", "cuisine": "irish;italian_pizza", "name": "La Pizza del Born"}}, {"type": "node", "id": 6051371265, "lat": 41.3831768, "lon": 2.1778904, "tags": {"addr:housenumber": "8", "addr:postcode": "08002", "addr:street": "Carrer de Jaume I", "amenity": "restaurant", "name": "Lonja de Tapas"}}, {"type": "node", "id": 6052329497, "lat": 41.3830971, "lon": 2.1783628, "tags": {"addr:housenumber": "4", "addr:postcode": "08002", "addr:street": "Pla\u00e7a de Sant Just", "amenity": "cafe", "cuisine": "spanish", "internet_access": "wlan", "name": "Bliss", "opening_hours": "Mo-Sa 09:00-23:00; Su 10:00-23:00", "phone": "+34 932681022", "toilets:wheelchair": "no", "wheelchair": "limited", "wheelchair:description": "Small cafe/restaurant. Friendly. Outdoor seating. Lower floor and toilet are not accessible."}}, {"type": "node", "id": 6052374048, "lat": 41.3822753, "lon": 2.1767561, "tags": {"addr:housenumber": "46", "addr:postcode": "08002", "addr:street": "Carrer de Ferran", "amenity": "restaurant", "name": "Avocados"}}, {"type": "node", "id": 6053049807, "lat": 41.3882395, "lon": 2.1805379, "tags": {"amenity": "restaurant", "check_date": "2024-09-21", "name": "Santagustina"}}, {"type": "node", "id": 6053050067, "lat": 41.3856816, "lon": 2.1851737, "tags": {"amenity": "cafe", "check_date": "2024-03-02", "level": "0", "name": "Alsur", "opening_hours": "Mo-We,Su 09:00-21:00; Th-Sa 09:00-22:30"}}, {"type": "node", "id": 6053069752, "lat": 41.3836573, "lon": 2.1778183, "tags": {"addr:housenumber": "5", "addr:postcode": "08002", "addr:street": "Baixada de la Llibreteria", "amenity": "cafe", "name": "Farggi"}}, {"type": "node", "id": 6055334812, "lat": 41.3823755, "lon": 2.1763476, "tags": {"addr:housenumber": "17", "addr:postcode": "08002", "addr:street": "Carrer del Call", "amenity": "restaurant", "entrance": "yes", "name": "Restaurante Loto", "opening_hours": "Mo-Su 13:00-16:00, 20:00-23:00", "phone": "+34935318278", "website": "https://restauranteloto.com/"}}, {"type": "node", "id": 6064353242, "lat": 41.3819563, "lon": 2.1767011, "tags": {"addr:housenumber": "2", "addr:postcode": "08002", "addr:street": "Carrer del Pas de l'Ensenyan\u00e7a", "amenity": "restaurant", "name": "Mi Burrito y Yo"}}, {"type": "node", "id": 6064401166, "lat": 41.3810423, "lon": 2.1770783, "tags": {"addr:housenumber": "19", "addr:postcode": "08002", "addr:street": "Carrer d'Aviny\u00f3", "amenity": "restaurant", "name": "La Muralla", "name:ca": "La Muralla"}}, {"type": "node", "id": 6070141328, "lat": 41.3819608, "lon": 2.1787986, "tags": {"addr:housenumber": "3", "addr:postcode": "08002", "addr:street": "Carrer del Cometa", "amenity": "restaurant", "name": "Sushiya"}}, {"type": "node", "id": 6071593185, "lat": 41.381416, "lon": 2.1761311, "tags": {"addr:housenumber": "10", "addr:street": "Carrer d'Aviny\u00f3", "amenity": "restaurant", "check_date": "2023-04-22", "cuisine": "mediterranean;spanish", "internet_access": "wlan", "name": "Avinyo10", "opening_hours": "Mo-Su 12:00-23:30", "phone": "+34932503329", "website": "http://avinyo10.com"}}, {"type": "node", "id": 6074427526, "lat": 41.3759498, "lon": 2.1870696}, {"type": "node", "id": 6074427534, "lat": 41.3758628, "lon": 2.187047}, {"type": "node", "id": 6074427545, "lat": 41.3758976, "lon": 2.1872351}, {"type": "node", "id": 6074427546, "lat": 41.3758785, "lon": 2.187589}, {"type": "node", "id": 6074436527, "lat": 41.3757882, "lon": 2.1875665}, {"type": "node", "id": 6074436528, "lat": 41.3757972, "lon": 2.1875021}, {"type": "node", "id": 6074436529, "lat": 41.3757707, "lon": 2.1874955}, {"type": "node", "id": 6074436576, "lat": 41.3758682, "lon": 2.1872271}, {"type": "node", "id": 6074436577, "lat": 41.3759036, "lon": 2.1871958}, {"type": "node", "id": 6074436578, "lat": 41.3758742, "lon": 2.1871878}, {"type": "node", "id": 6074436595, "lat": 41.3758359, "lon": 2.1872412}, {"type": "node", "id": 6074436596, "lat": 41.3758076, "lon": 2.1872342}, {"type": "node", "id": 6080637684, "lat": 41.3815077, "lon": 2.1779584, "tags": {"addr:housenumber": "6", "addr:postcode": "08002", "addr:street": "Carrer dels Templers", "amenity": "restaurant", "name": "Peimong"}}, {"type": "node", "id": 6109526596, "lat": 41.3814196, "lon": 2.1776754, "tags": {"addr:housenumber": "2", "addr:postcode": "08002", "addr:street": "Carrer dels Templers", "amenity": "restaurant", "cuisine": "kebab", "name": "El Cuiner de Damasc"}}, {"type": "node", "id": 6109526597, "lat": 41.3810738, "lon": 2.178812, "tags": {"addr:housenumber": "10", "addr:street": "Carrer d'Ata\u00fclf", "amenity": "restaurant", "cuisine": "korean", "name": "La Picnic", "note": "Gimbap - miso soup - kimchi - mandu ( korean ravioli )", "website": "https://www.restaurantelapicnicbarcelona.com/"}}, {"type": "node", "id": 6109675620, "lat": 41.3892784, "lon": 2.1793817, "tags": {"addr:city": "Barcelona", "addr:housenumber": "5", "addr:postcode": "08003", "addr:street": "Pla\u00e7a de Sant Pere", "amenity": "restaurant", "cuisine": "pasta", "name": "Las Sorrentinas", "phone": "+34 930 102 114"}}, {"type": "node", "id": 6111195458, "lat": 41.3858921, "lon": 2.1850041, "tags": {"amenity": "restaurant", "cuisine": "brazilian;sushi;japanese", "internet_access": "wlan", "name": "Ikibana", "opening_hours": "24/7"}}, {"type": "node", "id": 6122125149, "lat": 41.3825228, "lon": 2.180414, "tags": {"addr:housenumber": "5", "addr:postcode": "08003", "addr:street": "Via Laietana", "amenity": "restaurant", "name": "Restaurant C\u00e1tedra"}}, {"type": "node", "id": 6124719985, "lat": 41.3848379, "lon": 2.1801731, "tags": {"addr:housenumber": "3", "addr:postcode": "08003", "addr:street": "Carrer de la Barra de Ferro", "amenity": "cafe", "check_date": "2024-07-02", "internet_access": "wlan", "name": "Bornet"}}, {"type": "node", "id": 6126535282, "lat": 41.384557, "lon": 2.179381, "tags": {"addr:street": "Carrer de la Princesa", "amenity": "restaurant", "check_date": "2023-08-29", "name": "Narciso"}}, {"type": "node", "id": 6171863585, "lat": 41.3757001, "lon": 2.1829952, "tags": {"amenity": "restaurant", "name": "Gustos Barcelona"}}, {"type": "node", "id": 6174781424, "lat": 41.3893937, "lon": 2.1797724, "tags": {"addr:city": "Barcelona", "addr:housenumber": "6", "addr:postcode": "08003", "addr:street": "Carrer del Rec Comtal", "amenity": "restaurant", "check_date": "2024-06-14", "cuisine": "italian;pizza", "name": "Spaccanapoli", "opening_hours": "13:00-23:30", "payment:credit_cards": "yes", "payment:debit_cards": "yes", "phone": "+34 932 689 938", "website": "https://www.spaccanapolibcn.es/"}}, {"type": "node", "id": 6205250905, "lat": 41.3815548, "lon": 2.1797645, "tags": {"addr:housenumber": "8", "addr:postcode": "08002", "addr:street": "Carrer del Correu Vell", "amenity": "restaurant", "cuisine": "japanese", "name": "Kynoto Sushi Bar"}}, {"type": "node", "id": 6205366641, "lat": 41.3811354, "lon": 2.1796727, "tags": {"addr:housenumber": "16", "addr:postcode": "08002", "addr:street": "Carrer del Regomir", "amenity": "restaurant", "name": "Mirilla"}}, {"type": "node", "id": 6205366650, "lat": 41.3809757, "lon": 2.179848, "tags": {"addr:housenumber": "13", "addr:postcode": "08002", "addr:street": "Carrer d'en Gign\u00e0s", "amenity": "restaurant", "diet:vegan": "yes", "name": "Monchito", "opening_hours": "We-Su 19:00-24:00"}}, {"type": "node", "id": 6211250651, "lat": 41.380305, "lon": 2.1792164, "tags": {"addr:housenumber": "37", "addr:postcode": "08002", "addr:street": "Carrer d'Aviny\u00f3", "amenity": "restaurant", "indoor_seating": "yes", "name": "Ag\u00fcelo013", "outdoor_seating": "no"}}, {"type": "node", "id": 6211350440, "lat": 41.3813364, "lon": 2.180251, "tags": {"addr:housenumber": "28", "addr:postcode": "08002", "addr:street": "Carrer d'en Gign\u00e0s", "amenity": "restaurant", "cuisine": "japanese", "name": "Temaki-ya"}}, {"type": "node", "id": 6213894832, "lat": 41.3802597, "lon": 2.1793458, "tags": {"addr:housenumber": "39", "addr:postcode": "08002", "addr:street": "Carrer d'Aviny\u00f3", "amenity": "restaurant", "name": "Momo Restaurant & Bar"}}, {"type": "node", "id": 6214109887, "lat": 41.3809857, "lon": 2.1804515, "tags": {"addr:city": "Barcelona", "addr:housenumber": "46", "addr:postcode": "08002", "addr:street": "Carrer Ample", "amenity": "restaurant", "contact:facebook": "https://www.facebook.com/TapesBCNrest", "contact:instagram": "https://www.instagram.com/tapes_barcelona/", "contact:whatsapp": "+34 661 61 90 23", "email": "info@tapasbarcelona.es", "name": "Tapes Barcelona", "opening_hours": "Tu-Su 12:30-24:00", "phone": "+34 933 15 22 60", "website": "https://tapasbarcelona.es/"}}, {"type": "node", "id": 6223019746, "lat": 41.3846872, "lon": 2.1768651, "tags": {"amenity": "cafe", "cuisine": "chocolate;churro", "name": "Valor Chocolates", "wheelchair": "no"}}, {"type": "node", "id": 6223027612, "lat": 41.3805084, "lon": 2.1879084, "tags": {"amenity": "restaurant", "cuisine": "spanish;tapas", "name": "La fresca"}}, {"type": "node", "id": 6232481967, "lat": 41.3807065, "lon": 2.1802665, "tags": {"addr:housenumber": "38", "addr:postcode": "08002", "addr:street": "Carrer Ample", "amenity": "restaurant", "name": "Gilda", "website": "https://gildabybelgious.com"}}, {"type": "node", "id": 6244832514, "lat": 41.3798463, "lon": 2.1795948, "tags": {"addr:housenumber": "14", "addr:postcode": "08002", "addr:street": "Carrer Ample", "amenity": "restaurant", "entrance": "yes", "name": "Se\u00f1or Burrito"}}, {"type": "node", "id": 6264834185, "lat": 41.3862163, "lon": 2.1827612, "tags": {"addr:city": "Barcelona", "addr:housenumber": "3", "addr:postcode": "08003", "addr:street": "Carrer de la Fusina", "amenity": "restaurant", "bar": "yes", "cuisine": "burger;salad;pasta;italian;german;dessert;chicken;bagel;tapas;american;sandwich", "highchair": "yes", "name": "K\u00f6nig", "opening_hours": "Mo-Su 08:30-24:00", "outdoor_seating": "yes", "phone": "+34935416571", "sorting_name": "K\u00f6nig Barcelona Born", "toilets": "customers", "website": "https://www.konig.cat"}}, {"type": "node", "id": 6298115913, "lat": 41.3774834, "lon": 2.1900137, "tags": {"addr:housenumber": "69", "addr:postcode": "08003", "addr:street": "Carrer del Baluard", "air_conditioning": "yes", "alt_name": "NAP", "amenity": "restaurant", "bar": "no", "capacity": "96", "check_date": "2024-03-24", "contact:instagram": "nap_official", "cuisine": "italian_pizza;pizza", "delivery": "yes", "internet_access": "wlan", "internet_access:fee": "customers", "level": "0", "name": "N.A.P.", "outdoor_seating": "no", "payment:mastercard": "yes", "payment:visa": "yes", "source": "survey", "takeaway": "yes", "toilets": "yes", "toilets:wheelchair": "yes", "website": "https://www.napofficial.com/"}}, {"type": "node", "id": 6394361784, "lat": 41.380127, "lon": 2.1797562, "tags": {"addr:housenumber": "20", "addr:street": "Carrer ample", "amenity": "restaurant", "cuisine": "latin_american", "name": "Machete"}}, {"type": "node", "id": 6397804286, "lat": 41.387646, "lon": 2.1760835, "tags": {"amenity": "restaurant", "cuisine": "arab", "name": "Damasco"}}, {"type": "node", "id": 6397804287, "lat": 41.3860344, "lon": 2.177176, "tags": {"amenity": "cafe", "name": "365", "name:ca": "365", "opening_hours": "Mo-Su 06:00-22:00"}}, {"type": "node", "id": 6397804533, "lat": 41.3864282, "lon": 2.1775144, "tags": {"amenity": "restaurant", "name": "El Piolindo"}}, {"type": "node", "id": 6400682245, "lat": 41.3902138, "lon": 2.1909083, "tags": {"addr:city": "Barcelona", "addr:housenumber": "40", "addr:postcode": "08005", "addr:street": "Carrer de Ramon Trias Fargas", "amenity": "cafe", "name": "El Caf\u00e8 de la Pompeu"}}, {"type": "node", "id": 6404128402, "lat": 41.3855097, "lon": 2.1830789, "tags": {"amenity": "restaurant", "name": "Morelio"}}, {"type": "node", "id": 6417377185, "lat": 41.3831626, "lon": 2.1773855, "tags": {"addr:housenumber": "10", "addr:postcode": "08002", "addr:street": "Carrer de la Llibreteria", "amenity": "restaurant", "cuisine": "italian_pizza", "name": "Pizzer\u00eda Da Nanni", "opening_hours": "Mo-Su 12:00-22:30"}}, {"type": "node", "id": 6417709101, "lat": 41.3892336, "lon": 2.1791039, "tags": {"addr:city": "Barcelona", "addr:housenumber": "10", "addr:postcode": "08003", "addr:street": "Pla\u00e7a de Sant Pere", "amenity": "restaurant", "contact:facebook": "https://www.facebook.com/pg/www.lamezcla.es/", "cuisine": "pizza", "diet:vegan": "yes", "diet:vegetarian": "yes", "name": "La Mezcla", "opening_hours": "Mo-Su 12:00-24:00", "phone": "+34 930 11 04 22"}}, {"type": "node", "id": 6422398585, "lat": 41.3831411, "lon": 2.1773673, "tags": {"amenity": "cafe", "name": "pizzeria da nanni"}}, {"type": "node", "id": 6427641870, "lat": 41.3673376, "lon": 2.1881977, "tags": {"addr:city": "Barcelona", "addr:housenumber": "103", "addr:postcode": "08039", "addr:street": "Passeig de Joan de Borb\u00f3", "amenity": "restaurant", "name": "Camping Mar"}}, {"type": "node", "id": 6438381289, "lat": 41.3883674, "lon": 2.1779512, "tags": {"addr:housenumber": "6", "addr:street": "Carrer d'en M\u00f2nec", "amenity": "cafe", "cuisine": "coffee_shop", "indoor_seating": "yes", "name": "Vera Caf\u00e9", "old_name": "La Masala Caf\u00e9", "outdoor_seating": "yes"}}, {"type": "node", "id": 6440208925, "lat": 41.3850199, "lon": 2.1850428, "tags": {"addr:city": "Barcelona", "addr:housenumber": "19", "addr:postcode": "08003", "addr:street": "Avinguda del Marqu\u00e8s de l'Argentera", "amenity": "restaurant", "email": "borne@buonappetito.es", "name": "Pizzeria Buon Appetito", "phone": "+34 932687633", "website": "https://www.buonappetito.es"}}, {"type": "node", "id": 6440843071, "lat": 41.3671038, "lon": 2.1892356, "tags": {"addr:city": "Barcelona", "addr:housenumber": "103", "addr:postcode": "08039", "addr:street": "Passeig de Joan de Borb\u00f3", "addr:unit": "8", "amenity": "restaurant", "brewery": "various", "cuisine": "spanish;regional;fish", "email": "lidiacamacho@portvelabcn.com", "name": "Port Vela. La cerveseria del rompeolas", "phone": "+34933568342", "website": "https://portvelabcn.com/"}}, {"type": "node", "id": 6442056586, "lat": 41.3866781, "lon": 2.1814478, "tags": {"addr:housenumber": "24", "addr:street": "Carrer d'en Tantarantana", "amenity": "restaurant", "check_date": "2023-10-29", "cuisine": "russian", "name": "tantarantana", "opening_hours": "PH,Mo-Su 13:00-24:00", "wheelchair": "no"}}, {"type": "node", "id": 6517632586, "lat": 41.3756018, "lon": 2.183174, "tags": {"addr:housenumber": "5", "addr:street": "Moll d'Espanya", "amenity": "restaurant", "name": "The Good Burger", "short_name": "TGB"}}, {"type": "node", "id": 6538040991, "lat": 41.391752, "lon": 2.1903336, "tags": {"amenity": "restaurant", "name": "Marina 65"}}, {"type": "node", "id": 6557477328, "lat": 41.3782387, "lon": 2.1886331, "tags": {"addr:city": "Barcelona", "addr:country": "ES", "addr:postcode": "08003", "amenity": "restaurant", "contact:email": "lamalandrinabcn@gmail.com", "contact:facebook": "https://www.facebook.com/pg/lamalandrinabcn", "contact:phone": "+34 603621939", "cuisine": "uruguayan;argentinian", "name": "La Malandrina", "opening_hours": "Mo-Su 13:30-00:00", "payment:mastercard": "yes", "payment:visa": "yes", "takeaway": "yes"}}, {"type": "node", "id": 6634324593, "lat": 41.381695, "lon": 2.1889625, "tags": {"addr:housenumber": "22", "addr:postcode": "08003", "addr:street": "Carrer de Ginebra", "amenity": "restaurant", "contact:facebook": "https://www.facebook.com/elsopapu", "cuisine": "tapas", "name": "El Sopapu", "phone": "+34 651 62 85 71"}}, {"type": "node", "id": 6634324687, "lat": 41.3799304, "lon": 2.1880541, "tags": {"addr:housenumber": "1-3", "addr:postcode": "08003", "addr:street": "Pla\u00e7a de la Barceloneta", "amenity": "restaurant", "cuisine": "tapas", "name": "L'\u00d2stia", "phone": "+34 932 21 47 58", "website": "https://www.lostiabcn.com/"}}, {"type": "node", "id": 6677789388, "lat": 41.3838806, "lon": 2.1831753, "tags": {"amenity": "restaurant", "name": "Celler de la ribera", "name:ca": "Celler de la ribera", "name:fr": "Restaurant vinateria"}}, {"type": "node", "id": 6680687871, "lat": 41.3768035, "lon": 2.1888904, "tags": {"addr:city": "Barcelona", "addr:housenumber": "58-59", "addr:neighbourhood": "Barceloneta", "addr:postcode": "08003", "addr:street": "Passeig de Joan de Borb\u00f3", "amenity": "restaurant", "contact:facebook": "restlamarsalada", "contact:instagram": "restlamarsalada", "contact:twitter": "restlamarsalada", "cuisine": "seafood;fish;mediterranean", "indoor_seating": "yes", "name": "La Mar Salada", "opening_hours": "We-Mo", "outdoor_seating": "sidewalk", "phone": "+342212127;+342211015", "reservation": "yes", "website": "https://www.lamarsalada.cat", "website:booking": "https://www.lamarsalada.cat/ca/reserves.html", "website:menu": "https://www.lamarsalada.cat/ca/la-carta.html", "wheelchair": "yes"}}, {"type": "node", "id": 6690595779, "lat": 41.380334, "lon": 2.1799583, "tags": {"addr:city": "Barcelona", "addr:housenumber": "26", "addr:postcode": "08002", "addr:street": "Carrer Ample", "air_conditioning": "yes", "amenity": "restaurant", "cuisine": "regional;tapas;spanish;catalan", "indoor_seating": "yes", "name": "Sensi Tapas", "opening_hours": "Mo-Su 18:30-24:00", "outdoor_seating": "no", "phone": "+34932956588", "reservation": "yes", "website": "http://www.sensi.es/tapas"}}, {"type": "node", "id": 6707513211, "lat": 41.3798822, "lon": 2.1765593, "tags": {"amenity": "restaurant", "cuisine": "italian_pizza", "name:en": "Made in Sicily"}}, {"type": "node", "id": 6710510485, "lat": 41.3849142, "lon": 2.1757337, "tags": {"amenity": "restaurant", "indoor_seating": "yes", "name": "Catedral 1951", "outdoor_seating": "yes"}}, {"type": "node", "id": 6718482618, "lat": 41.3768415, "lon": 2.1774088, "tags": {"addr:housenumber": "4", "addr:postcode": "08002", "addr:street": "Pla\u00e7a del Portal de la Pau", "amenity": "restaurant", "contact:facebook": "thegrillbarcelona", "contact:instagram": "thegrillbarcelona", "cuisine": "steak_house", "email": "hello@thegrillbarcelona.es", "entrance": "yes", "name": "The Grill Barcelona", "opening_hours": "Mo-Su 12:00-23:00", "phone": "+34 936 67 78 94", "website": "https://thegrillbarcelona.es/"}}, {"type": "node", "id": 6796074986, "lat": 41.3838629, "lon": 2.183524, "tags": {"addr:housenumber": "3", "addr:postcode": "08003", "addr:street": "Carrer de Rere Palau", "amenity": "restaurant", "cuisine": "italian", "name": "Gravin", "opening_hours": "We-Su 13:00-16:30, 20:00-23:30; Mo-Tu 19:30-23:30", "phone": "+34932684628"}}, {"type": "node", "id": 6831238186, "lat": 41.3817478, "lon": 2.1839482, "tags": {"addr:housenumber": "11", "addr:street": "Pas de Sota Muralla", "amenity": "restaurant", "diet:vegan": "yes", "diet:vegetarian": "only", "dog": "yes", "email": "reservas.greenspot@encompaniadelobos.com", "internet_access": "wlan", "internet_access:fee": "no", "name": "The Green Spot", "opening_hours": "00:00-01:00, 13:00-17:00, 19:30-00:00", "payment:cards": "yes", "payment:cash": "yes", "phone": "+34 938 02 55 65", "service:electricity": "limited", "website": "https://www.encompaniadelobos.com/the-green-spot/"}}, {"type": "node", "id": 6835358009, "lat": 41.3874075, "lon": 2.1828282, "tags": {"addr:housenumber": "59", "addr:postcode": "08003", "addr:street": "Carrer de la Princesa", "amenity": "restaurant", "cuisine": "italian;pizza", "delivery": "yes", "internet_access": "no", "name": "Murivecci", "outdoor_seating": "yes", "phone": "+3493152297", "toilets": "yes", "toilets:access": "customers"}}, {"type": "node", "id": 6855579285, "lat": 41.3840313, "lon": 2.1825621, "tags": {"addr:housenumber": "4", "addr:postcode": "08003", "addr:street": "Passeig del Born", "amenity": "restaurant", "check_date": "2024-07-20", "name": "Orvey"}}, {"type": "node", "id": 6894881085, "lat": 41.3805026, "lon": 2.1793779, "tags": {"amenity": "restaurant", "name:en": "Ramen shop"}}, {"type": "node", "id": 6914133289, "lat": 41.3821946, "lon": 2.1886984, "tags": {"addr:housenumber": "16", "addr:postcode": "08003", "addr:street": "Carrer de Balboa", "amenity": "restaurant", "cuisine": "tapas", "name": "Restaurant Segons Mercat Barceloneta"}}, {"type": "node", "id": 6916232185, "lat": 41.3841896, "lon": 2.1804778, "tags": {"amenity": "cafe", "name:en": "MAG by El Magnifico"}}, {"type": "node", "id": 6918701587, "lat": 41.3771528, "lon": 2.1904181, "tags": {"addr:housenumber": "52", "addr:street": "Carrer Meer", "amenity": "cafe", "branch": "House BCN", "brand": "CoCo", "brand:wikidata": "Q65084369", "cuisine": "bubble_tea", "delivery": "yes", "delivery:partner": "Glovo", "diet:vegan": "yes", "diet:vegetarian": "only", "internet_access": "wlan", "name": "CoCo Fresh Tea & Juice", "opening_hours": "Tu-Su 09:00-21:00", "phone": "+34 722 12 12 57", "short_name": "CoCo", "takeaway": "yes"}}, {"type": "node", "id": 6924395971, "lat": 41.3807402, "lon": 2.1807539, "tags": {"addr:city": "Barcelona", "addr:country": "ES", "addr:housenumber": "23", "addr:postcode": "08002", "addr:street": "Carrer de la Merc\u00e8", "amenity": "restaurant", "cuisine": "tapas", "email": "info@docketbarcelona.com", "name": "Docket", "phone": "+34 680 60 58 35", "reservation": "yes", "website": "http://www.docketbarcelona.com/"}}, {"type": "node", "id": 6946328085, "lat": 41.3855109, "lon": 2.1810205, "tags": {"addr:housenumber": "11", "addr:street": "Carrer Cremat Gran i Xic", "amenity": "restaurant", "diet:kosher": "no", "internet_access": "wlan", "name": "Cremat 11", "name:ca": "Cremat 11", "opening_hours": "Mo-Su 10:00-00:00", "outdoor_seating": "yes", "toilets": "yes"}}, {"type": "node", "id": 6966372485, "lat": 41.385866, "lon": 2.1781292, "tags": {"amenity": "restaurant", "name": "casa maria y rufo"}}, {"type": "node", "id": 7016593043, "lat": 41.3816987, "lon": 2.1869884, "tags": {"amenity": "restaurant", "diet:vegetarian": "yes", "name": "Smyrna"}}, {"type": "node", "id": 7016638934, "lat": 41.3816228, "lon": 2.1870013, "tags": {"amenity": "restaurant", "diet:vegan": "yes", "diet:vegetarian": "yes", "name": "Kapadokya"}}, {"type": "node", "id": 7092025085, "lat": 41.3800739, "lon": 2.179725, "tags": {"addr:street": "Carrer Ample", "amenity": "restaurant", "name": "Don Ramon Taqueria"}}, {"type": "node", "id": 7099960186, "lat": 41.387805, "lon": 2.1781701, "tags": {"addr:housenumber": "54", "addr:street": "Carrer de Sant Pere M\u00e9s Baix", "amenity": "cafe", "check_date": "2023-02-19", "diet:gluten_free": "yes", "diet:vegan": "yes", "indoor_seating": "no", "name": "Couleur Caf\u00e9", "outdoor_seating": "no", "payment:credit_cards": "yes", "payment:debit_cards": "yes", "takeaway": "only"}}, {"type": "node", "id": 7099965586, "lat": 41.389247, "lon": 2.1803239, "tags": {"amenity": "restaurant", "name": "Les Dues", "name:es": "Les Dues Sicilies"}}, {"type": "node", "id": 7119061985, "lat": 41.3802194, "lon": 2.1807356, "tags": {"amenity": "restaurant", "check_date": "2023-09-27", "name": "Restaurante Informal"}}, {"type": "node", "id": 7141587085, "lat": 41.3815426, "lon": 2.1767152, "tags": {"addr:housenumber": "3", "addr:street": "Baixada de Sant Miquel", "amenity": "restaurant", "cuisine": "regional", "diet:vegan": "yes", "diet:vegetarian": "only", "indoor_seating": "yes", "name": "La Cereria", "opening_hours": "Mo-Su 13:00-00:00", "outdoor_seating": "yes", "phone": "+34 933 01 85 10"}}, {"type": "node", "id": 7155123486, "lat": 41.3837871, "lon": 2.1850457, "tags": {"addr:housenumber": "6", "addr:postcode": "08003", "addr:street": "Carrer d'Ocata", "amenity": "restaurant", "name": "laestrella", "name:es": "la estrella", "opening_hours": "Mo-Su 13:30-16:00, 20:45-23:30", "phone": "+34933102768", "website": "http://www.rst-laestrella.com"}}, {"type": "node", "id": 7177389087, "lat": 41.391908, "lon": 2.1865038, "tags": {"amenity": "cafe", "check_date": "2023-11-18", "cuisine": "coffee_shop", "internet_access": "wlan", "internet_access:fee": "no", "name": "Juice Dudes", "name:en": "Juice Dudes", "outdoor_seating": "yes", "payment:cash": "yes", "payment:mastercard": "yes", "payment:visa": "yes", "wheelchair": "yes"}}, {"type": "node", "id": 7249235285, "lat": 41.3898014, "lon": 2.1842008, "tags": {"amenity": "cafe", "check_date": "2023-09-27", "name": "Euro"}}, {"type": "node", "id": 7256335385, "lat": 41.3833296, "lon": 2.18343, "tags": {"addr:housenumber": "13", "addr:street": "Pla de Palau", "amenity": "restaurant", "name": "Sagas"}}, {"type": "node", "id": 7526992858, "lat": 41.3853196, "lon": 2.1829992, "tags": {"addr:city": "Barcelona", "addr:housenumber": "27", "addr:postcode": "08003", "addr:street": "Passeig del Born", "amenity": "restaurant", "cuisine": "spanish;tapas;regional", "email": "hola@calabrasa.com", "mobile": "+39648745910", "name": "Calabrasa", "operator": "Cooking Gallery S.L.", "phone": "+34933100786", "website": "https://www.calabrasa.com/"}}, {"type": "node", "id": 7614795890, "lat": 41.3853411, "lon": 2.1806068, "tags": {"addr:city": "Barcelona", "addr:postcode": "08003", "addr:street": "Carrer de Montcada", "amenity": "cafe", "bar": "yes", "name": "Brunells", "toilets": "customers"}}, {"type": "node", "id": 7640329151, "lat": 41.3873422, "lon": 2.1815598}, {"type": "node", "id": 7643827686, "lat": 41.3848412, "lon": 2.1777321}, {"type": "node", "id": 8008894787, "lat": 41.3897774, "lon": 2.180809, "tags": {"addr:housenumber": "61", "addr:street": "Carrer del Portal Nou", "amenity": "restaurant", "internet_access": "wlan", "name": "Rinc\u00f3n de Galicia"}}, {"type": "node", "id": 8041912186, "lat": 41.3773507, "lon": 2.1893813, "tags": {"addr:city": "Barcelona", "addr:housenumber": "7", "addr:neighbourhood": "Barceloneta", "addr:postcode": "08003", "addr:street": "Carrer d'Em\u00edlia Llorca Mart\u00edn", "amenity": "restaurant", "contact:facebook": "canros.taverna1908", "contact:instagram": "canros_taverna1908", "cuisine": "catalan;spanish;seafood;fish;mediterranean", "name": "Can Ros", "name:ca": "Can Ros", "opening_hours": "Tu-Su", "phone": "+34932214579;+34932215049", "reservation": "yes", "start_date": "1908", "website": "https://www.canros.cat", "website:booking": "https://www.canros.cat/ca/reserves.html", "website:menu": "https://www.canros.cat/ca/la-carta.html"}}, {"type": "node", "id": 8148332717, "lat": 41.390899, "lon": 2.1856108, "tags": {"addr:housenumber": "25", "addr:postcode": "08018", "addr:street": "Passeig de Pujades", "amenity": "restaurant", "check_date:opening_hours": "2025-04-22", "cuisine": "pizza", "diet:vegan": "yes", "diet:vegetarian": "yes", "name": "Restaurant del Barri", "opening_hours": "Mo-Su 13:00-23:30", "phone": "+34936243749", "wheelchair": "yes"}}, {"type": "node", "id": 8148354217, "lat": 41.3847952, "lon": 2.1848402, "tags": {"amenity": "cafe", "indoor_seating": "yes", "name": "Cafeteria Navia", "outdoor_seating": "yes"}}, {"type": "node", "id": 8422920717, "lat": 41.38218, "lon": 2.1887375, "tags": {"amenity": "restaurant", "name": "Bistro del Mercat"}}, {"type": "node", "id": 8431796310, "lat": 41.3689819, "lon": 2.1884676}, {"type": "node", "id": 8431796311, "lat": 41.3690262, "lon": 2.1880544}, {"type": "node", "id": 8431796312, "lat": 41.3687145, "lon": 2.188}, {"type": "node", "id": 8431796313, "lat": 41.3686706, "lon": 2.1884121}, {"type": "node", "id": 8433008018, "lat": 41.3844728, "lon": 2.1817735, "tags": {"addr:city": "Barcelona", "addr:housenumber": "22", "addr:postcode": "08003", "addr:street": "Carrer de Montcada", "amenity": "restaurant", "bar": "yes", "brand": "Grupo Varela", "cuisine": "catalan;mediterranean", "description": "Tradicional bodega del Born reconvertida en restaurant i obligat punt de reuni\u00f3 per amants del bon tapeig i el vermut casol\u00e0", "name": "Bodega La Puntual", "opening_hours": "We-Su 12:30-24:00", "phone": "+34 933 10 35 45", "website": "https://grupovarela.es/bodega-la-puntual-barcelona/"}}, {"type": "node", "id": 8524774223, "lat": 41.3804406, "lon": 2.1859557, "tags": {"addr:city": "Barcelona", "addr:housenumber": "1", "addr:postcode": "08039", "addr:street": "Pla\u00e7a de Pau Vila", "air_conditioning": "yes", "amenity": "restaurant", "cuisine": "regional", "image": "http://www.merenderodelamari.com/media/88_2-2-rest.jpg", "indoor_seating": "yes", "internet_access": "wlan", "name": "Merendero de la Mari", "opening_hours:covid19": "Tu-Su 12:45-16:00", "outdoor_seating": "yes", "phone": "+34 932 213 141", "smoking": "outside", "website": "http://www.merenderodelamari.com", "wheelchair": "yes"}}, {"type": "node", "id": 8661982617, "lat": 41.3780341, "lon": 2.1790132, "tags": {"amenity": "cafe", "name": "Gran Torino"}}, {"type": "node", "id": 8778940926, "lat": 41.3887745, "lon": 2.1812776, "tags": {"addr:street": "Carrer del Comer\u00e7", "amenity": "cafe", "name": "The Little Basket"}}, {"type": "node", "id": 8827206050, "lat": 41.3852749, "lon": 2.1826844, "tags": {"amenity": "restaurant", "cuisine": "italian", "name": "Pizzeria da Nanni"}}, {"type": "node", "id": 8888367404, "lat": 41.3771025, "lon": 2.1777049, "tags": {"amenity": "restaurant", "cuisine": "lebanese", "diet:halal": "yes", "name": "Beirut"}}, {"type": "node", "id": 8934163417, "lat": 41.3823111, "lon": 2.1820347, "tags": {"amenity": "restaurant", "cuisine": "pasta", "name": "Tucco Real Food"}}, {"type": "node", "id": 9064017117, "lat": 41.3909365, "lon": 2.1878885, "tags": {"addr:housenumber": "52", "addr:postcode": "08005", "addr:street": "Carrer de Wellington", "amenity": "restaurant", "check_date": "2023-10-28", "contact:instagram": "eltigrebarcelona", "name": "El Tigre", "opening_hours": "Mo-Su 16:00-00:00", "phone": "+34698361046"}}, {"type": "node", "id": 9070831817, "lat": 41.3834485, "lon": 2.1803594, "tags": {"addr:housenumber": "4", "addr:postcode": "08003", "addr:street": "Carrer de Manresa", "amenity": "restaurant", "diet:vegan": "yes", "diet:vegetarian": "only", "name": "Vegan Junk Food Bar", "name:en": "Vegan Junk Food Bar", "opening_hours": "Mo-Su 12:00-01:00", "website": "https://veganjunkfoodbar.com/"}}, {"type": "node", "id": 9097611459, "lat": 41.3854642, "lon": 2.1831067, "tags": {"amenity": "restaurant", "bar": "yes", "check_date": "2023-10-10", "contact:instagram": "https://www.instagram.com/muchachobcn/", "cuisine": "sandwich;burger", "name": "Muchacho", "outdoor_seating": "yes", "payment:cash": "yes", "payment:mastercard": "yes", "payment:visa": "yes", "wheelchair": "limited"}}, {"type": "node", "id": 9100676517, "lat": 41.3830679, "lon": 2.1810003, "tags": {"amenity": "restaurant", "cuisine": "spanish", "name": "Transatlantic"}}, {"type": "node", "id": 9101427117, "lat": 41.3865298, "lon": 2.1799483, "tags": {"amenity": "cafe", "check_date": "2025-06", "indoor_seating": "yes", "name": "Espai Puntal", "name:ca": "Espai Puntal", "outdoor_seating": "yes"}}, {"type": "node", "id": 9180423916, "lat": 41.3847924, "lon": 2.1954008, "tags": {"amenity": "cafe", "name": "Proa a la Mar"}}, {"type": "node", "id": 9232602213, "lat": 41.380541, "lon": 2.186187, "tags": {"amenity": "restaurant", "cuisine": "italian", "indoor_seating": "yes", "name": "Molo 39", "outdoor_seating": "yes"}}, {"type": "node", "id": 9232609804, "lat": 41.3813131, "lon": 2.1852561, "tags": {"amenity": "restaurant", "brand": "La Tagliatella", "brand:wikidata": "Q113426257", "cuisine": "italian", "diet:gluten_free": "yes", "name": "La Tagliatella", "website": "https://www.latagliatella.es/ca"}}, {"type": "node", "id": 9232609805, "lat": 41.3810857, "lon": 2.1850477, "tags": {"amenity": "restaurant", "cuisine": "italian", "name": "Terrazza Ravello"}}, {"type": "node", "id": 9232609806, "lat": 41.3808441, "lon": 2.1851194, "tags": {"amenity": "restaurant", "indoor_seating": "yes", "name": "B-One", "outdoor_seating": "yes"}}, {"type": "node", "id": 9232609807, "lat": 41.3809285, "lon": 2.1849375, "tags": {"amenity": "restaurant", "indoor_seating": "yes", "name": "Brisa", "name:ca": "Brisa", "outdoor_seating": "yes"}}, {"type": "node", "id": 9232814495, "lat": 41.3758395, "lon": 2.1877915, "tags": {"amenity": "cafe", "name": "La Cala", "name:ca": "La Cala"}}, {"type": "node", "id": 9233229729, "lat": 41.3821319, "lon": 2.1818767, "tags": {"amenity": "restaurant", "name": "Pork"}}, {"type": "node", "id": 9233270346, "lat": 41.3832294, "lon": 2.1819437, "tags": {"amenity": "restaurant", "indoor_seating": "yes", "name": "Santa Maria Del Mar", "outdoor_seating": "yes"}}, {"type": "node", "id": 9233270347, "lat": 41.383399, "lon": 2.1816366, "tags": {"addr:city": "Barcelona", "addr:housenumber": "7", "addr:postcode": "08003", "addr:street": "Pla\u00e7a de Santa Maria", "amenity": "cafe", "name": "demasie", "outdoor_seating": "yes", "website": "https://cookiesdemasie.com"}}, {"type": "node", "id": 9233270350, "lat": 41.3840183, "lon": 2.1805566, "tags": {"amenity": "restaurant", "name": "El Convent", "name:ca": "El Convent"}}, {"type": "node", "id": 9233380571, "lat": 41.3903947, "lon": 2.1784461, "tags": {"amenity": "cafe", "indoor_seating": "yes", "name": "365", "name:ca": "365", "outdoor_seating": "no"}}, {"type": "node", "id": 9240224983, "lat": 41.3902569, "lon": 2.1773795, "tags": {"amenity": "cafe", "check_date": "2024-01-14", "name": "T\u00eate-\u00e0-t\u00eate"}}, {"type": "node", "id": 9240224984, "lat": 41.390137, "lon": 2.177109, "tags": {"amenity": "restaurant", "check_date": "2024-07-03", "cuisine": "brunch;breakfast;lunch;american", "name": "Gringa", "opening_hours": "Th-Mo 10:00-16:00", "outdoor_seating": "yes"}}, {"type": "node", "id": 9241043556, "lat": 41.3899052, "lon": 2.1757721, "tags": {"amenity": "cafe", "check_date": "2024-07-17", "name": "Vivari"}}, {"type": "node", "id": 9241335525, "lat": 41.3803667, "lon": 2.1770704, "tags": {"amenity": "restaurant", "name": "l'Orwell"}}, {"type": "node", "id": 9241427584, "lat": 41.3836448, "lon": 2.182613, "tags": {"amenity": "restaurant", "check_date": "2023-10-29", "cuisine": "tapas", "name": "Bastaix"}}, {"type": "node", "id": 9241570025, "lat": 41.3857652, "lon": 2.1827517, "tags": {"amenity": "restaurant", "name": "Loft del Born"}}, {"type": "node", "id": 9241600952, "lat": 41.3870592, "lon": 2.1821562, "tags": {"amenity": "restaurant", "cuisine": "vietnamese", "name": "La Vietnamita"}}, {"type": "node", "id": 9241600953, "lat": 41.388423, "lon": 2.1813493, "tags": {"amenity": "restaurant", "name": "The King"}}, {"type": "node", "id": 9429021618, "lat": 41.3746828, "lon": 2.1830983, "tags": {"amenity": "restaurant", "cuisine": "pizza", "name": "el Rac\u00f3", "name:ca": "el Rac\u00f3", "survey:date": "2022-01-18"}}, {"type": "node", "id": 9429021627, "lat": 41.3747518, "lon": 2.1826554, "tags": {"amenity": "cafe", "brand": "Starbucks", "brand:wikidata": "Q37158", "brand:wikipedia": "en:Starbucks", "check_date": "2023-04-26", "cuisine": "coffee_shop", "diet:gluten_free": "yes", "level": "1", "name": "Starbucks", "name:ca": "Starbucks", "official_name": "Starbucks Coffee", "survey:date": "2022-01-18", "takeaway": "yes"}}, {"type": "node", "id": 9429053017, "lat": 41.375109, "lon": 2.1834101, "tags": {"amenity": "restaurant", "name": "Kurz & Gut", "outdoor_seating": "yes", "survey:date": "2022-01-18"}}, {"type": "node", "id": 9431243717, "lat": 41.3748975, "lon": 2.1823064, "tags": {"amenity": "cafe", "level": "1", "name": "Lavazza", "survey:date": "2022-01-18"}}, {"type": "node", "id": 9587321616, "lat": 41.3878275, "lon": 2.1980775, "tags": {"amenity": "restaurant", "name": "Chicken"}}, {"type": "node", "id": 9719844417, "lat": 41.3792173, "lon": 2.1770987, "tags": {"amenity": "restaurant", "name": "Bodega Biarritz"}}, {"type": "node", "id": 9765594623, "lat": 41.3748486, "lon": 2.183238, "tags": {"addr:housenumber": "5", "addr:street": "Moll D'espanya", "amenity": "restaurant", "check_date": "2023-04-26", "name": "Mirando al Mar"}}, {"type": "node", "id": 9909684480, "lat": 41.3775711, "lon": 2.1909111}, {"type": "node", "id": 9909684481, "lat": 41.3775268, "lon": 2.1907079}, {"type": "node", "id": 9909684482, "lat": 41.3774253, "lon": 2.1907508}, {"type": "node", "id": 9909684483, "lat": 41.3774649, "lon": 2.1909564}, {"type": "node", "id": 9947235518, "lat": 41.3898649, "lon": 2.195045, "tags": {"amenity": "cafe", "name": "Caf\u00e9 Ninoska"}}, {"type": "node", "id": 9947235519, "lat": 41.3894455, "lon": 2.195339, "tags": {"amenity": "restaurant", "name": "Lucuma"}}, {"type": "node", "id": 9955153602, "lat": 41.3794466, "lon": 2.1904443, "tags": {"addr:housenumber": "29", "addr:street": "Carrer de Sant Carles", "amenity": "restaurant", "name": "Compa Barceloneta", "opening_hours": "Mo-Su 11:00-22:00", "phone": "+34623 31 22 82"}}, {"type": "node", "id": 9991582417, "lat": 41.3807259, "lon": 2.1883769, "tags": {"amenity": "cafe", "name:en": "La plateja"}}, {"type": "node", "id": 10053501417, "lat": 41.3846569, "lon": 2.1775475, "tags": {"amenity": "restaurant", "name:de": "Restaurant Gloria"}}, {"type": "node", "id": 10055652419, "lat": 41.3803225, "lon": 2.177077, "tags": {"amenity": "cafe", "diet:vegan": "only", "name": "Santa Vegana", "outdoor_seating": "yes"}}, {"type": "node", "id": 10090625920, "lat": 41.3813792, "lon": 2.1784211, "tags": {"amenity": "cafe", "contact:instagram": "https://www.instagram.com/vegan_corner_bcn/", "diet:vegan": "only", "diet:vegetarian": "only", "name": "The Vegan Corner", "opening_hours": "Mo-Th 10:00-21:00; Fr-Su 09:00-23:00", "outdoor_seating": "yes", "website": "https://vegancornerbcn.com/"}}, {"type": "node", "id": 10103827417, "lat": 41.3799992, "lon": 2.17684, "tags": {"addr:housenumber": "30", "addr:postcode": "08002", "addr:street": "Carrer dels Escudellers", "amenity": "restaurant", "cuisine": "chinese", "name": "Lady Dumpling", "opening_hours": "Mo-Su 12:00-00:00", "website": "https://www.ladydumpling.com/"}}, {"type": "node", "id": 10171120675, "lat": 41.3841479, "lon": 2.1842622, "tags": {"amenity": "cafe", "name": "Lulu & Flyn"}}, {"type": "node", "id": 10171120676, "lat": 41.3846491, "lon": 2.1832799, "tags": {"amenity": "cafe", "name": "Juice Dudes"}}, {"type": "node", "id": 10172005117, "lat": 41.3863252, "lon": 2.1760826, "tags": {"amenity": "cafe", "name": "Miocid"}}, {"type": "node", "id": 10173277888, "lat": 41.3895187, "lon": 2.1809892, "tags": {"amenity": "restaurant", "diet:vegetarian": "only", "name": "El Montana"}}, {"type": "node", "id": 10174499742, "lat": 41.3864641, "lon": 2.1813047, "tags": {"amenity": "restaurant", "name": "Caliu"}}, {"type": "node", "id": 10178380228, "lat": 41.3816252, "lon": 2.1834724, "tags": {"addr:city": "Barcelona", "addr:housenumber": "6", "addr:postcode": "08003", "addr:street": "Carrer de la Reina Cristina", "amenity": "restaurant", "contact:email": "reserves@sagardi.com", "contact:facebook": "https://www.facebook.com/profile.php?id=61552433828617", "contact:instagram": "https://www.instagram.com/restaurantecadaques/", "contact:mobile": "+34679202040", "cuisine": "seafood;regional", "name": "Cadaqu\u00e9s", "opening_hours": "Mo-Su 03:00-01:00", "operator": "Sagardi Group", "phone": "+34932687033", "phone:reservation": "+34679202040", "reservation": "yes", "website": "https://restaurantecadaques.com", "website:menu": "https://links.sagardi.com/qr/CADAQUESBCN/CADAQUESBCN_CARTA_CAT.pdf"}}, {"type": "node", "id": 10178404621, "lat": 41.3839894, "lon": 2.1830381, "tags": {"amenity": "restaurant", "cuisine": "tapas", "name": "Golfo de Bizkaia", "phone": "+34932684888", "website": "https://golfodebizkaia.com/"}}, {"type": "node", "id": 10238252810, "lat": 41.3815555, "lon": 2.1878297, "tags": {"amenity": "restaurant", "cuisine": "tapas", "name": "Jai-Ca", "name:es": "Jai Ca"}}, {"type": "node", "id": 10243172309, "lat": 41.3821485, "lon": 2.1768934, "tags": {"amenity": "restaurant", "check_date": "2023-04-28", "cuisine": "tapas", "name": "Avocados", "survey:date": "2022-12-06"}}, {"type": "node", "id": 10249345709, "lat": 41.3844484, "lon": 2.1820837, "tags": {"addr:housenumber": "5", "addr:street": "Placeta de Montcada", "amenity": "restaurant", "check_date": "2024-07-20", "cuisine": "tapas", "level": "0", "name": "Lonja de Tapas", "opening_hours": "Mo-Su 12:30-24:00; Sa 09:00-17:00; PH closed", "outdoor_seating": "yes", "website": "https://www.familialonja.com/restaurantes-barcelona/restaurante-tapas-vinos-barcelona/", "wheelchair": "limited"}}, {"type": "node", "id": 10302092060, "lat": 41.3869067, "lon": 2.1817034}, {"type": "node", "id": 10304557910, "lat": 41.3856059, "lon": 2.1783604, "tags": {"amenity": "restaurant", "name": "Puerto Plata Dominican Restaurant"}}, {"type": "node", "id": 10586932091, "lat": 41.3808439, "lon": 2.1898027, "tags": {"addr:housenumber": "40", "addr:street": "Carrer de la Maquinista", "amenity": "restaurant", "name": "Nikkis Kitchen BBC", "opening_hours": "We 17:00-00:00; Th-Sa 13:00-00:00; Su 14:00-22:00"}}, {"type": "node", "id": 10587189874, "lat": 41.3842285, "lon": 2.1812325, "tags": {"addr:housenumber": "15", "addr:street": "Carrer dels Banys Vells", "amenity": "restaurant", "name": "Kinza", "opening_hours": "Mo-Su 13:00-00:00", "website": "https://www.kinzabcn.es/"}}, {"type": "node", "id": 10633823082, "lat": 41.3843404, "lon": 2.1831014, "tags": {"addr:housenumber": "9", "addr:street": "Carrer de l'Esparteria", "amenity": "restaurant", "check_date": "2024-02-14", "contact:instagram": "https://www.instagram.com/bodegalatinaja/", "name": "Bodega La Tinaja", "opening_hours": "Mo-Sa 19:00-00:00"}}, {"type": "node", "id": 10650754737, "lat": 41.3803482, "lon": 2.1790765, "tags": {"amenity": "restaurant", "name": "Maracuy\u00e0"}}, {"type": "node", "id": 10701623471, "lat": 41.3808173, "lon": 2.1908353, "tags": {"amenity": "restaurant", "contact:instagram": "https://www.instagram.com/laparrilladabcn/", "contact:phone": "+34692 95 32 16", "name": "La Parrillada Grill Steak House"}}, {"type": "node", "id": 10726689312, "lat": 41.3786255, "lon": 2.1894581, "tags": {"addr:city": "Barcelona", "addr:housenumber": "72", "addr:street": "Carrer del Baluard", "amenity": "restaurant", "cuisine": "colombian", "diet:gluten_free": "only", "name": "Muysca", "phone": "+34 688 31 45 15", "website": "https://www.muysca.es"}}, {"type": "node", "id": 10773675667, "lat": 41.3910247, "lon": 2.1899334, "tags": {"addr:city": "Barcelona", "addr:housenumber": "56", "addr:postcode": "08005", "addr:street": "Carrer de Sardenya", "amenity": "restaurant", "diet:gluten_free": "only", "name": "Manioca", "opening_hours": "Mo-We 11:00-17:15; Th-Fr 11:00-22:30; Sa 10:00-22:30; Su 10:00-20:30", "phone": "+34 934 61 92 25", "website": "https://delivery.manioca.es/"}}, {"type": "node", "id": 10776478605, "lat": 41.3847425, "lon": 2.1802307, "tags": {"addr:housenumber": "2", "addr:street": "Carrer dels Banys Vells", "amenity": "restaurant", "cuisine": "cuban", "name": "Habana vieja"}}, {"type": "node", "id": 10795198305, "lat": 41.3892404, "lon": 2.1788949, "tags": {"amenity": "restaurant", "check_date": "2023-06-25", "name": "Pizzicarolo"}}, {"type": "node", "id": 10837835669, "lat": 41.3795119, "lon": 2.190774, "tags": {"addr:housenumber": "23", "addr:street": "Carrer de Sant Carles", "amenity": "restaurant", "name": "El Xiringo de la Barceloneta", "opening_hours": "Tu-Sa 13:00-16:00, 20:00-23:00; Su 13:00-17:00", "website": "https://elxiringo.wordpress.com/"}}, {"type": "node", "id": 10845729381, "lat": 41.3864879, "lon": 2.1783612, "tags": {"amenity": "cafe", "check_date": "2023-04-27", "cuisine": "coffee_shop", "indoor_seating": "yes", "level": "0", "name": "Barestaurant L'Univers", "operator": "Barestaurant L'Univers S.L.", "outdoor_seating": "yes", "wheelchair": "limited"}}, {"type": "node", "id": 10855830918, "lat": 41.3810227, "lon": 2.190187, "tags": {"amenity": "restaurant", "cuisine": "pizza", "diet:vegan": "no", "diet:vegetarian": "yes", "name": "Acqua & Farina", "opening_hours": "Mo-Fr 13:00-16:00,20:00-24:00; Sa,Su 13:00-16:30,20:00-24:00"}}, {"type": "node", "id": 10870492726, "lat": 41.3776529, "lon": 2.1907594, "tags": {"addr:city": "Barcelona", "addr:housenumber": "23", "addr:postcode": "08003", "addr:street": "Carrer d'Em\u00edlia Llorca Mart\u00edn", "amenity": "restaurant", "cuisine": "mediterranean", "diet:gluten_free": "yes", "email": "info@canmajo.es", "name": "Can Maj\u00f3", "phone": "+34 932 21 54 55", "website": "https://www.canmajo.es"}}, {"type": "node", "id": 10886082181, "lat": 41.3841568, "lon": 2.1849738, "tags": {"amenity": "restaurant"}}, {"type": "node", "id": 10932047436, "lat": 41.3909131, "lon": 2.1984874, "tags": {"addr:housenumber": "63C", "addr:street": "Carrer de Salvador Espriu", "amenity": "restaurant", "check_date": "2024-11-07", "contact:instagram": "https://www.instagram.com/camburpintontestaurante", "cuisine": "venezuelan;arepa", "name": "Cambur Pint\u00f3n", "payment:cash": "yes", "payment:credit_cards": "yes", "payment:debit_cards": "yes", "phone": "+34 687 31 72 13", "wheelchair": "yes"}}, {"type": "node", "id": 10978232881, "lat": 41.3769889, "lon": 2.1906705, "tags": {"amenity": "cafe", "branch": "house", "brand": "CoCo", "brand:wikidata": "Q65084369", "cuisine": "bubble_tea", "name": "CoCo Fresh Tea & Juice", "short_name": "CoCo", "takeaway": "yes"}}, {"type": "node", "id": 11105870857, "lat": 41.3805703, "lon": 2.1770185, "tags": {"amenity": "restaurant", "cuisine": "greek", "diet:vegan": "yes", "diet:vegetarian": "yes", "indoor_seating": "yes", "name": "Dionisos", "opening_hours": "Mo-Th 10:00-24:00; Fr-Su 11:00-01:00", "outdoor_seating": "yes"}}, {"type": "node", "id": 11125983266, "lat": 41.3909745, "lon": 2.1987034, "tags": {"amenity": "restaurant", "check_date": "2023-08-18", "cuisine": "indian", "name": "Taj Mahal"}}, {"type": "node", "id": 11126132357, "lat": 41.3898047, "lon": 2.1950218, "tags": {"addr:housenumber": "131", "addr:street": "Avinguda d'Ic\u00e0ria", "amenity": "restaurant", "check_date": "2024-09-24", "cuisine": "pizza", "name": "Mogollon's", "outdoor_seating": "yes", "payment:mastercard": "yes", "payment:visa": "yes", "self_service": "no", "toilets": "yes", "wheelchair": "limited"}}, {"type": "node", "id": 11139757630, "lat": 41.3818124, "lon": 2.1836457, "tags": {"amenity": "restaurant", "check_date": "2023-08-23", "cuisine": "indian"}}, {"type": "node", "id": 11185626723, "lat": 41.386019, "lon": 2.1777853, "tags": {"amenity": "restaurant", "indoor_seating": "yes", "level": "0", "name": "Veraz", "outdoor_seating": "yes"}}, {"type": "node", "id": 11236462031, "lat": 41.3881324, "lon": 2.1763779, "tags": {"addr:city": "Barcelona", "addr:housenumber": "32", "addr:street": "Carrer de Sant Pere M\u00e9s Alt", "amenity": "cafe", "name": "Syra Coffee", "opening_hours": "Mo-Fr 08:00-18:00; Sa 08:00-20:00", "operator": "Syra", "shop": "coffee", "website": "https://syra.coffee/"}}, {"type": "node", "id": 11262978006, "lat": 41.3813011, "lon": 2.1833839, "tags": {"amenity": "restaurant", "check_date": "2023-10-14", "cuisine": "burger", "name": "Roto's Burger"}}, {"type": "node", "id": 11262978007, "lat": 41.3813785, "lon": 2.1836623, "tags": {"addr:city": "Barcelona", "addr:housenumber": "7", "addr:postcode": "08003", "addr:street": "Pas de Sota Muralla", "amenity": "restaurant", "check_date": "2024-08-15", "contact:instagram": "https://www.instagram.com/elxulo.barcelona", "cuisine": "tapas;spanish", "name": "El Xulo", "opening_hours": "Mo-Su 10:00-03:00", "phone": "+34 931 26 80 87"}}, {"type": "node", "id": 11290540470, "lat": 41.390594, "lon": 2.1852493, "tags": {"addr:city": "Barcelona", "addr:housenumber": "21", "addr:street": "Passeig de Pujades", "amenity": "cafe", "check_date": "2023-11-18", "name": "Flora", "outdoor_seating": "yes"}}, {"type": "node", "id": 11290553399, "lat": 41.3797558, "lon": 2.1804854, "tags": {"addr:city": "Barcelona", "addr:housenumber": "13", "addr:street": "Passeig de Colom", "amenity": "restaurant", "name": "Olentia"}}, {"type": "node", "id": 11290681160, "lat": 41.3775898, "lon": 2.1788976, "tags": {"addr:city": "Barcelona", "addr:housenumber": "23", "addr:street": "Passeig de Colom", "amenity": "restaurant", "name": "Red Cqrter"}}, {"type": "node", "id": 11290681162, "lat": 41.3800893, "lon": 2.1807596, "tags": {"addr:city": "Barcelona", "addr:housenumber": "10", "addr:street": "Passeig de Colom", "amenity": "restaurant", "name": "La flor del norte"}}, {"type": "node", "id": 11295545164, "lat": 41.3897833, "lon": 2.1832645, "tags": {"addr:housenumber": "6", "addr:street": "Passeig de Llu\u00eds Companys", "amenity": "restaurant", "check_date": "2023-10-28", "cuisine": "venezuelan;arepa;empanada;venezuelan_empanada;teque\u00f1o;cachito", "level": "0", "name": "Mr. Da Walter", "outdoor_seating": "yes", "takeaway": "yes"}}, {"type": "node", "id": 11295583534, "lat": 41.3895642, "lon": 2.1838271, "tags": {"addr:housenumber": "5", "addr:street": "Passeig de Pujades", "amenity": "restaurant", "check_date": "2023-10-28", "diet:halal": "yes", "name": "El Parc", "opening_hours": "10:00-01:00", "phone": "+34 632 16 19 12", "toilets:wheelchair": "no", "wheelchair": "no"}}, {"type": "node", "id": 11298097134, "lat": 41.3860664, "lon": 2.1820989, "tags": {"addr:housenumber": "10", "addr:street": "Carrer del Rec", "amenity": "restaurant", "check_date": "2023-10-29", "contact:instagram": "https://www.instagram.com/eat.nudes", "cuisine": "a\u00e7ai", "name": "nudes"}}, {"type": "node", "id": 11309467346, "lat": 41.3791771, "lon": 2.1890259, "tags": {"addr:housenumber": "11", "addr:street": "Carrer de Sant Carles", "amenity": "restaurant", "contact:instagram": "www instagram.com/lasagrada_bcn/", "description": "Hamburguesa", "name": "La Sagrada", "opening_hours": "Fr, Sa 13:00-00:00; Su 13:00-23:00; Mo-Th 13:00-16:00, 20:00-23:00", "phone": "+34 631116298"}}, {"type": "node", "id": 11309549852, "lat": 41.3802284, "lon": 2.1894914, "tags": {"addr:city": "Barcelona", "addr:country": "ES", "addr:housenumber": "1", "addr:postcode": "08003", "addr:street": "plaza Poeta Bosca", "amenity": "restaurant", "contact:facebook": "https://www.facebook.com/Marismanass/", "cuisine": "mediterranean", "name": "Marisma", "outdoor_seating": "yes", "phone": "+34 931422011"}}, {"type": "node", "id": 11346257899, "lat": 41.3835951, "lon": 2.1813841, "tags": {"amenity": "cafe", "name": "Rodrigo"}}, {"type": "node", "id": 11349887807, "lat": 41.3795624, "lon": 2.1782541, "tags": {"addr:housenumber": "16", "addr:street": "Carrer dels C\u00f2dols", "amenity": "restaurant", "name": "Cuyaco", "opening_hours": "Mo-Su 13:00-16:00, 20:00-23:00", "phone": "+34 935 17 75 87", "website": "https://cuyacospain.wixsite.com/cuyaco"}}, {"type": "node", "id": 11352294840, "lat": 41.3900391, "lon": 2.1770942, "tags": {"amenity": "restaurant", "cuisine": "italian", "name": "La Cantina", "opening_hours": "Mo,Tu off"}}, {"type": "node", "id": 11355532109, "lat": 41.3788704, "lon": 2.1788382, "tags": {"amenity": "restaurant", "branch": "El G\u00f3tico", "name": "Frankfurt El G\u00f3tico"}}, {"type": "node", "id": 11356986495, "lat": 41.385258, "lon": 2.1834197, "tags": {"addr:city": "Barcelona", "addr:housenumber": "9", "addr:place": "Pla\u00e7a Comercial", "addr:postcode": "08003", "amenity": "cafe", "branch": "Born", "brand": "ch\u00f6k", "contact:facebook": "https://www.facebook.com/ChokBcn/", "contact:instagram": "https://www.instagram.com/thechokshop", "contact:linkedin": "https://www.linkedin.com/company/thechockshop", "diet:gluten_free": "only", "email": "hola@chok.shop", "name": "ch\u00f6k", "opening_hours": "09:00-21:00", "website": "https://www.chok.shop/"}}, {"type": "node", "id": 11356986496, "lat": 41.3851153, "lon": 2.1832304, "tags": {"amenity": "restaurant", "cuisine": "tapas", "name": "Taperia El Born"}}, {"type": "node", "id": 11359142728, "lat": 41.38127, "lon": 2.1871474, "tags": {"amenity": "cafe", "name": "365"}}, {"type": "node", "id": 11359142731, "lat": 41.3833949, "lon": 2.1833215, "tags": {"amenity": "restaurant", "name": "Rooster & Bubbles"}}, {"type": "node", "id": 11359860808, "lat": 41.387993, "lon": 2.1783882, "tags": {"amenity": "cafe", "name": "Billy Brunch"}}, {"type": "node", "id": 11360063138, "lat": 41.3913802, "lon": 2.1862765, "tags": {"addr:housenumber": "33", "addr:street": "Passeig de Pujades", "amenity": "restaurant", "check_date": "2023-11-18", "name": "La Querida", "outdoor_seating": "yes"}}, {"type": "node", "id": 11360332928, "lat": 41.3853709, "lon": 2.1803709, "tags": {"amenity": "restaurant", "cuisine": "asian", "name": "Udon"}}, {"type": "node", "id": 11360332930, "lat": 41.3852836, "lon": 2.1802606, "tags": {"addr:housenumber": "23", "addr:street": "Carrer de la Princesa", "amenity": "restaurant", "cuisine": "mexican", "name": "La Hacienda"}}, {"type": "node", "id": 11360360422, "lat": 41.3856787, "lon": 2.1809781, "tags": {"amenity": "cafe", "name": "Boheme"}}, {"type": "node", "id": 11443286441, "lat": 41.3859887, "lon": 2.1769036, "tags": {"amenity": "cafe", "name": "Centre Artistic Sant Lluc", "operator": "Centre Art\u00edstic Sant Lluc"}}, {"type": "node", "id": 11508926672, "lat": 41.3914938, "lon": 2.1980089, "tags": {"amenity": "restaurant", "cuisine": "pakistani", "name": "Habib's Restaurante"}}, {"type": "node", "id": 11525160469, "lat": 41.3765783, "lon": 2.1895234, "tags": {"amenity": "restaurant", "name": "Casa Marina Picufi"}}, {"type": "node", "id": 11533551449, "lat": 41.3891453, "lon": 2.1758925, "tags": {"amenity": "cafe", "name": "Talisman", "survey:date": "2024-01-20"}}, {"type": "node", "id": 11560854792, "lat": 41.3924575, "lon": 2.2005534, "tags": {"addr:city": "Barcelona", "addr:place": "Pla\u00e7a de Tirant lo Blanc", "addr:postcode": "08005", "amenity": "restaurant", "cuisine": "pizza", "email": "info@pizzeriagondolabarcelona.es", "name": "Gondola", "phone": "+34 937 42 71 24", "website": "https://pizzeriagondolabarcelona.es/"}}, {"type": "node", "id": 11574026318, "lat": 41.3851453, "lon": 2.1781346, "tags": {"addr:city": "Barcelona", "addr:country": "ES", "addr:housenumber": "20", "addr:postcode": "08003", "addr:street": "Carrer de Mercaders", "amenity": "restaurant", "cuisine": "spanish", "name": "El doble", "phone": "+34680305774"}}, {"type": "node", "id": 11581997670, "lat": 41.3870117, "lon": 2.1823167, "tags": {"addr:housenumber": "53", "addr:street": "Carrer de la Princesa", "amenity": "restaurant", "name": "Bendito Pecado"}}, {"type": "node", "id": 11624046587, "lat": 41.3842839, "lon": 2.1830936, "tags": {"amenity": "restaurant", "check_date": "2024-02-14", "level": "0", "name": "el Set"}}, {"type": "node", "id": 11717262369, "lat": 41.3864674, "lon": 2.1756262, "tags": {"amenity": "cafe", "name": "Xurreria Laietana"}}, {"type": "node", "id": 11752680928, "lat": 41.3916891, "lon": 2.1972141, "tags": {"addr:city": "Barcelona", "addr:housenumber": "153", "addr:postcode": "08005", "addr:street": "Avinguda d'Ic\u00e0ria", "amenity": "restaurant", "cuisine": "brunch;burger;pancake;dessert", "diet:healthy": "yes", "diet:vegan": "yes", "diet:vegetarian": "yes", "name": "super be - juice, food & good mood", "opening_hours": "Mo-Su 09:00-17:00"}}, {"type": "node", "id": 11755847796, "lat": 41.3889369, "lon": 2.195246, "tags": {"amenity": "restaurant", "check_date": "2024-03-23", "name": "La Marina"}}, {"type": "node", "id": 11755847797, "lat": 41.3888732, "lon": 2.1952989, "tags": {"amenity": "restaurant", "check_date": "2024-03-23", "name": "La Terraza de la Marina"}}, {"type": "node", "id": 11755847800, "lat": 41.3887401, "lon": 2.1955146, "tags": {"amenity": "restaurant", "check_date": "2024-03-23", "cuisine": "burger", "name": "Urban"}}, {"type": "node", "id": 11793855669, "lat": 41.376286, "lon": 2.1890968, "tags": {"amenity": "restaurant", "name": "FOC"}}, {"type": "node", "id": 11802847498, "lat": 41.3902369, "lon": 2.1766228, "tags": {"amenity": "restaurant", "check_date": "2025-01-22", "cuisine": "sushi", "name": "La Uramakeria"}}, {"type": "node", "id": 11834421193, "lat": 41.3799239, "lon": 2.1791389, "tags": {"amenity": "restaurant", "name": "La Pachuca"}}, {"type": "node", "id": 11940278898, "lat": 41.3699702, "lon": 2.1882856, "tags": {"addr:housenumber": "15", "addr:postcode": "08039", "addr:street": "Passeig del Mare Nostrum", "addr:unit": "1", "amenity": "restaurant", "branch": "Barceloneta", "brand": "Honest Greens", "brand:wikidata": "Q116859710", "check_date": "2025-05-03", "diet:vegan": "yes", "diet:vegetarian": "yes", "level": "0", "name": "Honest Greens", "outdoor_seating": "yes", "payment:cash": "yes", "payment:credit_cards": "yes", "payment:debit_cards": "yes", "phone": "+34 931 22 76 64", "reservation": "no", "self_service": "partially", "website": "https://honestgreens.com/", "wheelchair": "yes"}}, {"type": "node", "id": 11964992969, "lat": 41.381039, "lon": 2.1801102, "tags": {"amenity": "restaurant", "name:de": "La Galera"}}, {"type": "node", "id": 11980620024, "lat": 41.377029, "lon": 2.1829032, "tags": {"addr:city": "Barcelona", "addr:postcode": "08039", "addr:street": "Moll d'Espanya", "amenity": "restaurant", "name": "Restaurant RCNB", "nohousenumber": "yes"}}, {"type": "node", "id": 12012981757, "lat": 41.3760179, "lon": 2.1900973, "tags": {"amenity": "restaurant", "check_date": "2024-06-26", "name": "Sea Breeze"}}, {"type": "node", "id": 12013078675, "lat": 41.3763407, "lon": 2.190185, "tags": {"amenity": "restaurant", "check_date": "2024-06-26", "name": "Tapaboca"}}, {"type": "node", "id": 12013101879, "lat": 41.3764578, "lon": 2.1903196, "tags": {"addr:housenumber": "126-124", "addr:street": "Carrer del Baluard", "amenity": "restaurant", "check_date": "2024-06-26", "name": "Casa Costa"}}, {"type": "node", "id": 12031394734, "lat": 41.3856648, "lon": 2.1817248, "tags": {"amenity": "restaurant", "name": "Pollo a la brasa"}}, {"type": "node", "id": 12031427210, "lat": 41.3857463, "lon": 2.1816005, "tags": {"amenity": "restaurant", "name": "Tretze"}}, {"type": "node", "id": 12096605401, "lat": 41.3777929, "lon": 2.1902652, "tags": {"addr:housenumber": "37", "addr:street": "Carrer de Meer", "amenity": "cafe", "cuisine": "breakfast;cake;coffee_shop;tea", "name": "la roseta"}}, {"type": "node", "id": 12112996927, "lat": 41.3798726, "lon": 2.1889531, "tags": {"addr:city": "Barcelona", "addr:housenumber": "42", "addr:postcode": "08003", "addr:street": "Carrer del Baluard", "amenity": "cafe", "name": "Baluard"}}, {"type": "node", "id": 12144173925, "lat": 41.3849022, "lon": 2.1776522}, {"type": "node", "id": 12144173926, "lat": 41.3848939, "lon": 2.1778036}, {"type": "node", "id": 12144173927, "lat": 41.3849529, "lon": 2.1777262}, {"type": "node", "id": 12197363104, "lat": 41.3878636, "lon": 2.2022425, "tags": {"addr:city": "Barcelona", "addr:housenumber": "29", "addr:postcode": "08005", "addr:street": "Moll de Gregal", "amenity": "restaurant", "check_date": "2024-09-24", "contact:facebook": "elcangrejoloco", "contact:instagram": "elcangrejolocorestaurant/", "contact:phone": "+34932210533", "cuisine": "seafood", "level": "1", "name": "El Cangrejo Loco", "payment:cash": "yes", "payment:credit_cards": "yes", "payment:debit_cards": "yes", "phone": "+34932211748", "reservation": "yes", "website": "https://elcangrejoloco.com/port-olimpic/"}}, {"type": "node", "id": 12199743901, "lat": 41.3751333, "lon": 2.1829635, "tags": {"amenity": "restaurant", "name": "Time Out Market"}}, {"type": "node", "id": 12206877863, "lat": 41.3832707, "lon": 2.1816282, "tags": {"amenity": "cafe", "cuisine": "breakfast", "diet:vegetarian": "yes", "name": "Nonna's Brunch"}}, {"type": "node", "id": 12229799902, "lat": 41.3808681, "lon": 2.1813318, "tags": {"amenity": "restaurant", "name": "Port Nou"}}, {"type": "node", "id": 12246015901, "lat": 41.3891639, "lon": 2.1759224, "tags": {"amenity": "cafe", "name": "Exotica"}}, {"type": "node", "id": 12254633601, "lat": 41.3874884, "lon": 2.1778508, "tags": {"amenity": "cafe", "name": "Cafes Caracas"}}, {"type": "node", "id": 12346632960, "lat": 41.3915307, "lon": 2.1985619, "tags": {"addr:city": "Barcelona", "addr:housenumber": "18", "addr:postcode": "08005", "addr:street": "Carrer de l'Arquitecte Sert", "amenity": "cafe", "name": "Divuit 18 Cafe", "phone": "+34936394720", "website": "https://www.divuitcafe.com/"}}, {"type": "node", "id": 12349544801, "lat": 41.3859068, "lon": 2.1763421, "tags": {"addr:housenumber": "40", "addr:postcode": "08003", "addr:street": "Via Laietana", "amenity": "restaurant", "name": "El Reloj"}}, {"type": "node", "id": 12655504601, "lat": 41.3889389, "lon": 2.2005876, "tags": {"amenity": "restaurant", "level": "0", "name": "Superlocal", "outdoor_seating": "yes"}}, {"type": "node", "id": 12655504801, "lat": 41.3880353, "lon": 2.2016657, "tags": {"amenity": "restaurant", "level": "0", "name": "Nuara", "outdoor_seating": "yes"}}, {"type": "node", "id": 12655505001, "lat": 41.3877045, "lon": 2.2020953, "tags": {"amenity": "restaurant", "level": "0", "name": "Casa Carmen", "outdoor_seating": "yes"}}, {"type": "node", "id": 12655516701, "lat": 41.3882514, "lon": 2.2016784, "tags": {"amenity": "restaurant", "level": "1", "name": "Eldelmar"}}, {"type": "node", "id": 12655516802, "lat": 41.3886392, "lon": 2.2011813, "tags": {"amenity": "restaurant", "level": "1", "name": "El Tribut"}}, {"type": "node", "id": 12655517001, "lat": 41.3890052, "lon": 2.200694, "tags": {"amenity": "restaurant", "level": "1", "name": "Kresala", "outdoor_seating": "yes"}}, {"type": "node", "id": 12656721432, "lat": 41.3702874, "lon": 2.1889198}, {"type": "node", "id": 12656721433, "lat": 41.3702829, "lon": 2.1889806}, {"type": "node", "id": 12656721434, "lat": 41.3703191, "lon": 2.1889853}, {"type": "node", "id": 12656721435, "lat": 41.3703236, "lon": 2.1889245}, {"type": "node", "id": 12656726244, "lat": 41.3748732, "lon": 2.1901756}, {"type": "node", "id": 12656726245, "lat": 41.3748663, "lon": 2.1902238}, {"type": "node", "id": 12656726246, "lat": 41.3749266, "lon": 2.1902392}, {"type": "node", "id": 12656726247, "lat": 41.3749336, "lon": 2.190191}, {"type": "node", "id": 12656747732, "lat": 41.3756983, "lon": 2.1904978}, {"type": "node", "id": 12656747733, "lat": 41.3756873, "lon": 2.1905403}, {"type": "node", "id": 12656747734, "lat": 41.3757427, "lon": 2.1905658}, {"type": "node", "id": 12656747735, "lat": 41.3757537, "lon": 2.1905234}, {"type": "node", "id": 12656757920, "lat": 41.3775647, "lon": 2.1915889}, {"type": "node", "id": 12656757921, "lat": 41.3775474, "lon": 2.1916378}, {"type": "node", "id": 12656757922, "lat": 41.3775967, "lon": 2.1916689}, {"type": "node", "id": 12656757923, "lat": 41.3776141, "lon": 2.19162}, {"type": "node", "id": 12656758203, "lat": 41.3736456, "lon": 2.1894945}, {"type": "node", "id": 12656758204, "lat": 41.3736359, "lon": 2.1895472}, {"type": "node", "id": 12656758205, "lat": 41.373682, "lon": 2.1895622}, {"type": "node", "id": 12656758206, "lat": 41.3736917, "lon": 2.1895095}, {"type": "node", "id": 12660053963, "lat": 41.3954015, "lon": 2.207881}, {"type": "node", "id": 12660053964, "lat": 41.3954396, "lon": 2.2079286}, {"type": "node", "id": 12660053965, "lat": 41.3954643, "lon": 2.2078935}, {"type": "node", "id": 12660053966, "lat": 41.3954262, "lon": 2.2078459}, {"type": "node", "id": 12660080653, "lat": 41.3943057, "lon": 2.2064851}, {"type": "node", "id": 12660080654, "lat": 41.3943626, "lon": 2.2065405}, {"type": "node", "id": 12660080655, "lat": 41.3943862, "lon": 2.2064974}, {"type": "node", "id": 12660080656, "lat": 41.3943293, "lon": 2.2064421}, {"type": "node", "id": 12660106321, "lat": 41.3902715, "lon": 2.2012591}, {"type": "node", "id": 12660106322, "lat": 41.3903043, "lon": 2.2013077}, {"type": "node", "id": 12660106323, "lat": 41.3903215, "lon": 2.201287}, {"type": "node", "id": 12660106324, "lat": 41.3902886, "lon": 2.2012384}, {"type": "node", "id": 12660106545, "lat": 41.3907951, "lon": 2.2021573}, {"type": "node", "id": 12660106546, "lat": 41.3908154, "lon": 2.2022154}, {"type": "node", "id": 12660106547, "lat": 41.3908318, "lon": 2.2022052}, {"type": "node", "id": 12660106548, "lat": 41.3908116, "lon": 2.2021472}, {"type": "node", "id": 12660108712, "lat": 41.3932933, "lon": 2.2056479}, {"type": "node", "id": 12660108713, "lat": 41.393355, "lon": 2.2056843}, {"type": "node", "id": 12660108714, "lat": 41.3933698, "lon": 2.2056398}, {"type": "node", "id": 12660108715, "lat": 41.393308, "lon": 2.2056033}, {"type": "node", "id": 12695845274, "lat": 41.38202, "lon": 2.1836062, "tags": {"addr:city": "Barcelona", "addr:housenumber": "11", "addr:street": "Carrer de la Reina Cristina", "amenity": "restaurant", "name": "La - Barra del 7 Portes", "website": "https://labarradel7portes.com/"}}, {"type": "node", "id": 12759653401, "lat": 41.3839363, "lon": 2.1793503, "tags": {"amenity": "cafe", "name": "Trigo Coffee"}}, {"type": "node", "id": 12768586756, "lat": 41.3799608, "lon": 2.1799486, "tags": {"addr:housenumber": "2", "addr:street": "Carrer de Sim\u00f3 Oller", "amenity": "restaurant", "name": "Smash Burger House", "website": "http://www.smashburgerhouse.com/"}}, {"type": "node", "id": 12785657001, "lat": 41.3840215, "lon": 2.1814732, "tags": {"addr:city": "Barcelona", "addr:housenumber": "20", "addr:postcode": "08003", "addr:street": "Carrer dels Banys Vells", "amenity": "restaurant", "diet:vegan": "yes", "name": "Fronda Pasaje BCN", "opening_hours": "Tu-Sa 19:30-00:00"}}, {"type": "node", "id": 12839995025, "lat": 41.378234, "lon": 2.1885987, "tags": {"amenity": "restaurant", "name": "La Madrina"}}, {"type": "node", "id": 12896936236, "lat": 41.3861533, "lon": 2.1806086, "tags": {"amenity": "cafe", "check_date": "2025-06", "cuisine": "coffee_shop", "name": "Coffee + Botiga"}}, {"type": "way", "id": 122432862, "nodes": [1368197066, 1404140484, 1368197009, 1404140482, 1368197027, 1368197082, 1404140486, 1368197066], "tags": {"amenity": "restaurant", "building": "retail", "building:levels": "2"}}, {"type": "way", "id": 123910149, "nodes": [1380389687, 1380389623, 1380389745, 1380389695, 1380389687], "tags": {"amenity": "restaurant", "building": "yes", "cuisine": "regional", "name": "Restaurant La Dama", "source": "PNOA", "source:date": "31/7/2011"}}, {"type": "way", "id": 167056918, "nodes": [1400647993, 240979740, 10302092060, 2267959308, 7640329151, 1867973686, 1998961100, 2482696173, 1400647993], "tags": {"amenity": "cafe", "contact:email": "museu@pastisseria.cat", "contact:fax": "+34 932682279", "contact:phone": "+34 932687878", "contact:website": "http://www.museuxocolata.cat/", "description": "Private museum about chocolate", "name": "Museu de la Xocolata", "name:ca": "Museu de la Xocolata", "name:es": "museo del chocolate", "name:ko": "\ucd08\ucf5c\ub81b \ubc15\ubb3c\uad00", "opening_hours": "Mo-Sa 10:00-19:00; Su 10:00-15:00", "shop": "deli", "tourism": "museum", "wikidata": "Q2890127", "wikimedia_commons": "Category:Museu de la Xocolata", "wikipedia": "ca:Museu de la Xocolata"}}, {"type": "way", "id": 217583609, "nodes": [4745966852, 2268684613, 2268684609, 2268684600, 2268684579, 2268684586, 2268684582, 2268684590, 4745966852], "tags": {"amenity": "restaurant", "building": "yes", "name": "L'Escamarl\u00e0"}}, {"type": "way", "id": 217583616, "nodes": [4745966861, 2268684670, 2268684668, 2268684665, 2268684664, 2268684662, 2268684653, 2268684659, 4745966861], "tags": {"amenity": "restaurant", "building": "yes", "contact:city": "Barcelona", "contact:housenumber": "186", "contact:postcode": "08005", "contact:street": "Carrer de Ramon Turr\u00f3", "cuisine": "seafood", "name": "Can Fisher", "operator": "Releni 2017, S.L.", "outdoor_seating": "yes"}}, {"type": "way", "id": 392926648, "nodes": [3961174416, 3961174417, 3961174418, 3961174419, 3961174416], "tags": {"amenity": "restaurant", "amenity_1": "nightclub", "building": "yes", "check_date": "2024-06-23", "indoor_seating": "yes", "name": "Pacha", "outdoor_seating": "yes", "website": "https://www.pachabarcelona.es/"}}, {"type": "way", "id": 405622537, "nodes": [4077861461, 4077861462, 4077861463, 4077861464, 4077861461], "tags": {"amenity": "restaurant", "amenity_1": "nightclub", "building": "yes", "name": "Carpe Diem Lounge Club", "short_name": "CDLC", "website": "https://cdlcbarcelona.com/"}}, {"type": "way", "id": 423212269, "nodes": [4228932689, 4228932690, 4228932691, 4228932692, 4228932689], "tags": {"amenity": "cafe", "bar": "yes", "building": "terrace", "contact:instagram": "gamarbcn", "cuisine": "burger;coffee_shop;ice_cream;regional;sandwich", "name": "GAMAR - Espai sense alcohol", "opening_hours": "Mo-Fr 08:00-18:00", "outdoor_seating": "only", "phone": "+34698424893"}}, {"type": "way", "id": 423690355, "nodes": [4232426779, 4232426780, 4232426781, 4232426782, 4232426779], "tags": {"amenity": "cafe", "building": "yes", "check_date": "2023-10-28", "internet_access": "wlan", "internet_access:fee": "no", "name": "La Se\u00f1orial", "opening_hours": "07:00-22:30", "outdoor_seating": "yes"}}, {"type": "way", "id": 646559065, "nodes": [6074436595, 6074427534, 6074427526, 6074427546, 6074436527, 6074436528, 6074436529, 6074436596, 6074436595]}, {"type": "way", "id": 646559072, "nodes": [6074436576, 6074436578, 6074436577, 6074427545, 6074436576], "tags": {"building:levels": "1", "building:part": "yes"}}, {"type": "way", "id": 908064699, "nodes": [8431796310, 8431796311, 8431796312, 8431796313, 8431796310], "tags": {"amenity": "restaurant", "building": "retail", "building:levels": "8", "name": "Azul Rooftop Barceloneta", "phone": "+34 937140695", "website": "https://goutrouge.com/restaurantes/azul-rooftop-barceloneta/"}}, {"type": "way", "id": 1081174565, "nodes": [9909684480, 9909684481, 9909684482, 9909684483, 9909684480], "tags": {"amenity": "restaurant", "building": "yes"}}, {"type": "way", "id": 1312014713, "nodes": [12144173925, 7643827686, 12144173926, 12144173927, 12144173925], "tags": {"addr:city": "Barcelona", "addr:housenumber": "30", "addr:postcode": "08003", "addr:street": "Via Laietana", "amenity": "restaurant", "building": "yes", "cuisine": "tapas", "description": "Bienvenido a Can Bo, el restaurante a pie de calle de nuestro hotel de lujo en Barcelona. Un lugar de encuentro entre locales y turistas donde descubrir lo mejor de la cocina espa\u00f1ola. Saborea las mejores tapas y platos para compartir, preparados con ingr", "diet:mediterranean": "yes", "email": "info@grandhotelcentral.com", "image": "https://www.grandhotelcentral.com/data/webp/grand-hotel-central-room-with-view-2307.jpg-bf86aceffaacb2aef06f0d93184e4c40.webp", "name": "Restaurante Can Bo", "opening_hours": "Mo-Su 12:00-00:00", "opening_hours:kitchen": "Mo-Su 12:30-22:30", "payment:cash": "yes", "payment:contactless": "yes", "payment:credit_cards": "yes", "payment:debit_cards": "yes", "payment:mastercard": "yes", "payment:visa": "yes", "phone": "+34 932 957 900", "reservation": "recommended", "website": "https://www.grandhotelcentral.com/es/restaurante-can-bo/"}}, {"type": "way", "id": 1366617587, "nodes": [12656721435, 12656721434, 12656721433, 12656721432, 12656721435], "tags": {"amenity": "cafe", "building": "yes", "name": "Maluk\u00e9", "outdoor_seating": "yes", "toilets": "yes", "toilets:access": "yes", "toilets:wheelchair": "yes", "wheelchair": "yes"}}, {"type": "way", "id": 1366618075, "nodes": [12656758206, 12656758205, 12656758204, 12656758203, 12656758206], "tags": {"amenity": "cafe", "building": "yes", "name": "La Deliciosa. Barceloneta", "outdoor_seating": "yes", "toilets": "yes", "toilets:access": "yes", "toilets:wheelchair": "yes", "wheelchair": "yes"}}, {"type": "way", "id": 1366618944, "nodes": [12656726247, 12656726246, 12656726245, 12656726244, 12656726247], "tags": {"amenity": "cafe", "building": "yes", "name": "Salvaje", "outdoor_seating": "yes", "toilets": "yes", "toilets:wheelchair": "yes", "wheelchair": "yes"}}, {"type": "way", "id": 1366619418, "nodes": [12656747735, 12656747734, 12656747733, 12656747732, 12656747735], "tags": {"amenity": "cafe", "name": "Salvaje", "outdoor_seating": "yes", "toilets": "yes", "toilets:wheelchair": "yes", "wheelchair": "yes"}}, {"type": "way", "id": 1366620177, "nodes": [12656757923, 12656757922, 12656757921, 12656757920, 12656757923], "tags": {"amenity": "cafe", "building": "yes", "name": "Chambao", "toilets": "yes", "toilets:wheelchair": "yes", "wheelchair": "yes"}}, {"type": "way", "id": 1367089979, "nodes": [12660106324, 12660106323, 12660106322, 12660106321, 12660106324], "tags": {"amenity": "cafe", "building": "yes", "name": "Mokai", "outdoor_seating": "yes", "toilets": "yes", "toilets:wheelchair": "yes"}}, {"type": "way", "id": 1367090317, "nodes": [12660106548, 12660106547, 12660106546, 12660106545, 12660106548], "tags": {"amenity": "cafe", "building": "yes", "name": "Santo Mojito", "wheelchair": "yes"}}, {"type": "way", "id": 1367091257, "nodes": [12660108715, 12660108714, 12660108713, 12660108712, 12660108715], "tags": {"amenity": "cafe", "building": "yes", "name": "Bo Kaap", "wheelchair": "yes"}}, {"type": "way", "id": 1367091871, "nodes": [12660080656, 12660080655, 12660080654, 12660080653, 12660080656], "tags": {"amenity": "cafe", "name": "Vai Moana", "wheelchair": "yes"}}, {"type": "way", "id": 1367092595, "nodes": [12660053966, 12660053965, 12660053964, 12660053963, 12660053966], "tags": {"amenity": "cafe", "name": "Barcelona beach. El Chiringuito"}}, {"type": "relation", "id": 8997108, "members": [{"type": "way", "ref": 646559065, "role": "outer"}, {"type": "way", "ref": 646559072, "role": "inner"}], "tags": {"amenity": "restaurant", "building": "yes", "building:levels": "3", "type": "multipolygon"}}]}