{"version": 0.6, "generator": "Overpass API 0.7.62.7 375dc00a", "osm3s": {"timestamp_osm_base": "2025-06-14T15:19:03Z", "copyright": "The data included in this document is from www.openstreetmap.org. The data is made available under ODbL."}, "elements": [{"type": "node", "id": 2906068234, "lat": 41.0822197, "lon": 37.6290052, "tags": {"amenity": "cafe", "cuisine": "Tea", "name": "Uzun Sa\u00e7l\u0131n\u0131n Yeri", "outdoor_seating": "yes"}}, {"type": "node", "id": 2906105697, "lat": 41.028709, "lon": 37.499547, "tags": {"addr:postcode": "52400", "amenity": "cafe", "brand": "Gloria Jean's", "brand:wikidata": "Q2666365", "brand:wikipedia": "en:Mado (food company)", "cuisine": "coffee_shop", "internet_access": "yes", "name": "Gloria Jean's", "official_name": "Gloria Jean's Coffees", "opening_hours": "Mo-Su 09:00-00:00", "smoking": "outside", "takeaway": "yes", "wheelchair": "limited"}}, {"type": "node", "id": 3123832580, "lat": 41.1136508, "lon": 37.7059023, "tags": {"amenity": "restaurant", "bar": "yes", "cuisine": "barbecue", "name": "\u00c7aka Saka Restorant"}}, {"type": "node", "id": 3123846188, "lat": 41.068697, "lon": 37.7742235, "tags": {"amenity": "restaurant"}}, {"type": "node", "id": 3124501797, "lat": 41.0671207, "lon": 37.7740693, "tags": {"addr:city": "Ordu", "addr:district": "Per\u015fembe", "amenity": "cafe", "cuisine": "tea", "name": "Belediye Aile \u00c7ay Bah\u00e7esi"}}, {"type": "node", "id": 3124530896, "lat": 41.0633764, "lon": 37.7757658, "tags": {"amenity": "cafe"}}, {"type": "node", "id": 3255693561, "lat": 41.060991, "lon": 37.478912, "tags": {"amenity": "restaurant", "name": "Koru by H\u00fcnkar", "toilets:wheelchair": "no", "wheelchair": "limited"}}, {"type": "node", "id": 3753105673, "lat": 41.0865221, "lon": 37.4126376, "tags": {"amenity": "restaurant", "name": "Lokanta"}}, {"type": "node", "id": 4216825052, "lat": 40.9695496, "lon": 37.8877413, "tags": {"amenity": "restaurant", "name": "Enescan"}}, {"type": "node", "id": 4216825965, "lat": 40.9756372, "lon": 37.9057723, "tags": {"addr:city": "Ordu", "amenity": "cafe", "name": "Anti Marmaris Cafe"}}, {"type": "node", "id": 4916310821, "lat": 41.0366532, "lon": 37.5939367, "tags": {"amenity": "cafe", "name": "Bak\u0131r demlik", "name:tr": "Bak\u0131r demlik", "opening_hours": "Mo-Su 09:00-22:00"}}, {"type": "node", "id": 4922588021, "lat": 41.043216, "lon": 37.6019036, "tags": {"amenity": "cafe", "cuisine": "pide;turkish", "name": "Pelitdibi \u00c7ay Bah\u00e7esi", "outdoor_seating": "yes", "smoking": "isolated"}}, {"type": "node", "id": 4922623432, "lat": 41.0368447, "lon": 37.5934955, "tags": {"amenity": "restaurant", "cuisine": "lKaradeniz_Pidesi", "name": "Ziyafet Pide", "opening_hours": "Mo-Su 07:00-00:00", "outdoor_seating": "yes"}}, {"type": "node", "id": 4922639595, "lat": 41.0209113, "lon": 37.5321674, "tags": {"amenity": "restaurant", "cuisine": "turkish", "name": "H\u00fcnkar restoran", "wheelchair": "limited"}}, {"type": "node", "id": 4968980423, "lat": 41.0821097, "lon": 37.775439, "tags": {"addr:city": "Ordu", "addr:district": "Per\u015fembe", "amenity": "restaurant", "name": "Efem K\u00f6fte"}}, {"type": "node", "id": 5373377249, "lat": 41.0300992, "lon": 37.5765361}, {"type": "node", "id": 5373377250, "lat": 41.0299543, "lon": 37.5766056}, {"type": "node", "id": 5373377251, "lat": 41.0299967, "lon": 37.5767405}, {"type": "node", "id": 5373377252, "lat": 41.0301409, "lon": 37.5766794}, {"type": "node", "id": 5380562321, "lat": 41.0852399, "lon": 37.6344896, "tags": {"addr:housenumber": "7", "addr:street": "Per\u015fembe Sahil Yolu No:7 Medrese\u00f6n\u00fc/ORDU", "amenity": "restaurant", "name": "\u00dcst\u00fcn Karde\u015fler Et Lokantas\u0131"}}, {"type": "node", "id": 5476773553, "lat": 41.0640054, "lon": 37.6152274}, {"type": "node", "id": 5476773554, "lat": 41.0641618, "lon": 37.6153554}, {"type": "node", "id": 5476773555, "lat": 41.0641214, "lon": 37.6153942}, {"type": "node", "id": 5476773558, "lat": 41.0639889, "lon": 37.6152696}, {"type": "node", "id": 5493020542, "lat": 41.1144152, "lon": 37.700927, "tags": {"amenity": "cafe", "internet_access": "no", "name": "Cinek K\u00f6y Kahvesi", "opening_hours": "Mo-Su 07:00-22:00", "outdoor_seating": "yes", "payment:cash": "yes", "phone": "+90 452 527 56 99", "smoking": "outside", "source": "local knowledge"}}, {"type": "node", "id": 5708123290, "lat": 40.9785262, "lon": 37.8980215, "tags": {"amenity": "restaurant", "name": "K\u00f6rfez K\u00f6fte"}}, {"type": "node", "id": 5708145641, "lat": 40.9787928, "lon": 37.8970265, "tags": {"amenity": "restaurant", "name": "Atabeyo\u011flu"}}, {"type": "node", "id": 5708223036, "lat": 40.9886703, "lon": 37.875599, "tags": {"amenity": "cafe", "name": "Kahve deposu"}}, {"type": "node", "id": 5728563922, "lat": 41.0680865, "lon": 37.7722687, "tags": {"addr:city": "Ordu", "addr:district": "Per\u015fembe", "amenity": "restaurant", "cuisine": "kebab;turkish", "name": "Tad-Al", "phone": "+90 452 500 1003"}}, {"type": "node", "id": 5765674353, "lat": 41.0941165, "lon": 37.7804401, "tags": {"addr:city": "Ordu", "addr:district": "Per\u015fembe", "amenity": "restaurant", "name": "Yeni Ay"}}, {"type": "node", "id": 6160143485, "lat": 40.9947873, "lon": 37.8761437, "tags": {"amenity": "restaurant", "name:en": "restorani sanapiroze -"}}, {"type": "node", "id": 6267968786, "lat": 40.9867813, "lon": 37.8783576, "tags": {"amenity": "cafe", "internet_access": "wlan", "name": "Bulvar Cafe & Restoran", "opening_hours": "Mo-Su 08:00-24:00", "phone": "+90 452 223 02 76", "website": "http://bulvarcafe.com"}}, {"type": "node", "id": 6631962085, "lat": 40.9837325, "lon": 37.9098994, "tags": {"amenity": "restaurant", "name": "PLAJET ET & kahvalti"}}, {"type": "node", "id": 6633501288, "lat": 40.9844584, "lon": 37.8800446, "tags": {"addr:city": "Ordu", "addr:district": "Alt\u0131nordu", "amenity": "cafe", "indoor_seating": "yes", "name": "Cafe Dengi", "outdoor_seating": "yes"}}, {"type": "node", "id": 6792529342, "lat": 40.9871294, "lon": 37.879347}, {"type": "node", "id": 6792529343, "lat": 40.9871724, "lon": 37.8795451}, {"type": "node", "id": 6792529344, "lat": 40.9870943, "lon": 37.8795839}, {"type": "node", "id": 6792529345, "lat": 40.9870714, "lon": 37.8793674}, {"type": "node", "id": 6937213369, "lat": 40.9618087, "lon": 37.50275, "tags": {"amenity": "restaurant", "description": "Do\u011fan\u0131n i\u00e7inde ye\u015fillik bir alanda sa\u011fl\u0131kl\u0131 yemek.", "image": "https://www.facebook.com/SaglikAlabalikCiftligiVeRestaurant/photos/4129926030433097", "name": "Sa\u011fl\u0131k Alabal\u0131k Restaurant"}}, {"type": "node", "id": 7185063762, "lat": 40.9856248, "lon": 37.8787043, "tags": {"addr:city": "Ordu", "addr:district": "Alt\u0131nordu", "addr:housenumber": "21/B", "addr:neighbourhood": "D\u00fcz Mahalle", "addr:street": "Y\u0131ld\u0131z Sokak", "amenity": "restaurant", "cuisine": "pide", "name": "Me\u015fhur Pide", "phone": "+90 452 214 9099", "website": "https://www.meshurpide.com/"}}, {"type": "node", "id": 7185081332, "lat": 40.9816191, "lon": 37.8907056, "tags": {"amenity": "cafe", "name": "Luwak"}}, {"type": "node", "id": 7353939890, "lat": 40.9841669, "lon": 37.9123783, "tags": {"amenity": "cafe", "cuisine": "pizza;burger;sandwich;chicken;american", "internet_access": "wlan", "name": "Tomur", "outdoor_seating": "yes"}}, {"type": "node", "id": 7599437007, "lat": 41.0367622, "lon": 37.5932122, "tags": {"amenity": "restaurant", "cuisine": "karadeniz_pidesi;regional", "name": "Yosun Pide"}}, {"type": "node", "id": 8196335058, "lat": 40.9810671, "lon": 37.8919417, "tags": {"addr:city": "Ordu", "amenity": "cafe", "brand": "Mado", "brand:wikidata": "Q17116336", "brand:wikipedia": "en:Mado (food company)", "cuisine": "coffee_shop", "name": "Mado", "takeaway": "yes"}}, {"type": "node", "id": 8251776801, "lat": 40.9768248, "lon": 37.9126655, "tags": {"amenity": "restaurant", "name": "Me\u015fhur Mara\u015f Pa\u00e7ac\u0131s\u0131"}}, {"type": "node", "id": 8252654749, "lat": 40.9783053, "lon": 37.9110055, "tags": {"amenity": "restaurant", "name": "Pelit Pide"}}, {"type": "node", "id": 8252654753, "lat": 40.9782323, "lon": 37.9119783, "tags": {"amenity": "cafe", "name": "Masha Shisha Lounge"}}, {"type": "node", "id": 8285089050, "lat": 40.9801006, "lon": 37.8938262, "tags": {"amenity": "restaurant", "cuisine": "pizza", "name": "Crackers Pizza"}}, {"type": "node", "id": 8285089077, "lat": 40.983494, "lon": 37.8866739, "tags": {"amenity": "cafe", "name": "Bonjour"}}, {"type": "node", "id": 8285089079, "lat": 40.9843948, "lon": 37.8834458, "tags": {"addr:city": "Ordu", "addr:district": "Alt\u0131nordu", "amenity": "restaurant", "cuisine": "kebab", "name": "Diyarbak\u0131r Lahmacun Kebap"}}, {"type": "node", "id": 8405577797, "lat": 41.1143804, "lon": 37.7009631, "tags": {"amenity": "restaurant", "cuisine": "kebab;chicken", "name": "Sahil Izgara"}}, {"type": "node", "id": 8456916237, "lat": 40.9839857, "lon": 37.9129995, "tags": {"addr:city": "Ordu", "addr:neighbourhood": "Akyazi Mah.", "addr:postcode": "52200", "addr:street": "15 Temmuz Milli \u0130rade Caddesi", "amenity": "restaurant", "cuisine": "regional;international", "name": "Rafine Cafe", "opening_hours": "Mo-Su 09:00-24:00", "phone": "+90 452 777 77 67", "website": "http://www.rafinecafe.com"}}, {"type": "node", "id": 8517787321, "lat": 40.9796683, "lon": 37.8788263, "tags": {"amenity": "cafe", "name": "Bucak K\u0131raathanesi"}}, {"type": "node", "id": 8517856020, "lat": 40.9802815, "lon": 37.8785953, "tags": {"amenity": "restaurant", "name": "\u015eirin Mutfak Ordu"}}, {"type": "node", "id": 8518233919, "lat": 40.9811715, "lon": 37.8793044, "tags": {"amenity": "restaurant", "name": "Erg\u00fcn Lokantas\u0131"}}, {"type": "node", "id": 8518249417, "lat": 40.9820797, "lon": 37.8795445, "tags": {"amenity": "restaurant", "name": "U\u011frak Stad Lokantas\u0131"}}, {"type": "node", "id": 8518251817, "lat": 40.9845099, "lon": 37.8778286, "tags": {"amenity": "restaurant", "name": "Online Lezzetler"}}, {"type": "node", "id": 8518262417, "lat": 40.9824505, "lon": 37.8796026, "tags": {"amenity": "cafe", "name": "\u00d6zl\u00fc K\u0131raathanesi"}}, {"type": "node", "id": 8518264217, "lat": 40.9825256, "lon": 37.8794303, "tags": {"amenity": "restaurant", "name": "Ispendek Balik Evi"}}, {"type": "node", "id": 8518898318, "lat": 40.9841494, "lon": 37.8791303, "tags": {"amenity": "restaurant", "name": "Ocak Lokantas\u0131"}}, {"type": "node", "id": 8518898319, "lat": 40.9840589, "lon": 37.879378, "tags": {"amenity": "restaurant", "name": "M\u00fcptela Ocakba\u015f\u0131"}}, {"type": "node", "id": 8518898320, "lat": 40.984196, "lon": 37.8793848, "tags": {"addr:city": "Ordu", "addr:district": "Alt\u0131nordu", "amenity": "restaurant", "cuisine": "fish", "name": "Tirvana Bal\u0131k"}}, {"type": "node", "id": 8518903117, "lat": 40.983896, "lon": 37.8793963, "tags": {"addr:city": "Ordu", "addr:district": "Alt\u0131nordu", "amenity": "restaurant", "name": "Ege Restaurant Cafe"}}, {"type": "node", "id": 8518908317, "lat": 40.9839593, "lon": 37.8800438, "tags": {"addr:city": "Ordu", "addr:district": "Alt\u0131nordu", "amenity": "cafe", "name": "Tak\u0131l Cafe ve \u00c7ay Evi"}}, {"type": "node", "id": 8521312617, "lat": 40.9873757, "lon": 37.8758366, "tags": {"amenity": "cafe", "name": "Fincan Cafe"}}, {"type": "node", "id": 8521326520, "lat": 40.9865137, "lon": 37.8787111, "tags": {"addr:city": "Ordu", "addr:district": "Alt\u0131nordu", "amenity": "cafe", "name": "Casablanca Cafe Mutfak Brasserie"}}, {"type": "node", "id": 8521442617, "lat": 40.9856693, "lon": 37.8794835, "tags": {"addr:city": "Ordu", "addr:district": "Alt\u0131nordu", "addr:housenumber": "3", "addr:neighbourhood": "\u015earkiye Mahallesi", "addr:street": "Fatih Caddesi", "amenity": "restaurant", "cuisine": "pide", "email": "info@aktasgrup.net", "name": "Akta\u015flar Restaurant \u00c7ar\u015f\u0131", "phone": "+90 452 214 1546", "website": "http://www.aktaslarrestaurant.com/"}}, {"type": "node", "id": 8521458617, "lat": 40.9850639, "lon": 37.8809739, "tags": {"addr:city": "Ordu", "addr:district": "Alt\u0131nordu", "amenity": "restaurant", "name": "Derin Bal\u0131k", "phone": "(0452) 223 44 35"}}, {"type": "node", "id": 8527027217, "lat": 40.9754553, "lon": 37.9286213, "tags": {"amenity": "restaurant", "name": "Mor beyaz \u00e7ak\u0131ro\u011flu"}}, {"type": "node", "id": 8527040220, "lat": 40.9839123, "lon": 37.9116026, "tags": {"amenity": "cafe", "name": "Erhnica coffee"}}, {"type": "node", "id": 8527041122, "lat": 40.9839327, "lon": 37.9122205, "tags": {"amenity": "restaurant", "name": "Leman K\u00fclt\u00fcr Ordu"}}, {"type": "node", "id": 8527049320, "lat": 40.9828658, "lon": 37.9099293, "tags": {"amenity": "restaurant", "name": "A\u015fk-\u0131 Waffle"}}, {"type": "node", "id": 8527053120, "lat": 40.983198, "lon": 37.9106255, "tags": {"amenity": "restaurant", "name": "Big Yellow Taxi Benzin"}}, {"type": "node", "id": 8527053121, "lat": 40.9835608, "lon": 37.9100592, "tags": {"amenity": "restaurant", "name": "Mahal Coffee"}}, {"type": "node", "id": 8527058517, "lat": 40.9839949, "lon": 37.9127368, "tags": {"amenity": "restaurant", "name": "Rafine Restaurant"}}, {"type": "node", "id": 8532538717, "lat": 40.9830181, "lon": 37.8979679, "tags": {"amenity": "cafe", "name": "ZERDE\u00c7AL B\u0130STRO Ordu"}}, {"type": "node", "id": 8535455117, "lat": 40.9827541, "lon": 37.8852782, "tags": {"amenity": "cafe", "name": "Ordu Keops Playstation \u00ae"}}, {"type": "node", "id": 8535465517, "lat": 40.9828588, "lon": 37.8853534, "tags": {"amenity": "cafe", "name": "Salon Miray"}}, {"type": "node", "id": 8535547617, "lat": 40.9830117, "lon": 37.8860557, "tags": {"amenity": "cafe", "name": "Bayramefendi Osmanl\u0131 Kahvecisi"}}, {"type": "node", "id": 8580004107, "lat": 41.0512021, "lon": 37.6125398, "tags": {"addr:neighbourhood": "Yal\u0131k\u00f6y Merkez Mahallesi", "addr:place": "Yal\u0131k\u00f6y", "amenity": "cafe", "internet_access": "no", "name": "Yal\u0131k\u00f6y Park Kafe"}}, {"type": "node", "id": 10000596147, "lat": 41.0221579, "lon": 37.8197692}, {"type": "node", "id": 10000596164, "lat": 41.0221829, "lon": 37.8196665}, {"type": "node", "id": 10000596165, "lat": 41.0222747, "lon": 37.8197029}, {"type": "node", "id": 10000596166, "lat": 41.0222489, "lon": 37.819817}, {"type": "node", "id": 10000596167, "lat": 41.0221561, "lon": 37.8197801}, {"type": "node", "id": 10030305426, "lat": 40.9849796, "lon": 37.8783237, "tags": {"amenity": "cafe", "name": "Eyl\u00fcl Cafe"}}, {"type": "node", "id": 10075515918, "lat": 40.9807194, "lon": 37.8861799, "tags": {"amenity": "cafe", "name": "Unpam"}}, {"type": "node", "id": 10075518821, "lat": 40.9807256, "lon": 37.8862063, "tags": {"amenity": "cafe", "name": "unpam"}}, {"type": "node", "id": 10090295232, "lat": 41.0215494, "lon": 37.5296037, "tags": {"amenity": "restaurant", "name": "\u0130stasyon Kahvalt\u0131"}}, {"type": "node", "id": 10090333462, "lat": 41.0206187, "lon": 37.5370257, "tags": {"amenity": "cafe", "name": "Me\u015fhur \u00c7orbac\u0131"}}, {"type": "node", "id": 10090333463, "lat": 41.0206098, "lon": 37.5367486, "tags": {"amenity": "cafe", "name": "Irmak Kafe"}}, {"type": "node", "id": 10090333465, "lat": 41.0220358, "lon": 37.5456261, "tags": {"amenity": "restaurant", "name": "Konak Cafe"}}, {"type": "node", "id": 10090333466, "lat": 41.0226024, "lon": 37.5454769, "tags": {"amenity": "restaurant", "brand": "Do\u011fu\u015f \u00c7ay", "name": "Bolaman Park"}}, {"type": "node", "id": 10090333484, "lat": 41.0243669, "lon": 37.5535521, "tags": {"amenity": "restaurant"}}, {"type": "node", "id": 10090333485, "lat": 41.024448, "lon": 37.5570722, "tags": {"amenity": "cafe", "name": "Yerli K\u00f6fteci"}}, {"type": "node", "id": 10090333530, "lat": 41.0274849, "lon": 37.5710737, "tags": {"amenity": "cafe", "name": "Bayrak Lokantas\u0131"}}, {"type": "node", "id": 10090333545, "lat": 41.033806, "lon": 37.5871507, "tags": {"amenity": "restaurant", "name": "Karakulluk\u00e7u Aile Lokantas\u0131"}}, {"type": "node", "id": 10090333645, "lat": 41.0165826, "lon": 37.5204916, "tags": {"amenity": "cafe", "name": "C\u0131nd\u0131ko\u011flu Trabzon Ekme\u011fi"}}, {"type": "node", "id": 10090333776, "lat": 41.0341522, "lon": 37.4956628, "tags": {"amenity": "restaurant", "name": "Hilal Restoran"}}, {"type": "node", "id": 10090333777, "lat": 41.034544, "lon": 37.4945035, "tags": {"amenity": "cafe", "name": "Otogar"}}, {"type": "node", "id": 10090459766, "lat": 41.0354433, "lon": 37.4937527, "tags": {"amenity": "cafe", "name": "Cajun Corner"}}, {"type": "node", "id": 10090459813, "lat": 41.0343116, "lon": 37.4892779, "tags": {"addr:postcode": "52400", "addr:street": "Ata Caddesi", "amenity": "cafe", "name": "\u00d6z Diyarbak\u0131r Sofras\u0131"}}, {"type": "node", "id": 10090473918, "lat": 41.018929, "lon": 37.4751987, "tags": {"amenity": "cafe", "name": "\u00c7emi\u00e7o\u011flu Kasabi"}}, {"type": "node", "id": 10090473932, "lat": 41.0209368, "lon": 37.4767856, "tags": {"amenity": "cafe", "name": "\u015eehr-i Alem Sabri Usta'n\u0131n Yeri"}}, {"type": "node", "id": 10796540395, "lat": 41.117383, "lon": 37.6553733}, {"type": "node", "id": 10796540396, "lat": 41.1174682, "lon": 37.6555101}, {"type": "node", "id": 10796540397, "lat": 41.1174188, "lon": 37.6555642}, {"type": "node", "id": 10796540398, "lat": 41.1173337, "lon": 37.6554274}, {"type": "node", "id": 10796545566, "lat": 41.1088089, "lon": 37.65411, "tags": {"amenity": "cafe", "name": "K\u00f6y Kahvesi"}}, {"type": "node", "id": 10816358704, "lat": 41.0608712, "lon": 37.4788245}, {"type": "node", "id": 10816400605, "lat": 41.0609842, "lon": 37.478968}, {"type": "node", "id": 10816400606, "lat": 41.0608162, "lon": 37.4789629}, {"type": "node", "id": 10816400607, "lat": 41.0607132, "lon": 37.4789547}, {"type": "node", "id": 10816400608, "lat": 41.0607145, "lon": 37.4788169}, {"type": "node", "id": 10816400609, "lat": 41.0608736, "lon": 37.4787655}, {"type": "node", "id": 10816400610, "lat": 41.0609848, "lon": 37.4787658}, {"type": "node", "id": 10984503185, "lat": 40.8243868, "lon": 37.8280445, "tags": {"amenity": "cafe", "name": "Uzun\u0131rmak"}}, {"type": "node", "id": 11085373463, "lat": 41.1140802, "lon": 37.70364}, {"type": "node", "id": 11085373464, "lat": 41.1140547, "lon": 37.7036293}, {"type": "node", "id": 11085373465, "lat": 41.1140407, "lon": 37.7036693}, {"type": "node", "id": 11085373466, "lat": 41.1140651, "lon": 37.7036847}, {"type": "node", "id": 11085488211, "lat": 41.0733267, "lon": 37.7725596}, {"type": "node", "id": 11085488212, "lat": 41.0733267, "lon": 37.7727651}, {"type": "node", "id": 11085488213, "lat": 41.0731137, "lon": 37.7726951}, {"type": "node", "id": 11085488214, "lat": 41.0731349, "lon": 37.7725106}, {"type": "node", "id": 11085794145, "lat": 40.9917854, "lon": 37.859239}, {"type": "node", "id": 11085794146, "lat": 40.9918896, "lon": 37.8594248}, {"type": "node", "id": 11085794147, "lat": 40.9917667, "lon": 37.8595398}, {"type": "node", "id": 11085794148, "lat": 40.991541, "lon": 37.8595009}, {"type": "node", "id": 11085794149, "lat": 40.9914582, "lon": 37.8593416}, {"type": "node", "id": 11085794150, "lat": 40.9916011, "lon": 37.8591929}, {"type": "node", "id": 11085794151, "lat": 40.9916519, "lon": 37.859269}, {"type": "node", "id": 11085794152, "lat": 40.991724, "lon": 37.8592938}, {"type": "node", "id": 11085880914, "lat": 40.9905347, "lon": 37.8582826}, {"type": "node", "id": 11085880915, "lat": 40.9907365, "lon": 37.8585207}, {"type": "node", "id": 11085880916, "lat": 40.9906581, "lon": 37.858627}, {"type": "node", "id": 11085880917, "lat": 40.9905876, "lon": 37.8585301}, {"type": "node", "id": 11085880918, "lat": 40.9905373, "lon": 37.8586025}, {"type": "node", "id": 11085880919, "lat": 40.9904122, "lon": 37.8584589}, {"type": "node", "id": 11088627260, "lat": 41.0310059, "lon": 37.4998705, "tags": {"amenity": "restaurant", "cuisine": "turkish", "name": "Fatsal\u0131 H\u00fcnkar Restoran"}}, {"type": "node", "id": 11088664259, "lat": 41.0328932, "lon": 37.4997078}, {"type": "node", "id": 11088664260, "lat": 41.0329397, "lon": 37.5000672}, {"type": "node", "id": 11088664261, "lat": 41.0326221, "lon": 37.5001584}, {"type": "node", "id": 11088664262, "lat": 41.0325796, "lon": 37.4998955}, {"type": "node", "id": 11088664263, "lat": 41.0326727, "lon": 37.4998687}, {"type": "node", "id": 11088664264, "lat": 41.0326706, "lon": 37.499748}, {"type": "node", "id": 11089257213, "lat": 40.9841819, "lon": 37.9125214}, {"type": "node", "id": 11089257214, "lat": 40.984208, "lon": 37.9125203}, {"type": "node", "id": 11089257215, "lat": 40.984211, "lon": 37.912563}, {"type": "node", "id": 11089257216, "lat": 40.98433, "lon": 37.9125498}, {"type": "node", "id": 11089257217, "lat": 40.98431, "lon": 37.9121931}, {"type": "node", "id": 11089257218, "lat": 40.9841888, "lon": 37.9122063}, {"type": "node", "id": 11089257219, "lat": 40.9841911, "lon": 37.9122693}, {"type": "node", "id": 11089257220, "lat": 40.9841673, "lon": 37.9122764}, {"type": "node", "id": 11143188273, "lat": 41.0548396, "lon": 37.4784984}, {"type": "node", "id": 11143188274, "lat": 41.0548457, "lon": 37.4783785}, {"type": "node", "id": 11143188275, "lat": 41.0547906, "lon": 37.4782789}, {"type": "node", "id": 11143188276, "lat": 41.0546955, "lon": 37.4783195}, {"type": "node", "id": 11143188277, "lat": 41.0546741, "lon": 37.47835}, {"type": "node", "id": 11143188278, "lat": 41.0545606, "lon": 37.4783439}, {"type": "node", "id": 11143188279, "lat": 41.0544779, "lon": 37.478411}, {"type": "node", "id": 11143188280, "lat": 41.0543338, "lon": 37.4784598}, {"type": "node", "id": 11143188281, "lat": 41.0543261, "lon": 37.4784984}, {"type": "node", "id": 11143188282, "lat": 41.0543276, "lon": 37.4785939}, {"type": "node", "id": 11143188283, "lat": 41.0543736, "lon": 37.4786793}, {"type": "node", "id": 11143188284, "lat": 41.0545192, "lon": 37.4786183}, {"type": "node", "id": 11143188285, "lat": 41.0546419, "lon": 37.478596}, {"type": "node", "id": 11143188286, "lat": 41.0547047, "lon": 37.4785431}, {"type": "node", "id": 11143188293, "lat": 41.0544134, "lon": 37.4786626}, {"type": "node", "id": 11160508338, "lat": 41.1052076, "lon": 37.6503698, "tags": {"amenity": "cafe", "name": "K\u00f6y Kahvesi"}}, {"type": "node", "id": 11233268777, "lat": 41.0536778, "lon": 37.6129421, "tags": {"addr:neighbourhood": "Yal\u0131k\u00f6y Mahallesi", "addr:street": "Bolaman-Per\u015fembe Sahil yolu", "amenity": "restaurant", "cuisine": "seafood", "name": "Ati Bal\u0131k Restorant", "phone": "+905376476666"}}, {"type": "node", "id": 11434531833, "lat": 41.050319, "lon": 37.7861901}, {"type": "node", "id": 11434531834, "lat": 41.0502323, "lon": 37.7860592}, {"type": "node", "id": 11434531835, "lat": 41.0500935, "lon": 37.7861972}, {"type": "node", "id": 11434531836, "lat": 41.0501362, "lon": 37.7862591}, {"type": "node", "id": 11434531837, "lat": 41.0501616, "lon": 37.7862237}, {"type": "node", "id": 11434531838, "lat": 41.0501749, "lon": 37.786252}, {"type": "node", "id": 11434531839, "lat": 41.0501856, "lon": 37.7862397}, {"type": "node", "id": 11434531840, "lat": 41.0502336, "lon": 37.7863246}, {"type": "node", "id": 11434531841, "lat": 41.0502843, "lon": 37.7862627}, {"type": "node", "id": 11434531842, "lat": 41.050271, "lon": 37.786245}, {"type": "node", "id": 11618596623, "lat": 40.987078, "lon": 37.8794185}, {"type": "node", "id": 11618596624, "lat": 40.9870568, "lon": 37.879429}, {"type": "node", "id": 11618596638, "lat": 40.9871056, "lon": 37.8795783}, {"type": "node", "id": 11681869891, "lat": 41.0368732, "lon": 37.5932623}, {"type": "node", "id": 11681869892, "lat": 41.0368664, "lon": 37.5931691}, {"type": "node", "id": 11681869893, "lat": 41.0366639, "lon": 37.5932057}, {"type": "node", "id": 11681869894, "lat": 41.0366721, "lon": 37.5933189}, {"type": "node", "id": 11696989014, "lat": 41.0368824, "lon": 37.5936002}, {"type": "node", "id": 11696989015, "lat": 41.0367441, "lon": 37.5935956}, {"type": "node", "id": 11696989016, "lat": 41.0367534, "lon": 37.593685}, {"type": "node", "id": 11696989017, "lat": 41.0368801, "lon": 37.5936927}, {"type": "node", "id": 11696989018, "lat": 41.0368754, "lon": 37.5934893}, {"type": "node", "id": 11696989019, "lat": 41.0367441, "lon": 37.5934878}, {"type": "node", "id": 11696989022, "lat": 41.036881, "lon": 37.5935787}, {"type": "node", "id": 11696989027, "lat": 41.0368771, "lon": 37.5935166}, {"type": "node", "id": 11696989048, "lat": 41.0433638, "lon": 37.6017717}, {"type": "node", "id": 11696989049, "lat": 41.0432383, "lon": 37.6016839}, {"type": "node", "id": 11696989050, "lat": 41.0431837, "lon": 37.6018456}, {"type": "node", "id": 11696989051, "lat": 41.0433092, "lon": 37.6019226}, {"type": "node", "id": 11696989052, "lat": 41.0432221, "lon": 37.6017317}, {"type": "node", "id": 11696989055, "lat": 41.0431896, "lon": 37.6018279}, {"type": "node", "id": 11696989056, "lat": 41.0432278, "lon": 37.6019781}, {"type": "node", "id": 11696989057, "lat": 41.0431848, "lon": 37.601878}, {"type": "node", "id": 11696989058, "lat": 41.0430745, "lon": 37.6019581}, {"type": "node", "id": 11696989059, "lat": 41.0431012, "lon": 37.6020104}, {"type": "node", "id": 11696989060, "lat": 41.0430826, "lon": 37.6020274}, {"type": "node", "id": 11696989061, "lat": 41.0431081, "lon": 37.6020967}, {"type": "node", "id": 11696989062, "lat": 41.0431999, "lon": 37.6020336}, {"type": "node", "id": 11696989063, "lat": 41.0431883, "lon": 37.6019981}, {"type": "node", "id": 11697028228, "lat": 41.064092, "lon": 37.6152364}, {"type": "node", "id": 11700507559, "lat": 41.0300148, "lon": 37.5765766}, {"type": "node", "id": 11700507563, "lat": 41.0299599, "lon": 37.5766235}, {"type": "node", "id": 11703548294, "lat": 41.0295577, "lon": 37.5748423}, {"type": "node", "id": 11703548295, "lat": 41.0295024, "lon": 37.5746899}, {"type": "node", "id": 11703548296, "lat": 41.0294649, "lon": 37.5747061}, {"type": "node", "id": 11703548297, "lat": 41.0294365, "lon": 37.5746269}, {"type": "node", "id": 11703548298, "lat": 41.029398, "lon": 37.5746565}, {"type": "node", "id": 11703548299, "lat": 41.0294837, "lon": 37.5748868}, {"type": "node", "id": 11703548328, "lat": 41.0293408, "lon": 37.5748229, "tags": {"amenity": "restaurant", "name": "Ziyafet"}}, {"type": "node", "id": 11805130069, "lat": 41.0249046, "lon": 37.5586685, "tags": {"amenity": "restaurant", "name": "Yall\u0131k k\u00f6y k\u00f6fteci Burhana"}}, {"type": "node", "id": 11821501632, "lat": 41.0334058, "lon": 37.5862623, "tags": {"amenity": "restaurant", "cuisine": "barbecue;meat", "diet:halal": "yes", "name": "Erg\u00fcn Izgara, Ocakba\u015f\u0131"}}, {"type": "node", "id": 12222698576, "lat": 41.0253443, "lon": 37.5579234, "tags": {"amenity": "restaurant", "name": "52/24 Restaurant", "website": "https://www.5224restaurant.com/"}}, {"type": "node", "id": 12246167101, "lat": 41.0343421, "lon": 37.4934716, "tags": {"addr:housenumber": "2", "addr:street": "Gonca Sokak", "amenity": "cafe", "name": "Lak Lak Kafe", "opening_hours": "Mo-Fr 10:00-16:00"}}, {"type": "node", "id": 12246218903, "lat": 41.0617345, "lon": 37.5102126, "tags": {"amenity": "cafe", "name": "Fener Adas\u0131", "opening_hours": "Mo-Su 11:00-18:00"}}, {"type": "node", "id": 12246219702, "lat": 41.0318664, "lon": 37.4980428, "tags": {"addr:street": "Ata Caddesi", "amenity": "restaurant", "name": "Friends Burger"}}, {"type": "node", "id": 12246255003, "lat": 41.0350355, "lon": 37.4917885, "tags": {"addr:street": "Y\u00fccel Sokak", "amenity": "cafe", "name": "Harman Kafe Restorant"}}, {"type": "node", "id": 12246255302, "lat": 41.0326722, "lon": 37.4985176, "tags": {"addr:postcode": "52400", "addr:street": "Samsun-Ordu yolu", "amenity": "cafe", "name": "La Perlas", "opening_hours": "Mo-Sa 09:00-21:30"}}, {"type": "node", "id": 12246255303, "lat": 41.032387, "lon": 37.4988597, "tags": {"addr:postcode": "52400", "addr:street": "Samsun-Ordu yolu", "amenity": "restaurant", "name": "Sahil Restoran", "opening_hours": "Mo-Su 09:00-05:00"}}, {"type": "node", "id": 12247782802, "lat": 41.0343984, "lon": 37.4927262, "tags": {"addr:street": "Gonca Sokak", "amenity": "cafe", "name": "Laklak Kafe", "name:en": "Lak Lak Cafe", "opening_hours": "Mo-Su 08:30-15:00"}}, {"type": "node", "id": 12247844501, "lat": 41.0343538, "lon": 37.4934421, "tags": {"addr:street": "Gonca Sokak", "amenity": "cafe", "name": "Lak Lak Kafe", "name:en": "Lak Lak Cafe", "opening_hours": "Mo-Sa 10:00-16:00"}}, {"type": "node", "id": 12675945982, "lat": 41.0351489, "lon": 37.4899561}, {"type": "node", "id": 12675945983, "lat": 41.0351489, "lon": 37.4898891}, {"type": "node", "id": 12675945984, "lat": 41.0351379, "lon": 37.4898221}, {"type": "node", "id": 12675945985, "lat": 41.0351168, "lon": 37.4897741}, {"type": "node", "id": 12675945986, "lat": 41.0350747, "lon": 37.4897473}, {"type": "node", "id": 12675945987, "lat": 41.0349256, "lon": 37.4897115}, {"type": "node", "id": 12675945988, "lat": 41.0349357, "lon": 37.4898266}, {"type": "node", "id": 12675945989, "lat": 41.0349762, "lon": 37.4898389}, {"type": "node", "id": 12675945990, "lat": 41.0350309, "lon": 37.4898512}, {"type": "node", "id": 12675945991, "lat": 41.0350511, "lon": 37.4898601}, {"type": "node", "id": 12675945992, "lat": 41.0350663, "lon": 37.4898914}, {"type": "node", "id": 12675945993, "lat": 41.0350705, "lon": 37.4899483}, {"type": "node", "id": 12679731597, "lat": 41.032207, "lon": 37.4926508}, {"type": "node", "id": 12679731598, "lat": 41.0322035, "lon": 37.4924613}, {"type": "node", "id": 12679731599, "lat": 41.0320641, "lon": 37.4924602}, {"type": "node", "id": 12679731600, "lat": 41.0320623, "lon": 37.4926542}, {"type": "node", "id": 12828783614, "lat": 40.9832908, "lon": 37.8828628, "tags": {"amenity": "cafe", "name": "Roast Coffee"}}, {"type": "way", "id": 557114963, "nodes": [5373377249, 11700507559, 5373377250, 11700507563, 5373377251, 5373377252, 5373377249], "tags": {"amenity": "restaurant", "building": "yes", "name": "\u015eahin Et Mangal", "outdoor_seating": "yes", "toilets": "yes"}}, {"type": "way", "id": 569475383, "nodes": [5476773558, 5476773555, 5476773554, 11697028228, 5476773553, 5476773558], "tags": {"amenity": "restaurant", "name": "Arapkasi at mangal"}}, {"type": "way", "id": 724285158, "nodes": [6792529342, 6792529343, 11618596638, 6792529344, 11618596624, 11618596623, 6792529345, 6792529342], "tags": {"amenity": "cafe", "building": "yes", "name": "Ay\u0131\u015f\u0131\u011f\u0131"}}, {"type": "way", "id": 1091952113, "nodes": [10000596164, 10000596165, 10000596166, 10000596167, 10000596147, 10000596164], "tags": {"amenity": "cafe", "building": "yes", "name": "Mercan Plaj Kafe Restaurant"}}, {"type": "way", "id": 1160809635, "nodes": [10796540395, 10796540396, 10796540397, 10796540398, 10796540395], "tags": {"amenity": "restaurant", "building": "yes", "cuisine": "regional;barbecue;turkish", "diet:halal": "yes", "name": "Dedeo\u011flu Piknik"}}, {"type": "way", "id": 1163038846, "nodes": [10816358704, 10816400609, 10816400610, 10816400605, 10816400606, 10816400607, 10816400608, 10816358704], "tags": {"amenity": "cafe", "building": "yes", "cuisine": "regional;burger;pizza;coffee_shop;chicken;dessert;salad;pasta;cake;turkish;juice", "internet_access": "yes", "name": "KORU by H\u00dcNKAR", "outdoor_seating": "yes", "phone": "+90 452 400 55 44", "website": "https://www.instagram.com/korubyhunkar/?hl=tr"}}, {"type": "way", "id": 1194241778, "nodes": [11085373463, 11085373464, 11085373465, 11085373466, 11085373463], "tags": {"amenity": "cafe", "building": "yes", "name": "Dalyan B\u00fcfe Plaj"}}, {"type": "way", "id": 1194249024, "nodes": [11085488211, 11085488212, 11085488213, 11085488214, 11085488211], "tags": {"amenity": "cafe", "building": "yes"}}, {"type": "way", "id": 1194299624, "nodes": [11085794145, 11085794146, 11085794147, 11085794148, 11085794149, 11085794150, 11085794151, 11085794152, 11085794145], "tags": {"amenity": "restaurant", "building": "yes", "cuisine": "turkish;regional", "name": "Ordu Boztepe Vali Kemal Yaz\u0131c\u0131o\u011flu Turistik Tesisleri"}}, {"type": "way", "id": 1194307062, "nodes": [11085880914, 11085880915, 11085880916, 11085880917, 11085880918, 11085880919, 11085880914], "tags": {"amenity": "cafe", "building": "yes"}}, {"type": "way", "id": 1194677339, "nodes": [11088664259, 11088664260, 11088664261, 11088664262, 11088664263, 11088664264, 11088664259], "tags": {"amenity": "cafe", "building": "yes", "building:levels": "2", "name": "Motto", "opening_hours": "Mo-Su 08:00-00:00"}}, {"type": "way", "id": 1194747886, "nodes": [11089257213, 11089257214, 11089257215, 11089257216, 11089257217, 11089257218, 11089257219, 11089257220, 11089257213], "tags": {"amenity": "cafe", "building": "yes", "cuisine": "pizza;burger;coffee_shop;chicken;american;mexican;sandwich;ice_cream;dessert;salad;pasta;juice", "name": "Tomur Cafe"}}, {"type": "way", "id": 1201888047, "nodes": [11143188273, 11143188274, 11143188275, 11143188276, 11143188277, 11143188278, 11143188279, 11143188280, 11143188281, 11143188282, 11143188283, 11143188293, 11143188284, 11143188285, 11143188286, 11143188273], "tags": {"amenity": "restaurant", "building": "yes", "cuisine": "turkish;burger;kebab", "name": "H\u00fcnkar"}}, {"type": "way", "id": 1232633571, "nodes": [11434531833, 11434531834, 11434531835, 11434531836, 11434531837, 11434531838, 11434531839, 11434531840, 11434531841, 11434531842, 11434531833], "tags": {"amenity": "restaurant", "building": "yes", "cuisine": "barbecue;regional"}}, {"type": "way", "id": 1256597658, "nodes": [11681869891, 11681869892, 11681869893, 11681869894, 11681869891], "tags": {"amenity": "restaurant", "building": "yes", "cuisine": "turkish;pide;regional"}}, {"type": "way", "id": 1258183199, "nodes": [11696989014, 11696989015, 11696989016, 11696989017, 11696989014], "tags": {"amenity": "restaurant", "building": "yes", "cuisine": "turkish"}}, {"type": "way", "id": 1258183200, "nodes": [11696989018, 11696989027, 11696989022, 11696989014, 11696989015, 11696989019, 11696989018], "tags": {"amenity": "restaurant", "building": "yes", "cuisine": "turkish"}}, {"type": "way", "id": 1258183205, "nodes": [11696989048, 11696989049, 11696989052, 11696989055, 11696989050, 11696989051, 11696989048], "tags": {"amenity": "cafe", "building": "yes"}}, {"type": "way", "id": 1258183207, "nodes": [11696989056, 11696989057, 11696989058, 11696989059, 11696989060, 11696989061, 11696989062, 11696989063, 11696989056], "tags": {"amenity": "cafe", "building": "yes"}}, {"type": "way", "id": 1258971946, "nodes": [11703548294, 11703548295, 11703548296, 11703548297, 11703548298, 11703548299, 11703548294], "tags": {"amenity": "restaurant", "building": "roof"}}, {"type": "way", "id": 1368675691, "nodes": [12675945982, 12675945983, 12675945984, 12675945985, 12675945986, 12675945987, 12675945988, 12675945989, 12675945990, 12675945991, 12675945992, 12675945993, 12675945982], "tags": {"amenity": "cafe", "building": "yes", "name": "Fatsa Belediyesi Elek\u00e7i Park Kafeterya"}}, {"type": "way", "id": 1369015059, "nodes": [12679731597, 12679731598, 12679731599, 12679731600, 12679731597], "tags": {"amenity": "cafe", "building": "roof"}}]}