{"version": 0.6, "generator": "Overpass API 0.7.62.7 375dc00a", "osm3s": {"timestamp_osm_base": "2025-06-14T13:22:01Z", "copyright": "The data included in this document is from www.openstreetmap.org. The data is made available under ODbL."}, "elements": [{"type": "node", "id": 1934424020, "lat": 33.9304086, "lon": 8.4750856}, {"type": "node", "id": 1934424023, "lat": 33.9304215, "lon": 8.4750337}, {"type": "node", "id": 1934424025, "lat": 33.930443, "lon": 8.4750981}, {"type": "node", "id": 1934424028, "lat": 33.9304559, "lon": 8.4750461}, {"type": "node", "id": 5663231030, "lat": 33.9147608, "lon": 8.1398295, "tags": {"amenity": "cafe", "name": "Sahara Lounge", "name:fr": "Sahara Lounge", "website": "http://www.sahara-lounge.com"}}, {"type": "node", "id": 6073777287, "lat": 33.9114116, "lon": 8.1467952, "tags": {"amenity": "restaurant", "name:fr": "Chak-Wak"}}, {"type": "node", "id": 6351008101, "lat": 33.9255908, "lon": 8.1373779, "tags": {"amenity": "restaurant", "name": "FataFeat"}}, {"type": "node", "id": 6351008109, "lat": 33.9295537, "lon": 8.138123, "tags": {"addr:city": "\u062a\u0648\u0632\u0631", "amenity": "cafe", "name": "\u0645\u0642\u0647\u0649 \u0627\u0644\u0634\u064a\u062e", "name:ar": "\u0645\u0642\u0647\u0649 \u0627\u0644\u0634\u064a\u062e"}}, {"type": "node", "id": 10266295095, "lat": 33.9176068, "lon": 8.1419056}, {"type": "node", "id": 10266295096, "lat": 33.9176831, "lon": 8.1419071}, {"type": "node", "id": 10266295097, "lat": 33.9176806, "lon": 8.1420212}, {"type": "node", "id": 10266295098, "lat": 33.9176843, "lon": 8.1422273}, {"type": "node", "id": 10266295099, "lat": 33.9173779, "lon": 8.1422244}, {"type": "node", "id": 10266295100, "lat": 33.9171455, "lon": 8.1422274}, {"type": "node", "id": 10266295101, "lat": 33.9171357, "lon": 8.1421373}, {"type": "node", "id": 10266295102, "lat": 33.9172491, "lon": 8.1421113}, {"type": "node", "id": 10266295103, "lat": 33.9172491, "lon": 8.1420008}, {"type": "node", "id": 10266295104, "lat": 33.9173488, "lon": 8.1419944}, {"type": "node", "id": 10266295105, "lat": 33.9173328, "lon": 8.1418571}, {"type": "node", "id": 10266295106, "lat": 33.917258, "lon": 8.1418614}, {"type": "node", "id": 10266295107, "lat": 33.9172563, "lon": 8.1417139}, {"type": "node", "id": 10266295108, "lat": 33.9175479, "lon": 8.1416977}, {"type": "node", "id": 10266297709, "lat": 33.9178575, "lon": 8.1416923}, {"type": "node", "id": 10266297710, "lat": 33.917844, "lon": 8.1418815}, {"type": "node", "id": 10788253078, "lat": 33.9247289, "lon": 8.1398213, "tags": {"addr:city": "tozeur", "addr:housenumber": "2210", "addr:postcode": "2210", "addr:street": "Rue de l'Environnement,", "amenity": "cafe", "internet_access": "yes", "internet_access:fee": "no", "name": "Caf\u00e9 Lounge Mercato", "outdoor_seating": "yes", "phone": "+216 22 300 307", "website": "https://www.facebook.com/profile.php?id=100091322027547"}}, {"type": "way", "id": 183084209, "nodes": [1934424020, 1934424025, 1934424028, 1934424023, 1934424020], "tags": {"amenity": "cafe", "building": "yes"}}, {"type": "way", "id": 1122491965, "nodes": [10266295095, 10266295096, 10266295097, 10266295098, 10266295099, 10266295100, 10266295101, 10266295102, 10266295103, 10266295104, 10266295105, 10266295106, 10266295107, 10266295108, 10266297709, 10266297710, 10266295095], "tags": {"amenity": "cafe", "cuisine": "ice_cream;coffee_shop;american;juice;bubble_tea;dessert", "internet_access": "wlan", "internet_access:fee": "no", "name": "Centre Loisir Niffer \u0645\u0646\u062a\u0632\u0647 \u0627\u0644\u0646\u064a\u0641\u0631", "outdoor_seating": "yes", "phone": "+216 22 058 100", "website": "https://www.facebook.com/CentreNiffer"}}]}