{"version": 0.6, "generator": "Overpass API 0.7.62.7 375dc00a", "osm3s": {"timestamp_osm_base": "2025-06-14T15:20:06Z", "copyright": "The data included in this document is from www.openstreetmap.org. The data is made available under ODbL."}, "elements": [{"type": "node", "id": 536104731, "lat": 36.1982171, "lon": 37.1211726}, {"type": "node", "id": 915177057, "lat": 36.2051022, "lon": 37.1040538, "tags": {"amenity": "restaurant", "name": "Al-Qaysar", "name:ar": "\u0627\u0644\u0642\u064a\u0635\u0631"}}, {"type": "node", "id": 1422383159, "lat": 36.2087964, "lon": 37.1266629, "tags": {"amenity": "restaurant", "name": "\u0634\u0647\u0628\u0627 \u0631\u0648\u0632"}}, {"type": "node", "id": 1855160876, "lat": 36.2294609, "lon": 37.1287296}, {"type": "node", "id": 1855160878, "lat": 36.2295078, "lon": 37.1291424}, {"type": "node", "id": 1855160880, "lat": 36.2296855, "lon": 37.1286904}, {"type": "node", "id": 2135139863, "lat": 36.2234439, "lon": 37.1529721}, {"type": "node", "id": 2135139865, "lat": 36.2234817, "lon": 37.1529529}, {"type": "node", "id": 2135139889, "lat": 36.2237845, "lon": 37.1532792}, {"type": "node", "id": 2135139907, "lat": 36.2241285, "lon": 37.1535371}, {"type": "node", "id": 2135139911, "lat": 36.224187, "lon": 37.1535414}, {"type": "node", "id": 2135139918, "lat": 36.2243678, "lon": 37.1531984}, {"type": "node", "id": 2156741105, "lat": 36.2095402, "lon": 37.1497965, "tags": {"amenity": "restaurant", "name": "\u0645\u0637\u0639\u0645 \u0627\u0644\u0643\u0648\u062e"}}, {"type": "node", "id": 2397677859, "lat": 36.2166612, "lon": 37.1206961}, {"type": "node", "id": 2397677860, "lat": 36.2168441, "lon": 37.1211077}, {"type": "node", "id": 2397677861, "lat": 36.215859, "lon": 37.1218385}, {"type": "node", "id": 2397677862, "lat": 36.2156724, "lon": 37.1213991}, {"type": "node", "id": 2397720596, "lat": 36.194755, "lon": 37.1912364}, {"type": "node", "id": 2397720597, "lat": 36.1947593, "lon": 37.1914456}, {"type": "node", "id": 2397720598, "lat": 36.1946034, "lon": 37.1914456}, {"type": "node", "id": 2397720599, "lat": 36.1946121, "lon": 37.1912418}, {"type": "node", "id": 2408967401, "lat": 36.2141902, "lon": 37.1360503}, {"type": "node", "id": 2408967403, "lat": 36.2140283, "lon": 37.135628}, {"type": "node", "id": 2408967405, "lat": 36.2138014, "lon": 37.1357616}, {"type": "node", "id": 2408967407, "lat": 36.2139633, "lon": 37.136184}, {"type": "node", "id": 2411491526, "lat": 36.2132096, "lon": 37.1317913}, {"type": "node", "id": 2411491530, "lat": 36.2130774, "lon": 37.1317408}, {"type": "node", "id": 2411491534, "lat": 36.2130282, "lon": 37.1319203}, {"type": "node", "id": 2411491536, "lat": 36.2131674, "lon": 37.1319725}, {"type": "node", "id": 2418019474, "lat": 36.210988, "lon": 37.1497722}, {"type": "node", "id": 2418019475, "lat": 36.2108777, "lon": 37.1498104}, {"type": "node", "id": 2418019476, "lat": 36.2109313, "lon": 37.150114}, {"type": "node", "id": 2418019477, "lat": 36.2110448, "lon": 37.1500758}, {"type": "node", "id": 2418021518, "lat": 36.2103816, "lon": 37.1499705}, {"type": "node", "id": 2418021519, "lat": 36.2101162, "lon": 37.150078}, {"type": "node", "id": 2418021520, "lat": 36.2101451, "lon": 37.150179}, {"type": "node", "id": 2418021521, "lat": 36.2104184, "lon": 37.1501757}, {"type": "node", "id": 2418028895, "lat": 36.2112957, "lon": 37.1544201}, {"type": "node", "id": 2418028896, "lat": 36.2110617, "lon": 37.1543486}, {"type": "node", "id": 2418028897, "lat": 36.2109857, "lon": 37.154714}, {"type": "node", "id": 2418028898, "lat": 36.2112228, "lon": 37.1547931}, {"type": "node", "id": 2418045766, "lat": 36.212277, "lon": 37.1533432}, {"type": "node", "id": 2418045767, "lat": 36.2119113, "lon": 37.1532251}, {"type": "node", "id": 2418045768, "lat": 36.2118008, "lon": 37.1536903}, {"type": "node", "id": 2418045769, "lat": 36.2121722, "lon": 37.1538083}, {"type": "node", "id": 2418091576, "lat": 36.2066432, "lon": 37.1482435}, {"type": "node", "id": 2418091577, "lat": 36.2061667, "lon": 37.1481135}, {"type": "node", "id": 2418091578, "lat": 36.2060958, "lon": 37.1485036}, {"type": "node", "id": 2418091579, "lat": 36.2065694, "lon": 37.1486372}, {"type": "node", "id": 2430557644, "lat": 36.2126927, "lon": 37.1537393}, {"type": "node", "id": 2430557645, "lat": 36.2126841, "lon": 37.1538949}, {"type": "node", "id": 2430557646, "lat": 36.2124417, "lon": 37.1538144}, {"type": "node", "id": 2430557647, "lat": 36.2124569, "lon": 37.1536722}, {"type": "node", "id": 2430563773, "lat": 36.2118005, "lon": 37.1539272, "tags": {"amenity": "restaurant", "name": "\u0645\u0637\u0639\u0645 \u0627\u0644\u0648\u0631\u062f\u064a"}}, {"type": "node", "id": 2430569530, "lat": 36.2128955, "lon": 37.1550712}, {"type": "node", "id": 2430569531, "lat": 36.2128003, "lon": 37.1551785}, {"type": "node", "id": 2430569532, "lat": 36.2127397, "lon": 37.1550765}, {"type": "node", "id": 2430569534, "lat": 36.2128522, "lon": 37.1549853}, {"type": "node", "id": 2434645500, "lat": 36.1822749, "lon": 37.1232662, "tags": {"amenity": "restaurant", "name": "\u0645\u0637\u0639\u0645 \u0627\u0644\u0632\u0647\u0631\u0627\u0621"}}, {"type": "node", "id": 2435858292, "lat": 36.2002845, "lon": 37.1213929}, {"type": "node", "id": 2435870699, "lat": 36.2058377, "lon": 37.114613, "tags": {"addr:housenumber": "2", "addr:postcode": "3333", "amenity": "restaurant", "email": "daresay@dhddh.com", "name": "\u0645\u0647\u0631\u0648\u0633\u0629", "name:ar": "exasperated", "name:en": "star bub", "operator": "s Bujumbura", "phone": "9464979559", "website": "http://zbd@dbdh.com"}}, {"type": "node", "id": 2435946199, "lat": 36.2247128, "lon": 37.123073, "tags": {"amenity": "restaurant", "name": "\u0641\u0631\u0627\u0631\u064a\u062c"}}, {"type": "node", "id": 2435950451, "lat": 36.2250833, "lon": 37.1233204, "tags": {"amenity": "restaurant", "name": "\u0627\u0644\u062f\u0648\u062d\u0629"}}, {"type": "node", "id": 2435950592, "lat": 36.2253207, "lon": 37.1202084, "tags": {"amenity": "restaurant", "name": "\u0633\u0644\u0648\u0631\u0629"}}, {"type": "node", "id": 2435951308, "lat": 36.2259071, "lon": 37.1197472, "tags": {"amenity": "restaurant", "name": "\u062a\u0643\u0633\u0627\u0633"}}, {"type": "node", "id": 2435951869, "lat": 36.2267942, "lon": 37.1197419, "tags": {"amenity": "restaurant", "name": "\u0627\u0644\u0628\u064a\u062a \u0627\u0644\u0633\u0639\u064a\u062f"}}, {"type": "node", "id": 2435961185, "lat": 36.2247175, "lon": 37.1260821, "tags": {"amenity": "restaurant"}}, {"type": "node", "id": 2440199648, "lat": 36.2160163, "lon": 37.1261711, "tags": {"amenity": "cafe", "name": "\u0639 \u0627\u0644\u0628\u0627\u0644 \u0643\u0627\u0641\u064a\u0647"}}, {"type": "node", "id": 2440203941, "lat": 36.2169901, "lon": 37.1257795, "tags": {"amenity": "cafe", "name": "MSAYA CAFE"}}, {"type": "node", "id": 2440203942, "lat": 36.2169122, "lon": 37.125817, "tags": {"amenity": "cafe", "name": "SOOMA CAFE"}}, {"type": "node", "id": 2440204614, "lat": 36.2168387, "lon": 37.1258224, "tags": {"amenity": "restaurant", "name": "\u0628\u0627\u062a\u064a\u0633\u0631\u064a \u0633\u0648\u0645\u0631"}}, {"type": "node", "id": 2440208479, "lat": 36.2135537, "lon": 37.1258761, "tags": {"amenity": "cafe", "name": "SOLO CAFE"}}, {"type": "node", "id": 2440210807, "lat": 36.2130343, "lon": 37.1258868, "tags": {"amenity": "cafe", "name": "\u0645\u0627\u062a\u0631\u064a\u0648\u0634\u0643\u0627 \u0643\u0627\u0641\u064a\u0647"}}, {"type": "node", "id": 2440241030, "lat": 36.2196994, "lon": 37.1256722, "tags": {"amenity": "cafe", "name": "PREGO CAFE"}}, {"type": "node", "id": 2440269617, "lat": 36.2188381, "lon": 37.1287407, "tags": {"amenity": "cafe", "name": "\u0628\u0646 \u0627\u0644\u0639\u0644\u0628\u064a"}}, {"type": "node", "id": 2440286493, "lat": 36.218704, "lon": 37.1241112, "tags": {"amenity": "restaurant", "name": "\u0628\u064a\u062a\u0632\u0627 \u0648\u0646"}}, {"type": "node", "id": 2440301392, "lat": 36.2174575, "lon": 37.1292503, "tags": {"amenity": "cafe", "name": "S2 CAFE"}}, {"type": "node", "id": 2440306206, "lat": 36.2175052, "lon": 37.1290089, "tags": {"amenity": "cafe", "name": "IN CASA CAFE"}}, {"type": "node", "id": 3070183247, "lat": 36.1985601, "lon": 37.1222495}, {"type": "node", "id": 3070183251, "lat": 36.1999384, "lon": 37.120331}, {"type": "node", "id": 3214537230, "lat": 36.2074711, "lon": 37.1144631, "tags": {"amenity": "restaurant", "name": "\u0628\u0627\u0632\u0631\u0643\u0627\u0646 \u0648\u0627\u0644\u0642\u0644\u0639\u0647"}}, {"type": "node", "id": 3218941521, "lat": 36.2013372, "lon": 37.160837, "tags": {"amenity": "restaurant", "name": "DAAm"}}, {"type": "node", "id": 3440134952, "lat": 36.2178122, "lon": 37.156333}, {"type": "node", "id": 3440134953, "lat": 36.2175994, "lon": 37.1566594}, {"type": "node", "id": 3440134954, "lat": 36.217734, "lon": 37.1567959}, {"type": "node", "id": 3440134955, "lat": 36.2179576, "lon": 37.1564855}, {"type": "node", "id": 3805821373, "lat": 36.2296614, "lon": 37.1291157}, {"type": "node", "id": 4304409194, "lat": 36.2179132, "lon": 37.1238109, "tags": {"addr:street": "\u0634\u0627\u0631\u0639 \u0627\u0644\u0625\u062a\u062d\u0627\u062f", "amenity": "restaurant", "cuisine": "arab", "internet_access": "wlan", "name": "i.basha", "opening_hours": "Mo-Su 11:00-22:00", "phone": "0933850303"}}, {"type": "node", "id": 4304457094, "lat": 36.22252, "lon": 37.1306608, "tags": {"addr:street": "\u0634\u0627\u0631\u0639 \u0627\u0644\u0646\u064a\u0644", "amenity": "cafe", "name": "\u0643\u0634\u0643", "opening_hours": "Mo-Su 10:00-22:00", "operator": "\u0627\u0628\u0648 \u0635\u0637\u064a\u0641"}}, {"type": "node", "id": 4304549990, "lat": 36.2155147, "lon": 37.1274068, "tags": {"addr:street": "\u062f\u0648\u0627\u0631 \u0627\u0644\u0631\u0648\u0636\u0629", "amenity": "cafe", "cuisine": "arab", "internet_access": "wlan", "name": "Casto Cafe", "opening_hours": "Mo-Su 10:00-22:00"}}, {"type": "node", "id": 4436255252, "lat": 36.1562192, "lon": 37.1595434}, {"type": "node", "id": 4436255253, "lat": 36.1562323, "lon": 37.1596346}, {"type": "node", "id": 4436255256, "lat": 36.1562899, "lon": 37.1596219}, {"type": "node", "id": 4436255258, "lat": 36.1562986, "lon": 37.1596825}, {"type": "node", "id": 4436255263, "lat": 36.1564076, "lon": 37.1595018}, {"type": "node", "id": 4436255264, "lat": 36.1564294, "lon": 37.1596536}, {"type": "node", "id": 4463447499, "lat": 36.2235031, "lon": 37.1530682}, {"type": "node", "id": 4526316792, "lat": 36.2190541, "lon": 37.1236371, "tags": {"amenity": "cafe", "name:en": "SCRAMBY"}}, {"type": "node", "id": 4526341890, "lat": 36.2189531, "lon": 37.1245079, "tags": {"amenity": "cafe", "name:en": "Bohemia"}}, {"type": "node", "id": 4534812097, "lat": 36.1366677, "lon": 36.8294611, "tags": {"amenity": "restaurant", "name": "\u0642\u0637\u0641\u0629"}}, {"type": "node", "id": 4534835090, "lat": 36.1367709, "lon": 36.8295751, "tags": {"amenity": "restaurant"}}, {"type": "node", "id": 4535122789, "lat": 36.2119499, "lon": 37.1430588, "tags": {"addr:street": "\u0634\u0627\u0631\u0639 \u0627\u0644\u0645\u0644\u0643 \u0641\u064a\u0635\u0644", "amenity": "cafe", "name": "\u0623\u062b\u0631 \u0627\u0644\u0641\u0631\u0627\u0634\u0629", "name:ar": "\u0623\u062b\u0631 \u0627\u0644\u0641\u0631\u0627\u0634\u0629", "name:en": "Butterfly effect", "opening_hours": "Mo-Su 09:30-23:30", "phone": "00963 941 708 145", "website": "https://m.facebook.com/Butterflyeffectcafe/"}}, {"type": "node", "id": 4564839093, "lat": 36.2111358, "lon": 37.1226053, "tags": {"amenity": "cafe", "name": "\u0645\u0642\u0635\u0641 \u0643\u0644\u064a\u0629 \u0627\u0644\u0647\u0646\u062f\u0633\u0629 \u0627\u0644\u0632\u0631\u0627\u0639\u064a\u0629", "name:ar": "\u0645\u0642\u0635\u0641 \u0643\u0644\u064a\u0629 \u0627\u0644\u0647\u0646\u062f\u0633\u0629 \u0627\u0644\u0632\u0631\u0627\u0639\u064a\u0629"}}, {"type": "node", "id": 4648731391, "lat": 36.2159342, "lon": 37.1321235, "tags": {"amenity": "cafe", "name": "\u0645\u0642\u0647\u0649 \u0645\u0648\u063a\u0627\u0645\u0628\u0648", "name:ar": "\u0645\u0642\u0647\u0649 \u0645\u0648\u063a\u0627\u0645\u0628\u0648"}}, {"type": "node", "id": 4735893659, "lat": 36.2176624, "lon": 37.1567223}, {"type": "node", "id": 4883279439, "lat": 36.1924367, "lon": 37.1413885, "tags": {"amenity": "restaurant", "name": "\u0628\u0631\u0648\u0633\u062a\u062f \u0627\u0644\u062d\u0633\u0643\u0644", "name:ar": "\u0628\u0631\u0648\u0633\u062a\u062f \u0627\u0644\u062d\u0633\u0643\u0644"}}, {"type": "node", "id": 4883279443, "lat": 36.1934684, "lon": 37.1424908, "tags": {"amenity": "cafe", "name": "\u0635\u0627\u0644\u0629 \u062f\u0631\u0628\u0627\u0633 \u0644\ufef7\u0641\u0631\u0627\u062d", "name:ar": "\u0635\u0627\u0644\u0629 \u062f\u0631\u0628\u0627\u0633 \u0644\ufef7\u0641\u0631\u0627\u062d"}}, {"type": "node", "id": 4883279446, "lat": 36.1913749, "lon": 37.1492423, "tags": {"amenity": "cafe", "name": "\u0645\u0642\u0647\u0649 \u0627\u0644\u062c\u0627\u0645\u0648\u0633"}}, {"type": "node", "id": 4883297023, "lat": 36.1907742, "lon": 37.1468747, "tags": {"amenity": "cafe", "name": "\u0623\u0643\u0633\u0628\u0631\u064a\u0633 \u0627\u0644\u062d\u0627\u062c \u0639\u0628\u062f\u0648"}}, {"type": "node", "id": 5012669421, "lat": 36.2197255, "lon": 37.1252985, "tags": {"amenity": "restaurant", "name": "\u0645\u0637\u0639\u0645 \u0631\u0627\u062c\u0639\u064a\u0646", "name:ar": "\u0645\u0637\u0639\u0645 \u0631\u0627\u062c\u0639\u064a\u0646", "name:en": "Rajeen restaurant"}}, {"type": "node", "id": 5017614323, "lat": 36.2172925, "lon": 37.1224963, "tags": {"amenity": "restaurant", "internet_access": "wlan", "name": "\u0643\u0647\u0631\u0645\u0627\u0646", "name:ar": "\u0643\u0647\u0631\u0645\u0627\u0646", "name:en": "Kahraman"}}, {"type": "node", "id": 5290202022, "lat": 36.1366282, "lon": 36.8295075, "tags": {"amenity": "restaurant", "name": "\u0632\u0643\u0648\u0631", "name:ar": "\u0632\u0643\u0648\u0631", "name:fr": "Zakour"}}, {"type": "node", "id": 5314983421, "lat": 36.2175404, "lon": 37.131995, "tags": {"addr:street": "\u0646\u0632\u0644\u0629 \u062d\u064a \u0627\u0644\u0633\u0628\u064a\u0644", "amenity": "restaurant", "name:en": "Domuz"}}, {"type": "node", "id": 5402568428, "lat": 36.217726, "lon": 37.1311597, "tags": {"amenity": "restaurant", "name": "\u0628\u064a\u062a\u0632\u0627 \u0633\u0644\u0637\u0627\u0646\u064a", "name:ar": "\u0628\u064a\u062a\u0632\u0627 \u0633\u0644\u0637\u0627\u0646\u064a", "name:en": "Sultani pizza"}}, {"type": "node", "id": 5428556421, "lat": 36.2128473, "lon": 37.1437028, "tags": {"amenity": "cafe", "check_date": "2024-10-13", "name": "\u0633\u0639\u064a\u062f \u0642\u0647\u0648\u0629", "name:en": "Saeed Cof\u00e8"}}, {"type": "node", "id": 5643863631, "lat": 36.2195447, "lon": 37.1238613, "tags": {"amenity": "cafe", "name": "\u0646\u0627\u064a\u0633 \u0643\u0627\u0641\u064a\u0647", "name:en": "Cafe&Rest Nice"}}, {"type": "node", "id": 5902897689, "lat": 36.2160117, "lon": 37.132161, "tags": {"amenity": "restaurant", "name": "\u0627\u0637\u0627\u064a\u0628 \u0627\u0644\u0645\u0637\u0628\u062e \u0627\u0644\u062d\u0644\u0628\u064a"}}, {"type": "node", "id": 5902906986, "lat": 36.2166931, "lon": 37.131849, "tags": {"amenity": "cafe", "name": "\u0641\u064a\u0631\u0648\u0646\u0627", "name:en": "Verona"}}, {"type": "node", "id": 5938346085, "lat": 36.2170583, "lon": 37.125955, "tags": {"addr:street": "\u0634\u0627\u0631\u0639 \u0627\u0644\u0625\u062a\u062d\u0627\u062f", "amenity": "restaurant", "cuisine": "american;cake;chicken;coffee_shop;crepe;diner;ice_cream;italian", "internet_access": "wlan", "name": "\u062c\u0648\u0633\u064a", "name:en": "Juicy", "opening_hours": "Mo-Su 09:00-00:00", "phone": "+963212636197", "website": "https://m.facebook.com/juicy.piu/"}}, {"type": "node", "id": 5938359485, "lat": 36.2182219, "lon": 37.1269003, "tags": {"addr:street": "\u0627\u0644\u062f\u0648\u0627\u0631 \u0627\u0644\u0645\u0627\u0626\u0644", "amenity": "restaurant", "cuisine": "ice_cream;donut", "internet_access": "wlan", "name": "\u0641\u0633\u062a\u0642", "name:ar": "\u0641\u0633\u062a\u0642 \u0631\u0648\u0644\u0632", "name:en": "Fustok Rolls", "opening_hours": "Mo-Su 12:00-00:00", "website": "https://m.facebook.com/fustokrolls/"}}, {"type": "node", "id": 5938471986, "lat": 36.2189759, "lon": 37.1286893, "tags": {"amenity": "restaurant", "name": "\u0645\u0637\u0639\u0645 \u0648 \u0645\u0642\u0647\u0649 \u062a\u064a\u0643 \u062a\u0627\u0643", "name:en": "Tik Tac caf\u00e9 and restaurant"}}, {"type": "node", "id": 5938485187, "lat": 36.2162787, "lon": 37.1341445, "tags": {"amenity": "cafe", "name": "\u0635\u0646\u062f\u0648\u0642 \u0627\u0644\u0645\u0648\u0633\u064a\u0642\u0649", "name:en": "Music box"}}, {"type": "node", "id": 5938632687, "lat": 36.2104806, "lon": 37.1427358, "tags": {"addr:street": "\u0634\u0627\u0631\u0639 \u0627\u0644\u0645\u0644\u0643 \u0641\u064a\u0635\u0644", "amenity": "restaurant", "cuisine": "american;italian_pizza;italian;international", "name": "\u0627\u0644\u0645\u062d\u0637\u0629 \u0627\u0644\u0643\u0628\u064a\u0631\u0629", "name:en": "Grand Station"}}, {"type": "node", "id": 6008080289, "lat": 36.1868264, "lon": 37.1240478, "tags": {"amenity": "restaurant", "name": "\u0641\u0627\u0639\u0648\u0631 \u0644\u0644\u0641\u0644\u0627\u0641\u0644 \u0648\u0627\u0644\u062d\u0645\u0635 \u0648\u0627\u0644\u0641\u062a\u0629"}}, {"type": "node", "id": 6119848488, "lat": 36.2144461, "lon": 37.1579402, "tags": {"amenity": "restaurant", "name": "\u0641\u0637\u0627\u0626\u0631 \u0634\u062a\u0648\u0631\u0629"}}, {"type": "node", "id": 6119848490, "lat": 36.2113039, "lon": 37.1537813, "tags": {"amenity": "restaurant", "name": "\u0627\u0644\u0623\u0648\u0644\u0645\u0628\u064a"}}, {"type": "node", "id": 6119848587, "lat": 36.2164766, "lon": 37.1591963, "tags": {"amenity": "restaurant", "name": "\u0645\u0637\u0639\u0645 \u0646\u0648\u062d"}}, {"type": "node", "id": 6231056593, "lat": 36.2202745, "lon": 37.1625589, "tags": {"amenity": "restaurant", "name": "\u0645\u0637\u0639\u0645 \u0627\u0644\u062f\u0627\u0631"}}, {"type": "node", "id": 6443461687, "lat": 36.2055068, "lon": 37.1433297, "tags": {"amenity": "restaurant", "name": "\u0641\u0644\u0627\u0641\u0644 \u0627\u0644\u0646\u0632\u0647\u0629"}}, {"type": "node", "id": 6682123486, "lat": 36.1769677, "lon": 37.0979162, "tags": {"amenity": "cafe", "name": "\u0628\u0646 \u0642\u0647\u0648\u062a\u0646\u0627"}}, {"type": "node", "id": 7006143185, "lat": 36.2207205, "lon": 37.1271497, "tags": {"amenity": "restaurant", "name": "\u0639\u0633\u0627\u0641 \u0644\u0644\u0641\u0648\u0644"}}, {"type": "node", "id": 7725489566, "lat": 36.1876091, "lon": 37.1734875}, {"type": "node", "id": 7725489567, "lat": 36.1875864, "lon": 37.1733185}, {"type": "node", "id": 7725489568, "lat": 36.1877076, "lon": 37.1733078}, {"type": "node", "id": 7729288585, "lat": 36.2259304, "lon": 37.1228314, "tags": {"amenity": "restaurant", "name": "\u0645\u0644\u062d\u0645\u0629 \u0627\u0644\u064a\u062d\u064a\u0649"}}, {"type": "node", "id": 7732255790, "lat": 36.208366, "lon": 37.1794985, "tags": {"addr:street": "\u062f\u0648\u0627\u0631 \u0627\u0644\u0634\u0639\u0627\u0631", "amenity": "restaurant", "name": "\u0628\u0631\u0648\u0633\u062a\u062f \u0627\u0644\u0636\u064a\u0627\u0621"}}, {"type": "node", "id": 7740349717, "lat": 36.1877341, "lon": 37.1734621}, {"type": "node", "id": 7740369405, "lat": 36.1881699, "lon": 37.1724523}, {"type": "node", "id": 7740369406, "lat": 36.1880988, "lon": 37.1724944}, {"type": "node", "id": 7740369407, "lat": 36.1880437, "lon": 37.1723355}, {"type": "node", "id": 7740369408, "lat": 36.1881174, "lon": 37.172289}, {"type": "node", "id": 8121358817, "lat": 36.210862, "lon": 37.1547623, "tags": {"amenity": "restaurant", "name": "\u0641\u0627\u0633\u0643\u0646 \u0648 \u0627\u0641\u0648"}}, {"type": "node", "id": 8140762818, "lat": 36.2111524, "lon": 37.1504494, "tags": {"amenity": "restaurant", "name": "\u0645\u0637\u0639\u0645 \u0642\u0631\u0637\u0628\u0629 / \u0627\u0644\u0639\u0632\u064a\u0632\u064a\u0629."}}, {"type": "node", "id": 8338966317, "lat": 36.2515735, "lon": 37.0986246, "tags": {"amenity": "restaurant", "name": "\u0645\u0637\u0639\u0645 \u0628\u0648\u0627\u0628\u0629 \u0627\u0644\u0634\u0647\u0628\u0627\u0621"}}, {"type": "node", "id": 8413379517, "lat": 36.2165016, "lon": 37.1259674, "tags": {"amenity": "restaurant", "name": "\u0645\u0627\u0631\u062a\u0646\u064a\u0632"}}, {"type": "node", "id": 8744100117, "lat": 36.2246019, "lon": 37.1252716, "tags": {"amenity": "cafe", "name": "\u0635\u0627\u0644\u0629 \u0643\u0627\u0632\u0627\u0628\u0644\u0627\u0646\u0643\u0627 \u0644\u0644\u062d\u0641\u0644\u0627\u062a"}}, {"type": "node", "id": 9422177736, "lat": 36.2225794, "lon": 37.1660851}, {"type": "node", "id": 9422177737, "lat": 36.2224407, "lon": 37.1661884}, {"type": "node", "id": 9422177738, "lat": 36.2224402, "lon": 37.1660352}, {"type": "node", "id": 9422177739, "lat": 36.2225812, "lon": 37.1661866}, {"type": "node", "id": 10033777140, "lat": 36.197923, "lon": 37.1608763}, {"type": "node", "id": 10033777141, "lat": 36.1978235, "lon": 37.1608167}, {"type": "node", "id": 10033777142, "lat": 36.1976373, "lon": 37.1612937}, {"type": "node", "id": 10033777143, "lat": 36.1977168, "lon": 37.1613414}, {"type": "node", "id": 10033777144, "lat": 36.1977818, "lon": 37.1611746}, {"type": "node", "id": 10033777145, "lat": 36.1978642, "lon": 37.161027}, {"type": "node", "id": 10033777146, "lat": 36.1979031, "lon": 37.1610504}, {"type": "node", "id": 10033777147, "lat": 36.1978408, "lon": 37.16121}, {"type": "node", "id": 10060211799, "lat": 36.2310095, "lon": 37.1599559, "tags": {"amenity": "restaurant", "name": "\u0641\u0631\u0648\u062c \u0639\u0645\u0648 \u062d\u0645\u064a\u062f"}}, {"type": "node", "id": 10060223196, "lat": 36.2288025, "lon": 37.1603843, "tags": {"amenity": "restaurant", "name": "Shero Restaurant"}}, {"type": "node", "id": 10060238321, "lat": 36.2308023, "lon": 37.1589979, "tags": {"amenity": "restaurant", "name": "\u0645\u0637\u0639\u0645 \u0627\u0644\u0634\u0627\u0645\u064a"}}, {"type": "node", "id": 10060242561, "lat": 36.2320623, "lon": 37.1612541, "tags": {"amenity": "cafe", "name": "\u0645\u0642\u0647\u0649 \u0645\u0635\u0637\u0641\u0649"}}, {"type": "node", "id": 10060250042, "lat": 36.2306623, "lon": 37.1564292, "tags": {"amenity": "restaurant", "name": "\u0645\u0637\u0639\u0645 \u0648\u0645\u063a\u0633\u0644\u0629 \u0627\u0644\u062c\u0632\u064a\u0631\u0629"}}, {"type": "node", "id": 10060263482, "lat": 36.1982509, "lon": 37.1611518, "tags": {"amenity": "cafe", "name": "\u0627\u0644\u0642\u0644\u0639\u0629 \u0643\u0627\u0641\u064a\u0647"}}, {"type": "node", "id": 10060268014, "lat": 36.2341135, "lon": 37.1563914, "tags": {"amenity": "restaurant", "name": "\u0645\u0637\u0639\u0645 \u0627\u0628\u0648 \u0627\u062d\u0645\u062f \u0627\u0644\u0641\u0648\u0627\u0644"}}, {"type": "node", "id": 10060285125, "lat": 36.1978103, "lon": 37.1610293, "tags": {"amenity": "restaurant", "name": "Al Attar Restaurant and Cafe"}}, {"type": "node", "id": 10060286017, "lat": 36.2305388, "lon": 37.1547485, "tags": {"amenity": "cafe", "name": "POLO CAFFE"}}, {"type": "node", "id": 10060293582, "lat": 36.2010368, "lon": 37.1630425, "tags": {"amenity": "restaurant", "name": "\u0645\u0637\u0639\u0645 \u0628\u064a\u0631\u0648\u064a\u0627", "name:ar": "\u0645\u0637\u0639\u0645 \u0628\u064a\u0631\u0648\u064a\u0627", "name:fr": "Restaurant Beroea"}}, {"type": "node", "id": 10060305151, "lat": 36.1986342, "lon": 37.1603034, "tags": {"amenity": "cafe", "name": "\u0642\u0647\u0648\u0629 \u0646\u0648\u0631 \u0627\u0644\u0639\u064a\u0646"}}, {"type": "node", "id": 10060305976, "lat": 36.1984976, "lon": 37.1606014, "tags": {"amenity": "cafe", "name": "\u0643\u0627\u0641\u064a\u0647 \u0627\u0644\u062e\u064a\u0632\u0631\u0627\u0646"}}, {"type": "node", "id": 10060305977, "lat": 36.197873, "lon": 37.1609082, "tags": {"amenity": "cafe", "name": "\u0643\u0627\u0641\u064a\u0647 \u062e\u064a\u0632\u0631\u0627\u0646"}}, {"type": "node", "id": 10060308778, "lat": 36.2011225, "lon": 37.1625767, "tags": {"amenity": "restaurant", "name": "\u0623\u0631\u064a\u0643\u0627 \u0643\u0627\u0641\u064a\u0647"}}, {"type": "node", "id": 10060309138, "lat": 36.242337, "lon": 37.1515918, "tags": {"amenity": "cafe", "name": "\u0643\u0627\u0641\u062a\u064a\u0631\u064a\u0627 \u0627\u0644\u0628\u064a\u0644\u0633\u0627\u0646"}}, {"type": "node", "id": 10060333191, "lat": 36.1999126, "lon": 37.1600932, "tags": {"amenity": "restaurant", "name": "\u0639\u0645\u0648 \u0645\u0627\u0647\u0631"}}, {"type": "node", "id": 10060358878, "lat": 36.198137, "lon": 37.1528974, "tags": {"amenity": "cafe", "name": "\u062f\u0627\u0631 \u0627\u0644\u062d\u0644\u0628\u064a\u0629"}}, {"type": "node", "id": 10060360506, "lat": 36.1999183, "lon": 37.1602505, "tags": {"amenity": "restaurant", "name": "\u0645\u0637\u0639\u0645 \u0642\u0628\u0636\u0627\u064a"}}, {"type": "node", "id": 10060363914, "lat": 36.1985572, "lon": 37.1514844, "tags": {"amenity": "restaurant", "name": "\u0645\u0637\u0639\u0645 \u0623\u0646\u0637\u0627\u0643\u064a\u0629"}}, {"type": "node", "id": 10060391279, "lat": 36.1950022, "lon": 37.1627192, "tags": {"amenity": "restaurant", "name": "\u0645\u0623\u0643\u0648\u0644\u0627\u062a \u0627\u0644\u0642\u0644\u0639\u0629"}}, {"type": "node", "id": 10060395635, "lat": 36.2026531, "lon": 37.1544026, "tags": {"amenity": "restaurant", "name": "\u0628\u0627\u0632\u0627\u0631 \u0627\u0644\u0634\u0631\u0642", "name:ar": "\u0628\u0627\u0632\u0627\u0631 \u0627\u0644\u0634\u0631\u0642", "name:de": "Bazar al Charq", "name:fr": "Bazar al Charq"}}, {"type": "node", "id": 10060431768, "lat": 36.1950619, "lon": 37.1645588, "tags": {"amenity": "cafe", "name": "\u0645\u0642\u0647\u0649 \u0645\u062d\u0645\u062f\u0646\u0627\u062f\u0631 \u0627\u0644\u062d\u0633\u0646"}}, {"type": "node", "id": 10060448292, "lat": 36.1862812, "lon": 37.1594983, "tags": {"amenity": "restaurant", "name": "\u0627\u0644\u0635\u0627\u0644\u062d\u064a\u0646"}}, {"type": "node", "id": 10060455202, "lat": 36.2064176, "lon": 37.1559953, "tags": {"amenity": "restaurant", "name": "Cantara \u0645\u0637\u0639\u0645 \u0627\u0644\u0642\u0646\u0637\u0631\u0629"}}, {"type": "node", "id": 10060494801, "lat": 36.2074959, "lon": 37.1566941, "tags": {"amenity": "restaurant", "name": "Beit as-Sissi"}}, {"type": "node", "id": 10060500959, "lat": 36.2083693, "lon": 37.1605951, "tags": {"amenity": "restaurant", "name": "Haj Abdo Al Fawwal"}}, {"type": "node", "id": 10060520345, "lat": 36.2077339, "lon": 37.1577915, "tags": {"amenity": "restaurant", "name": "Al Mir Restaurant"}}, {"type": "node", "id": 10060556379, "lat": 36.1831266, "lon": 37.1536528, "tags": {"amenity": "restaurant", "name": "\u0639\u0627\u0644\u0645 \u0627\u0644\u062d\u0644\u0648\u064a\u0627\u062a"}}, {"type": "node", "id": 10060561450, "lat": 36.2114674, "lon": 37.1587945, "tags": {"amenity": "restaurant", "name": "Abu Abdo voile Restaurant \u0645\u0637\u0639\u0645 \u0627\u0628\u0648 \u0639\u0628\u062f\u0648 \u0627\u0644\u0641\u0648\u0627\u0644"}}, {"type": "node", "id": 10060563605, "lat": 36.2116582, "lon": 37.1592255, "tags": {"amenity": "restaurant", "name": "\u0645\u0637\u0639\u0645 \u0643\u0628\u0629 \u0633\u062a\u0651\u064a"}}, {"type": "node", "id": 10060579576, "lat": 36.2117534, "lon": 37.1592582, "tags": {"amenity": "restaurant", "name": "\u0645\u0637\u0639\u0645 \u0627\u0628\u0648 \u0645\u0631\u0648\u0627\u0646"}}, {"type": "node", "id": 10060588889, "lat": 36.1850384, "lon": 37.1586008, "tags": {"amenity": "restaurant", "name": "\u0641\u0631\u0648\u062c \u0627\u0644\u0633\u0627\u0644\u0645"}}, {"type": "node", "id": 10060597294, "lat": 36.2137082, "lon": 37.1579636, "tags": {"amenity": "restaurant", "name": "\u0628\u0646 \u0627\u0644\u0633\u0644\u0637\u0627\u0646"}}, {"type": "node", "id": 10060628429, "lat": 36.233802, "lon": 37.1878581, "tags": {"amenity": "restaurant", "name": "\u0645\u0637\u0639\u0645 \u0646\u0648\u0631 \u0627\u0644\u0647\u062f\u0649"}}, {"type": "node", "id": 10060639228, "lat": 36.1909988, "lon": 37.1194327, "tags": {"amenity": "restaurant", "name": "\u0645\u0637\u0639\u0645 \u0646\u0643\u0645\u0629"}}, {"type": "node", "id": 10060641186, "lat": 36.2140301, "lon": 37.1578236, "tags": {"amenity": "cafe", "cuisine": "coffee_shop", "name": "DAL\u00cd coffee"}}, {"type": "node", "id": 10060652197, "lat": 36.1899017, "lon": 37.1236127, "tags": {"amenity": "restaurant", "name": "\u0628\u0627\u0632\u0631\u0643\u0627\u0646"}}, {"type": "node", "id": 10060653257, "lat": 36.1864769, "lon": 37.1748877, "tags": {"amenity": "cafe", "name": "\u0627\u0643\u0633\u0628\u0631\u064a\u0633 \u0627\u0645 \u0641\u0627\u0631\u0633"}}, {"type": "node", "id": 10060657714, "lat": 36.2129393, "lon": 37.1570144, "tags": {"amenity": "restaurant", "name": "\u0627\u0628\u0648\u0643\u0631\u064a\u0645 \u0645\u062e\u0644\u0644 \u062d\u0645\u0635 \u0645\u062a\u0628\u0644"}}, {"type": "node", "id": 10060657953, "lat": 36.213136, "lon": 37.1565286, "tags": {"amenity": "restaurant", "name": "Rozeta"}}, {"type": "node", "id": 10060662216, "lat": 36.2147257, "lon": 37.1581418, "tags": {"amenity": "restaurant", "name": "\u0641\u0637\u0627\u0626\u0631 \u0643\u0627\u0646 \u0632\u0645\u0627\u0646"}}, {"type": "node", "id": 10060671890, "lat": 36.1877011, "lon": 37.1735082, "tags": {"amenity": "restaurant", "name": "\u0645\u0637\u0639\u0645 \u0627\u0628\u0648 \u0634\u0639\u0628\u0627\u0646"}}, {"type": "node", "id": 10060702455, "lat": 36.2148958, "lon": 37.1573276, "tags": {"amenity": "restaurant", "name": "\u0645\u0637\u0639\u0645 \u0627\u0644\u0632\u0645\u0627\u0631"}}, {"type": "node", "id": 10060740859, "lat": 36.2238265, "lon": 37.1874262, "tags": {"amenity": "cafe", "cuisine": "coffee_shop", "name": "\u0642\u0647\u0648\u0629 \u0627\u0628\u0648 \u0635\u0627\u0644\u062d"}}, {"type": "node", "id": 10060741825, "lat": 36.2171902, "lon": 37.1583221, "tags": {"amenity": "restaurant", "name": "\u0645\u0637\u0639\u0645 \u0643\u0627\u0633\u0643"}}, {"type": "node", "id": 10060741872, "lat": 36.2179971, "lon": 37.1598503, "tags": {"amenity": "restaurant", "name": "\u0641\u0631\u0648\u062c \u0645\u064a\u0634\u0648"}}, {"type": "node", "id": 10060746516, "lat": 36.218255, "lon": 37.1603553, "tags": {"amenity": "restaurant", "name": "\u0641\u0631\u0648\u062c \u064a\u0639\u0642\u0648\u0628"}}, {"type": "node", "id": 10060746804, "lat": 36.1649404, "lon": 37.1476744, "tags": {"amenity": "restaurant", "name": "\u0632\u0643\u0631\u064a\u0627 \u0627\u0644\u062d\u0633\u0646"}}, {"type": "node", "id": 10060746887, "lat": 36.1641673, "lon": 37.1553309, "tags": {"amenity": "restaurant", "cuisine": "french", "name": "\u0645\u0637\u0639\u0645 \u062d\u064a\u062f\u0631"}}, {"type": "node", "id": 10060752613, "lat": 36.1567123, "lon": 37.1531538, "tags": {"amenity": "restaurant", "name": "\u0645\u0637\u0639\u0645 \u062d\u064a\u062f\u0631"}}, {"type": "node", "id": 10060759227, "lat": 36.1970856, "lon": 37.1250045, "tags": {"amenity": "cafe", "name": "\u0625\u0643\u0633\u0628\u0631\u064a\u0633 \u0627\u0644\u0627\u0633"}}, {"type": "node", "id": 10060761432, "lat": 36.1574695, "lon": 37.1532427, "tags": {"amenity": "restaurant", "name": "\u0645\u0637\u0639\u0645 \u0641\u0631\u0648\u062c"}}, {"type": "node", "id": 10060788631, "lat": 36.2310549, "lon": 37.181847, "tags": {"amenity": "cafe", "cuisine": "coffee_shop", "name": "coffee Rommo"}}, {"type": "node", "id": 10060806308, "lat": 36.1965742, "lon": 37.1318754, "tags": {"amenity": "cafe", "name": "Shahba Cafe"}}, {"type": "node", "id": 10060807674, "lat": 36.1837734, "lon": 37.1103108, "tags": {"amenity": "cafe", "name": "\u0627\u0643\u0633\u0628\u0631\u064a\u0633 \u0627\u0644\u0622\u063a\u0627"}}, {"type": "node", "id": 10060809753, "lat": 36.1859895, "lon": 37.1121581, "tags": {"amenity": "cafe", "name": "Crema Cafe"}}, {"type": "node", "id": 10060873725, "lat": 36.2178699, "lon": 37.1560685, "tags": {"amenity": "cafe", "name": "Game World"}}, {"type": "node", "id": 10060883180, "lat": 36.2222544, "lon": 37.1649302, "tags": {"amenity": "restaurant", "name": "\u0645\u0637\u0639\u0645 \u0628\u0631\u0628\u0631 \u0645\u0634\u0627\u0648\u064a"}}, {"type": "node", "id": 10060883782, "lat": 36.180999, "lon": 37.121049, "tags": {"amenity": "restaurant", "name": "\u0633\u0628\u0633\u0628\u064a \u0648\u0632\u064a\u062f"}}, {"type": "node", "id": 10060886077, "lat": 36.2225318, "lon": 37.1660977, "tags": {"amenity": "restaurant", "name": "\u0645\u0637\u0639\u0645 \u0627\u0644\u0628\u0631\u062c"}}, {"type": "node", "id": 10060886650, "lat": 36.219117, "lon": 37.1582267, "tags": {"amenity": "restaurant", "name": "\u0628\u0628\u0646\u0648\u062a\u0634\u064a \u0622\u064a\u0633 \u0643\u0631\u064a\u0645"}}, {"type": "node", "id": 10060898355, "lat": 36.2212609, "lon": 37.1639626, "tags": {"amenity": "cafe", "cuisine": "\u0641\u0627\u062f\u0629_\u0643\u0627\u0641\u064a\u0647", "name": "\u0641\u0627\u062f\u0629 \u0643\u0627\u0641\u064a\u0647"}}, {"type": "node", "id": 10060899231, "lat": 36.2201965, "lon": 37.1650981, "tags": {"amenity": "restaurant", "name": "\u0645\u0637\u0639\u0645 \u0627\u0644\u0647\u0644\u0627\u0644"}}, {"type": "node", "id": 10060901797, "lat": 36.1816075, "lon": 37.1200447, "tags": {"amenity": "cafe", "cuisine": "coffee_shop", "name": "\u0628\u0646 \u0639\u0644\u0627\u0621\u0627\u0644\u062f\u064a\u0646"}}, {"type": "node", "id": 10060901992, "lat": 36.2033503, "lon": 37.1719524, "tags": {"amenity": "restaurant", "name": "\u0645\u0637\u0639\u0645 \u0628\u0627\u0628 \u0627\u0644\u062d\u062f\u064a\u062f"}}, {"type": "node", "id": 10060916827, "lat": 36.2202932, "lon": 37.1639626, "tags": {"amenity": "restaurant", "name": "\u0627\u0644\u0639\u0644\u064a\u0644\u064a"}}, {"type": "node", "id": 10060921243, "lat": 36.1900985, "lon": 37.1340105, "tags": {"amenity": "restaurant", "name": "\u0628\u0631\u0627\u0643\u0629 \u0627\u0644\u062e\u0628\u0632"}}, {"type": "node", "id": 10060947679, "lat": 36.2276451, "lon": 37.1584952, "tags": {"amenity": "restaurant", "name": "\u0637\u0644\u0647 \u062d\u0644\u0628"}}, {"type": "node", "id": 10060959945, "lat": 36.1796221, "lon": 37.121518, "tags": {"amenity": "restaurant", "name": "\u0641\u0644\u0627\u0641\u0644 \u0639\u0645\u0648 \u0639\u0645\u0648\u0631\u064a"}}, {"type": "node", "id": 10060998440, "lat": 36.1799505, "lon": 37.112826, "tags": {"amenity": "restaurant", "name": "\u0641\u0648\u0644 \u0627\u0644\u062e\u064a\u0631"}}, {"type": "node", "id": 10068194630, "lat": 36.1761128, "lon": 37.1068086, "tags": {"amenity": "restaurant", "cuisine": "pizza", "name": "\u0628\u064a\u062a\u0632\u0627 \u0648\u0641\u0637\u0627\u0626\u0631 \u0645\u0627\u0634\u0627"}}, {"type": "node", "id": 10068227286, "lat": 36.1723591, "lon": 37.1163259, "tags": {"amenity": "restaurant", "name": "\u0645\u062c\u0645\u0639 \u0627\u0644\u0628\u0627\u0645 \u0633\u064a\u062a\u064a"}}, {"type": "node", "id": 10068237338, "lat": 36.1763883, "lon": 37.1071654, "tags": {"amenity": "restaurant", "name": "\u0645\u0633\u062a\u062a \u0644\u062d\u0646 \u0627\u0644\u0639\u0631\u0627\u0642\u0629 \u0627\u0644\u062d\u0645\u062f\u0627\u0646\u064a\u0629"}}, {"type": "node", "id": 10068429199, "lat": 36.1737956, "lon": 37.0958226, "tags": {"amenity": "restaurant", "name": "\u0641\u0648\u0644 \u0627\u0644\u0634\u0627\u0645"}}, {"type": "node", "id": 10068499669, "lat": 36.1935716, "lon": 37.0928679, "tags": {"amenity": "restaurant", "name": "\u0645\u0637\u0639\u0645 \u0635\u0644\u0627\u062d \u0642\u0628\u0627\u0646\u064a"}}, {"type": "node", "id": 10068500561, "lat": 36.1898123, "lon": 37.101423, "tags": {"amenity": "cafe", "name": "\u062e\u0637\u0627\u0628"}}, {"type": "node", "id": 10068534258, "lat": 36.1957192, "lon": 37.0970527, "tags": {"amenity": "cafe", "name": "\u0643\u0627\u0641\u064a\u0647 \u0644\u064a\u0627\u0644\u064a\u0646\u0627"}}, {"type": "node", "id": 10068580508, "lat": 36.1971647, "lon": 37.0988219, "tags": {"amenity": "cafe", "name": "\u0641\u064a\u0646\u0648\u0633 \u0627\u0646\u062a\u0631\u0646\u062a \u0643\u0627\u0641\u064a\u0647"}}, {"type": "node", "id": 10068595347, "lat": 36.1972391, "lon": 37.1005339, "tags": {"amenity": "restaurant", "name": "\u0645\u0637\u0639\u0645 \u0648 \u0643\u0627\u0641\u064a\u0647 \u062a\u0627\u062c \u062d\u0644\u0628"}}, {"type": "node", "id": 10069931964, "lat": 36.201645, "lon": 37.1000722, "tags": {"amenity": "restaurant", "name": "\u0645\u0637\u0639\u0645 \u0627\u0644\u0628\u064a\u062a \u0627\u0644\u0633\u0639\u064a\u062f"}}, {"type": "node", "id": 10070013027, "lat": 36.1608986, "lon": 37.1285879, "tags": {"amenity": "restaurant", "name": "\u0645\u0637\u0639\u0645 \u062d\u0645\u0627\u0645\u0629"}}, {"type": "node", "id": 10074585011, "lat": 36.2153542, "lon": 37.1090038, "tags": {"amenity": "restaurant", "name": "\u0646\u062f\u0648\u0629 \u0627\u0644\u0634\u0647\u0628\u0627\u0621 \u0627\u0644\u062c\u062f\u064a\u062f\u0629"}}, {"type": "node", "id": 10074597727, "lat": 36.2279904, "lon": 37.1142653, "tags": {"amenity": "restaurant", "name": "\u0645\u0634\u0627\u0648\u064a \u0627\u0644\u0632\u0645\u0651\u0627\u0631-\u0645\u062d\u0645\u0648\u062f \u0632\u0645\u0627\u0631"}}, {"type": "node", "id": 10074733462, "lat": 36.2250629, "lon": 37.1225051, "tags": {"amenity": "restaurant", "name": "\u0645\u0637\u0639\u0645 \u0627\u0644\u0628\u0627\u0634\u0627"}}, {"type": "node", "id": 10074763945, "lat": 36.2274209, "lon": 37.1186885, "tags": {"amenity": "restaurant", "name": "\u0627\u0644\u0644\u064a\u0648\u0627\u0646"}}, {"type": "node", "id": 10074764511, "lat": 36.2243243, "lon": 37.1225161, "tags": {"amenity": "restaurant", "name": "\u0627\u0644\u0645\u0646\u062f\u064a \u0627\u0644\u064a\u0645\u0646\u064a - \u062d\u0636\u0631 \u0645\u0648\u062a"}}, {"type": "node", "id": 10074764774, "lat": 36.2262819, "lon": 37.1193283, "tags": {"amenity": "restaurant", "name": "Food Market Aleppo"}}, {"type": "node", "id": 10074785099, "lat": 36.2254188, "lon": 37.1239942, "tags": {"amenity": "restaurant", "name": "\u0645\u0637\u0639\u0645 \u0633\u0645\u0631\u0627\u0621 \u062d\u0644\u0628"}}, {"type": "node", "id": 10074791318, "lat": 36.2221499, "lon": 37.1183057, "tags": {"amenity": "restaurant", "name": "\u0627\u0628\u0648 \u0646\u062c\u064a\u0628 \u0641\u0648\u062f"}}, {"type": "node", "id": 10074797357, "lat": 36.224618, "lon": 37.121402, "tags": {"amenity": "restaurant", "name": "\u0645\u0637\u0639\u0645 \u0627\u0644\u0628\u0627\u0634\u0627"}}, {"type": "node", "id": 10074797358, "lat": 36.2242798, "lon": 37.1227367, "tags": {"amenity": "restaurant", "name": "\u0645\u0637\u0639\u0645 \u0641\u0644\u0627\u0641\u0644\u062c\u064a"}}, {"type": "node", "id": 10074936451, "lat": 36.2181259, "lon": 37.1363661, "tags": {"amenity": "restaurant", "name": "\u0645\u0637\u0639\u0645 \u0627\u0644\u0642\u0645\u0629", "opening_hours": "Mo-Su 08:00-22:00"}}, {"type": "node", "id": 10074938430, "lat": 36.217866, "lon": 37.1363767, "tags": {"amenity": "restaurant", "name": "\u0633\u0644\u0633\u0644\u0629 \u0645\u0637\u0627\u0639\u0645 \u0633\u0644\u0627\u0641", "opening_hours": "Mo-Su 08:00-22:00"}}, {"type": "node", "id": 10074984746, "lat": 36.2249227, "lon": 37.1333882, "tags": {"amenity": "cafe", "name": "\u0644\u064a\u0646 \u0643\u0627\u0641\u064a\u0647"}}, {"type": "node", "id": 10075040022, "lat": 36.2207103, "lon": 37.1297025, "tags": {"amenity": "cafe", "cuisine": "coffee_shop", "name": "Barjees Cafe"}}, {"type": "node", "id": 10075051252, "lat": 36.2192138, "lon": 37.1293214, "tags": {"amenity": "cafe", "name": "\u0643\u0627\u0641\u064a\u0647 \u0623\u0645\u0632\u0643"}}, {"type": "node", "id": 10075056460, "lat": 36.2180786, "lon": 37.1298566, "tags": {"amenity": "cafe", "name": "Coffee Bean"}}, {"type": "node", "id": 10075060276, "lat": 36.2192343, "lon": 37.1306555, "tags": {"amenity": "cafe", "name": "Troy"}}, {"type": "node", "id": 10075067521, "lat": 36.2183589, "lon": 37.1289576, "tags": {"amenity": "cafe", "name": "Coffee Time"}}, {"type": "node", "id": 10075067603, "lat": 36.2158805, "lon": 37.1278104, "tags": {"amenity": "cafe", "cuisine": "coffee_shop", "name": "Crema Espresso Gourmet"}}, {"type": "node", "id": 10075071866, "lat": 36.217509, "lon": 37.1256539, "tags": {"amenity": "cafe", "name": "Rouge caf\u00e9"}}, {"type": "node", "id": 10075075898, "lat": 36.2177894, "lon": 37.1255878, "tags": {"amenity": "restaurant", "name": "Falafel"}}, {"type": "node", "id": 10075083121, "lat": 36.2164767, "lon": 37.1275346, "tags": {"amenity": "restaurant", "name": "\u0645\u0637\u0628\u062e \u0645\u0647\u0631\u0648\u0633\u0629"}}, {"type": "node", "id": 10075089183, "lat": 36.2136512, "lon": 37.1257256, "tags": {"amenity": "restaurant", "name": "\u0634\u0627\u0630\u0644\u064a"}}, {"type": "node", "id": 10075098362, "lat": 36.2145144, "lon": 37.1272865, "tags": {"amenity": "cafe", "name": "\u062c\u0648\u064a \u0643\u0627\u0641\u064a\u0647"}}, {"type": "node", "id": 10076349547, "lat": 36.2148229, "lon": 37.1339603, "tags": {"amenity": "cafe", "name": "\u0643\u0627\u0641\u064a\u0647 \u0634\u0627\u0631\u0644\u0648\u062a"}}, {"type": "node", "id": 10076349556, "lat": 36.2159363, "lon": 37.131283, "tags": {"amenity": "cafe", "name": "\u0633\u0627\u0628\u0644\u064a\u0647"}}, {"type": "node", "id": 10076349590, "lat": 36.2061193, "lon": 37.1310047, "tags": {"amenity": "cafe", "name": "\u0641\u064a\u062a\u0627\u0645\u064a\u0646 \u062c\u0646\u0629 \u0627\u0644\u0641\u0648\u0627\u0643\u0629"}}, {"type": "node", "id": 10076355883, "lat": 36.2150217, "lon": 37.1350063, "tags": {"amenity": "cafe", "name": "\u0643\u0627\u0641\u064a\u0647 \u0627\u0644\u0639\u0633\u0644"}}, {"type": "node", "id": 10076360269, "lat": 36.216312, "lon": 37.1362002, "tags": {"amenity": "cafe", "name": "TANGO CAFE"}}, {"type": "node", "id": 10076378788, "lat": 36.2129749, "lon": 37.129803, "tags": {"amenity": "cafe", "name": "Ice Chocolate"}}, {"type": "node", "id": 10076386417, "lat": 36.2165645, "lon": 37.1314792, "tags": {"amenity": "cafe", "name": "\u0633\u064a\u0644\u0627\u0641\u064a \u0643\u0627\u0641\u064a\u0647."}}, {"type": "node", "id": 10076400798, "lat": 36.20678, "lon": 37.1291327, "tags": {"amenity": "restaurant", "name": "\u0645\u0637\u0639\u0645 \u0632\u0647\u0631\u0629 \u0627\u0644\u0645\u062f\u0627\u0626\u0646"}}, {"type": "node", "id": 10076406472, "lat": 36.2063515, "lon": 37.1301621, "tags": {"amenity": "restaurant", "name": "\u0645\u0637\u0639\u0645 \u0633\u0643\u0648\u0628"}}, {"type": "node", "id": 10076433115, "lat": 36.2034837, "lon": 37.1340277, "tags": {"amenity": "cafe", "name": "\u0645\u0642\u0647\u0649 \u0642\u0647\u0648\u062a\u0646\u0627"}}, {"type": "node", "id": 10076440701, "lat": 36.202191, "lon": 37.1372259, "tags": {"amenity": "cafe", "name": "\u0623\u0643\u0633 \u0628\u0631\u064a\u0633 \u0623\u0628\u0648\u0639\u0644\u064a"}}, {"type": "node", "id": 10076450204, "lat": 36.2017217, "lon": 37.1384333, "tags": {"amenity": "restaurant", "name": "\u0645\u0637\u0639\u0645 \u0623\u0628\u0648 \u062d\u0627\u062a\u0645"}}, {"type": "node", "id": 10076450525, "lat": 36.2021048, "lon": 37.1380892, "tags": {"amenity": "restaurant", "name": "\u0645\u0637\u0639\u0645 \u0635\u0644\u0627\u062d \u0642\u0628\u0627\u0646\u064a"}}, {"type": "node", "id": 10076454395, "lat": 36.2042569, "lon": 37.1401006, "tags": {"amenity": "restaurant", "name": "\u0645\u062c\u0645\u0639 \u062a\u0634\u0643\u0646 \u0627\u0644\u0632\u0639\u064a\u0645"}}, {"type": "node", "id": 10076462086, "lat": 36.2042138, "lon": 37.1409431, "tags": {"amenity": "restaurant", "name": "\u062a\u0627\u062c \u062d\u0644\u0628"}}, {"type": "node", "id": 10076491840, "lat": 36.2036417, "lon": 37.1524392, "tags": {"amenity": "restaurant", "name": "\u0644\u064a\u0648\u0627\u0646 \u0627\u0644\u0628\u0627\u0634\u0627"}}, {"type": "node", "id": 10076516356, "lat": 36.2043816, "lon": 37.167412, "tags": {"amenity": "cafe", "name": "\u0627\u0643\u0633\u0628\u0631\u064a\u0633 \u0633\u0627\u0643\u062a"}}, {"type": "node", "id": 10633486473, "lat": 36.2011472, "lon": 37.1628219}, {"type": "node", "id": 10633486475, "lat": 36.2011766, "lon": 37.1630524}, {"type": "node", "id": 10633486476, "lat": 36.2011804, "lon": 37.1628774}, {"type": "node", "id": 10634672975, "lat": 36.1977279, "lon": 37.1613128}, {"type": "node", "id": 10636815910, "lat": 36.2248058, "lon": 37.1230921}, {"type": "node", "id": 10636815911, "lat": 36.2247996, "lon": 37.1231876}, {"type": "node", "id": 10636815912, "lat": 36.2247089, "lon": 37.1231645}, {"type": "node", "id": 10636815913, "lat": 36.2247139, "lon": 37.1230782}, {"type": "node", "id": 10636815915, "lat": 36.2247467, "lon": 37.1230765}, {"type": "node", "id": 10675857351, "lat": 36.1692393, "lon": 37.0107818}, {"type": "node", "id": 10675857352, "lat": 36.1690432, "lon": 37.0105366}, {"type": "node", "id": 10675857353, "lat": 36.168932, "lon": 37.0107117}, {"type": "node", "id": 10675857354, "lat": 36.1691431, "lon": 37.0109429}, {"type": "node", "id": 10686766783, "lat": 36.1881562, "lon": 37.1724604}, {"type": "node", "id": 10689342992, "lat": 36.2009593, "lon": 37.1630821}, {"type": "node", "id": 10689342994, "lat": 36.2009669, "lon": 37.1628959}, {"type": "node", "id": 11071142705, "lat": 36.2124827, "lon": 37.1500893, "tags": {"amenity": "cafe", "name": "\u0627\u062d\u0644\u0649 \u0645\u0639\u0635\u0631\u0629 \u0641\u064a \u062d\u0644\u0628 \u0639\u0635\u0627\u064a\u0631 \u0645\u062e\u062a\u0644\u0641\u0629", "name:en": "best juice shop in aleppo"}}, {"type": "node", "id": 11383459469, "lat": 36.2249174, "lon": 37.1515275, "tags": {"addr:street": "\u0627\u0644\u0643\u0627\u0631\u062f\u064a\u0646\u064a\u0627", "amenity": "restaurant", "cuisine": "grill;kebab;local;mediterranean;pizza", "name": "\u0645\u0637\u0639\u0645 \u0642\u0631\u0646\u0641\u0644", "name:en": "Koronfol Restaurant", "opening_hours": "Mo-Su 14:00-01:00", "phone": "+963959080888"}}, {"type": "node", "id": 11383459471, "lat": 36.2062889, "lon": 37.1384525, "tags": {"addr:street": "\u0634\u0627\u0631\u0639 \u0627\u0644\u0628\u062d\u062a\u0631\u064a", "amenity": "restaurant", "cuisine": "chicken;fish_and_chips", "name": "\u0645\u0637\u0639\u0645 \u0627\u0644\u0642\u0628\u0637\u0627\u0646 \u0641\u0631\u0639 \u0627\u0644\u062c\u0645\u064a\u0644\u064a\u0629", "name:en": "Captain Restaurant", "opening_hours": "Mo-Su 12:00-23:00", "phone": "0212277205"}}, {"type": "node", "id": 11383459669, "lat": 36.2140616, "lon": 37.1342303, "tags": {"addr:street": "\u0634\u0627\u0631\u0639 \u0648\u0636\u0627\u062d \u0627\u0644\u064a\u0645\u0646", "amenity": "cafe", "name": "\u0646\u064a\u0633\u0628\u0631\u064a\u0633\u0648", "name:en": "Nespresso"}}, {"type": "node", "id": 11676501469, "lat": 36.210535, "lon": 37.1542276, "tags": {"addr:street": "\u0633\u0627\u062d\u0629 \u0627\u0644\u0639\u0632\u064a\u0632\u064a\u0629", "amenity": "restaurant", "cuisine": "pizza", "internet_access": "wlan", "name": "Mecury Cafe & Resto", "opening_hours": "24/7", "phone": "0946928345"}}, {"type": "node", "id": 11902592338, "lat": 36.2052285, "lon": 37.1181073, "tags": {"amenity": "cafe", "internet_access:fee": "customers", "name": "Republic Game Center", "opening_hours": "24/24", "outdoor_seating": "no", "phone": "+963942323607"}}, {"type": "node", "id": 11998505576, "lat": 36.2163126, "lon": 37.1543804, "tags": {"amenity": "cafe", "name": "GameZone / Online Gamnig"}}, {"type": "node", "id": 12247798237, "lat": 36.2130217, "lon": 37.1549774, "tags": {"amenity": "restaurant", "cuisine": "pizza", "name": "\u0623\u0628\u0648 \u0643\u0648\u0643\u0648"}}, {"type": "node", "id": 12662921301, "lat": 36.2139639, "lon": 37.1308834, "tags": {"amenity": "restaurant", "name": "\u0645\u0637\u0639\u0645 \u062f\u064a\u0641\u0627\u0646"}}, {"type": "node", "id": 12899611901, "lat": 36.2248397, "lon": 37.1212067, "tags": {"addr:street": "\u062d\u064a \u0627\u0644\u062e\u0627\u0644\u062f\u064a\u0629", "amenity": "restaurant", "name": "\u0634\u0627\u0648\u0631\u0645\u0627 \u0648\u0628\u0631\u0648\u0633\u062a\u062f \u062f\u062c\u0627\u062c\u062a\u064a"}}, {"type": "way", "id": 174864383, "nodes": [1855160880, 3805821373, 1855160878, 1855160876, 1855160880], "tags": {"amenity": "restaurant", "building": "yes", "name": "\u062c\u0648\u0644\u062f\u0646 \u0633\u064a\u062a\u064a"}}, {"type": "way", "id": 203500091, "nodes": [2135139863, 4463447499, 2135139889, 2135139907, 2135139911, 2135139918, 2135139865, 2135139863], "tags": {"amenity": "restaurant", "building": "yes", "name": "\u0645\u0633\u0628\u062d \u0648\u0645\u0637\u0639\u0645 \u0627\u0644\u062c\u0644\u0627\u0621", "sport": "swimming"}}, {"type": "way", "id": 231376963, "nodes": [2397677859, 2397677860, 2397677861, 2397677862, 2397677859], "tags": {"amenity": "restaurant", "building": "yes", "name": "\u0646\u062f\u0648\u0629 \u0627\u0644\u0634\u0647\u0628\u0627\u0621", "name:ar": "\u0646\u062f\u0648\u0629 \u0627\u0644\u0634\u0647\u0628\u0627\u0621", "name:ru": "\u0410\u043b\u044c-\u0428\u0430\u0445\u0431\u0430\u0430"}}, {"type": "way", "id": 231384681, "nodes": [2397720596, 2397720597, 2397720598, 2397720599, 2397720596], "tags": {"amenity": "restaurant", "building": "yes"}}, {"type": "way", "id": 232551109, "nodes": [2408967401, 2408967403, 2408967405, 2408967407, 2408967401], "tags": {"amenity": "cafe", "building": "mosque", "name": "\u0645\u0642\u0647\u0649 \u0646\u0642\u0627\u0628\u0629 \u0627\u0644\u0645\u0647\u0646\u062f\u0633\u064a\u0646"}}, {"type": "way", "id": 232834697, "nodes": [2411491526, 2411491530, 2411491534, 2411491536, 2411491526], "tags": {"amenity": "cafe", "building": "yes", "name": "In House Coffee"}}, {"type": "way", "id": 233408208, "nodes": [2418019474, 2418019475, 2418019476, 2418019477, 2418019474], "tags": {"amenity": "restaurant", "building": "yes", "name": "\u0645\u062b\u0644\u062c\u0627\u062a \u0648\u0645\u0631\u0637\u0628\u0627\u062a \u0633\u0644\u0648\u0631\u0629", "name:ar": "\u0633\u0644\u0648\u0631\u0629"}}, {"type": "way", "id": 233408491, "nodes": [2418021518, 2418021519, 2418021520, 2418021521, 2418021518], "tags": {"amenity": "restaurant", "building": "yes", "name": "Caballero Mexican Restaurant", "name:ar": "\u0645\u0637\u0639\u0645 \u0643\u0628\u0627\u0644\u064a\u0631\u0648 \u0627\u0644\u0645\u064a\u0643\u0633\u064a\u0643\u064a"}}, {"type": "way", "id": 233409344, "nodes": [2418028895, 2418028896, 2418028897, 2418028898, 2418028895], "tags": {"amenity": "restaurant", "building": "yes", "name": "Old Mosaique", "name:ar": "\u0645\u0637\u0639\u0645 \u0645\u0648\u0632\u0627\u064a\u0643"}}, {"type": "way", "id": 233411301, "nodes": [2418045766, 2418045767, 2418045768, 2418045769, 2418045766], "tags": {"amenity": "cafe", "building": "yes", "name": "\u0645\u0642\u0647\u0649 \u0645\u0648\u0646\u0631\u0648", "name:en": "Monro caf\u00e9"}}, {"type": "way", "id": 233416593, "nodes": [2418091576, 2418091577, 2418091578, 2418091579, 2418091576], "tags": {"amenity": "restaurant", "building": "yes", "name": "Officer's Club", "name:ar": "\u0646\u0627\u062f\u064a \u0627\u0644\u0636\u0628\u0627\u0637 \u0645\u0648\u0642\u0639 \u062d\u0644\u0628"}}, {"type": "way", "id": 234726526, "nodes": [9422177739, 9422177736, 9422177738, 9422177737, 9422177739], "tags": {"amenity": "restaurant", "building": "yes", "name": "\u0645\u0637\u0639\u0645 \u0627\u0644\u0628\u0631\u062c"}}, {"type": "way", "id": 234936005, "nodes": [2430557644, 2430557645, 2430557646, 2430557647, 2430557644], "tags": {"amenity": "cafe", "building": "yes", "name": "\u0645\u0637\u0639\u0645 \u062e\u0631\u062f\u0644", "name:en": "Khardal rest.", "phone": "021-4463434"}}, {"type": "way", "id": 234937783, "nodes": [2430569530, 2430569531, 2430569532, 2430569534, 2430569530], "tags": {"amenity": "restaurant", "building": "yes", "name": "\u0643\u064a\u0646\u063a \u0628\u0631\u063a\u0631", "name:en": "King burger"}}, {"type": "way", "id": 235547225, "nodes": [2435858292, 3070183247, 536104731, 3070183251, 2435858292], "tags": {"amenity": "restaurant", "barrier": "wall", "name": "\u0645\u0646\u062a\u062f\u0649 \u062d\u0644\u0628 \u0627\u0644\u0633\u064a\u0627\u062d\u064a"}}, {"type": "way", "id": 336929122, "nodes": [3440134952, 3440134953, 4735893659, 3440134954, 3440134955, 3440134952], "tags": {"addr:city": "\u062d\u0644\u0628", "addr:street": "\u0631\u0639\u0627\u064a\u0629 \u0627\u0644\u0634\u0628\u0627\u0628 (\u0627\u0644\u0641\u064a\u0644\u0627\u062a)", "amenity": "restaurant", "building": "yes", "capacity": "350", "cuisine": "regional", "name": "\u0531\u0580\u0561\u0574 \u0544\u0561\u0576\u0578\u0582\u056f\u0565\u0561\u0576 (\u0531\u0544\u053a\u054f)", "name:ar": "\u062f\u0627\u0631 \u0645\u0637\u0631\u0627\u0646\u064a\u0629 \u0627\u0644\u0623\u0631\u0645\u0646 \u0627\u0644\u0623\u0631\u062b\u0648\u0630\u0643\u0633", "name:en": "Aram Manougian Public Home", "name:hy": "\u0531\u0580\u0561\u0574 \u0544\u0561\u0576\u0578\u0582\u056f\u0565\u0561\u0576 (\u0531\u0544\u053a\u054f)", "outdoor_seating": "no", "takeaway": "yes"}}, {"type": "way", "id": 446333872, "nodes": [4436255263, 4436255264, 4436255258, 4436255256, 4436255253, 4436255252, 4436255263], "tags": {"amenity": "restaurant", "building": "yes"}}, {"type": "way", "id": 827492928, "nodes": [7725489566, 7725489567, 7725489568, 7740349717, 7725489566], "tags": {"amenity": "restaurant", "building": "yes", "cuisine": "chicken;sandwich;pizza;burger", "name": "\u0645\u0637\u0639\u0645 \u0627\u0644\u0645\u0631\u062c\u0629 (Almerge Resturant)"}}, {"type": "way", "id": 829241198, "nodes": [7740369405, 10686766783, 7740369406, 7740369407, 7740369408, 7740369405], "tags": {"amenity": "cafe", "building": "yes", "name": "Midhat kafe"}}, {"type": "way", "id": 1095630265, "nodes": [10033777140, 10033777141, 10033777142, 10033777143, 10634672975, 10033777144, 10033777147, 10033777146, 10033777145, 10033777140], "tags": {"amenity": "cafe", "building": "yes", "building:levels": "1", "name": "\u0627\u0644\u0642\u0644\u0639\u0629 \u0643\u0627\u0641\u064a\u0647"}}, {"type": "way", "id": 1141529391, "nodes": [10633486473, 10689342994, 10689342992, 10633486475, 10633486476, 10633486473], "tags": {"amenity": "restaurant", "building": "yes"}}, {"type": "way", "id": 1142032719, "nodes": [10636815910, 10636815911, 10636815912, 10636815913, 10636815915, 10636815910], "tags": {"amenity": "restaurant", "building": "yes"}}, {"type": "way", "id": 1147307558, "nodes": [10675857351, 10675857352, 10675857353, 10675857354, 10675857351], "tags": {"amenity": "restaurant", "building": "yes"}}]}