{"version": 0.6, "generator": "Overpass API 0.7.62.7 375dc00a", "osm3s": {"timestamp_osm_base": "2025-06-14T15:11:57Z", "copyright": "The data included in this document is from www.openstreetmap.org. The data is made available under ODbL."}, "elements": [{"type": "node", "id": 10110125853, "lat": 40.1682384, "lon": 34.8406385, "tags": {"amenity": "cafe", "name": "Hal K\u00f6ftecisi Mahmut Usta"}}, {"type": "node", "id": 10110125857, "lat": 40.1684414, "lon": 34.8404871, "tags": {"amenity": "cafe", "name": "Lezzet Pide F\u0131r\u0131n\u0131"}}, {"type": "node", "id": 10110125859, "lat": 40.1691025, "lon": 34.8408702, "tags": {"amenity": "cafe", "name": "Komagene"}}, {"type": "node", "id": 10111150216, "lat": 40.4206883, "lon": 34.7575617, "tags": {"amenity": "cafe"}}, {"type": "node", "id": 10111151091, "lat": 40.4560761, "lon": 34.8401231, "tags": {"amenity": "cafe", "name": "Be\u015fel Tavuk"}}, {"type": "node", "id": 10111151104, "lat": 40.4602298, "lon": 34.8471803, "tags": {"amenity": "cafe"}}, {"type": "node", "id": 10111504524, "lat": 40.470733, "lon": 34.875769, "tags": {"amenity": "cafe"}}, {"type": "node", "id": 10111504770, "lat": 40.4946545, "lon": 34.9030474, "tags": {"amenity": "cafe"}}, {"type": "node", "id": 10111505052, "lat": 40.50713, "lon": 34.9099763, "tags": {"amenity": "cafe", "name": "Ci\u011ferci bahri"}}, {"type": "node", "id": 10111505055, "lat": 40.5080227, "lon": 34.9101891, "tags": {"amenity": "cafe", "name": "Leblebici"}}]}