{"version": 0.6, "generator": "Overpass API 0.7.62.7 375dc00a", "osm3s": {"timestamp_osm_base": "2025-06-14T15:06:54Z", "copyright": "The data included in this document is from www.openstreetmap.org. The data is made available under ODbL."}, "elements": [{"type": "node", "id": 392323953, "lat": 29.9753997, "lon": 31.1411331, "tags": {"amenity": "restaurant", "brand": "Pizza Hut", "brand:wikidata": "Q191615", "check_date": "2024-10-30", "cuisine": "pizza", "name": "Pizza Hut", "name:ar": "\u0628\u064a\u0632\u0627 \u0647\u062a", "name:en": "Pizza Hut"}}, {"type": "node", "id": 563641106, "lat": 30.0533067, "lon": 30.988394}, {"type": "node", "id": 563641107, "lat": 30.0531865, "lon": 30.9880912}, {"type": "node", "id": 563641108, "lat": 30.052972, "lon": 30.9881993}, {"type": "node", "id": 563641109, "lat": 30.053073, "lon": 30.9885201}, {"type": "node", "id": 564717223, "lat": 30.1476269, "lon": 30.8156649, "tags": {"amenity": "restaurant"}}, {"type": "node", "id": 599314398, "lat": 29.9738561, "lon": 30.9414649, "tags": {"addr:city": "\u0645\u062f\u064a\u0646\u0629 6 \u0623\u0643\u062a\u0648\u0628\u0631", "addr:housename": "\u0627\u0644\u0645\u0627\u0644\u0643\u0649", "addr:street": "\u0627\u0644\u0645\u062d\u0648\u0631 \u0627\u0644\u0645\u0631\u0643\u0632\u0649", "addr:street:en": "Al Markazy Axis", "amenity": "restaurant", "capacity": "30", "cuisine": "regional", "name": "\u0627\u0644\u0645\u0627\u0644\u0643\u0649", "name:ar": "\u0627\u0644\u0645\u0627\u0644\u0643\u0649", "name:en": "Al malki"}}, {"type": "node", "id": 892939516, "lat": 29.9599404, "lon": 31.0600387, "tags": {"amenity": "cafe", "name": "\u062a\u0648\u062a\u064a \u0643\u0627\u0641\u064a\u0647", "name:ar": "\u062a\u0648\u062a\u064a \u0643\u0627\u0641\u064a\u0647", "name:en": "Tuti Cafe"}}, {"type": "node", "id": 900133150, "lat": 29.9570098, "lon": 31.0576347, "tags": {"alt_name": "\u0643\u064a \u0623\u0641 \u0633\u064a", "amenity": "restaurant", "name": "\u0643\u064a \u0623\u0641 \u0633\u064a", "name:ar": "\u0643\u064a \u0623\u0641 \u0633\u064a", "name:en": "KFC"}}, {"type": "node", "id": 902597168, "lat": 29.9569169, "lon": 31.057227, "tags": {"amenity": "cafe", "name": "\u0623\u0648\u0646 \u0630\u0627 \u0631\u0646 \u062f\u0631\u064a\u0645\u0644\u0627\u0646\u062f", "name:ar": "\u0623\u0648\u0646 \u0630\u0627 \u0631\u0646 \u062f\u0631\u064a\u0645\u0644\u0627\u0646\u062f", "name:en": "On The Run Dreamland"}}, {"type": "node", "id": 902602727, "lat": 30.0296805, "lon": 31.0206271, "tags": {"amenity": "restaurant", "brand": "Chili's", "brand:wikidata": "Q1072948", "cuisine": "tex-mex", "name": "Chili's", "name:ar": "\u062a\u0634\u064a\u0644\u064a\u0632", "name:en": "Chili's", "official_name": "Chili's Grill & Bar"}}, {"type": "node", "id": 902602729, "lat": 30.0294622, "lon": 31.0202194, "tags": {"amenity": "restaurant", "name": "\u0633\u062a\u0648\u062f\u064a\u0648 \u0645\u0635\u0631", "name:ar": "\u0633\u062a\u0648\u062f\u064a\u0648 \u0645\u0635\u0631", "name:en": "Studio Misr"}}, {"type": "node", "id": 902602730, "lat": 30.0291603, "lon": 31.0197527, "tags": {"amenity": "restaurant", "name": "\u062d\u0644\u0642\u0629 \u0627\u0644\u0633\u0645\u0643", "name:ar": "\u062d\u0644\u0642\u0629 \u0627\u0644\u0633\u0645\u0643", "name:en": "Halaet Al-Samak"}}, {"type": "node", "id": 902610828, "lat": 30.0291464, "lon": 31.0204394, "tags": {"amenity": "cafe", "name": "\u0623\u0644\u064a\u0646 \u0644\u0648 \u0646\u0648\u062a\u0631", "name:ar": "\u0623\u0644\u064a\u0646 \u0644\u0648 \u0646\u0648\u062a\u0631", "name:en": "Alain le Notre"}}, {"type": "node", "id": 903980734, "lat": 29.9658402, "lon": 31.0582361, "tags": {"amenity": "restaurant"}}, {"type": "node", "id": 991159333, "lat": 30.0064726, "lon": 30.9802841, "tags": {"amenity": "cafe", "cuisine": "burger", "internet_access": "no", "name": "On the Run"}}, {"type": "node", "id": 1155259704, "lat": 29.9665086, "lon": 30.9334269}, {"type": "node", "id": 1155260261, "lat": 29.9662126, "lon": 30.9333918}, {"type": "node", "id": 1259560490, "lat": 29.9745241, "lon": 31.1399167, "tags": {"amenity": "restaurant"}}, {"type": "node", "id": 1618861653, "lat": 29.9994195, "lon": 31.141951, "tags": {"addr:city": "Cairo", "addr:country": "EG", "amenity": "restaurant", "cuisine": "regional", "name": "Andrea"}}, {"type": "node", "id": 1940833025, "lat": 29.9736677, "lon": 30.9459817, "tags": {"amenity": "restaurant", "cuisine": "regional", "name": "\u0643\u0634\u0631\u064a \u0627\u0644\u062a\u062d\u0631\u064a\u0631", "name:ar": "\u0643\u0634\u0631\u064a \u0627\u0644\u062a\u062d\u0631\u064a\u0631", "name:en": "Koshary Al-Tahrir"}}, {"type": "node", "id": 1941605203, "lat": 29.9587929, "lon": 30.9181924, "tags": {"amenity": "restaurant", "cuisine": "international", "name": "Spectra"}}, {"type": "node", "id": 1942020251, "lat": 29.9717459, "lon": 30.9443932, "tags": {"addr:city": "\u0645\u062f\u064a\u0646\u0629 6 \u0623\u0643\u062a\u0648\u0628\u0631", "addr:housename": "\u0628\u064a\u062a\u0632\u0627\u0647\u062a", "addr:street": "\u0645\u064a\u062f\u0627\u0646 \u0627\u0644\u062d\u0635\u0631\u0649", "alt_name": "\u0628\u064a\u062a\u0632\u0627 \u0647\u062a", "amenity": "restaurant", "brand": "Pizza Hut", "brand:wikidata": "Q191615", "cuisine": "pizza", "name": "Pizza Hut"}}, {"type": "node", "id": 1942034348, "lat": 29.9761131, "lon": 30.9449725, "tags": {"amenity": "cafe", "cuisine": "coffee_shop", "name": "Cilantro"}}, {"type": "node", "id": 2547165753, "lat": 29.9387537, "lon": 30.9205858, "tags": {"addr:city": "\u0645\u062f\u064a\u0646\u0629 6 \u0623\u0643\u062a\u0648\u0628\u0631", "addr:housename": "\u0637\u0627\u0631\u0642 \u0644\u0644\u0645\u0634\u0648\u064a\u0627\u062a", "addr:postcode": "12573", "addr:street": "No 4", "amenity": "restaurant", "capacity": "50", "cuisine": "kebab", "name": "\u0637\u0627\u0631\u0642 \u0644\u0644\u0645\u0634\u0648\u064a\u0627\u062a", "name:ar": "\u0637\u0627\u0631\u0642 \u0644\u0644\u0645\u0634\u0648\u064a\u0627\u062a"}}, {"type": "node", "id": 2547170800, "lat": 29.938859, "lon": 30.9206698, "tags": {"addr:city": "\u0645\u062f\u064a\u0646\u0629 6 \u0623\u0643\u062a\u0648\u0628\u0631", "addr:housename": "\u0646\u0648\u0631 \u0627\u0644\u0623\u0633\u0644\u0627\u0645 \u0644\u0644\u0623\u0633\u0645\u0627\u0643", "addr:postcode": "12573", "addr:street": "No 4", "amenity": "restaurant", "cuisine": "fish_and_chips", "name": "\u0646\u0648\u0631 \u0627\u0644\u0623\u0633\u0644\u0627\u0645 \u0644\u0644\u0623\u0633\u0645\u0627\u0643", "name:ar": "\u0646\u0648\u0631 \u0627\u0644\u0623\u0633\u0644\u0627\u0645 \u0644\u0644\u0623\u0633\u0645\u0627\u0643"}}, {"type": "node", "id": 2547182358, "lat": 29.9385948, "lon": 30.920926, "tags": {"addr:city": "\u0645\u062f\u064a\u0646\u0629 6 \u0623\u0643\u062a\u0648\u0628\u0631", "addr:housename": "\u0642\u0647\u0648\u0629 \u0627\u0644\u0635\u0639\u064a\u062f\u0649", "addr:postcode": "12573", "addr:street": "No 3", "amenity": "cafe", "cuisine": "Shisha", "internet_access": "no", "name": "\u0642\u0647\u0648\u0629 \u0627\u0644\u0635\u0639\u064a\u062f\u0649", "name:ar": "\u0642\u0647\u0648\u0629 \u0627\u0644\u0635\u0639\u064a\u062f\u0649"}}, {"type": "node", "id": 2547225596, "lat": 29.9401315, "lon": 30.9207425, "tags": {"addr:city": "\u0645\u062f\u064a\u0646\u0629 6 \u0623\u0643\u062a\u0648\u0628\u0631", "addr:housename": "\u0639\u0635\u064a\u0631 \u0642\u0635\u0628 \u0627\u0644\u0628\u0631\u0643\u0629", "addr:postcode": "12573", "addr:street": "\u062f\u0648\u0644\u0633\u0649", "amenity": "restaurant", "cuisine": "coffee_shop", "name": "\u062c\u0646\u0629 \u0648\u0641\u0648\u0627\u0643\u0647 \u0627\u0644\u0628\u0631\u0643\u0629", "name:ar": "\u062c\u0646\u0629 \u0648\u0641\u0648\u0627\u0643\u0647 \u0627\u0644\u0628\u0631\u0643\u0629", "name:en": "Al Baraka juice"}}, {"type": "node", "id": 2547500699, "lat": 29.9614074, "lon": 30.9305825, "tags": {"addr:city": "\u0645\u062f\u064a\u0646\u0629 6 \u0623\u0643\u062a\u0648\u0628\u0631", "addr:housename": "\u062d\u0633\u0646\u0649 \u0627\u0644\u0643\u0628\u0627\u0628\u062c\u0649", "addr:street": "\u0627\u0644\u0645\u062d\u0648\u0631 \u0627\u0644\u0645\u0631\u0643\u0632\u0649", "amenity": "restaurant", "capacity": "50", "cuisine": "kebab", "name": "\u062d\u0633\u0646\u0649 \u0627\u0644\u0643\u0628\u0627\u0628\u062c\u0649", "name:ar": "\u062d\u0633\u0646\u0649 \u0627\u0644\u0643\u0628\u0627\u0628\u062c\u0649", "name:en": "kabab Hosny"}}, {"type": "node", "id": 2547504570, "lat": 29.9617347, "lon": 30.9306391, "tags": {"amenity": "restaurant", "cuisine": "Koshry", "name": "\u0643\u0634\u0631\u0649 \u0644\u0647\u0627\u0644\u064a\u0628\u0648", "name:ar": "\u0643\u0634\u0631\u0649 \u0644\u0647\u0627\u0644\u064a\u0628\u0648", "name:en": "Lahalibo koshry"}}, {"type": "node", "id": 2547512351, "lat": 29.9613653, "lon": 30.9304964, "tags": {"amenity": "restaurant", "name": "\u0627\u0644\u0633\u0643\u0631\u064a\u0629", "name:ar": "\u0627\u0644\u0633\u0643\u0631\u064a\u0629", "name:en": "El Sokarya"}}, {"type": "node", "id": 2547512352, "lat": 29.9618074, "lon": 30.9308039, "tags": {"amenity": "restaurant", "name": "\u064a\u0627\u0633\u064a\u0646", "name:ar": "\u064a\u0627\u0633\u064a\u0646", "name:en": "yasin"}}, {"type": "node", "id": 2549916505, "lat": 29.9665422, "lon": 30.9330481}, {"type": "node", "id": 2549916506, "lat": 29.9662462, "lon": 30.9330131}, {"type": "node", "id": 2549973381, "lat": 29.9658689, "lon": 30.9308202, "tags": {"amenity": "restaurant", "name": "\u0628\u0627\u0628\u0627 \u062c\u0648\u0646\u0632", "name:ar": "\u0628\u0627\u0628\u0627 \u062c\u0648\u0646\u0632", "name:en": "papa jones"}}, {"type": "node", "id": 2549987437, "lat": 29.9694969, "lon": 30.9394262, "tags": {"addr:city": "\u0645\u062f\u064a\u0646\u0629 6 \u0623\u0643\u062a\u0648\u0628\u0631", "addr:housename": "Native cafe", "addr:street": "Al Mehwar Al Markazi", "amenity": "cafe", "name": "Native cafe"}}, {"type": "node", "id": 2549993978, "lat": 29.9708501, "lon": 30.9406578, "tags": {"addr:city": "\u0645\u062f\u064a\u0646\u0629 6 \u0623\u0643\u062a\u0648\u0628\u0631", "addr:housename": "\u0635\u062d\u0627\u0631\u0649", "addr:street": "\u0627\u0644\u0645\u062d\u0648\u0631 \u0627\u0644\u0645\u0631\u0643\u0632\u0649 \u0637\u0631\u064a\u0642 \u0627\u0644\u0646\u0635\u0631", "amenity": "restaurant", "name": "\u0635\u062d\u0627\u0631\u0649", "name:ar": "\u0635\u062d\u0627\u0631\u0649", "name:en": "sahary"}}, {"type": "node", "id": 2550083710, "lat": 29.971443, "lon": 30.9452329, "tags": {"addr:city": "\u0645\u062f\u064a\u0646\u0629 6 \u0623\u0643\u062a\u0648\u0628\u0631", "addr:street": "\u0645\u064a\u062f\u0627\u0646 \u0627\u0644\u062d\u0635\u0631\u0649", "amenity": "restaurant", "capacity": "100", "name": "\u0645\u0637\u0627\u0639\u0645 \u0627\u0644\u0634\u0631\u0642\u0627\u0648\u0649", "name:ar": "\u0645\u0637\u0627\u0639\u0645 \u0627\u0644\u0634\u0631\u0642\u0627\u0648\u0649", "name:en": "Al Sharqawy resturant"}}, {"type": "node", "id": 2582379210, "lat": 29.9335094, "lon": 30.9192142, "tags": {"amenity": "restaurant", "cuisine": "regional", "name": "\u0645\u0637\u0639\u0645 \u0623\u0643\u062a\u0648\u0628\u0631", "name:ar": "\u0645\u0637\u0639\u0645 \u0623\u0643\u062a\u0648\u0628\u0631"}}, {"type": "node", "id": 2582643288, "lat": 29.9693137, "lon": 30.9175821, "tags": {"amenity": "restaurant", "cuisine": "regional", "name": "\u0633\u0627\u0639\u0629 \u0644\u0642\u0644\u0628\u0643", "name:ar": "\u0633\u0627\u0639\u0629 \u0644\u0642\u0644\u0628\u0643", "name:en": "Saa Licalbak"}}, {"type": "node", "id": 2582670431, "lat": 29.9788681, "lon": 30.9317303, "tags": {"amenity": "restaurant", "name": "\u0627\u0644\u063a\u0646\u062f\u0648\u0631", "name:ar": "\u0627\u0644\u063a\u0646\u062f\u0648\u0631", "name:en": "El-Ghandor"}}, {"type": "node", "id": 2582670433, "lat": 29.9786388, "lon": 30.9319179, "tags": {"amenity": "restaurant", "cuisine": "regional", "name": "\u0627\u0644\u0631\u0643\u0646 \u0627\u0644\u0639\u0631\u0627\u0642\u0649", "name:ar": "\u0627\u0644\u0631\u0643\u0646 \u0627\u0644\u0639\u0631\u0627\u0642\u0649", "name:en": "El-Rokn El-Iraqi"}}, {"type": "node", "id": 2582704494, "lat": 29.980065, "lon": 30.9340538, "tags": {"amenity": "restaurant", "cuisine": "regional", "name": "\u0627\u0644\u0628\u0644\u0627\u0645", "name:ar": "\u0627\u0644\u0628\u0644\u0627\u0645", "name:en": "El-Balam"}}, {"type": "node", "id": 2582704498, "lat": 29.9804101, "lon": 30.9341241, "tags": {"amenity": "restaurant", "name": "\u0639\u0628\u0627\u062f \u0627\u0644\u0631\u062d\u0645\u0646", "name:ar": "\u0639\u0628\u0627\u062f \u0627\u0644\u0631\u062d\u0645\u0646", "name:en": "Ibad El-Rahman"}}, {"type": "node", "id": 2619357253, "lat": 29.9404142, "lon": 30.9211152, "tags": {"amenity": "restaurant", "cuisine": "regional", "name": "\u0645\u0637\u0639\u0645 \u0643\u0630\u0627 \u0645\u064a\u0632\u0629", "name:ar": "\u0645\u0637\u0639\u0645 \u0643\u0630\u0627 \u0645\u064a\u0632\u0629", "name:en": "Kaza Miza resturant"}}, {"type": "node", "id": 2620539047, "lat": 29.9942663, "lon": 31.1604591, "tags": {"addr:city": "\u0627\u0644\u062c\u064a\u0632\u0629", "addr:housename": "El Haram", "addr:housenumber": "202", "addr:street": "\u0634\u0627\u0631\u0639 \u0627\u0644\u0647\u0631\u0645", "amenity": "restaurant", "brand": "Pizza Hut", "brand:wikidata": "Q191615", "capacity": "50", "cuisine": "pizza", "name": "Pizza Hut", "name:ar": "\u0628\u064a\u062a\u0632\u0627 \u0647\u062a", "name:en": "Pizza Hut", "opening_hours": "Mo-Su 0:00-3:00, 11:00-24:00", "website": "http://www.pizzahut.com.eg/"}}, {"type": "node", "id": 2907736547, "lat": 30.0060975, "lon": 30.972423}, {"type": "node", "id": 2907736548, "lat": 30.0059367, "lon": 30.9722045}, {"type": "node", "id": 2907736549, "lat": 30.0053763, "lon": 30.9716633}, {"type": "node", "id": 2907736550, "lat": 30.0050232, "lon": 30.972535}, {"type": "node", "id": 2907736551, "lat": 30.00495, "lon": 30.9728877}, {"type": "node", "id": 2907736552, "lat": 30.0055458, "lon": 30.9714098}, {"type": "node", "id": 2907736553, "lat": 30.0052253, "lon": 30.9719168}, {"type": "node", "id": 2907736557, "lat": 30.0068972, "lon": 30.9734467, "tags": {"amenity": "restaurant", "name": "\u0633\u062a\u0648\u062f\u064a\u0648 \u0645\u0635\u0631", "name:ar": "\u0633\u062a\u0648\u062f\u064a\u0648 \u0645\u0635\u0631", "name:en": "Studio Misr"}}, {"type": "node", "id": 2951524674, "lat": 30.0625958, "lon": 31.0280503, "tags": {"amenity": "cafe", "cuisine": "coffee_shop", "internet_access": "yes", "name": "Cilantro", "name:ar": "\u0633\u064a\u0644\u064a\u0646\u062a\u0631\u0648", "name:en": "Cilantro", "smoking": "separated"}}, {"type": "node", "id": 2969694586, "lat": 29.9865892, "lon": 31.1346666, "tags": {"amenity": "restaurant", "name:en": "On The Run"}}, {"type": "node", "id": 3005664458, "lat": 29.9782304, "lon": 31.1234677}, {"type": "node", "id": 3005664461, "lat": 29.9783354, "lon": 31.1241499}, {"type": "node", "id": 3005664469, "lat": 29.9784364, "lon": 31.1241453}, {"type": "node", "id": 3106902654, "lat": 29.9731723, "lon": 30.9452011, "tags": {"addr:city": "\u0645\u062f\u064a\u0646\u0629 6 \u0623\u0643\u062a\u0648\u0628\u0631", "addr:street": "\u0645\u064a\u062f\u0627\u0646 \u0627\u0644\u062d\u0635\u0631\u0649", "amenity": "restaurant", "check_date": "2023-12-25", "cuisine": "regional", "name": "\u0645\u0634\u0648\u064a\u0627\u062a \u0623\u0628\u0648 \u062e\u0627\u0644\u062f", "name:ar": "\u0645\u0634\u0648\u064a\u0627\u062a \u0623\u0628\u0648 \u062e\u0627\u0644\u062f", "name:en": "Abo Khaled"}}, {"type": "node", "id": 3106902655, "lat": 29.9733262, "lon": 30.9449749, "tags": {"amenity": "restaurant", "cuisine": "regional", "name": "\u0633\u062a \u0627\u0644\u0634\u0627\u0645", "name:ar": "\u0633\u062a \u0627\u0644\u0634\u0627\u0645", "name:en": "Set Al-Sham"}}, {"type": "node", "id": 3106902657, "lat": 29.9739956, "lon": 30.945913, "tags": {"addr:city": "\u0645\u062f\u064a\u0646\u0629 6 \u0623\u0643\u062a\u0648\u0628\u0631", "addr:street": "\u0645\u064a\u062f\u0627\u0646 \u0627\u0644\u062d\u0635\u0631\u0649", "amenity": "restaurant", "cuisine": "regional", "name": "\u0623\u0631\u0632\u0627\u0642 \u0627\u0644\u0643\u0648\u062b\u0631", "name:ar": "\u0623\u0631\u0632\u0627\u0642 \u0627\u0644\u0643\u0648\u062b\u0631", "name:en": "Arzaq Al-kawther"}}, {"type": "node", "id": 3106902658, "lat": 29.9733012, "lon": 30.9446801, "tags": {"addr:city": "\u0645\u062f\u064a\u0646\u0629 6 \u0623\u0643\u062a\u0648\u0628\u0631", "addr:street": "\u0645\u064a\u062f\u0627\u0646 \u0627\u0644\u062d\u0635\u0631\u0649", "amenity": "restaurant", "cuisine": "chicken", "name": "\u062f\u062c\u0627\u062c \u062a\u0643\u0627", "name:ar": "\u062f\u062c\u0627\u062c \u062a\u0643\u0627", "name:en": "Tekka Chicken", "smoking": "no"}}, {"type": "node", "id": 4224117294, "lat": 30.0514488, "lon": 31.004429, "tags": {"amenity": "restaurant", "name": "horany fish", "phone": "01062909009"}}, {"type": "node", "id": 4447605593, "lat": 30.0160267, "lon": 31.0009487, "tags": {"addr:housenumber": "40", "addr:street": "\u0645\u062d\u0648\u0631 26 \u064a\u0648\u0644\u064a\u0648", "amenity": "cafe", "brand": "\u0633\u062a\u0627\u0631\u0628\u0643\u0633", "brand:ar": "\u0633\u062a\u0627\u0631\u0628\u0643\u0633", "brand:en": "Starbucks", "brand:wikidata": "Q37158", "cuisine": "coffee_shop", "internet_access": "wlan", "name": "\u0633\u062a\u0627\u0631\u0628\u0643\u0633", "name:ar": "\u0633\u062a\u0627\u0631\u0628\u0643\u0633", "name:en": "Starbucks", "official_name": "\u0633\u062a\u0627\u0631\u0628\u0643\u0633 \u0643\u0627\u0641\u064a\u0629", "official_name:ar": "\u0633\u062a\u0627\u0631\u0628\u0643\u0633 \u0643\u0627\u0641\u064a\u0629", "official_name:en": "Starbucks Coffee", "takeaway": "yes"}}, {"type": "node", "id": 4482109790, "lat": 29.9593449, "lon": 30.9294464, "tags": {"amenity": "cafe", "name": "\u0643\u0627\u0641\u064a\u0647 \u0646\u063a\u0645", "name:ar": "\u0643\u0627\u0641\u064a\u0647 \u0646\u063a\u0645"}}, {"type": "node", "id": 4496975194, "lat": 29.9632251, "lon": 30.926567, "tags": {"amenity": "cafe", "name": "\u0633\u062a\u0627\u0631 \u0628\u0627\u0643\u0633", "name:ar": "\u0633\u062a\u0627\u0631 \u0628\u0627\u0643\u0633", "name:en": "STARBUCKS COFFEE"}}, {"type": "node", "id": 4516881791, "lat": 29.9583157, "lon": 30.9008865, "tags": {"amenity": "restaurant", "name": "\u0627\u0628\u0648 \u0631\u062d\u0645\u0647", "name:ar": "\u0627\u0628\u0648 \u0631\u062d\u0645\u0647", "opening_hours": "24/7"}}, {"type": "node", "id": 4620690993, "lat": 29.9587138, "lon": 31.0893443, "tags": {"amenity": "cafe", "cuisine": "sandwich;breakfast;cake;tea;coffee_shop;donut;chicken;diner", "internet_access": "wlan", "name": "Kanaka Cafe", "opening_hours": "24/7"}}, {"type": "node", "id": 4638292893, "lat": 29.9726561, "lon": 31.141029, "tags": {"amenity": "restaurant", "cuisine": "regional", "name": "El Hadaba", "name:ar": "El Hadaba"}}, {"type": "node", "id": 4696035990, "lat": 29.9555667, "lon": 30.9247446, "tags": {"addr:street": "\u0634\u0627\u0631\u0639 \u0627\u0644\u062e\u0632\u0627\u0646", "amenity": "restaurant", "name": "\u0627\u0644\u0639\u0634\u0631\u064a", "name:ar": "\u0627\u0644\u0639\u0634\u0631\u064a", "name:en": "Al ashry"}}, {"type": "node", "id": 4768093522, "lat": 29.9782363, "lon": 31.1236147}, {"type": "node", "id": 4772644324, "lat": 29.9611086, "lon": 30.9064228, "tags": {"amenity": "cafe", "name": "\u0642\u0647\u0648\u0629 \u0627\u0643\u062a\u0648\u0628\u0631", "name:ar": "\u0642\u0647\u0648\u0629 \u0627\u0643\u062a\u0648\u0628\u0631"}}, {"type": "node", "id": 4888418330, "lat": 29.9921683, "lon": 30.9817316, "tags": {"amenity": "restaurant", "name:en": "spectra"}}, {"type": "node", "id": 5239351930, "lat": 29.9804866, "lon": 31.1014642, "tags": {"amenity": "cafe", "internet_access": "wlan", "name:en": "location Restaurant and Cafe"}}, {"type": "node", "id": 5251825323, "lat": 29.9927083, "lon": 31.144214, "tags": {"amenity": "restaurant", "name": "\u0639\u0646\u062a\u0631 \u0627\u0644\u0643\u0628\u0627\u0628\u062c\u064a", "name:ar": "\u0639\u0646\u062a\u0631 \u0627\u0644\u0643\u0628\u0627\u0628\u062c\u064a"}}, {"type": "node", "id": 5251825521, "lat": 29.9904848, "lon": 31.135232, "tags": {"amenity": "restaurant", "name": "\u062c\u062d\u0627", "name:ar": "\u062c\u062d\u0627"}}, {"type": "node", "id": 5290596637, "lat": 29.9581042, "lon": 31.0892516, "tags": {"amenity": "restaurant", "cuisine": "egyptian", "name": "Osta Basha", "opening_hours": "Mo-Su 10:00-22:00"}}, {"type": "node", "id": 5292045103, "lat": 29.959646, "lon": 31.0894577, "tags": {"amenity": "cafe", "name": "El-Ahwa"}}, {"type": "node", "id": 5410966021, "lat": 29.9906107, "lon": 31.1343034, "tags": {"amenity": "cafe", "internet_access": "wlan", "name:en": "El Mandara Coffee Shop"}}, {"type": "node", "id": 5484560318, "lat": 29.9879406, "lon": 31.1313871, "tags": {"addr:street": "Alex-Cairo Desert Red. Ext.", "amenity": "restaurant", "capacity": "50", "cuisine": "egyptian", "name": "Felfela", "outdoor_seating": "yes", "takeaway": "yes"}}, {"type": "node", "id": 5497601324, "lat": 29.975561, "lon": 31.1411096, "tags": {"amenity": "restaurant", "check_date": "2024-10-30", "name": "Aboushakra"}}, {"type": "node", "id": 5695166722, "lat": 30.0254624, "lon": 31.105725, "tags": {"amenity": "restaurant", "name": "\u0639\u0628\u0644\u0647", "name:ar": "\u0639\u0628\u0644\u0647", "name:en": "Abla"}}, {"type": "node", "id": 5827802388, "lat": 29.9928348, "lon": 31.1289729, "tags": {"amenity": "restaurant", "cuisine": "fish;sandwich;grill;cake;tea;steak_house;fine_dining;chicken;diner;kebab;barbecue", "internet_access": "wlan", "name": "\u0645\u0637\u0639\u0645 \u0627\u0628\u0648 \u062d\u0633\u064a\u0646 \u0627\u0644\u0639\u0631\u0627\u0642\u064a", "name:ar": "\u0645\u0637\u0639\u0645 \u0627\u0628\u0648 \u062d\u0633\u064a\u0646 \u0627\u0644\u0639\u0631\u0627\u0642\u064a", "name:en": "Abo Hussien Al-Iraqi resturant", "opening_hours": "Mo-Su 10:00-12:00", "phone": "01113388986"}}, {"type": "node", "id": 6086111641, "lat": 29.993651, "lon": 30.9640991, "tags": {"amenity": "cafe", "name": "Khaled Coffee"}}, {"type": "node", "id": 6165811886, "lat": 29.9571819, "lon": 31.1525084, "tags": {"amenity": "restaurant", "name:en": "Aklet Setti Restaurant"}}, {"type": "node", "id": 6165982586, "lat": 29.9686578, "lon": 31.1460241, "tags": {"amenity": "restaurant", "name:en": "cleopatra restaurant"}}, {"type": "node", "id": 6475086624, "lat": 29.9761543, "lon": 31.1079812, "tags": {"amenity": "restaurant", "name": "\u0627\u0644\u0631\u0641\u0627\u0639\u064a", "name:ar": "\u0627\u0644\u0631\u0641\u0627\u0639\u064a"}}, {"type": "node", "id": 6477771217, "lat": 29.9525607, "lon": 31.0993466, "tags": {"addr:country": "EG", "addr:district": "\u0643\u0641\u0631 \u0646\u0635\u0627\u0631", "addr:district:en": "Kafr Nassar", "addr:housenumber": "107", "addr:neighbourhood": "\u0645\u0646\u0637\u0642\u0629 \u0635", "addr:neighbourhood:en": "Area R", "addr:postcode": "12559", "addr:province": "\u0627\u0644\u062c\u064a\u0632\u0629", "addr:province:en": "El Giza", "addr:street": "\u0634\u0627\u0631\u0639 \u0645\u064a\u0646\u0627", "addr:street:en": "Meena Street", "addr:subdistrict": "\u062d\u062f\u0627\u0626\u0642 \u0627\u0644\u0623\u0647\u0631\u0627\u0645", "addr:subdistrict:en": "Pyramids Gardens", "amenity": "cafe", "cuisine": "coffee_shop", "name": "\u0628\u0646 \u0627\u0644\u0639\u0645\u062f\u0629", "name:ar": "Elomda Coffee", "name:en": "Elomda Coffee", "opening_hours": "Mo-Su 11:00-22:00"}}, {"type": "node", "id": 6515452961, "lat": 30.0273069, "lon": 31.0108055, "tags": {"amenity": "restaurant", "cuisine": "indian", "name": "Maharaja", "website": "https://maharaja-eg.com/"}}, {"type": "node", "id": 6801699956, "lat": 29.9897928, "lon": 31.1622767, "tags": {"addr:city": "giza", "addr:country": "EG", "addr:district": "\u0627\u0644\u0637\u0627\u0644\u0628\u064a\u0647", "addr:district:en": "Al Talbia", "addr:housenumber": "24", "addr:postcode": "12574", "addr:province": "\u0627\u0644\u062c\u064a\u0632\u0647", "addr:province:en": "Giza", "addr:street": "\u0634\u0627\u0631\u0639 \u062a\u0631\u0633\u0627", "addr:street:en": "Tersa Street", "addr:subdistrict": "\u0627\u0644\u0643\u0648\u0645\u00a0\u0627\u0644\u0627\u062e\u0636\u0631", "addr:subdistrict:en": "Al Kom Al Akhdar", "amenity": "restaurant", "cuisine": "chicken;sandwich;kebab", "diet:halal": "yes", "name": "shikh el araab (saif)", "opening_hours": "Mo-Su 11:00-02:00", "phone": "002010030501008", "website": "https://www.facebook.com/profile.php?id=100007227017709"}}, {"type": "node", "id": 6845253832, "lat": 30.0405524, "lon": 30.9997247, "tags": {"amenity": "cafe", "name": "Tito's White Cafe & Restaurant"}}, {"type": "node", "id": 7428173466, "lat": 29.9573871, "lon": 30.9167227}, {"type": "node", "id": 7428173467, "lat": 29.9572948, "lon": 30.9168152}, {"type": "node", "id": 7428173468, "lat": 29.9567613, "lon": 30.9159887}, {"type": "node", "id": 7820448185, "lat": 29.9800996, "lon": 31.096371, "tags": {"amenity": "restaurant", "cuisine": "kebab;international;steak_house;sandwich", "name": "\u0645\u0634\u0648\u064a\u0627\u062a \u0627\u0628\u0648 \u0639\u0645\u064a\u0631\u0629", "name:ar": "\u0645\u0634\u0648\u064a\u0627\u062a \u0627\u0628\u0648 \u0639\u0645\u064a\u0631\u0629", "phone": "020110 119 9533", "website": "https://www.facebook.com/Abu3Amira"}}, {"type": "node", "id": 8227566517, "lat": 29.9775089, "lon": 31.1428256, "tags": {"amenity": "restaurant", "name": "El gizawy"}}, {"type": "node", "id": 8253209481, "lat": 29.9567075, "lon": 31.1032121, "tags": {"addr:housenumber": "50", "addr:street": "2", "amenity": "cafe", "name": "Sun City"}}, {"type": "node", "id": 8272372011, "lat": 29.9566869, "lon": 31.1033273, "tags": {"amenity": "cafe", "name": "Sun city"}}, {"type": "node", "id": 8532541272, "lat": 29.9717427, "lon": 31.1045286, "tags": {"amenity": "cafe", "name": "\u0643\u0627\u0641\u064a\u0647 \u0645\u0633\u0637\u0628\u0647", "name:ar": "\u0643\u0627\u0641\u064a\u0647 \u0645\u0633\u0637\u0628\u0647", "name:en": "Mastabah Cafe"}}, {"type": "node", "id": 8994481357, "lat": 29.9667613, "lon": 30.9443885, "tags": {"amenity": "restaurant", "cuisine": "kebab", "image": "https://ibb.co/znchmM4", "name": "Prince Krish", "opening_hours": "Mo-Fr 10:00-20:00", "phone": "+201000373319"}}, {"type": "node", "id": 9231401240, "lat": 29.9676832, "lon": 31.1317957}, {"type": "node", "id": 9231401241, "lat": 29.9676734, "lon": 31.1320064}, {"type": "node", "id": 9231401242, "lat": 29.9678184, "lon": 31.1320198}, {"type": "node", "id": 9231401243, "lat": 29.9678351, "lon": 31.131813}, {"type": "node", "id": 9282380143, "lat": 30.0057932, "lon": 30.9719704}, {"type": "node", "id": 9282380152, "lat": 30.006015, "lon": 30.9723158}, {"type": "node", "id": 9382182517, "lat": 29.9793059, "lon": 31.1505296, "tags": {"amenity": "restaurant", "name": "\u0645\u0637\u0639\u0645 \u0627\u0644\u0628\u0631\u0643\u0629", "name:en": "baraka"}}, {"type": "node", "id": 9382613117, "lat": 29.9749596, "lon": 31.1490622, "tags": {"amenity": "cafe", "name": "\u0642\u0647\u0648\u0629 \u0627\u0644\u0635\u0639\u064a\u0636\u0629", "name:en": "Saaida Caf\u00e9", "name:fr": "Saaida Caf\u00e9"}}, {"type": "node", "id": 9439307181, "lat": 29.994302, "lon": 31.1477872, "tags": {"addr:street": "\u0627\u0644\u0645\u0644\u0643 \u0641\u064a\u0635\u0644", "amenity": "restaurant", "description": "\u0645\u0637\u0639\u0645 \u0641\u0648\u0644 \u0648\u062e\u0644\u0627\u0641\u0647 \u0628\u0627\u0644\u0625\u0636\u0627\u0641\u0629 \u0625\u0644\u0649 \u0627\u0644\u0645\u0634\u0648\u064a\u0627\u062a", "name": "\u0645\u0635\u0631\u0627\u0648\u064a"}}, {"type": "node", "id": 9439310918, "lat": 29.9943142, "lon": 31.1478134, "tags": {"amenity": "restaurant", "name": "\u0643\u0634\u0631\u0649 \u0627\u0644\u0639\u0631\u064a\u0633"}}, {"type": "node", "id": 9447097299, "lat": 29.9942828, "lon": 31.1476525, "tags": {"amenity": "restaurant", "name": "\u0645\u0637\u0639\u0645 \u0645\u0635\u0631\u0627\u0648\u064a"}}, {"type": "node", "id": 9472872778, "lat": 29.9796795, "lon": 30.9460437, "tags": {"amenity": "cafe", "name": "\u0641\u0631\u064a\u0646\u062f\u0632", "name:ar": "\u0641\u0631\u064a\u0646\u062f\u0632", "name:en": "Friends"}}, {"type": "node", "id": 9508019066, "lat": 29.9942723, "lon": 31.1477444, "tags": {"addr:street": "\u0627\u0644\u0645\u0644\u0643 \u0641\u064a\u0635\u0644", "amenity": "restaurant", "name": "\u0643\u0634\u0631\u0649 \u0627\u0644\u0639\u0631\u064a\u0633"}}, {"type": "node", "id": 9520419699, "lat": 30.0141112, "lon": 31.0272663, "tags": {"addr:city": "\u0645\u062f\u064a\u0646\u0629 6 \u0623\u0643\u062a\u0648\u0628\u0631", "addr:housenumber": "19", "addr:street": "88 street mall", "amenity": "restaurant", "diet:healthy": "yes", "name": "LYCHEE -palm hills", "name:ar": "\u0644\u064a\u062a\u0634\u0649 \u0628\u0627\u0644\u0645 \u0647\u064a\u0644\u0632"}}, {"type": "node", "id": 9521257252, "lat": 29.9928552, "lon": 31.1484316, "tags": {"amenity": "cafe", "name": "\u0633\u0644\u0637\u0646\u0629 \u0643\u0648\u0641\u0649 \u0634\u0648\u0628"}}, {"type": "node", "id": 9523773771, "lat": 29.9918532, "lon": 31.1490402, "tags": {"amenity": "cafe", "name": "\u0643\u0627\u0641\u064a\u062a\u0631\u064a\u0627 \u0627\u0644\u062e\u0644\u064a\u062c"}}, {"type": "node", "id": 9523782009, "lat": 29.993412, "lon": 31.1480863, "tags": {"amenity": "cafe", "name": "\u0633\u064a\u062a\u0649 \u0643\u0627\u0641\u064a\u0647"}}, {"type": "node", "id": 9523794848, "lat": 29.991263, "lon": 31.1493286, "tags": {"amenity": "cafe", "name": "\u062d\u0643\u0627\u064a\u0629 \u0632\u0645\u0627\u0646"}}, {"type": "node", "id": 9523804786, "lat": 29.9920217, "lon": 31.1489534, "tags": {"amenity": "cafe", "name": "\u0643\u0648\u0641\u064a \u0634\u0648\u0628 \u0632\u064a\u0632\u064a\u0646\u064a\u0627"}}, {"type": "node", "id": 9523809229, "lat": 29.9933683, "lon": 31.1481314, "tags": {"amenity": "cafe", "name": "\u0643\u0627\u0641\u064a\u062a\u0631\u064a\u0627 \u0627\u0644\u0646\u0647\u0627\u0631"}}, {"type": "node", "id": 9556440834, "lat": 29.9745026, "lon": 30.9424537, "tags": {"amenity": "cafe", "brand": "Costa", "brand:wikidata": "Q608845", "brand:wikipedia": "en:Costa Coffee", "cuisine": "coffee_shop", "internet_access": "wlan", "name": "Costa", "outdoor_seating": "yes", "takeaway": "yes"}}, {"type": "node", "id": 9573935929, "lat": 30.029202, "lon": 30.9858435, "tags": {"addr:city": "\u0645\u062f\u064a\u0646\u0629 \u0627\u0644\u0634\u064a\u062e \u0632\u0627\u064a\u062f", "addr:street": "\u0627\u0644\u062d\u064a \u0627\u0644\u0633\u0627\u0628\u0639", "amenity": "cafe", "cuisine": "coffee_shop", "name": "Mazzika"}}, {"type": "node", "id": 9713187724, "lat": 29.9657166, "lon": 30.9645063}, {"type": "node", "id": 9713187725, "lat": 29.9657147, "lon": 30.9648402}, {"type": "node", "id": 9713187726, "lat": 29.964874, "lon": 30.9648268}, {"type": "node", "id": 9713187727, "lat": 29.9648701, "lon": 30.9645152}, {"type": "node", "id": 9915586090, "lat": 29.9782275, "lon": 31.1233972}, {"type": "node", "id": 9915586106, "lat": 29.9782203, "lon": 31.1232163}, {"type": "node", "id": 9915586109, "lat": 29.9783064, "lon": 31.1232125}, {"type": "node", "id": 9921146509, "lat": 29.9660273, "lon": 30.9627799}, {"type": "node", "id": 9921191621, "lat": 29.9658626, "lon": 30.962773}, {"type": "node", "id": 9921191623, "lat": 29.9658714, "lon": 30.9632875}, {"type": "node", "id": 9921191633, "lat": 29.9660269, "lon": 30.9632857}, {"type": "node", "id": 9980028317, "lat": 29.9864661, "lon": 31.1347749, "tags": {"amenity": "restaurant", "name:en": "Al Diwan"}}, {"type": "node", "id": 10114233117, "lat": 30.0052506, "lon": 31.0174392, "tags": {"amenity": "cafe", "name": "\u0643\u0627\u0641\u0627 \u0643\u0627\u0641\u064a\u0647", "name:en": "Cava cafe"}}, {"type": "node", "id": 10116320517, "lat": 30.0380992, "lon": 31.0378907, "tags": {"addr:street": "\u0645\u062d\u0648\u0631 26 \u064a\u0648\u0644\u064a\u0648 \u0627\u0644\u062c\u0627\u0646\u0628\u0649", "amenity": "restaurant", "name": "\u062f\u062c\u0627\u062c \u0643\u0646\u062a\u0627\u0643\u064a", "name:en": "KFC"}}, {"type": "node", "id": 10116320717, "lat": 30.0357141, "lon": 31.0152722, "tags": {"addr:street": "\u0634\u0627\u0631\u0639 45", "amenity": "restaurant", "name": "\u0637\u0639\u0645\u064a\u0647 \u0633\u062e\u0646\u0647"}}, {"type": "node", "id": 10225622626, "lat": 30.020492, "lon": 30.9700716, "tags": {"addr:city": "Sheikh Zayed", "addr:housenumber": "G21CITYPARK", "addr:street": "\u0637\u0631\u064a\u0642 \u0648\u0635\u0644\u0647 \u062f\u0647\u0634\u0648\u0631", "air_conditioning": "yes", "amenity": "restaurant", "cuisine": "italian;pizza;coffee_shop;sandwich;burger;seafood;international;juice;pasta;cake;regional;pancake", "delivery": "yes", "internet_access": "yes", "internet_access:fee": "customers", "name": "calistoegypt", "opening_hours": "9am:2am", "outdoor_seating": "yes", "phone": "+201029107026", "reservation": "yes", "smoking": "yes", "takeaway": "yes", "toilets": "yes", "website": "https://www.facebook.com/calistotaste/"}}, {"type": "node", "id": 10252850939, "lat": 29.9568516, "lon": 30.9159146}, {"type": "node", "id": 10280645230, "lat": 30.2111887, "lon": 30.8137382}, {"type": "node", "id": 10280683557, "lat": 30.2110746, "lon": 30.8108408}, {"type": "node", "id": 10280683558, "lat": 30.2098392, "lon": 30.8126534}, {"type": "node", "id": 10280683559, "lat": 30.2102147, "lon": 30.8152788}, {"type": "node", "id": 10280683560, "lat": 30.2080104, "lon": 30.8136017}, {"type": "node", "id": 10280683561, "lat": 30.2103075, "lon": 30.8102802}, {"type": "node", "id": 10302473510, "lat": 29.9875836, "lon": 31.1490719, "tags": {"amenity": "restaurant", "name": "\u0623\u0646\u0633 \u0627\u0644\u062f\u0645\u0634\u0642\u064a"}}, {"type": "node", "id": 10563863056, "lat": 29.9870284, "lon": 31.1410129, "tags": {"addr:city": "Haram", "addr:housenumber": "1", "addr:postcode": "12512", "addr:street": "\u0634\u0627\u0631\u0639 \u0627\u0644\u0647\u0631\u0645", "amenity": "cafe", "check_date": "2024-10-30", "name": "Hala Cafe", "website": "https://www.facebook.com/Exceptionpatissier"}}, {"type": "node", "id": 10710893907, "lat": 30.0079316, "lon": 30.9910702}, {"type": "node", "id": 10710893908, "lat": 30.0079455, "lon": 30.991201}, {"type": "node", "id": 10710893909, "lat": 30.0078071, "lon": 30.9912207}, {"type": "node", "id": 10710893910, "lat": 30.0077931, "lon": 30.9910899}, {"type": "node", "id": 10710893911, "lat": 30.0081615, "lon": 30.9922591}, {"type": "node", "id": 10710893912, "lat": 30.0082214, "lon": 30.9924089}, {"type": "node", "id": 10710893913, "lat": 30.0081375, "lon": 30.9924537}, {"type": "node", "id": 10710893914, "lat": 30.0080776, "lon": 30.9923039}, {"type": "node", "id": 11267666969, "lat": 29.9717036, "lon": 30.9483376, "tags": {"addr:housenumber": "109", "addr:street": "\u0634\u0627\u0631\u0639 \u0635\u0644\u0627\u062d \u0627\u0644\u062f\u064a\u0646", "amenity": "restaurant", "cuisine": "arab;diner;grill;italian;italian_pizza;pasta;sandwich", "name": "\u0645\u0637\u0639\u0645 \u0628\u0627\u0633\u062a\u0627\u0631\u064a\u062a\u0648", "name:en": "Pastarito restaurant", "opening_hours": "24/7", "phone": "0236989750", "website": "https://vatrin.app/pastarito"}}, {"type": "node", "id": 11320853970, "lat": 29.9946958, "lon": 31.0521072, "tags": {"addr:housenumber": "2", "amenity": "cafe", "name": "Crown Central", "phone": "01099223060"}}, {"type": "node", "id": 11339456870, "lat": 29.9819713, "lon": 31.143459, "tags": {"amenity": "cafe", "name:en": "king coffee shahwan"}}, {"type": "node", "id": 11339459969, "lat": 29.9824979, "lon": 31.1428478, "tags": {"amenity": "restaurant"}}, {"type": "node", "id": 11339459970, "lat": 29.9793705, "lon": 31.143589, "tags": {"amenity": "cafe", "name:en": "st food"}}, {"type": "node", "id": 11339461969, "lat": 29.9831907, "lon": 31.1439084, "tags": {"amenity": "restaurant", "name:en": "Il Dome"}}, {"type": "node", "id": 11339461970, "lat": 29.9796997, "lon": 31.1451328, "tags": {"amenity": "cafe", "name:en": "ice coffee"}}, {"type": "node", "id": 11339467469, "lat": 29.9779106, "lon": 31.1447239, "tags": {"amenity": "cafe", "name:en": "Abo Zeyd"}}, {"type": "node", "id": 11339467470, "lat": 29.9868582, "lon": 31.1498178, "tags": {"amenity": "cafe", "name:en": "Balad El Gharieb", "name:ru": "\u041c\u043e\u0440\u0435\u043f\u0440\u043e\u0434\u0443\u043a\u0442\u044b"}}, {"type": "node", "id": 11339487771, "lat": 29.9858245, "lon": 31.147766, "tags": {"amenity": "restaurant", "name:en": "Abu Hamam Elsory", "name:ru": "\u0420\u0435\u0441\u0442\u043e\u0440\u0430\u043d \u0441\u0438\u0440\u0438\u0439\u0441\u043a\u043e\u0439 \u043a\u0443\u0445\u043d\u0438"}}, {"type": "node", "id": 11339493069, "lat": 29.9855652, "lon": 31.1506204, "tags": {"amenity": "restaurant", "name:en": "Hawawsh Allam"}}, {"type": "node", "id": 11339494069, "lat": 29.9860213, "lon": 31.150875, "tags": {"amenity": "restaurant", "name:en": "Sadaf Seafood"}}, {"type": "node", "id": 11377786002, "lat": 30.0052224, "lon": 30.9722498, "tags": {"entrance": "yes"}}, {"type": "node", "id": 11377786003, "lat": 30.0051532, "lon": 30.9725043, "tags": {"entrance": "yes"}}, {"type": "node", "id": 11377786005, "lat": 30.0050983, "lon": 30.9727005, "tags": {"entrance": "yes"}}, {"type": "node", "id": 11377786007, "lat": 30.0057152, "lon": 30.9723431, "tags": {"entrance": "yes"}}, {"type": "node", "id": 11379240133, "lat": 30.0058627, "lon": 30.9720893}, {"type": "node", "id": 11379240134, "lat": 30.0057086, "lon": 30.9718084}, {"type": "node", "id": 11379240135, "lat": 30.0056322, "lon": 30.9716411}, {"type": "node", "id": 11379240136, "lat": 30.0051359, "lon": 30.9721582}, {"type": "node", "id": 11379240158, "lat": 30.0060394, "lon": 30.97248}, {"type": "node", "id": 11379240164, "lat": 30.0050708, "lon": 30.9727952}, {"type": "node", "id": 11379252669, "lat": 30.0059732, "lon": 30.972539}, {"type": "node", "id": 11379252679, "lat": 30.0056585, "lon": 30.972303}, {"type": "node", "id": 11379252688, "lat": 30.0052764, "lon": 30.9720616}, {"type": "node", "id": 11379252695, "lat": 30.0058741, "lon": 30.9724636}, {"type": "node", "id": 11379252700, "lat": 30.0051347, "lon": 30.9725726}, {"type": "node", "id": 11379252708, "lat": 30.0057679, "lon": 30.9723803}, {"type": "node", "id": 11379252711, "lat": 30.0052526, "lon": 30.9721396}, {"type": "node", "id": 11379252717, "lat": 30.005541, "lon": 30.9722287}, {"type": "node", "id": 11379252723, "lat": 30.0054205, "lon": 30.9721611}, {"type": "node", "id": 11379252727, "lat": 30.0050255, "lon": 30.972936}, {"type": "node", "id": 11396139260, "lat": 30.0430253, "lon": 30.9961271, "tags": {"entrance": "yes"}}, {"type": "node", "id": 11407462533, "lat": 30.0442766, "lon": 30.9938295}, {"type": "node", "id": 11407462534, "lat": 30.0442942, "lon": 30.9939073}, {"type": "node", "id": 11407462537, "lat": 30.0442814, "lon": 30.9938696}, {"type": "node", "id": 11407462538, "lat": 30.0443145, "lon": 30.9939405}, {"type": "node", "id": 11407462539, "lat": 30.044341, "lon": 30.9939671}, {"type": "node", "id": 11407462540, "lat": 30.0443722, "lon": 30.9939856}, {"type": "node", "id": 11407462541, "lat": 30.0444063, "lon": 30.9939951}, {"type": "node", "id": 11407462542, "lat": 30.0444412, "lon": 30.9939943}, {"type": "node", "id": 11409403207, "lat": 30.0444936, "lon": 30.9935623}, {"type": "node", "id": 11409403208, "lat": 30.044517, "lon": 30.9936255}, {"type": "node", "id": 11409403213, "lat": 30.0444749, "lon": 30.9935354}, {"type": "node", "id": 11409403214, "lat": 30.0445078, "lon": 30.9935926}, {"type": "node", "id": 11409403215, "lat": 30.044521, "lon": 30.9936597}, {"type": "node", "id": 11409403216, "lat": 30.0445194, "lon": 30.9936942}, {"type": "node", "id": 11415037269, "lat": 29.9759368, "lon": 31.1443418, "tags": {"amenity": "restaurant", "cuisine": "arab", "name:en": "El Dar Darak"}}, {"type": "node", "id": 11416825980, "lat": 30.0444504, "lon": 30.9935165}, {"type": "node", "id": 11416825981, "lat": 30.0443938, "lon": 30.9934994}, {"type": "node", "id": 11416825982, "lat": 30.0442895, "lon": 30.9935529}, {"type": "node", "id": 11416825983, "lat": 30.044273, "lon": 30.9935812}, {"type": "node", "id": 11416825984, "lat": 30.0443109, "lon": 30.9935297}, {"type": "node", "id": 11416825985, "lat": 30.0443364, "lon": 30.9935125}, {"type": "node", "id": 11416825986, "lat": 30.0443644, "lon": 30.9935022}, {"type": "node", "id": 11416825987, "lat": 30.0444229, "lon": 30.9935043}, {"type": "node", "id": 11416826000, "lat": 30.0445099, "lon": 30.9937496}, {"type": "node", "id": 11416826001, "lat": 30.0442576, "lon": 30.9936292}, {"type": "node", "id": 11416826002, "lat": 30.0445417, "lon": 30.9939374}, {"type": "node", "id": 11416826003, "lat": 30.044518, "lon": 30.9939366}, {"type": "node", "id": 11416826004, "lat": 30.0445415, "lon": 30.9939617}, {"type": "node", "id": 11416826005, "lat": 30.0444234, "lon": 30.9939947}, {"type": "node", "id": 11416826007, "lat": 30.0444993, "lon": 30.9939562}, {"type": "node", "id": 11416826008, "lat": 30.0445732, "lon": 30.9939621}, {"type": "node", "id": 11416826009, "lat": 30.0445739, "lon": 30.9938894}, {"type": "node", "id": 11416826010, "lat": 30.0445383, "lon": 30.993889}, {"type": "node", "id": 11416826011, "lat": 30.0445437, "lon": 30.9938387}, {"type": "node", "id": 11416826012, "lat": 30.0445415, "lon": 30.9938625}, {"type": "node", "id": 11416826013, "lat": 30.0444818, "lon": 30.9939724}, {"type": "node", "id": 11416826014, "lat": 30.0444623, "lon": 30.9939852}, {"type": "node", "id": 11417589322, "lat": 29.9784314, "lon": 31.1239846, "tags": {"entrance": "yes"}}, {"type": "node", "id": 11432163189, "lat": 30.0662352, "lon": 30.9262802}, {"type": "node", "id": 11432163202, "lat": 30.0661563, "lon": 30.9263223}, {"type": "node", "id": 11432163203, "lat": 30.0661526, "lon": 30.9263071}, {"type": "node", "id": 11432163211, "lat": 30.066222, "lon": 30.9262258}, {"type": "node", "id": 11432163212, "lat": 30.0660054, "lon": 30.9262962}, {"type": "node", "id": 11432163213, "lat": 30.0660223, "lon": 30.9263658}, {"type": "node", "id": 11472562112, "lat": 30.0429441, "lon": 30.9959896}, {"type": "node", "id": 11472562116, "lat": 30.0428999, "lon": 30.9959747}, {"type": "node", "id": 11472562117, "lat": 30.0428603, "lon": 30.9961318}, {"type": "node", "id": 11472562118, "lat": 30.0430113, "lon": 30.9961826}, {"type": "node", "id": 11472562119, "lat": 30.0430509, "lon": 30.9960256}, {"type": "node", "id": 11478594180, "lat": 30.0430436, "lon": 30.9960547}, {"type": "node", "id": 11478594181, "lat": 30.0430068, "lon": 30.9960107}, {"type": "node", "id": 11502709315, "lat": 29.978031, "lon": 31.1253842}, {"type": "node", "id": 11502709321, "lat": 29.9780106, "lon": 31.1254249}, {"type": "node", "id": 11502709322, "lat": 29.9782813, "lon": 31.1254089}, {"type": "node", "id": 11502709323, "lat": 29.9788507, "lon": 31.1253551}, {"type": "node", "id": 11502709324, "lat": 29.9788717, "lon": 31.1253321}, {"type": "node", "id": 11502709325, "lat": 29.9788343, "lon": 31.1253579}, {"type": "node", "id": 11502709326, "lat": 29.9788645, "lon": 31.1253445}, {"type": "node", "id": 11502709327, "lat": 29.978875, "lon": 31.1253177}, {"type": "node", "id": 11502709328, "lat": 29.9788239, "lon": 31.1244808}, {"type": "node", "id": 11502709329, "lat": 29.9787157, "lon": 31.1242944}, {"type": "node", "id": 11502709330, "lat": 29.9787035, "lon": 31.1242168}, {"type": "node", "id": 11502709331, "lat": 29.9787274, "lon": 31.1243319}, {"type": "node", "id": 11502709332, "lat": 29.9787077, "lon": 31.1242555}, {"type": "node", "id": 11502709333, "lat": 29.9787007, "lon": 31.124163}, {"type": "node", "id": 11502709334, "lat": 29.9786942, "lon": 31.12415}, {"type": "node", "id": 11502709335, "lat": 29.9786728, "lon": 31.1241347}, {"type": "node", "id": 11502709336, "lat": 29.9786603, "lon": 31.1241338}, {"type": "node", "id": 11502709337, "lat": 29.978703, "lon": 31.1241777}, {"type": "node", "id": 11502709338, "lat": 29.9786845, "lon": 31.1241402}, {"type": "node", "id": 11502709339, "lat": 29.9786481, "lon": 31.1241376}, {"type": "node", "id": 11502709340, "lat": 29.9782291, "lon": 31.1234372}, {"type": "node", "id": 11502709341, "lat": 29.9782367, "lon": 31.1236259}, {"type": "node", "id": 11502709342, "lat": 29.9781469, "lon": 31.1242257}, {"type": "node", "id": 11502709343, "lat": 29.978161, "lon": 31.1244987}, {"type": "node", "id": 11502709344, "lat": 29.978307, "lon": 31.1232317}, {"type": "node", "id": 11502709345, "lat": 29.9783937, "lon": 31.1232299}, {"type": "node", "id": 11502709346, "lat": 29.9784062, "lon": 31.1232436}, {"type": "node", "id": 11502709347, "lat": 29.9784161, "lon": 31.1234274}, {"type": "node", "id": 11502709348, "lat": 29.9786322, "lon": 31.1237117}, {"type": "node", "id": 11502709349, "lat": 29.9786589, "lon": 31.1244269}, {"type": "node", "id": 11502709350, "lat": 29.9785975, "lon": 31.1244312}, {"type": "node", "id": 11502709351, "lat": 29.9786009, "lon": 31.124509}, {"type": "node", "id": 11502709352, "lat": 29.9785383, "lon": 31.1245109}, {"type": "node", "id": 11502709353, "lat": 29.9785385, "lon": 31.124521}, {"type": "node", "id": 11502709354, "lat": 29.9781634, "lon": 31.1245459}, {"type": "node", "id": 11502709355, "lat": 29.9781443, "lon": 31.124175}, {"type": "node", "id": 11502709356, "lat": 29.9781669, "lon": 31.1241536}, {"type": "node", "id": 11502709357, "lat": 29.9784278, "lon": 31.1238458}, {"type": "node", "id": 11502709358, "lat": 29.9782459, "lon": 31.1238559}, {"type": "node", "id": 11603240769, "lat": 30.007744, "lon": 30.9772757, "tags": {"amenity": "restaurant", "cuisine": "lebanese", "name:en": "Ayadina", "website": "https://www.ayadina.restaurant/"}}, {"type": "node", "id": 11612952116, "lat": 29.9781524, "lon": 31.125142}, {"type": "node", "id": 11612952117, "lat": 29.9781489, "lon": 31.1249784}, {"type": "node", "id": 11612952118, "lat": 29.9781753, "lon": 31.124979}, {"type": "node", "id": 11612952122, "lat": 29.9781739, "lon": 31.1249282}, {"type": "node", "id": 11613195465, "lat": 30.0661178, "lon": 30.9262542}, {"type": "node", "id": 11619443204, "lat": 29.9909641, "lon": 31.131159, "tags": {"amenity": "cafe", "name": "Gem Plaza Caf\u00e9"}}, {"type": "node", "id": 11757034669, "lat": 30.0526231, "lon": 30.9454674, "tags": {"amenity": "restaurant", "name": "\u0645\u0634\u0648\u064a\u0627\u062a \u0627\u0644\u0648\u0637\u0646\u064a\u0629", "name:en": "Mashwiaat El Watania", "website": "https://www.facebook.com/ElwataniaRestaurant?mibextid=ZbWKwL"}}, {"type": "node", "id": 11845336770, "lat": 29.9901884, "lon": 31.1569291, "tags": {"amenity": "cafe", "cuisine": "breakfast;oriental;tea", "internet_access": "wlan", "name": "\u0643\u0627\u0641\u064a\u0629 \u0627\u0644\u0628\u0631\u0646\u0633\u064a\u0633\u0629", "opening_hours": "Mo-Su 12:00-12:00"}}, {"type": "node", "id": 11869509313, "lat": 29.9709564, "lon": 30.9390662, "tags": {"amenity": "restaurant", "cuisine": "saudi;arabic", "diet:vegetarian": "yes", "name": "\u0641\u0648\u0644 \u0648 \u062a\u0645\u064a\u0633 \u0627\u0644\u0645\u062f\u064a\u0646\u0649\u0629"}}, {"type": "node", "id": 11955856269, "lat": 29.9910475, "lon": 31.1647675, "tags": {"amenity": "cafe", "name": "\u062d\u0633\u0646 \u0627\u0641\u0646\u062f\u064a", "name:en": "hasan afandi"}}, {"type": "node", "id": 11958442569, "lat": 29.9915592, "lon": 31.1617552, "tags": {"addr:street": "\u0634\u0627\u0631\u0639 \u0639\u0632 \u0627\u0644\u062f\u064a\u0646 \u0639\u0645\u0631", "amenity": "cafe", "internet_access": "wlan", "name": "\u0642\u0635\u0631 \u0627\u0644\u0639\u0631\u0628", "name:en": "qaser alarab"}}, {"type": "node", "id": 11962649660, "lat": 29.9754028, "lon": 31.1405385, "tags": {"amenity": "cafe", "email": "caf.sphinx@tradefy.com", "facebook": "https://www.facebook.com/cafcafe.eg", "instagram": "https://www.instagram.com/cafcafe.eg", "name": "Caf", "opening_hours": "Mo-Su 08:00-16:00", "phone": "+20 12 26026106", "tiktok": "https://www.tiktok.com/@cafcafe.eg", "website": "https://www.cafcafeeg.zyda.com/"}}, {"type": "node", "id": 11962649663, "lat": 30.0255518, "lon": 31.0108638, "tags": {"amenity": "cafe", "contact:email": "caf.parkst@tradefy.com", "contact:instagram": "https://www.instagram.com/cafcafe.eg", "contact:phone": "+20 12 00087334", "contact:tiktok": "https://www.tiktok.com/@cafcafe.eg", "contact:website": "https://www.cafcafeeg.zyda.com/", "name": "Caf", "opening_hours": "Mo-We,Sa-Su 07:00-01:00; Th-Fr 07:00-02:00"}}, {"type": "node", "id": 12090537661, "lat": 29.9851107, "lon": 31.1357441, "tags": {"amenity": "restaurant", "cuisine": "seafood", "name": "Cheristo", "source": "survey", "start_date": "1930"}}, {"type": "node", "id": 12299672076, "lat": 29.9871719, "lon": 31.1414356, "tags": {"amenity": "cafe", "check_date": "2024-10-30", "name": "Exception"}}, {"type": "node", "id": 12329244700, "lat": 30.0631069, "lon": 30.9461154, "tags": {"addr:city": "\u0645\u062f\u064a\u0646\u0629 \u0627\u0644\u0634\u064a\u062e \u0632\u0627\u064a\u062f", "addr:postcode": "12588", "addr:street": "\u0634\u0627\u0631\u0639 \u0627\u0644\u0645\u0646\u062a\u0632\u0647 \u0627\u0644\u062c\u0627\u0646\u0628\u064a", "amenity": "restaurant", "cuisine": "international", "diet:chicken": "yes", "diet:halal": "yes", "diet:meat": "yes", "diet:vegetarian": "yes", "name": "Bumsi", "phone": "01000140113", "takeaway": "only"}}, {"type": "node", "id": 12445677801, "lat": 29.974825, "lon": 31.1410955, "tags": {"amenity": "restaurant", "name": "Rooftop 7000"}}, {"type": "node", "id": 12615835836, "lat": 29.9929763, "lon": 31.147596, "tags": {"amenity": "cafe", "name": "\u0643\u0627\u0641\u064a\u062a\u0631\u064a\u0627 \u0627\u0644\u062d\u0644\u0645\u064a\u0629"}}, {"type": "node", "id": 12671145501, "lat": 29.9683584, "lon": 30.9134951, "tags": {"addr:housenumber": "01204171777", "amenity": "restaurant", "cuisine": "barbecue;beef_bowl;breakfast;chicken;crepe;diner;fine_dining", "internet_access": "wlan", "phone": "01204171777"}}, {"type": "node", "id": 12671153101, "lat": 29.9682936, "lon": 30.9133225, "tags": {"addr:housenumber": "01204171777", "amenity": "restaurant", "cuisine": "bagel;beef_bowl;breakfast;cake;chicken;chinese;coffee_shop", "internet_access": "wlan", "name": "\u0643\u0628\u0627\u0628\u062c\u0649 \u0642\u0635\u0631 \u0627\u0644\u0645\u0644\u0648\u0643", "name:en": "Qasr elmuluk", "phone": "01204171777"}}, {"type": "node", "id": 12796374201, "lat": 29.9526998, "lon": 31.0903007, "tags": {"addr:street": "\u0634\u0627\u0631\u0639 \u0648\u062c\u064a\u0647 \u0627\u0644\u0635\u0627\u0648\u064a", "amenity": "restaurant", "name": "\u062f\u0643\u062a\u0648\u0631 \u0641\u0631\u0646"}}, {"type": "node", "id": 12818324007, "lat": 30.0522729, "lon": 30.9456695, "tags": {"addr:city": "Second Al Sheikh Zayed", "addr:housenumber": "\u0645\u062f\u062e\u0644 \u0632\u0627\u064a\u062f6", "addr:postcode": "3240301", "addr:street": "\u0637\u0631\u064a\u0642 \u0648\u0635\u0644\u0647 \u062f\u0647\u0634\u0648\u0631", "amenity": "restaurant", "branch": "\u0645\u0637\u0627\u0639\u0645 \u0648\u0627\u062d\u0629 \u0627\u0644\u064a\u0645\u0646 | \u0641\u0631\u0639 \u0627\u0644\u0645\u0647\u0646\u062f\u0633\u064a\u0646", "brand": "wahet al yemen", "capacity": "500", "contact:facebook": "https://www.facebook.com/wahetyemen", "cuisine": "arab;middle_eastern;chicken;meat;kebab", "delivery": "yes", "diet:vegetarian": "yes", "email": "wahetalyemeneg@gmail.com", "image": "https://scontent.fcai19-7.fna.fbcdn.net/v/t39.30808-6/486723937_682268260983954_499292346297858437_n.jpg?_nc_cat=102&ccb=1-7&_nc_sid=127cfc&_nc_ohc=RcgjbjMm6KQQ7kNvwEHoLnw&_nc_oc=Admxq7_X4sC1Fi3m_DnMO6-x6x_fgaPUTDfeb6Q5_DGPRB2uaTyAoWEp6eErQkTeJQ4&_nc_zt=2", "name": "\u0645\u0637\u0627\u0639\u0645 \u0648\u0627\u062d\u0629 \u0627\u0644\u064a\u0645\u0646 | \u0641\u0631\u0639 \u0627\u0644\u0634\u064a\u062e \u0632\u0627\u064a\u062f", "opening_hours": "08:00-3:00", "phone": "01118883232", "website": "https://linktr.ee/wahetalyemen", "website:menu": "https://drive.google.com/file/d/1fIyUxcHAu3UlStHveZ2mUfB4yBfeGiQZ/view"}}, {"type": "node", "id": 12834831706, "lat": 30.0085891, "lon": 30.9784263, "tags": {"amenity": "restaurant", "brand": "IHOP", "brand:wikidata": "Q1185675", "cuisine": "breakfast;pancake", "name": "IHOP"}}, {"type": "way", "id": 44349354, "nodes": [563641106, 563641107, 563641108, 563641109, 563641106], "tags": {"amenity": "cafe", "name": "\u0643\u0627\u0641\u064a\u062a\u064a\u0631\u064a\u0627 \u0644\u064a\u0627\u0644\u064a \u0632\u0645\u0627\u0646", "name:ar": "\u0643\u0627\u0641\u064a\u062a\u064a\u0631\u064a\u0627 \u0644\u064a\u0627\u0644\u064a \u0632\u0645\u0627\u0646", "name:en": "Laialy Zaman Cafe"}}, {"type": "way", "id": 248141729, "nodes": [1155259704, 2549916505, 2549916506, 1155260261, 1155259704], "tags": {"amenity": "restaurant", "building": "yes", "name": "\u0631\u0627\u0646\u062f\u0649 \u0641\u0648", "name:ar": "\u0631\u0627\u0646\u062f\u0649 \u0641\u0648", "name:en": "Rendez vous"}}, {"type": "way", "id": 287124793, "nodes": [2907736547, 9282380152, 2907736548, 11379240133, 9282380143, 11379240134, 11379240135, 2907736552, 2907736549, 2907736553, 11379240136, 2907736550, 2907736551, 11379252727, 11379240164, 11377786005, 11379252700, 11377786003, 11377786002, 11379252711, 11379252688, 11379252723, 11379252717, 11379252679, 11377786007, 11379252708, 11379252695, 11379252669, 11379240158, 2907736547], "tags": {"amenity": "restaurant", "building:part": "yes", "name": "\u0645\u0646\u0637\u0642\u0629 \u0627\u0644\u0645\u0637\u0627\u0639\u0645", "name:ar": "\u0645\u0646\u0637\u0642\u0629 \u0627\u0644\u0645\u0637\u0627\u0639\u0645", "name:en": "Restaurants Area"}}, {"type": "way", "id": 794217263, "nodes": [7428173466, 7428173467, 7428173468, 10252850939, 7428173466], "tags": {"amenity": "restaurant", "building": "static_caravan", "name": "\u0645\u0634\u0631\u0648\u0639 \u0634\u0627\u0631\u0639 \u0645\u0635\u0631", "name:ar": "\u0645\u0634\u0631\u0648\u0639 \u0634\u0627\u0631\u0639 \u0645\u0635\u0631"}}, {"type": "way", "id": 1000072213, "nodes": [9231401243, 9231401242, 9231401241, 9231401240, 9231401243], "tags": {"amenity": "restaurant", "building": "yes", "name": "\u0646\u0627\u064a\u0646 \u0628\u064a\u0631\u0627\u0645\u064a\u062f\u0632 \u0644\u0648\u0646\u062c", "name:ar": "\u0646\u0627\u064a\u0646 \u0628\u064a\u0631\u0627\u0645\u064a\u062f\u0632 \u0644\u0648\u0646\u062c", "name:en": "9 Pyramids Lounge", "name:ru": "9 \u043f\u0438\u0440\u0430\u043c\u0438\u0434"}}, {"type": "way", "id": 1057083545, "nodes": [9713187724, 9713187725, 9713187726, 9713187727, 9713187724], "tags": {"amenity": "cafe", "building": "yes"}}, {"type": "way", "id": 1082544094, "nodes": [9921146509, 9921191621, 9921191623, 9921191633, 9921146509], "tags": {"air_conditioning": "yes", "amenity": "restaurant", "building": "yes"}}, {"type": "way", "id": 1124223601, "nodes": [10280683557, 10280683558, 10280645230, 10280683559, 10280683560, 10280683561, 10280683557], "tags": {"addr:city": "Giza", "addr:housenumber": "Km 58", "addr:street": "Cairo Alexandria desert road Gamayet, El Moaatamdia \u062c\u0645\u0639\u064a\u0629 \u0627\u0644\u0645\u0639\u062a\u0645\u062f\u064a\u0629", "amenity": "restaurant", "name": "Bawabat", "phone": "+201002138668", "website": "http://bawabat.org/"}}, {"type": "way", "id": 1151332665, "nodes": [10710893907, 10710893908, 10710893909, 10710893910, 10710893907], "tags": {"amenity": "restaurant", "building": "yes", "cuisine": "regional", "name": "Zaatar w Zeit"}}, {"type": "way", "id": 1151332666, "nodes": [10710893911, 10710893912, 10710893913, 10710893914, 10710893911], "tags": {"amenity": "cafe", "brand": "\u0633\u062a\u0627\u0631\u0628\u0643\u0633", "brand:ar": "\u0633\u062a\u0627\u0631\u0628\u0643\u0633", "brand:en": "Starbucks", "brand:wikidata": "Q37158", "building": "yes", "cuisine": "coffee_shop", "name": "\u0633\u062a\u0627\u0631\u0628\u0643\u0633", "name:ar": "\u0633\u062a\u0627\u0631\u0628\u0643\u0633", "name:en": "Starbucks", "official_name": "\u0633\u062a\u0627\u0631\u0628\u0643\u0633 \u0643\u0627\u0641\u064a\u0629", "official_name:ar": "\u0633\u062a\u0627\u0631\u0628\u0643\u0633 \u0643\u0627\u0641\u064a\u0629", "official_name:en": "Starbucks Coffee", "takeaway": "yes"}}, {"type": "way", "id": 1231051383, "nodes": [11416825983, 11416825982, 11416825984, 11416825985, 11416825986, 11416825981, 11416825987, 11416825980, 11409403213, 11409403207, 11409403214, 11409403208, 11409403215, 11409403216, 11416826000, 11416826001, 11416825983]}, {"type": "way", "id": 1231051384, "nodes": [11416826007, 11416826013, 11416826014, 11407462542, 11416826005, 11407462541, 11407462540, 11407462539, 11407462538, 11407462534, 11407462537, 11407462533, 11416826011, 11416826012, 11416826010, 11416826009, 11416826008, 11416826004, 11416826002, 11416826003, 11416826007]}, {"type": "way", "id": 1232434363, "nodes": [11432163189, 11432163203, 11432163202, 11432163213, 11432163212, 11613195465, 11432163211, 11432163189], "tags": {"amenity": "cafe"}}, {"type": "way", "id": 1235784092, "nodes": [11472562119, 11478594180, 11396139260, 11472562118, 11472562117, 11472562116, 11472562112, 11478594181, 11472562119], "tags": {"amenity": "restaurant", "cuisine": "italian"}}, {"type": "way", "id": 1238268829, "nodes": [11502709321, 11502709315, 11612952116, 11612952117, 11612952118, 11612952122, 11502709354, 11502709353, 11502709352, 11502709351, 11502709350, 11502709349, 11502709339, 11502709336, 11502709335, 11502709338, 11502709334, 11502709333, 11502709337, 11502709330, 11502709332, 11502709329, 11502709331, 11502709328, 11502709327, 11502709324, 11502709326, 11502709323, 11502709325, 11502709322, 11502709321], "tags": {"amenity": "cafe", "barrier": "wall", "cuisine": "cake", "name": "\u0644\u0627\u062f\u0648\u0631\u064a \u0628\u0627\u0631\u064a\u0633", "name:ar": "\u0644\u0627\u062f\u0648\u0631\u064a \u0628\u0627\u0631\u064a\u0633", "name:en": "Laduree Paris"}}, {"type": "way", "id": 1238268832, "nodes": [9915586106, 9915586090, 11502709340, 3005664458, 4768093522, 11502709341, 11502709358, 11502709357, 11417589322, 3005664469, 3005664461, 11502709356, 11502709355, 11502709342, 11502709343, 11502709354, 11502709353, 11502709352, 11502709351, 11502709350, 11502709349, 11502709339, 11502709348, 11502709347, 11502709346, 11502709345, 11502709344, 9915586109, 9915586106], "tags": {"amenity": "restaurant", "barrier": "wall", "name": "\u0645\u0631\u0643\u0632 \u0627\u0644\u0645\u0644\u0643 \u062e\u0648\u0641\u0648", "name:ar": "\u0645\u0631\u0643\u0632 \u0627\u0644\u0645\u0644\u0643 \u062e\u0648\u0641\u0648", "name:en": "The King Khufu Center"}}, {"type": "relation", "id": 16919236, "members": [{"type": "way", "ref": 1231051384, "role": "outer"}, {"type": "way", "ref": 1231051383, "role": "outer"}], "tags": {"amenity": "restaurant", "name": "Island Restaurant", "type": "multipolygon"}}]}