{"version": 0.6, "generator": "Overpass API 0.7.62.7 375dc00a", "osm3s": {"timestamp_osm_base": "2025-06-14T13:25:11Z", "copyright": "The data included in this document is from www.openstreetmap.org. The data is made available under ODbL."}, "elements": [{"type": "node", "id": 1046825339, "lat": 36.9242046, "lon": 10.2869616}, {"type": "node", "id": 1046825483, "lat": 36.923568, "lon": 10.2873639}, {"type": "node", "id": 1046825635, "lat": 36.9239499, "lon": 10.2876005}, {"type": "node", "id": 1049757744, "lat": 36.9263334, "lon": 10.2720049}, {"type": "node", "id": 1049757827, "lat": 36.9249253, "lon": 10.2730757}, {"type": "node", "id": 1049758163, "lat": 36.9260075, "lon": 10.27178}, {"type": "node", "id": 1049758462, "lat": 36.9256323, "lon": 10.2735495}, {"type": "node", "id": 1049883915, "lat": 36.9238379, "lon": 10.2882366}, {"type": "node", "id": 1049883952, "lat": 36.9234707, "lon": 10.2886054}, {"type": "node", "id": 1049883968, "lat": 36.9236701, "lon": 10.2884694}, {"type": "node", "id": 1049883979, "lat": 36.9237533, "lon": 10.2885542}, {"type": "node", "id": 1049884005, "lat": 36.9235154, "lon": 10.2886715}, {"type": "node", "id": 1131730789, "lat": 37.0288523, "lon": 10.0438719}, {"type": "node", "id": 1131730846, "lat": 37.028609, "lon": 10.0435788}, {"type": "node", "id": 1131731120, "lat": 37.0285732, "lon": 10.0437058}, {"type": "node", "id": 1131731576, "lat": 37.0287899, "lon": 10.0434451}, {"type": "node", "id": 1131731724, "lat": 37.0288671, "lon": 10.0439035}, {"type": "node", "id": 1131733412, "lat": 37.0286441, "lon": 10.0436534}, {"type": "node", "id": 1131735237, "lat": 37.0287033, "lon": 10.043982}, {"type": "node", "id": 1131738897, "lat": 37.02897, "lon": 10.0438276}, {"type": "node", "id": 1417593407, "lat": 36.9205449, "lon": 10.2901232}, {"type": "node", "id": 1417593432, "lat": 36.9205832, "lon": 10.2901503}, {"type": "node", "id": 1417593443, "lat": 36.9206148, "lon": 10.2901745}, {"type": "node", "id": 1417593456, "lat": 36.9206464, "lon": 10.2902096}, {"type": "node", "id": 1417593462, "lat": 36.9206727, "lon": 10.2902645}, {"type": "node", "id": 1417593479, "lat": 36.920692, "lon": 10.2904423}, {"type": "node", "id": 1417593486, "lat": 36.9206921, "lon": 10.2903281}, {"type": "node", "id": 1417593488, "lat": 36.9206973, "lon": 10.2903874}, {"type": "node", "id": 1417593577, "lat": 36.920802, "lon": 10.2904338}, {"type": "node", "id": 1417593583, "lat": 36.9208344, "lon": 10.2894203}, {"type": "node", "id": 1417593912, "lat": 36.9211196, "lon": 10.2896062}, {"type": "node", "id": 1417593946, "lat": 36.9211179, "lon": 10.2904391}, {"type": "node", "id": 1417594069, "lat": 36.9213746, "lon": 10.2897724}, {"type": "node", "id": 1417659744, "lat": 36.9230055, "lon": 10.2855403}, {"type": "node", "id": 1417659746, "lat": 36.9231273, "lon": 10.2856124}, {"type": "node", "id": 1417659747, "lat": 36.9233023, "lon": 10.2848633}, {"type": "node", "id": 1417659748, "lat": 36.9234217, "lon": 10.2854414}, {"type": "node", "id": 1417659752, "lat": 36.9235829, "lon": 10.2850393}, {"type": "node", "id": 1524605741, "lat": 36.9255644, "lon": 10.2735027}, {"type": "node", "id": 1524605768, "lat": 36.9256796, "lon": 10.2734454}, {"type": "node", "id": 1524605769, "lat": 36.9257198, "lon": 10.2733567}, {"type": "node", "id": 1524605827, "lat": 36.9260388, "lon": 10.2726538}, {"type": "node", "id": 1607742799, "lat": 36.9392464, "lon": 10.2577066}, {"type": "node", "id": 1607742800, "lat": 36.9393444, "lon": 10.2578398}, {"type": "node", "id": 1607742805, "lat": 36.9393404, "lon": 10.2575983}, {"type": "node", "id": 1607742806, "lat": 36.9393535, "lon": 10.257616}, {"type": "node", "id": 1607742810, "lat": 36.9393683, "lon": 10.257599}, {"type": "node", "id": 1607742816, "lat": 36.9394532, "lon": 10.2577145}, {"type": "node", "id": 1607742817, "lat": 36.9397804, "lon": 10.2571849}, {"type": "node", "id": 1607742818, "lat": 36.9398023, "lon": 10.2571509}, {"type": "node", "id": 1607742822, "lat": 36.9398239, "lon": 10.2571727}, {"type": "node", "id": 1607742823, "lat": 36.9398324, "lon": 10.2571595}, {"type": "node", "id": 1607742824, "lat": 36.93984, "lon": 10.257245}, {"type": "node", "id": 1607742825, "lat": 36.9398704, "lon": 10.2571979}, {"type": "node", "id": 1645100352, "lat": 36.9288297, "lon": 10.2767955}, {"type": "node", "id": 1645100353, "lat": 36.9288922, "lon": 10.2768451}, {"type": "node", "id": 1645100354, "lat": 36.9289026, "lon": 10.2766517}, {"type": "node", "id": 1645100355, "lat": 36.9289101, "lon": 10.276752}, {"type": "node", "id": 1645100366, "lat": 36.928931, "lon": 10.2767685}, {"type": "node", "id": 1645100367, "lat": 36.9289442, "lon": 10.2766847}, {"type": "node", "id": 2157688798, "lat": 36.923406, "lon": 10.288425}, {"type": "node", "id": 2157688800, "lat": 36.9234193, "lon": 10.2885152}, {"type": "node", "id": 2157688855, "lat": 36.9235887, "lon": 10.2883153}, {"type": "node", "id": 2157688857, "lat": 36.9236295, "lon": 10.2881304}, {"type": "node", "id": 2157688859, "lat": 36.9236439, "lon": 10.2881004}, {"type": "node", "id": 2157688861, "lat": 36.9236595, "lon": 10.288147}, {"type": "node", "id": 2157688888, "lat": 36.9236968, "lon": 10.288144}, {"type": "node", "id": 2157688897, "lat": 36.9237398, "lon": 10.2880407}, {"type": "node", "id": 2157688903, "lat": 36.9238157, "lon": 10.2881139}, {"type": "node", "id": 2157688905, "lat": 36.9238224, "lon": 10.2880867}, {"type": "node", "id": 2157688923, "lat": 36.9238758, "lon": 10.288156}, {"type": "node", "id": 2157688925, "lat": 36.9238831, "lon": 10.2865713}, {"type": "node", "id": 2157688926, "lat": 36.9238879, "lon": 10.2882678}, {"type": "node", "id": 2157688948, "lat": 36.9239808, "lon": 10.287529}, {"type": "node", "id": 2157688962, "lat": 36.9240303, "lon": 10.2874069}, {"type": "node", "id": 2157688967, "lat": 36.924064, "lon": 10.2874283}, {"type": "node", "id": 2157688987, "lat": 36.9241202, "lon": 10.2871699}, {"type": "node", "id": 2157688995, "lat": 36.9241588, "lon": 10.2871943}, {"type": "node", "id": 2157689010, "lat": 36.9242062, "lon": 10.2867629}, {"type": "node", "id": 2188596342, "lat": 36.9235371, "lon": 10.2851521}, {"type": "node", "id": 2188600229, "lat": 36.9235962, "lon": 10.2885659}, {"type": "node", "id": 2249469247, "lat": 37.2105859, "lon": 10.1275914, "tags": {"addr:postcode": "7070", "addr:street": "\u0634\u0627\u0631\u0639 \u0627\u0644\u062d\u0628\u064a\u0628 \u0628\u0648\u0631\u0642\u064a\u0628\u0629", "addr:street:ar": "\u0634\u0627\u0631\u0639 \u0627\u0644\u062d\u0628\u064a\u0628 \u0628\u0648\u0631\u0642\u064a\u0628\u0629", "amenity": "cafe", "internet_access": "wlan", "internet_access:fee": "no", "name": "Caf\u00e9 fl\u00e8che sportive"}}, {"type": "node", "id": 2390062633, "lat": 36.9252941, "lon": 10.2733224, "tags": {"access": "customers", "entrance": "main", "foot": "yes", "wheelchair": "limited"}}, {"type": "node", "id": 2579689826, "lat": 36.9280977, "lon": 10.2785189, "tags": {"amenity": "restaurant", "cuisine": "regional", "email": "info@blankokitesurfclub.com", "name": "B\u00f4bar", "phone": "+216 25 226 562"}}, {"type": "node", "id": 2609478028, "lat": 36.9256218, "lon": 10.2726473, "tags": {"addr:city": "\u0642\u0645\u0631\u062a", "addr:city:ar": "\u0642\u0645\u0631\u062a", "addr:postcode": "1057", "amenity": "restaurant", "cuisine": "mediterranean", "name": "Axel D. Bodega", "opening_hours": "Mo-Su 12:00-15:00,20:00-23:00", "phone": "+216 55 966 440"}}, {"type": "node", "id": 2609478034, "lat": 36.925532, "lon": 10.2734811, "tags": {"barrier": "entrance", "bicycle": "yes", "foot": "yes", "motorcar": "yes", "motorcycle": "yes"}}, {"type": "node", "id": 2623405707, "lat": 37.3198142, "lon": 9.8668655}, {"type": "node", "id": 2623405711, "lat": 37.3199836, "lon": 9.8667336}, {"type": "node", "id": 2644032355, "lat": 37.3198369, "lon": 9.8669115}, {"type": "node", "id": 2644032356, "lat": 37.3200063, "lon": 9.8667797}, {"type": "node", "id": 3262844287, "lat": 37.2744282, "lon": 9.8685637}, {"type": "node", "id": 3262844288, "lat": 37.2744022, "lon": 9.8686072}, {"type": "node", "id": 3262844289, "lat": 37.2743385, "lon": 9.868542}, {"type": "node", "id": 3262844290, "lat": 37.2743755, "lon": 9.8685014}, {"type": "node", "id": 4099245431, "lat": 37.2683693, "lon": 9.8697752, "tags": {"amenity": "restaurant"}}, {"type": "node", "id": 4131038489, "lat": 37.2757069, "lon": 9.8760044, "tags": {"amenity": "restaurant", "name": "\u0627\u0644\u0645\u0631\u0643\u0628 \u0627\u0644\u0634\u0631\u0627\u0639\u064a", "name:ar": "\u0627\u0644\u0645\u0631\u0643\u0628 \u0627\u0644\u0634\u0631\u0627\u0639\u064a", "name:fr": "Brigantine"}}, {"type": "node", "id": 4131038490, "lat": 37.2734747, "lon": 9.8787513, "tags": {"amenity": "restaurant", "name": "Nautical"}}, {"type": "node", "id": 4162842365, "lat": 37.2881329, "lon": 9.8711047, "tags": {"amenity": "cafe"}}, {"type": "node", "id": 4162852689, "lat": 37.2776461, "lon": 9.8743296, "tags": {"amenity": "cafe"}}, {"type": "node", "id": 4162872271, "lat": 37.2967835, "lon": 9.8679993, "tags": {"amenity": "cafe"}}, {"type": "node", "id": 4162993238, "lat": 37.287156, "lon": 9.8656625, "tags": {"amenity": "cafe"}}, {"type": "node", "id": 4162993239, "lat": 37.2882523, "lon": 9.8681471, "tags": {"amenity": "cafe"}}, {"type": "node", "id": 4162993480, "lat": 37.3112007, "lon": 9.8680764, "tags": {"amenity": "cafe"}}, {"type": "node", "id": 4163109116, "lat": 37.2765032, "lon": 9.8745376, "tags": {"amenity": "cafe", "name": "Caf\u00e9 Le Pacha"}}, {"type": "node", "id": 4163109117, "lat": 37.2761206, "lon": 9.8750605, "tags": {"amenity": "cafe", "name": "Caf\u00e9 Chaabata"}}, {"type": "node", "id": 4428429090, "lat": 36.9420183, "lon": 10.1678516, "tags": {"amenity": "restaurant", "name": "Restaurant Ridha"}}, {"type": "node", "id": 4614069519, "lat": 36.9219423, "lon": 10.2904598, "tags": {"amenity": "restaurant", "name": "Moods", "name:fr": "Bungalow"}}, {"type": "node", "id": 4825530522, "lat": 36.9217579, "lon": 10.2913422, "tags": {"addr:postcode": "1120", "addr:street": "Route Express De Garmarth", "amenity": "restaurant", "name": "Billionaire", "website": "https://foursquare.com/v/billionaire-gammarth/578578c1498ecc553afbc15a"}}, {"type": "node", "id": 6275158219, "lat": 37.2724651, "lon": 9.8799397, "tags": {"amenity": "restaurant", "name": "Restaurant Le Sport Nautique"}}, {"type": "node", "id": 6275158221, "lat": 37.2756235, "lon": 9.8774896, "tags": {"amenity": "restaurant", "name": "La Playa"}}, {"type": "node", "id": 6275158222, "lat": 37.2754132, "lon": 9.8775943, "tags": {"amenity": "restaurant", "name": "Primavera"}}, {"type": "node", "id": 6275158229, "lat": 37.275999, "lon": 9.8761637, "tags": {"amenity": "restaurant", "name": "Le Ph\u00e9nicien"}}, {"type": "node", "id": 6275158230, "lat": 37.2766831, "lon": 9.8758291, "tags": {"amenity": "restaurant", "name": "El Ksiba", "name:fr": "El Ksiba"}}, {"type": "node", "id": 6275158231, "lat": 37.2758802, "lon": 9.8750003, "tags": {"amenity": "restaurant", "name": "Le Sindbad", "name:fr": "Le Sindbad"}}, {"type": "node", "id": 6289331793, "lat": 37.2712706, "lon": 9.878423, "tags": {"amenity": "cafe", "name": "\u0645\u0642\u0647\u0649 \u0627\u0644\u0646\u062e\u064a\u0644", "name:ar": "\u0645\u0642\u0647\u0649 \u0627\u0644\u0646\u062e\u064a\u0644"}}, {"type": "node", "id": 6289331794, "lat": 37.2720006, "lon": 9.8775551, "tags": {"amenity": "cafe", "name": "Caf\u00e9 Jasmin"}}, {"type": "node", "id": 6289331795, "lat": 37.2732666, "lon": 9.8769137, "tags": {"amenity": "restaurant", "name": "Formidable"}}, {"type": "node", "id": 6289331796, "lat": 37.2729894, "lon": 9.8770279, "tags": {"amenity": "cafe", "name": "Caf\u00e9 Zied Laroussi"}}, {"type": "node", "id": 6289331797, "lat": 37.2727583, "lon": 9.8767836, "tags": {"amenity": "cafe", "name": "Caf\u00e9 Mosa\u00efque"}}, {"type": "node", "id": 6289331798, "lat": 37.27488, "lon": 9.8766179, "tags": {"amenity": "cafe", "name": "El Nassim", "name:fr": "El Nassim"}}, {"type": "node", "id": 6289331799, "lat": 37.2749138, "lon": 9.8760796, "tags": {"amenity": "restaurant", "name": "\u0645\u0637\u0639\u0645 \u0627\u0643\u0644\u0629 \u0627\u0644\u0644\u064a\u0644", "name:ar": "\u0645\u0637\u0639\u0645 \u0627\u0643\u0644\u0629 \u0627\u0644\u0644\u064a\u0644", "name:fr": "Restaurant Akla al-Leil"}}, {"type": "node", "id": 6289331800, "lat": 37.2752699, "lon": 9.8775603, "tags": {"amenity": "cafe", "name": "Bedouin"}}, {"type": "node", "id": 6289331801, "lat": 37.2750447, "lon": 9.8776938, "tags": {"amenity": "restaurant", "name": "Dolphino"}}, {"type": "node", "id": 6289331802, "lat": 37.2755473, "lon": 9.8771166, "tags": {"amenity": "cafe", "name": "Joy's Tea"}}, {"type": "node", "id": 6289331805, "lat": 37.2759876, "lon": 9.8750674, "tags": {"amenity": "restaurant", "name": "Eddrina", "name:fr": "Eddrina"}}, {"type": "node", "id": 6289331806, "lat": 37.2765128, "lon": 9.8760329, "tags": {"amenity": "cafe", "name": "Caf\u00e9 Ksiba"}}, {"type": "node", "id": 6289331807, "lat": 37.2763293, "lon": 9.8742979, "tags": {"amenity": "cafe", "name": "Caf\u00e9 13 Janvier"}}, {"type": "node", "id": 6289331808, "lat": 37.2773108, "lon": 9.874151, "tags": {"amenity": "restaurant", "name": "\u0645\u0637\u0639\u0645 \u0627\u0644\u0646\u0627\u0639\u0648\u0631\u0629", "name:ar": "\u0645\u0637\u0639\u0645 \u0627\u0644\u0646\u0627\u0639\u0648\u0631\u0629"}}, {"type": "node", "id": 6289331809, "lat": 37.2774645, "lon": 9.8742691, "tags": {"amenity": "restaurant", "name": "Fast Food du Vieux Port"}}, {"type": "node", "id": 6289331810, "lat": 37.2781079, "lon": 9.8748208, "tags": {"amenity": "restaurant", "name": "Restaurant Du Vieux Port"}}, {"type": "node", "id": 6289331827, "lat": 37.2780861, "lon": 9.8765227, "tags": {"amenity": "cafe", "name": "\u0645\u0642\u0647\u0649 \u0641\u0636\u0627\u0621 \u0627\u0644\u0645\u0628\u062f\u0639\u064a\u0646", "name:ar": "\u0645\u0642\u0647\u0649 \u0641\u0636\u0627\u0621 \u0627\u0644\u0645\u0628\u062f\u0639\u064a\u0646"}}, {"type": "node", "id": 6289331853, "lat": 37.2699727, "lon": 9.8748916, "tags": {"amenity": "cafe", "name": "Salon De Th\u00e9 Vinisia"}}, {"type": "node", "id": 6289331855, "lat": 37.270403, "lon": 9.874795, "tags": {"amenity": "cafe", "name": "\u0627\u0644\u0631\u0635\u064a\u0641 \u0627\u0644\u0634\u0645\u0627\u0644\u064a", "name:ar": "\u0627\u0644\u0631\u0635\u064a\u0641 \u0627\u0644\u0634\u0645\u0627\u0644\u064a"}}, {"type": "node", "id": 6289331857, "lat": 37.2698499, "lon": 9.8730296, "tags": {"amenity": "cafe", "name": "Paradise Caf\u00e9"}}, {"type": "node", "id": 6289331858, "lat": 37.2697201, "lon": 9.8731438, "tags": {"amenity": "cafe", "name": "Caf\u00e9 Le Coin", "name:fr": "Caf\u00e9 Le Coin"}}, {"type": "node", "id": 6289331859, "lat": 37.2695045, "lon": 9.8727327, "tags": {"amenity": "cafe", "name": "Caf\u00e9 Chedlia"}}, {"type": "node", "id": 6289331867, "lat": 37.2710871, "lon": 9.8718574, "tags": {"amenity": "cafe", "name": "Caf\u00e9 Azaiez"}}, {"type": "node", "id": 6289331874, "lat": 37.2705947, "lon": 9.8741707, "tags": {"amenity": "cafe", "name": "Cafe Imtiaz"}}, {"type": "node", "id": 6289331991, "lat": 37.2711868, "lon": 9.8698012, "tags": {"amenity": "restaurant", "cuisine": "pizza", "name": "Di Napoli", "name:fr": "Di Napoli"}}, {"type": "node", "id": 6289331992, "lat": 37.2707663, "lon": 9.8695684, "tags": {"addr:city": "\u0628\u0646\u0632\u0631\u062a", "amenity": "cafe", "name": "\u0645\u0642\u0647\u0649 \u0644\u064a\u062f\u0648", "name:ar": "\u0645\u0642\u0647\u0649 \u0644\u064a\u062f\u0648", "name:fr": "Caf\u00e9 Lido"}}, {"type": "node", "id": 6289331994, "lat": 37.2702047, "lon": 9.8712016, "tags": {"amenity": "cafe", "name": "Caf\u00e9 du Sport"}}, {"type": "node", "id": 6289331995, "lat": 37.2703341, "lon": 9.8714233, "tags": {"amenity": "cafe", "name": "Caf\u00e9 Oasis"}}, {"type": "node", "id": 6289331996, "lat": 37.2703209, "lon": 9.8725758, "tags": {"amenity": "cafe", "name": "Craft Express", "name:fr": "Craft Express"}}, {"type": "node", "id": 6289331997, "lat": 37.2691765, "lon": 9.87191, "tags": {"amenity": "cafe", "name": "P\u00e2tisserie Caf\u00e9t\u00e9ria Faouzi Jemili"}}, {"type": "node", "id": 6289331998, "lat": 37.2692889, "lon": 9.8718063, "tags": {"amenity": "cafe", "name": "La Praline Jemili"}}, {"type": "node", "id": 6289331999, "lat": 37.2815677, "lon": 9.8777466, "tags": {"amenity": "cafe", "name": "Le Petit Belge", "name:fr": "Le Petit Belge"}}, {"type": "node", "id": 6289332000, "lat": 37.2803126, "lon": 9.8769098, "tags": {"amenity": "restaurant", "name": "Fragola Factory"}}, {"type": "node", "id": 6289332017, "lat": 37.275584, "lon": 9.8749707, "tags": {"amenity": "cafe", "name": "Caf\u00e9 Cheikh Khema\u00efs Tarnane"}}, {"type": "node", "id": 6289332018, "lat": 37.2749387, "lon": 9.8774713, "tags": {"amenity": "cafe", "name": "Casa Nostra"}}, {"type": "node", "id": 6289332019, "lat": 37.2723077, "lon": 9.8733337, "tags": {"amenity": "restaurant", "name": "Pizaria Pasta Posta"}}, {"type": "node", "id": 6289332021, "lat": 37.2730192, "lon": 9.8737372, "tags": {"amenity": "cafe", "name": "Swet Time Caf\u00e9"}}, {"type": "node", "id": 6289332031, "lat": 37.2890109, "lon": 9.8703321, "tags": {"amenity": "restaurant", "name": "Bake & Bake"}}, {"type": "node", "id": 6289332035, "lat": 37.2744526, "lon": 9.8755409, "tags": {"amenity": "restaurant", "name": "Dar Binzart", "name:fr": "Dar Binzart"}}, {"type": "node", "id": 6289332036, "lat": 37.2744651, "lon": 9.8747097, "tags": {"amenity": "restaurant", "name": "Pasta Box"}}, {"type": "node", "id": 6289332038, "lat": 37.2754452, "lon": 9.8746852, "tags": {"amenity": "cafe", "name": "Caf\u00e9 Bouhalleb", "name:fr": "Caf\u00e9 Bouhalleb"}}, {"type": "node", "id": 6289889515, "lat": 37.2660647, "lon": 9.8796196, "tags": {"amenity": "cafe", "name": "Salon De The Coin D'or"}}, {"type": "node", "id": 6289889516, "lat": 37.2676207, "lon": 9.8783279, "tags": {"amenity": "cafe", "name": "Caf\u00e9 Chichkhane"}}, {"type": "node", "id": 6312464530, "lat": 37.265193, "lon": 9.8508419, "tags": {"addr:city": "\u0628\u0646\u0632\u0631\u062a", "amenity": "cafe", "name": "\u0645\u0642\u0647\u0649 \u0625\u064a\u0644\u064a\u0646", "name:ar": "\u0645\u0642\u0647\u0649 \u0625\u064a\u0644\u064a\u0646", "name:fr": "Cafe Eline"}}, {"type": "node", "id": 6448702011, "lat": 37.2674152, "lon": 9.8607581, "tags": {"amenity": "restaurant", "cuisine": "pizza", "name": "The Garage"}}, {"type": "node", "id": 6448702012, "lat": 37.2688771, "lon": 9.8570749, "tags": {"addr:city": "\u0628\u0646\u0632\u0631\u062a", "addr:postcode": "7000", "addr:street": "\u0634\u0627\u0631\u0639 14 \u062c\u0627\u0646\u0641\u064a 2011", "amenity": "cafe", "cuisine": "coffee_shop", "name": "\u0627\u0644\u0645\u0642\u0647\u0649 \u0627\u0644\u0639\u0627\u0644\u064a\u0629", "name:ar": "\u0627\u0644\u0645\u0642\u0647\u064a \u0627\u0644\u0639\u0627\u0644\u064a\u0629", "opening_hours": "24/7", "outdoor_seating": "yes"}}, {"type": "node", "id": 6448702018, "lat": 37.2751957, "lon": 9.8620273, "tags": {"amenity": "cafe", "name": "Jazz"}}, {"type": "node", "id": 6448702020, "lat": 37.2784298, "lon": 9.8551342, "tags": {"amenity": "cafe", "name": "\u0645\u0642\u0647\u0649 \u0627\u0644\u062f\u0627\u0647\u0634", "name:ar": "\u0645\u0642\u0647\u0649 \u0627\u0644\u062f\u0627\u0647\u0634"}}, {"type": "node", "id": 6448702027, "lat": 37.2813549, "lon": 9.8571891, "tags": {"amenity": "cafe", "name": "Caf\u00e9 Montr\u00e9al"}}, {"type": "node", "id": 6448702031, "lat": 37.2822163, "lon": 9.8705873, "tags": {"amenity": "cafe", "name": "Bizertino"}}, {"type": "node", "id": 6448702032, "lat": 37.284411, "lon": 9.8730225, "tags": {"amenity": "cafe", "name": "La Bizertine"}}, {"type": "node", "id": 6449744997, "lat": 37.2727198, "lon": 9.8731903, "tags": {"amenity": "restaurant", "name": "Jendoubi"}}, {"type": "node", "id": 6449745003, "lat": 37.2733191, "lon": 9.874805, "tags": {"amenity": "cafe", "name": "Caf\u00e9 Contact"}}, {"type": "node", "id": 6449745004, "lat": 37.2739284, "lon": 9.8755836, "tags": {"amenity": "restaurant", "name": "Le Grand Bleu"}}, {"type": "node", "id": 6449745005, "lat": 37.2755185, "lon": 9.8703751, "tags": {"amenity": "cafe", "name": "Caf\u00e9 La Rome"}}, {"type": "node", "id": 6449745006, "lat": 37.2771001, "lon": 9.8639216, "tags": {"amenity": "cafe", "name": "Le Rendez-Vous"}}, {"type": "node", "id": 6449745010, "lat": 37.2973938, "lon": 9.8670674, "tags": {"amenity": "cafe", "name": "Caf\u00e9 Jasmin"}}, {"type": "node", "id": 6449745011, "lat": 37.2982259, "lon": 9.8670716, "tags": {"amenity": "cafe", "name": "Caf\u00e9 Sport"}}, {"type": "node", "id": 6449745013, "lat": 37.3012862, "lon": 9.8654255, "tags": {"amenity": "cafe", "name": "Les Dauphins"}}, {"type": "node", "id": 6449745014, "lat": 37.2696936, "lon": 9.8646761, "tags": {"addr:city": "\u0628\u0646\u0632\u0631\u062a", "amenity": "cafe", "name": "\u0645\u0642\u0647\u0649 \u063a\u0644\u0643\u0633\u064a", "name:ar": "\u0645\u0642\u0647\u0649 \u063a\u0644\u0643\u0633\u064a", "name:fr": "Caf\u00e9 Galaxy"}}, {"type": "node", "id": 6498956395, "lat": 36.9120361, "lon": 10.1041433, "tags": {"amenity": "cafe", "name": "Caf\u00e9 Ellil"}}, {"type": "node", "id": 6553934925, "lat": 37.0411741, "lon": 10.0374944, "tags": {"amenity": "cafe", "name": "\u0645\u0642\u0647\u0649 \u0633\u0645\u064a\u0631", "name:ar": "\u0645\u0642\u0647\u0649 \u0633\u0645\u064a\u0631"}}, {"type": "node", "id": 6553934926, "lat": 37.044324, "lon": 10.0328448, "tags": {"amenity": "cafe", "name": "Caf\u00e9 Alia"}}, {"type": "node", "id": 6553934927, "lat": 37.0448199, "lon": 10.034322, "tags": {"amenity": "cafe", "name": "Caf\u00e9 Zayatin"}}, {"type": "node", "id": 6553934928, "lat": 37.0485136, "lon": 10.0294019, "tags": {"amenity": "cafe", "name": "Chez Farah"}}, {"type": "node", "id": 6553934929, "lat": 37.0400437, "lon": 10.0398565, "tags": {"amenity": "cafe", "name": "My Coffee"}}, {"type": "node", "id": 6553934931, "lat": 37.0380553, "lon": 10.0397448, "tags": {"amenity": "cafe", "name": "Carthago"}}, {"type": "node", "id": 6553934951, "lat": 37.0373645, "lon": 10.0402823, "tags": {"amenity": "cafe", "name": "\u0645\u0642\u0647\u0649 \u0627\u0644\u0623\u0645\u0631\u0627\u0621", "name:ar": "\u0645\u0642\u0647\u0649 \u0627\u0644\u0623\u0645\u0631\u0627\u0621"}}, {"type": "node", "id": 6553934954, "lat": 37.0340186, "lon": 10.0408232, "tags": {"amenity": "restaurant", "name": "Restaurant Ezahraa"}}, {"type": "node", "id": 7377206097, "lat": 37.2335497, "lon": 9.8661189}, {"type": "node", "id": 7377206098, "lat": 37.2335366, "lon": 9.8661009}, {"type": "node", "id": 7377206100, "lat": 37.2334705, "lon": 9.8661333}, {"type": "node", "id": 7377206101, "lat": 37.2335077, "lon": 9.8661972}, {"type": "node", "id": 7453172057, "lat": 36.9562299, "lon": 10.228423, "tags": {"amenity": "cafe", "check_date": "2024-03-27", "name": "Caf\u00e9 Yasmine"}}, {"type": "node", "id": 7453172058, "lat": 36.9553511, "lon": 10.229681, "tags": {"amenity": "cafe", "name": "Salon de Th\u00e9 Tanit"}}, {"type": "node", "id": 8218726917, "lat": 37.2824965, "lon": 9.8537272, "tags": {"amenity": "cafe", "internet_access": "wlan", "name": "La Rosa"}}, {"type": "node", "id": 8861140292, "lat": 37.1394415, "lon": 10.2101857, "tags": {"addr:city": "Ghar El Melh - Coucou Beach", "amenity": "restaurant", "cuisine": "seafood", "name": "jamaica paradise coucou beach", "opening_hours": "Mo-Su 08:00-17:00", "phone": "+216 54 507 303", "website": "https://www.facebook.com/jamaicacoucoubeach"}}, {"type": "node", "id": 9363628228, "lat": 37.2884602, "lon": 9.8719881, "tags": {"amenity": "restaurant", "name": "La Scala caf\u00e9 et resto"}}, {"type": "node", "id": 9456728023, "lat": 37.2776886, "lon": 9.8699102, "tags": {"amenity": "restaurant", "cuisine": "pizza;sandwich", "diet:halal": "yes", "name": "Sahib", "opening_hours": "Mo-Su 10:00-22:00", "opening_hours:covid19": "off"}}, {"type": "node", "id": 9466267817, "lat": 37.2240436, "lon": 10.054332, "tags": {"amenity": "restaurant", "contact:facebook": "https://www.facebook.com/LeChaletDuLacRestaurant/", "name": "\u0634\u0627\u0644\u064a\u0647\u0627\u062a \u0627\u0644\u0628\u062d\u064a\u0631\u0629", "name:ar": "\u0634\u0627\u0644\u064a\u0647\u0627\u062a \u0627\u0644\u0628\u062d\u064a\u0631\u0629", "name:en": "Le Chalet du Lac", "name:fr": "Le Chalet du Lac"}}, {"type": "node", "id": 9936214112, "lat": 37.1378487, "lon": 10.2100178, "tags": {"amenity": "restaurant", "name": "Green Coucou Beach"}}, {"type": "node", "id": 9936236600, "lat": 37.1447695, "lon": 10.2112717, "tags": {"amenity": "restaurant", "name": "Loco Coucou Beach"}}, {"type": "node", "id": 9991790017, "lat": 37.2086166, "lon": 10.1631325, "tags": {"addr:street": "\u0637\u0631\u064a\u0642 \u0627\u0644\u0634\u0627\u0637\u0626 \u0633\u0648\u0646\u064a\u0646", "amenity": "restaurant", "contact:facebook": "Caf\u00e9-marina-rafraf-plage-2101210230206021", "contact:instagram": "les_paradis_sounine", "name:en": "Les paradis de sounine", "name:fr": "Les paradis de sounine", "phone": "+216 52 024 809"}}, {"type": "node", "id": 10139312518, "lat": 37.1939754, "lon": 10.1413581, "tags": {"addr:street": "\u0637\u0631\u064a\u0642 \u0627\u0644\u0634\u0627\u0637\u0626 \u0633\u0648\u0646\u064a\u0646", "amenity": "restaurant", "contact:facebook": "RestaurantDarElBay", "name": "\u062f\u0627\u0631 \u0627\u0644\u0628\u0627\u064a", "name:ar": "\u062f\u0627\u0631 \u0627\u0644\u0628\u0627\u064a", "name:en": "Dar El Bey", "name:fr": "Dar El Bey", "opening_hours": "Mo-Su 08:00-00:00", "phone": "+216 98 985 161"}}, {"type": "node", "id": 10139317617, "lat": 37.1894009, "lon": 10.2096995, "tags": {"addr:street": "\u0627\u0644\u062d\u0645\u0627\u0631\u064a", "amenity": "restaurant", "contact:facebook": "havanarestoloungee", "contact:instagram": "havana_resto_rafraf", "name": "Havana Resto-Lounge", "name:fr": "Havana Resto-Lounge", "phone": "+216 23 579 905"}}, {"type": "node", "id": 10313283311, "lat": 36.9309239, "lon": 10.1351571, "tags": {"amenity": "cafe", "name": "\u0641\u0627\u064a\u0641 \u0627\u0633\u062a\u0627\u0631\u0632", "name:ar": "\u0641\u0627\u064a\u0641 \u0627\u0633\u062a\u0627\u0631\u0632", "name:en": "Five Stars", "name:fr": "Five Stars"}}, {"type": "node", "id": 10901588461, "lat": 36.9230468, "lon": 10.2900466, "tags": {"amenity": "restaurant", "name": "Chez Franky"}}, {"type": "node", "id": 10901588464, "lat": 36.9242914, "lon": 10.2846167, "tags": {"amenity": "restaurant", "name": "Bowly"}}, {"type": "node", "id": 10901588467, "lat": 36.92418, "lon": 10.2844381, "tags": {"amenity": "restaurant", "name": "Mokito"}}, {"type": "node", "id": 10901588469, "lat": 36.9245617, "lon": 10.284776, "tags": {"amenity": "restaurant", "cuisine": "regional", "name": "El Tounsi"}}, {"type": "node", "id": 10901588473, "lat": 36.9262834, "lon": 10.2780949, "tags": {"amenity": "restaurant", "name": "Le Retour"}}, {"type": "node", "id": 10901588476, "lat": 36.9244737, "lon": 10.2744323, "tags": {"amenity": "cafe", "name": "Monaco Club"}}, {"type": "node", "id": 10901588477, "lat": 36.9245135, "lon": 10.2844045, "tags": {"amenity": "restaurant", "cuisine": "spanish", "name": "Tapas Bravas"}}, {"type": "node", "id": 10901588479, "lat": 36.92415, "lon": 10.284949, "tags": {"amenity": "restaurant", "cuisine": "sushi", "name": "O\u00efshi"}}, {"type": "node", "id": 10901588480, "lat": 36.9239772, "lon": 10.2849533, "tags": {"amenity": "restaurant", "name": "The Kitchen"}}, {"type": "node", "id": 10901588481, "lat": 36.9240759, "lon": 10.2846972, "tags": {"amenity": "restaurant", "cuisine": "french", "name": "La Cr\u00eaperie"}}, {"type": "node", "id": 10901588482, "lat": 36.9202172, "lon": 10.2901233, "tags": {"amenity": "restaurant", "name": "17 Heures Vin"}}, {"type": "node", "id": 10901588492, "lat": 36.9204092, "lon": 10.2893307, "tags": {"amenity": "restaurant", "name": "Molo"}}, {"type": "node", "id": 10901588498, "lat": 36.9243312, "lon": 10.2842852, "tags": {"amenity": "restaurant", "name": "El B7ar"}}, {"type": "node", "id": 10901588501, "lat": 36.9244309, "lon": 10.2847049, "tags": {"amenity": "restaurant", "cuisine": "pizza", "name": "Bella Napoli"}}, {"type": "node", "id": 10901588504, "lat": 36.9224014, "lon": 10.2915352, "tags": {"amenity": "restaurant", "name": "The Beach"}}, {"type": "node", "id": 10901634408, "lat": 36.9211628, "lon": 10.2848742, "tags": {"amenity": "restaurant", "name": "L'Atelier"}}, {"type": "node", "id": 10901634410, "lat": 36.9202772, "lon": 10.2898886, "tags": {"amenity": "restaurant", "name": "\u0645\u0637\u0639\u0645 \u0644\u064a \u0643\u0627\u0628"}}, {"type": "node", "id": 10901634411, "lat": 36.9242915, "lon": 10.2850389, "tags": {"amenity": "restaurant", "cuisine": "greek", "name": "Pita Gore"}}, {"type": "node", "id": 10901634419, "lat": 36.9206986, "lon": 10.2894836, "tags": {"amenity": "restaurant", "name": "Tybar Cap"}}, {"type": "node", "id": 10901634421, "lat": 36.924745, "lon": 10.2741357, "tags": {"amenity": "restaurant"}}, {"type": "node", "id": 10901634422, "lat": 36.9246754, "lon": 10.2844917, "tags": {"amenity": "restaurant", "name": "Cook's"}}, {"type": "node", "id": 11512383542, "lat": 36.9255698, "lon": 10.2729236, "tags": {"amenity": "restaurant", "amenity_1": "concert_hall", "bar": "yes", "name": "Tbarna", "smoking": "yes"}}, {"type": "node", "id": 11512566815, "lat": 36.9252163, "lon": 10.2732702, "tags": {"access": "customers", "entrance": "main", "wheelchair": "limited"}}, {"type": "node", "id": 12457344528, "lat": 37.2670365, "lon": 9.85726, "tags": {"addr:city": "\u0628\u0646\u0632\u0631\u062a", "addr:postcode": "7000", "addr:street": "\u0634\u0627\u0631\u0639 14 \u062c\u0627\u0646\u0641\u064a 2011", "amenity": "cafe", "cuisine": "coffee_shop", "name:ar": "\u0645\u0642\u0647\u0649 \u0644\u064a\u0627\u0644\u064a \u0627\u0644\u0633\u0644\u0637\u0627\u0646", "outdoor_seating": "yes"}}, {"type": "node", "id": 12585491089, "lat": 37.1907111, "lon": 10.1813181}, {"type": "node", "id": 12585491090, "lat": 37.1905713, "lon": 10.1813424}, {"type": "node", "id": 12585491091, "lat": 37.1905785, "lon": 10.181409}, {"type": "node", "id": 12585491092, "lat": 37.1905591, "lon": 10.1814103}, {"type": "node", "id": 12585491093, "lat": 37.1905775, "lon": 10.1815217}, {"type": "node", "id": 12585491094, "lat": 37.1907305, "lon": 10.1814807}, {"type": "node", "id": 12585491168, "lat": 37.1913496, "lon": 10.1805828}, {"type": "node", "id": 12585491169, "lat": 37.1912891, "lon": 10.1806807}, {"type": "node", "id": 12585491170, "lat": 37.1912254, "lon": 10.1806105}, {"type": "node", "id": 12585491171, "lat": 37.1912823, "lon": 10.1805136}, {"type": "node", "id": 12585922781, "lat": 37.1910717, "lon": 10.1837582}, {"type": "node", "id": 12585922782, "lat": 37.1910064, "lon": 10.1837533}, {"type": "node", "id": 12585922783, "lat": 37.1910035, "lon": 10.1838438}, {"type": "node", "id": 12585922784, "lat": 37.1910736, "lon": 10.1838536}, {"type": "node", "id": 12585922785, "lat": 37.1909637, "lon": 10.1826671}, {"type": "node", "id": 12585922786, "lat": 37.1910241, "lon": 10.1827234}, {"type": "node", "id": 12585922787, "lat": 37.1909656, "lon": 10.1827833}, {"type": "node", "id": 12585922788, "lat": 37.1909179, "lon": 10.1827381}, {"type": "node", "id": 12670336579, "lat": 37.2359502, "lon": 9.8634504, "tags": {"amenity": "cafe"}}, {"type": "node", "id": 12670343807, "lat": 37.2355986, "lon": 9.8631496, "tags": {"amenity": "cafe"}}, {"type": "node", "id": 12673338001, "lat": 37.2334889, "lon": 9.8660923}, {"type": "node", "id": 12680792024, "lat": 37.2453536, "lon": 9.8546861}, {"type": "node", "id": 12680792025, "lat": 37.2451757, "lon": 9.8547857}, {"type": "node", "id": 12680792026, "lat": 37.2451492, "lon": 9.854716}, {"type": "node", "id": 12680792027, "lat": 37.2452512, "lon": 9.8545724}, {"type": "node", "id": 12680792028, "lat": 37.2452218, "lon": 9.8544862}, {"type": "node", "id": 12680792029, "lat": 37.2451389, "lon": 9.8545472}, {"type": "node", "id": 12680792030, "lat": 37.2451075, "lon": 9.8544775}, {"type": "node", "id": 12680792031, "lat": 37.2452399, "lon": 9.8543826}, {"type": "node", "id": 12680792032, "lat": 37.2452485, "lon": 9.8547342}, {"type": "node", "id": 12680792033, "lat": 37.2452577, "lon": 9.8547467}, {"type": "node", "id": 12680792034, "lat": 37.2451808, "lon": 9.8546224}, {"type": "node", "id": 12680792035, "lat": 37.2452025, "lon": 9.8546726}, {"type": "node", "id": 12713024884, "lat": 37.2579426, "lon": 9.8707955}, {"type": "node", "id": 12713024886, "lat": 37.2575765, "lon": 9.8708802}, {"type": "node", "id": 12713024887, "lat": 37.2574558, "lon": 9.8708346}, {"type": "node", "id": 12713024888, "lat": 37.257483, "lon": 9.8707336}, {"type": "node", "id": 12713024889, "lat": 37.2575883, "lon": 9.8707478}, {"type": "node", "id": 12713024890, "lat": 37.2576054, "lon": 9.8707909}, {"type": "node", "id": 12713044022, "lat": 37.257899, "lon": 9.8709158}, {"type": "node", "id": 12713044023, "lat": 37.2578099, "lon": 9.8707776}, {"type": "node", "id": 12713044024, "lat": 37.2578083, "lon": 9.8708146}, {"type": "node", "id": 12713044025, "lat": 37.2578562, "lon": 9.8708294}, {"type": "node", "id": 12713044026, "lat": 37.2578505, "lon": 9.8708577}, {"type": "node", "id": 12713044027, "lat": 37.2578905, "lon": 9.8708747}, {"type": "node", "id": 12713044028, "lat": 37.2578815, "lon": 9.8709136}, {"type": "way", "id": 90480798, "nodes": [1049758462, 1524605741, 2609478034, 2390062633, 11512566815, 1049757827, 1049758163, 1049757744, 1524605827, 1524605769, 1524605768, 1049758462], "tags": {"addr:postcode": "1057", "amenity": "restaurant", "barrier": "fence", "name": "Complexe Trinidad Club", "name:fr": "Complexe Trinidad Club"}}, {"type": "way", "id": 90497213, "nodes": [2157689010, 1046825339, 2157688987, 2157688995, 2157688967, 2157688962, 2157688948, 1046825635, 1046825483, 2157688925, 2157689010], "tags": {"abandoned": "yes", "amenity": "restaurant", "name": "Karim Beach"}}, {"type": "way", "id": 97779502, "nodes": [1131731576, 1131738897, 1131731724, 1131730789, 1131735237, 1131731120, 1131733412, 1131730846, 1131731576], "tags": {"amenity": "restaurant", "building": "yes", "name": "Tijani Tunisian Grill"}}, {"type": "way", "id": 128232738, "nodes": [1417593583, 1417593912, 1417593577, 1417593479, 1417593488, 1417593486, 1417593462, 1417593456, 1417593443, 1417593432, 1417593407, 1417593583], "tags": {"amenity": "restaurant", "name": "Le Lagoon"}}, {"type": "way", "id": 128232984, "nodes": [1417593912, 1417594069, 1417593946, 1417593577, 1417593912], "tags": {"amenity": "restaurant"}}, {"type": "way", "id": 128242950, "nodes": [1417659744, 1417659747, 1417659752, 2188596342, 1417659748, 1417659746, 1417659744], "tags": {"amenity": "restaurant", "name": "New Vague"}}, {"type": "way", "id": 147571832, "nodes": [1607742817, 1607742824, 1607742825, 1607742823, 1607742822, 1607742818, 1607742817], "tags": {"amenity": "cafe", "building": "yes"}}, {"type": "way", "id": 147572058, "nodes": [1607742800, 1607742816, 1607742810, 1607742806, 1607742805, 1607742799, 1607742800], "tags": {"amenity": "cafe", "building": "yes"}}, {"type": "way", "id": 151670889, "nodes": [1645100352, 1645100353, 1645100366, 1645100355, 1645100367, 1645100354, 1645100352], "tags": {"amenity": "cafe", "building": "yes"}}, {"type": "way", "id": 205788729, "nodes": [2157688798, 2157688855, 2157688861, 2157688857, 2157688859, 2157688888, 2157688897, 2157688905, 2157688903, 2157688923, 1049883915, 2157688926, 1049883979, 1049883968, 2188600229, 1049884005, 1049883952, 2157688800, 2157688798], "tags": {"addr:postcode": "2078", "addr:street": "Zone Tourestique", "amenity": "restaurant", "building": "restaurant", "name": "Le Select Resto Lounge", "phone": "+215-21-502.249"}}, {"type": "way", "id": 259076102, "nodes": [2623405711, 2644032356, 2644032355, 2623405707, 2623405711], "tags": {"addr:city": "\u0628\u0646\u0632\u0631\u062a", "addr:street": "\u0627\u0644\u0643\u0631\u0646\u064a\u0634", "amenity": "restaurant", "building": "yes", "name": "\u0627\u0644\u0634\u0627\u0637\u0626 \u0627\u0644\u062c\u0645\u064a\u0644", "name:ar": "\u0627\u0644\u0634\u0627\u0637\u0626 \u0627\u0644\u062c\u0645\u064a\u0644", "name:fr": "Belle Plage"}}, {"type": "way", "id": 319816540, "nodes": [3262844287, 3262844288, 3262844289, 3262844290, 3262844287], "tags": {"amenity": "restaurant", "building": "yes", "cuisine": "regional", "ele": "0", "name": "Mohamed Hadi Lablabi"}}, {"type": "way", "id": 789082715, "nodes": [7377206097, 7377206098, 12673338001, 7377206100, 7377206101, 7377206097], "tags": {"amenity": "cafe", "building": "yes", "name": "Kiosk Adel"}}, {"type": "way", "id": 1359648549, "nodes": [12585491089, 12585491090, 12585491091, 12585491092, 12585491093, 12585491094, 12585491089], "tags": {"amenity": "cafe", "building": "yes", "name": "Cafe Rafraf"}}, {"type": "way", "id": 1359648562, "nodes": [12585491168, 12585491169, 12585491170, 12585491171, 12585491168], "tags": {"amenity": "cafe", "building": "yes"}}, {"type": "way", "id": 1359688010, "nodes": [12585922781, 12585922782, 12585922783, 12585922784, 12585922781], "tags": {"amenity": "cafe", "building": "yes"}}, {"type": "way", "id": 1359688011, "nodes": [12585922785, 12585922786, 12585922787, 12585922788, 12585922785], "tags": {"amenity": "restaurant", "building": "yes", "name": "L'escale"}}, {"type": "way", "id": 1369153856, "nodes": [12680792024, 12680792033, 12680792032, 12680792025, 12680792026, 12680792035, 12680792034, 12680792027, 12680792028, 12680792029, 12680792030, 12680792031, 12680792024], "tags": {"amenity": "restaurant", "building": "yes"}}, {"type": "way", "id": 1373019941, "nodes": [12713024886, 12713024887, 12713024888, 12713024889, 12713024890, 12713024886], "tags": {"amenity": "cafe", "building": "yes", "name": "Cafe Boujomaa"}}, {"type": "way", "id": 1373019950, "nodes": [12713044022, 12713024884, 12713044023, 12713044024, 12713044025, 12713044026, 12713044027, 12713044028, 12713044022], "tags": {"amenity": "cafe", "building": "yes", "name": "Cafe Dar nasser"}}]}