{"version": 0.6, "generator": "Overpass API 0.7.62.7 375dc00a", "osm3s": {"timestamp_osm_base": "2025-06-14T13:06:46Z", "copyright": "The data included in this document is from www.openstreetmap.org. The data is made available under ODbL."}, "elements": [{"type": "node", "id": 2619415720, "lat": 6.5334515, "lon": 2.6624473, "tags": {"amenity": "restaurant", "cuisine": "african;barbecue", "name": "Chez Houssou"}}, {"type": "node", "id": 4017627623, "lat": 6.4996402, "lon": 2.6147979}, {"type": "node", "id": 4017627624, "lat": 6.4997178, "lon": 2.6149024}, {"type": "node", "id": 4017627625, "lat": 6.4997285, "lon": 2.6147316}, {"type": "node", "id": 4017627626, "lat": 6.499806, "lon": 2.6148361}, {"type": "node", "id": 4124718275, "lat": 6.4759946, "lon": 2.6038961, "tags": {"amenity": "restaurant", "name": "Maquis Grill Scout", "phone": "66043058"}}, {"type": "node", "id": 4222604293, "lat": 6.5036021, "lon": 2.6112749, "tags": {"amenity": "cafe", "name": "Caf\u00e9 pas de Soucis"}}, {"type": "node", "id": 4230620782, "lat": 6.5155267, "lon": 2.6763116}, {"type": "node", "id": 4230620783, "lat": 6.5154216, "lon": 2.6763138}, {"type": "node", "id": 4230620784, "lat": 6.5154226, "lon": 2.6763634}, {"type": "node", "id": 4230620785, "lat": 6.5153969, "lon": 2.676364}, {"type": "node", "id": 4230620786, "lat": 6.5153983, "lon": 2.6764312}, {"type": "node", "id": 4230620787, "lat": 6.5155288, "lon": 2.6764175}, {"type": "node", "id": 4290488358, "lat": 6.515424, "lon": 2.6764307}, {"type": "node", "id": 4290488359, "lat": 6.5154243, "lon": 2.6764466}, {"type": "node", "id": 4290488360, "lat": 6.5154875, "lon": 2.6764183}, {"type": "node", "id": 4290488361, "lat": 6.515488, "lon": 2.6764453}, {"type": "node", "id": 4321466041, "lat": 6.4747303, "lon": 2.6045805, "tags": {"amenity": "cafe", "name": "Caf\u00e9t\u00e9ria\"Tout est Gr\u00e2ce\"", "phone": "66779944"}}, {"type": "node", "id": 4388454973, "lat": 6.4722557, "lon": 2.6138684, "tags": {"amenity": "restaurant", "name": "Ets La D\u00e9licieuse", "phone": "+229 95360735"}}, {"type": "node", "id": 5171495963, "lat": 6.5166215, "lon": 2.6762136, "tags": {"amenity": "cafe", "internet_access": "no", "internet_access:fee": "no", "name": "Caf\u00e9tariat Prunelle de Dieu"}}, {"type": "node", "id": 5171582521, "lat": 6.5209783, "lon": 2.6426017, "tags": {"amenity": "restaurant", "name": "Restaurant Vall"}}, {"type": "node", "id": 5172560524, "lat": 6.5235701, "lon": 2.6676293, "tags": {"amenity": "restaurant", "name": "Restaurant viande Lapin brais\u00e9"}}, {"type": "node", "id": 5176228523, "lat": 6.523287, "lon": 2.6681392, "tags": {"amenity": "cafe", "name": "Caf\u00e9t\u00e9ria le monument"}}, {"type": "node", "id": 5176228526, "lat": 6.5231904, "lon": 2.6683138, "tags": {"amenity": "restaurant", "name": "Bar restaurant le monument", "takeaway": "yes"}}, {"type": "node", "id": 5252016921, "lat": 6.5155633, "lon": 2.605915, "tags": {"amenity": "restaurant", "name": "Resto gracien", "name:fr": "Resto gracien"}}, {"type": "node", "id": 5366481422, "lat": 6.470067, "lon": 2.6128064, "tags": {"amenity": "restaurant", "name": "Le L\u00e9gendaire"}}, {"type": "node", "id": 5588621203, "lat": 6.5156588, "lon": 2.675356, "tags": {"amenity": "cafe"}}, {"type": "node", "id": 5588658572, "lat": 6.5180193, "lon": 2.6774957, "tags": {"amenity": "cafe", "name": "Aw\u00e9 la Vitoire", "source": "serveur"}}, {"type": "node", "id": 5592359313, "lat": 6.5112759, "lon": 2.6733314, "tags": {"amenity": "restaurant", "name": "B & Q - Campus"}}, {"type": "node", "id": 5592359314, "lat": 6.5286153, "lon": 2.666938, "tags": {"amenity": "cafe", "name": "Caf\u00e9t\u00e9ria hosana", "phone": "60514930"}}, {"type": "node", "id": 5596927848, "lat": 6.504288, "lon": 2.6448559, "tags": {"amenity": "restaurant"}}, {"type": "node", "id": 5598167667, "lat": 6.4707853, "lon": 2.6481703, "tags": {"amenity": "cafe", "name": "Caf\u00e9t\u00e9ria la Libert\u00e9"}}, {"type": "node", "id": 5753263421, "lat": 6.4745143, "lon": 2.6178873, "tags": {"amenity": "restaurant", "name": "Cafeteria Place de le Republique", "opening_hours": "Mo-Sa 07:00-17:00"}}, {"type": "node", "id": 5764233923, "lat": 6.4735633, "lon": 2.6080612, "tags": {"addr:housenumber": "351", "addr:street": "369", "amenity": "restaurant", "name": "C\u0153ur Tranquille"}}, {"type": "node", "id": 5764266075, "lat": 6.4746385, "lon": 2.6050425, "tags": {"amenity": "cafe", "name": "Caf\u00e9 \u00c9l\u00e9gance"}}, {"type": "node", "id": 5768258583, "lat": 6.4991176, "lon": 2.6042663, "tags": {"amenity": "cafe", "name": "Hosana Fast Food"}}, {"type": "node", "id": 6103821485, "lat": 6.4841127, "lon": 2.6155763, "tags": {"amenity": "restaurant", "name": "Maquis main d'or"}}, {"type": "node", "id": 6989600744, "lat": 6.5141673, "lon": 2.6046905, "tags": {"amenity": "restaurant", "name": "Le concepteur"}}, {"type": "node", "id": 6989624760, "lat": 6.5137681, "lon": 2.6058447, "tags": {"amenity": "cafe", "name": "Palais de Glace"}}, {"type": "node", "id": 7798295985, "lat": 6.523707, "lon": 2.6675218, "tags": {"amenity": "restaurant", "name": "Le Rep\u00e8re Lapin"}}, {"type": "node", "id": 8176121617, "lat": 6.4921475, "lon": 2.6482167, "tags": {"amenity": "restaurant", "name": "ENANGNON 500"}}, {"type": "node", "id": 9022939217, "lat": 6.5589207, "lon": 2.6585018, "tags": {"amenity": "restaurant", "name": "Sauce Graine"}}, {"type": "node", "id": 9858650616, "lat": 6.8198696, "lon": 2.7626913, "tags": {"amenity": "restaurant"}}, {"type": "node", "id": 10020909401, "lat": 6.5118301, "lon": 2.6188232, "tags": {"amenity": "restaurant", "name": "Le Central"}}, {"type": "node", "id": 10765594305, "lat": 6.4707136, "lon": 2.613458, "tags": {"amenity": "restaurant", "name:en": "African Foodseum"}}, {"type": "node", "id": 10980395084, "lat": 6.4964468, "lon": 2.654256, "tags": {"amenity": "restaurant", "description": "lapin et divers, boissons", "name": "Cafetariat 2 fois colonel. Divers"}}, {"type": "node", "id": 10980415987, "lat": 6.4986426, "lon": 2.6594635, "tags": {"amenity": "restaurant", "description": "caf\u00e9t\u00e9ria", "name": "Caf\u00e9t\u00e9ria Adona\u00ef"}}, {"type": "node", "id": 10980421088, "lat": 6.4963107, "lon": 2.6545933, "tags": {"amenity": "restaurant", "description": "buvette, boisson, nourriture", "name": "Avidougb\u00e8", "phone": "97609392"}}, {"type": "node", "id": 10980421401, "lat": 6.4972605, "lon": 2.656493, "tags": {"addr:housenumber": "RCCM: RB/PNO/19 A 10350", "amenity": "restaurant", "description": "N\u00b0 IFU: 0201910752185", "name": "Bar restau bidossessi"}}, {"type": "node", "id": 10980432991, "lat": 6.5129346, "lon": 2.6667975, "tags": {"amenity": "restaurant", "name": "Caf\u00e9t\u00e9ria tout est gr\u00e2ce", "phone": "57744919"}}, {"type": "node", "id": 10980447605, "lat": 6.5155477, "lon": 2.6488475, "tags": {"amenity": "restaurant", "name": "RESTAURANT CHEZ GOUTON"}}, {"type": "node", "id": 10980449907, "lat": 6.524466, "lon": 2.6503135, "tags": {"amenity": "cafe", "name": "CAFETARIA"}}, {"type": "node", "id": 10980484203, "lat": 6.4930244, "lon": 2.6897658, "tags": {"amenity": "cafe", "name": "bar caf\u00e9t\u00e9ria bonne appetie", "phone": "97860123"}}, {"type": "node", "id": 10989947599, "lat": 6.5032396, "lon": 2.6515432, "tags": {"amenity": "restaurant", "description": "caf\u00e9 bar restaurant", "name": "Le bonheur de dieu", "phone": "96938464"}}, {"type": "node", "id": 10989947604, "lat": 6.5173035, "lon": 2.670155, "tags": {"amenity": "restaurant", "name": "Tch\u00e8ki hongan - non", "phone": "96421651"}}, {"type": "node", "id": 10989972763, "lat": 6.5260289, "lon": 2.64807, "tags": {"amenity": "restaurant", "name": "Restaurant le gagnant", "opening_hours": "Mo-Su 08:00-08:00", "phone": "97721379"}}, {"type": "node", "id": 10989988200, "lat": 6.5257881, "lon": 2.6498966, "tags": {"amenity": "cafe", "name": "Gloire \u00e0 dieu"}}, {"type": "node", "id": 10989993950, "lat": 6.5104569, "lon": 2.6778982, "tags": {"amenity": "restaurant", "name": "Chez atm 88"}}, {"type": "node", "id": 10990002865, "lat": 6.5150169, "lon": 2.6706423, "tags": {"amenity": "restaurant", "name": "Le repas est Doux"}}, {"type": "node", "id": 10990007029, "lat": 6.5163017, "lon": 2.6668413, "tags": {"amenity": "restaurant", "name": "Caf\u00e9t\u00e9ria Yogo criho", "phone": "97725994"}}, {"type": "node", "id": 10990010846, "lat": 6.5099544, "lon": 2.6780437, "tags": {"amenity": "restaurant", "name": "Ohan kp\u00e8t\u00e8"}}, {"type": "node", "id": 10990066336, "lat": 6.5212717, "lon": 2.6558064, "tags": {"amenity": "cafe", "name": "Bar Cafetaria Don de Dieu"}}, {"type": "node", "id": 10990073214, "lat": 6.5112634, "lon": 2.6557849, "tags": {"amenity": "cafe", "name": "Chez Dialo"}}, {"type": "node", "id": 10990134279, "lat": 6.4977258, "lon": 2.6514371, "tags": {"amenity": "restaurant", "name": "Chez Chlo\u00e9"}}, {"type": "node", "id": 10990165993, "lat": 6.5005703, "lon": 2.7018252, "tags": {"amenity": "cafe"}}, {"type": "node", "id": 10990172338, "lat": 6.5042352, "lon": 2.6875366, "tags": {"amenity": "cafe", "name": "Caf\u00e9 bar restaurant chez kinhougbande"}}, {"type": "node", "id": 10990172339, "lat": 6.5166801, "lon": 2.6929627, "tags": {"amenity": "cafe", "name": "Caf\u00e9t\u00e9ria le r\u00e9dempteur"}}, {"type": "node", "id": 10990175752, "lat": 6.5148637, "lon": 2.6934595, "tags": {"amenity": "cafe", "name": "Caf\u00e9 bar chez rich"}}, {"type": "node", "id": 10990204508, "lat": 6.5029348, "lon": 2.6624482, "tags": {"amenity": "restaurant"}}, {"type": "node", "id": 10990229611, "lat": 6.5014012, "lon": 2.6585667, "tags": {"amenity": "restaurant", "name": "Au coeur des saveurs", "phone": "98086998"}}, {"type": "node", "id": 10990254900, "lat": 6.513534, "lon": 2.6875098, "tags": {"amenity": "cafe", "name": "Adongle"}}, {"type": "node", "id": 10990266938, "lat": 6.5047268, "lon": 2.6452103, "tags": {"amenity": "cafe", "name": "Fouta-Djallon", "phone": "96231505"}}, {"type": "node", "id": 10990267569, "lat": 6.5043519, "lon": 2.6493079, "tags": {"amenity": "restaurant", "name": "Tour de contr\u00f4le", "phone": "97562434"}}, {"type": "node", "id": 10990267570, "lat": 6.5079679, "lon": 2.6466557, "tags": {"amenity": "restaurant", "name": "Divine"}}, {"type": "node", "id": 10992327486, "lat": 6.5153345, "lon": 2.6667176, "tags": {"amenity": "restaurant", "name": "Caf\u00e9t\u00e9ria dieu est grand"}}, {"type": "node", "id": 10992666397, "lat": 6.4872778, "lon": 2.6581255, "tags": {"amenity": "restaurant"}}, {"type": "node", "id": 10992681677, "lat": 6.4895586, "lon": 2.6652766, "tags": {"amenity": "restaurant", "name": "Gbenonkpo de malanhoui carrefour"}}, {"type": "node", "id": 10992689335, "lat": 6.5079697, "lon": 2.6468008, "tags": {"amenity": "restaurant", "name": "Shawarma r\u00e9publique"}}, {"type": "node", "id": 10992693207, "lat": 6.5283498, "lon": 2.6492504, "tags": {"amenity": "restaurant", "name": "Chez alino p\u00e8p\u00e8"}}, {"type": "node", "id": 10992696358, "lat": 6.4922499, "lon": 2.6561688, "tags": {"amenity": "cafe", "name": "Caf\u00e9 restau la main de Dieu"}}, {"type": "node", "id": 10992715731, "lat": 6.5306386, "lon": 2.6482926, "tags": {"amenity": "restaurant", "name": "Buvette"}}, {"type": "node", "id": 10992727719, "lat": 6.4888302, "lon": 2.6611533, "tags": {"amenity": "cafe", "name": "Caf\u00e9 restau"}}, {"type": "node", "id": 10992755690, "lat": 6.4825875, "lon": 2.6645331, "tags": {"amenity": "cafe", "name": "Caf\u00e9t\u00e9ria la sant\u00e9", "phone": "96971149"}}, {"type": "node", "id": 11079062456, "lat": 6.4678487, "lon": 2.687214, "tags": {"amenity": "cafe", "name": "Chez Flora"}}, {"type": "node", "id": 11079062457, "lat": 6.4729551, "lon": 2.6848537, "tags": {"amenity": "cafe", "name": "Dieu merci"}}, {"type": "node", "id": 12146131930, "lat": 6.5467567, "lon": 2.6140517, "tags": {"amenity": "restaurant", "name": "Bar restaurant wanissas"}}, {"type": "node", "id": 12146165708, "lat": 6.5529756, "lon": 2.6017314, "tags": {"amenity": "restaurant", "name": "Vente de la viande de porc"}}, {"type": "node", "id": 12159444887, "lat": 6.5117079, "lon": 2.6033184, "tags": {"amenity": "restaurant", "name": "Plats Africains Agoun"}}, {"type": "node", "id": 12159475221, "lat": 6.507506, "lon": 2.6010209, "tags": {"amenity": "cafe", "name": "Caf\u00e9t\u00e9ria fouta djallon"}}, {"type": "node", "id": 12159477205, "lat": 6.5120499, "lon": 2.6032248, "tags": {"amenity": "restaurant", "name": "Bar restaurant chez maman tati", "phone": "97644048"}}, {"type": "way", "id": 399023817, "nodes": [4017627625, 4017627626, 4017627624, 4017627623, 4017627625], "tags": {"amenity": "restaurant", "building": "yes", "name": "Centre Songha\u00ee"}}, {"type": "way", "id": 423457560, "nodes": [4230620782, 4230620783, 4230620784, 4230620785, 4230620786, 4290488358, 4290488359, 4290488361, 4290488360, 4230620787, 4230620782], "tags": {"amenity": "restaurant", "building": "yes", "delivery": "no", "internet_access": "no", "internet_access:fee": "no", "name": "Restaurant Flash Adjarra", "opening_hours": "11:00-12:00", "smoking": "no", "stars": "4", "takeaway": "yes", "wheelchair": "no"}}]}