{"version": 0.6, "generator": "Overpass API 0.7.62.7 375dc00a", "osm3s": {"timestamp_osm_base": "2025-06-14T13:23:06Z", "copyright": "The data included in this document is from www.openstreetmap.org. The data is made available under ODbL."}, "elements": [{"type": "node", "id": 592463845, "lat": 40.8189241, "lon": 8.4834624, "tags": {"amenity": "restaurant", "mobile": "+39 334 9119058", "name": "Saanira Beach", "opening_hours": "Mo-Su 12:30-14:30+,19:30-22:30"}}, {"type": "node", "id": 624263102, "lat": 40.7836928, "lon": 8.5859337, "tags": {"amenity": "restaurant", "name": "San Vito"}}, {"type": "node", "id": 768118975, "lat": 40.8375829, "lon": 8.4010824, "tags": {"amenity": "cafe", "name": "Smile"}}, {"type": "node", "id": 768119027, "lat": 40.837937, "lon": 8.4013513, "tags": {"amenity": "cafe", "name": "Le Carr\u00e9"}}, {"type": "node", "id": 1582597914, "lat": 40.8494058, "lon": 8.6102772, "tags": {"amenity": "cafe", "name": "Bar al Puntogiusto"}}, {"type": "node", "id": 1582655020, "lat": 40.8263047, "lon": 8.5437369, "tags": {"addr:city": "Sorso", "addr:country": "IT", "addr:postcode": "07037", "addr:street": "Strada Provinciale 81", "amenity": "cafe", "name": "Bar Marina di Sorso", "operator": "Anna Sanna"}}, {"type": "node", "id": 1583591863, "lat": 40.8398124, "lon": 8.4014726, "tags": {"amenity": "cafe", "name": "Bar Punto Verde", "operator": "G.Pietro Spezzigu"}}, {"type": "node", "id": 1584101065, "lat": 40.8375316, "lon": 8.3782217, "tags": {"amenity": "cafe"}}, {"type": "node", "id": 1891309904, "lat": 40.74059, "lon": 8.1483013, "tags": {"amenity": "cafe", "name": "El Sombrero", "survey:date": "2024-08-07"}}, {"type": "node", "id": 1911742925, "lat": 40.8373874, "lon": 8.4010771, "tags": {"amenity": "cafe", "name": "Acciaro"}}, {"type": "node", "id": 1911742926, "lat": 40.8385554, "lon": 8.4022962, "tags": {"amenity": "cafe", "name": "Cantharos"}}, {"type": "node", "id": 1911742930, "lat": 40.8377392, "lon": 8.4092882, "tags": {"amenity": "cafe", "name": "Lido Bar"}}, {"type": "node", "id": 1911742933, "lat": 40.838351, "lon": 8.4031423, "tags": {"amenity": "cafe", "name": "Luna Blu"}}, {"type": "node", "id": 1911743022, "lat": 40.8384372, "lon": 8.4096716, "tags": {"amenity": "cafe", "name": "Scogliolungo"}}, {"type": "node", "id": 1959348022, "lat": 40.8436643, "lon": 8.6015615, "tags": {"addr:city": "Sorso", "addr:country": "IT", "addr:postcode": "07037", "addr:street": "Reg. Marritza", "amenity": "restaurant", "name": "La Chicca Piperita"}}, {"type": "node", "id": 1959348044, "lat": 40.8282902, "lon": 8.5516837}, {"type": "node", "id": 1959348045, "lat": 40.8283365, "lon": 8.5519004}, {"type": "node", "id": 1959348048, "lat": 40.8284407, "lon": 8.5515971}, {"type": "node", "id": 1959348049, "lat": 40.8284426, "lon": 8.5518622}, {"type": "node", "id": 1959348051, "lat": 40.8285004, "lon": 8.5516098}, {"type": "node", "id": 1959348053, "lat": 40.8284947, "lon": 8.5518826}, {"type": "node", "id": 1959348055, "lat": 40.8285467, "lon": 8.5517143}, {"type": "node", "id": 1959348068, "lat": 40.8431186, "lon": 8.6026941, "tags": {"addr:city": "Sorso", "addr:country": "IT", "addr:postcode": "07037", "addr:street": "Reg. Marritza", "amenity": "restaurant"}}, {"type": "node", "id": 2009605951, "lat": 40.7968284, "lon": 8.5729937, "tags": {"amenity": "cafe"}}, {"type": "node", "id": 2009606348, "lat": 40.7963631, "lon": 8.5737284, "tags": {"amenity": "cafe", "name": "Bar della Stazione"}}, {"type": "node", "id": 2060575256, "lat": 40.7885553, "lon": 8.5888807, "tags": {"amenity": "restaurant", "cuisine": "pizza", "name": "Zanzibar"}}, {"type": "node", "id": 2060622344, "lat": 40.7889862, "lon": 8.5940457, "tags": {"amenity": "cafe", "cuisine": "ice_cream", "name": "Pasticceria"}}, {"type": "node", "id": 2311098202, "lat": 40.8327647, "lon": 8.4010626, "tags": {"addr:postcode": "07046", "amenity": "restaurant", "cuisine": "mediterranean;pizza;pasta;italian", "diet:vegetarian": "yes", "name": "San Gavino", "website": "https://linktr.ee/sangavino", "website:menu": "https://d1fdloi71mui9q.cloudfront.net/xdE5KcI6RsCuBYtMn7Gi_Digital_Men%C3%B9_San_Gavino.pdf"}}, {"type": "node", "id": 2517682755, "lat": 40.8381711, "lon": 8.4019939, "tags": {"amenity": "restaurant", "name": "Piazza Garibaldi"}}, {"type": "node", "id": 2517682758, "lat": 40.8386766, "lon": 8.4020101, "tags": {"addr:housenumber": "12", "addr:street": "Via Mare", "amenity": "cafe", "name": "Fal\u00f2 Caf\u00e8"}}, {"type": "node", "id": 2517682894, "lat": 40.8385548, "lon": 8.4010996, "tags": {"amenity": "restaurant", "name": "Cristallo", "name:it": "Cristallo"}}, {"type": "node", "id": 2578283754, "lat": 40.8202054, "lon": 8.4943471}, {"type": "node", "id": 2578283755, "lat": 40.820125, "lon": 8.4942096}, {"type": "node", "id": 2578283756, "lat": 40.8200603, "lon": 8.4942756}, {"type": "node", "id": 2578283757, "lat": 40.8201407, "lon": 8.4944131}, {"type": "node", "id": 2833863228, "lat": 40.8370735, "lon": 8.2454269}, {"type": "node", "id": 2833863230, "lat": 40.8370983, "lon": 8.2455794}, {"type": "node", "id": 2833863247, "lat": 40.837242, "lon": 8.2453789}, {"type": "node", "id": 2833863249, "lat": 40.8372668, "lon": 8.2455316}, {"type": "node", "id": 2833863270, "lat": 40.8375423, "lon": 8.2454501}, {"type": "node", "id": 2833863274, "lat": 40.8375651, "lon": 8.2456063}, {"type": "node", "id": 2833863283, "lat": 40.8376048, "lon": 8.2454629}, {"type": "node", "id": 2833863287, "lat": 40.8376548, "lon": 8.2454501}, {"type": "node", "id": 2833863291, "lat": 40.8376736, "lon": 8.2455786}, {"type": "node", "id": 2833890889, "lat": 40.9676469, "lon": 8.2069209}, {"type": "node", "id": 2833890900, "lat": 40.9677094, "lon": 8.2067931}, {"type": "node", "id": 2833890901, "lat": 40.9677154, "lon": 8.2067706}, {"type": "node", "id": 2833890902, "lat": 40.9677185, "lon": 8.2069798}, {"type": "node", "id": 2833890905, "lat": 40.967721, "lon": 8.2067856}, {"type": "node", "id": 2833890912, "lat": 40.9677492, "lon": 8.206915}, {"type": "node", "id": 2833890930, "lat": 40.9678289, "lon": 8.2066979}, {"type": "node", "id": 2833890931, "lat": 40.9678356, "lon": 8.2067165}, {"type": "node", "id": 2833890937, "lat": 40.9678666, "lon": 8.2068274}, {"type": "node", "id": 2833890940, "lat": 40.9678746, "lon": 8.2066919}, {"type": "node", "id": 2833890941, "lat": 40.9678755, "lon": 8.2066694}, {"type": "node", "id": 2833890944, "lat": 40.9679326, "lon": 8.2068552}, {"type": "node", "id": 2833890949, "lat": 40.9679689, "lon": 8.2067101}, {"type": "node", "id": 2834194092, "lat": 40.8190413, "lon": 8.4784093}, {"type": "node", "id": 2834194207, "lat": 40.8190471, "lon": 8.4784553}, {"type": "node", "id": 2834194280, "lat": 40.8190788, "lon": 8.4784465}, {"type": "node", "id": 2834194305, "lat": 40.8190956, "lon": 8.4783958}, {"type": "node", "id": 2834194332, "lat": 40.8191095, "lon": 8.4790504}, {"type": "node", "id": 2834194344, "lat": 40.8191152, "lon": 8.4786241}, {"type": "node", "id": 2834194356, "lat": 40.8191226, "lon": 8.4786224}, {"type": "node", "id": 2834194367, "lat": 40.819129, "lon": 8.4789608}, {"type": "node", "id": 2834194372, "lat": 40.8191308, "lon": 8.4786736}, {"type": "node", "id": 2834194380, "lat": 40.8191361, "lon": 8.4790304}, {"type": "node", "id": 2834194545, "lat": 40.8191943, "lon": 8.4786679}, {"type": "node", "id": 2834194553, "lat": 40.8192025, "lon": 8.478756}, {"type": "node", "id": 2834194564, "lat": 40.8192088, "lon": 8.4787532}, {"type": "node", "id": 2834194585, "lat": 40.8192186, "lon": 8.4789484}, {"type": "node", "id": 2834488013, "lat": 40.835991, "lon": 8.3789339}, {"type": "node", "id": 2834488800, "lat": 40.8359718, "lon": 8.3793968}, {"type": "node", "id": 2834489351, "lat": 40.8360473, "lon": 8.3794023}, {"type": "node", "id": 2834489415, "lat": 40.8360665, "lon": 8.3789393}, {"type": "node", "id": 2834501533, "lat": 40.8383401, "lon": 8.4096471}, {"type": "node", "id": 2834501546, "lat": 40.8383507, "lon": 8.4098079}, {"type": "node", "id": 2834501580, "lat": 40.8384163, "lon": 8.4098007}, {"type": "node", "id": 2834501594, "lat": 40.8384305, "lon": 8.4100878}, {"type": "node", "id": 2834501596, "lat": 40.8384363, "lon": 8.4102085}, {"type": "node", "id": 2834501597, "lat": 40.8384374, "lon": 8.4102335}, {"type": "node", "id": 2834501600, "lat": 40.8384403, "lon": 8.4100877}, {"type": "node", "id": 2834501705, "lat": 40.8384458, "lon": 8.4102084}, {"type": "node", "id": 2834501716, "lat": 40.838458, "lon": 8.4102074}, {"type": "node", "id": 2834501717, "lat": 40.8384588, "lon": 8.4102312}, {"type": "node", "id": 2834501768, "lat": 40.8385073, "lon": 8.409634}, {"type": "node", "id": 2834501793, "lat": 40.8385523, "lon": 8.4101995}, {"type": "node", "id": 2834502243, "lat": 40.8390118, "lon": 8.4027658}, {"type": "node", "id": 2834502246, "lat": 40.8390181, "lon": 8.4028014}, {"type": "node", "id": 2834502253, "lat": 40.8390419, "lon": 8.4027054}, {"type": "node", "id": 2834502257, "lat": 40.8390694, "lon": 8.4026988}, {"type": "node", "id": 2834502267, "lat": 40.8390918, "lon": 8.4026541}, {"type": "node", "id": 2834502274, "lat": 40.8391192, "lon": 8.4026482}, {"type": "node", "id": 2834502276, "lat": 40.8391262, "lon": 8.4028999}, {"type": "node", "id": 2834502282, "lat": 40.839153, "lon": 8.4028951}, {"type": "node", "id": 2834502289, "lat": 40.839181, "lon": 8.4027999}, {"type": "node", "id": 2834502292, "lat": 40.8391866, "lon": 8.4028347}, {"type": "node", "id": 2834502298, "lat": 40.8391981, "lon": 8.4027196}, {"type": "node", "id": 2834502300, "lat": 40.8392038, "lon": 8.4027538}, {"type": "node", "id": 2884419833, "lat": 40.7783898, "lon": 8.4787011}, {"type": "node", "id": 2884419873, "lat": 40.7784709, "lon": 8.4788132}, {"type": "node", "id": 2884419874, "lat": 40.7784782, "lon": 8.4788041}, {"type": "node", "id": 2884419884, "lat": 40.7785034, "lon": 8.4785587}, {"type": "node", "id": 2884419913, "lat": 40.7785847, "lon": 8.4789512}, {"type": "node", "id": 2884419916, "lat": 40.7785924, "lon": 8.4789415}, {"type": "node", "id": 2884419933, "lat": 40.7786278, "lon": 8.4787306}, {"type": "node", "id": 2884419937, "lat": 40.7786362, "lon": 8.479002}, {"type": "node", "id": 2884419938, "lat": 40.7786378, "lon": 8.478718}, {"type": "node", "id": 2884419948, "lat": 40.7786498, "lon": 8.478871}, {"type": "node", "id": 2884419951, "lat": 40.7786558, "lon": 8.4788014}, {"type": "node", "id": 2884419967, "lat": 40.778678, "lon": 8.4787736}, {"type": "node", "id": 2884419968, "lat": 40.7786793, "lon": 8.4788339}, {"type": "node", "id": 2884419977, "lat": 40.7786931, "lon": 8.4789308}, {"type": "node", "id": 3512654345, "lat": 41.080485, "lon": 8.3360049, "tags": {"amenity": "restaurant", "name": "L'Asino Bianco", "source": "survey"}}, {"type": "node", "id": 3605338199, "lat": 40.8775146, "lon": 8.2645676, "tags": {"amenity": "cafe", "name": "I Fenicotteri"}}, {"type": "node", "id": 3609637736, "lat": 40.8207829, "lon": 8.503487, "tags": {"amenity": "cafe"}}, {"type": "node", "id": 3609649713, "lat": 40.829624, "lon": 8.555734, "tags": {"amenity": "cafe", "name": "Camboni"}}, {"type": "node", "id": 3609649716, "lat": 40.8188408, "lon": 8.4679155, "tags": {"amenity": "cafe", "name": "Titanic", "wheelchair": "yes"}}, {"type": "node", "id": 3621926153, "lat": 40.9360356, "lon": 8.2262686, "tags": {"amenity": "restaurant", "cuisine": "italian;regional", "name": "Lina"}}, {"type": "node", "id": 3621927938, "lat": 40.9383802, "lon": 8.226588, "tags": {"amenity": "restaurant", "cuisine": "italian", "name": "Il Portico"}}, {"type": "node", "id": 3626512262, "lat": 40.953839, "lon": 8.2224734, "tags": {"amenity": "restaurant", "cuisine": "italian", "name": "Valentina"}}, {"type": "node", "id": 3641645349, "lat": 40.9688287, "lon": 8.2060778}, {"type": "node", "id": 3641645350, "lat": 40.9688439, "lon": 8.2060327}, {"type": "node", "id": 3641645351, "lat": 40.9688648, "lon": 8.206045}, {"type": "node", "id": 3641645352, "lat": 40.9688742, "lon": 8.2060171}, {"type": "node", "id": 3641645354, "lat": 40.9688984, "lon": 8.2061188}, {"type": "node", "id": 3641645355, "lat": 40.9689229, "lon": 8.2060457}, {"type": "node", "id": 3656777459, "lat": 40.9591934, "lon": 8.2133979}, {"type": "node", "id": 3656777460, "lat": 40.9592293, "lon": 8.2133334}, {"type": "node", "id": 3656777462, "lat": 40.9592412, "lon": 8.2134444}, {"type": "node", "id": 3656777464, "lat": 40.9592628, "lon": 8.2133892}, {"type": "node", "id": 3656777466, "lat": 40.9592687, "lon": 8.2133949}, {"type": "node", "id": 3656777468, "lat": 40.9592712, "lon": 8.2133742}, {"type": "node", "id": 3752576382, "lat": 40.9381796, "lon": 8.2261891, "tags": {"amenity": "restaurant", "name": "L'Ormeggio"}}, {"type": "node", "id": 4215106991, "lat": 40.9871742, "lon": 8.2391222}, {"type": "node", "id": 4215106992, "lat": 40.9871653, "lon": 8.2390648}, {"type": "node", "id": 4215106993, "lat": 40.9871085, "lon": 8.2390346}, {"type": "node", "id": 4215106994, "lat": 40.9870899, "lon": 8.2390963}, {"type": "node", "id": 4215144600, "lat": 40.9378919, "lon": 8.2293231}, {"type": "node", "id": 4215144601, "lat": 40.9378027, "lon": 8.2293392}, {"type": "node", "id": 4215144602, "lat": 40.9377275, "lon": 8.2293702}, {"type": "node", "id": 4215144603, "lat": 40.9377906, "lon": 8.229425}, {"type": "node", "id": 4215144604, "lat": 40.9378311, "lon": 8.229425}, {"type": "node", "id": 4215151621, "lat": 40.937981, "lon": 8.2287008}, {"type": "node", "id": 4215151622, "lat": 40.9378878, "lon": 8.2286687}, {"type": "node", "id": 4215151623, "lat": 40.9378149, "lon": 8.2290924}, {"type": "node", "id": 4215151624, "lat": 40.9378757, "lon": 8.2291032}, {"type": "node", "id": 4215151625, "lat": 40.9379122, "lon": 8.229071}, {"type": "node", "id": 4215151626, "lat": 40.9379446, "lon": 8.229012}, {"type": "node", "id": 4215626130, "lat": 40.9368829, "lon": 8.2278603, "tags": {"amenity": "cafe", "name": "La Piazzetta"}}, {"type": "node", "id": 4215626131, "lat": 40.9368181, "lon": 8.2280373, "tags": {"amenity": "cafe", "name": "La Piazzetta"}}, {"type": "node", "id": 4271153957, "lat": 40.9576098, "lon": 8.2194847, "tags": {"amenity": "restaurant", "cuisine": "regional", "name": "L'Ancora"}}, {"type": "node", "id": 4305031483, "lat": 40.9374135, "lon": 8.2288595, "tags": {"amenity": "restaurant", "name": "Silvestrino"}}, {"type": "node", "id": 4361232796, "lat": 41.0619584, "lon": 8.2951467, "tags": {"amenity": "cafe", "name": "Cala Reale", "outdoor_seating": "yes"}}, {"type": "node", "id": 4361265694, "lat": 41.0618765, "lon": 8.2949818, "tags": {"amenity": "restaurant"}}, {"type": "node", "id": 4361390604, "lat": 40.9398538, "lon": 8.2328884, "tags": {"amenity": "cafe"}}, {"type": "node", "id": 4377543909, "lat": 40.8375341, "lon": 8.4003728, "tags": {"addr:city": "Portotorres", "addr:housenumber": "13", "addr:postcode": "07046", "addr:street": "Via Domenico Alberto Azuni", "amenity": "restaurant", "name": "Pianeta pizza", "name:it": "Pianeta pizza", "source": "Regione Autonoma della Sardegna (www.sardegnageoportale.it)"}}, {"type": "node", "id": 4377549300, "lat": 40.8332931, "lon": 8.4012433, "tags": {"addr:city": "Portotorres", "addr:housenumber": "166", "addr:postcode": "07046", "addr:street": "Corso Vittorio Emanuele Secondo di Savoia", "amenity": "restaurant", "name": "Pepito pizza", "name:it": "Pepito pizza", "source": "Regione Autonoma della Sardegna (www.sardegnageoportale.it)"}}, {"type": "node", "id": 4377587800, "lat": 40.8384086, "lon": 8.4013417, "tags": {"addr:city": "Portotorres", "addr:housenumber": "3", "addr:postcode": "07046", "addr:street": "Piazza 20 Settembre", "amenity": "restaurant", "cuisine": "burger;italian;pizza", "name": "Kopof\u00e0", "phone": "+39 371 381 7237", "source": "Regione Autonoma della Sardegna (www.sardegnageoportale.it)", "website": "https://www.facebook.com/pages/category/Pizza-Place/Kopof%C3%A0-paninoteca-pizzeria-104435124243367/"}}, {"type": "node", "id": 4377592430, "lat": 40.8381878, "lon": 8.4026601, "tags": {"addr:city": "Portotorres", "addr:housenumber": "38", "addr:postcode": "07046", "addr:street": "Via Roma", "amenity": "restaurant", "name": "Fogu"}}, {"type": "node", "id": 4377609446, "lat": 40.8375484, "lon": 8.4043734, "tags": {"addr:city": "Portotorres", "addr:housenumber": "34", "addr:postcode": "07046", "addr:street": "Via Galileo Galilei", "amenity": "restaurant", "name": "La tavolozza", "name:it": "La tavolozza", "source": "Regione Autonoma della Sardegna (www.sardegnageoportale.it)"}}, {"type": "node", "id": 4377672343, "lat": 40.8381316, "lon": 8.4119322, "tags": {"addr:city": "Portotorres", "addr:housenumber": "50", "addr:postcode": "07046", "addr:street": "Via Lungomare Balai", "amenity": "restaurant", "name": "Il Galeone", "source": "Regione Autonoma della Sardegna (www.sardegnageoportale.it)"}}, {"type": "node", "id": 4377704099, "lat": 40.8358689, "lon": 8.4012843, "tags": {"addr:city": "Portotorres", "addr:housenumber": "83", "addr:postcode": "07046", "addr:street": "Corso Vittorio Emanuele Secondo di Savoia", "amenity": "restaurant", "source": "Regione Autonoma della Sardegna (www.sardegnageoportale.it)"}}, {"type": "node", "id": 4377718688, "lat": 40.8359132, "lon": 8.4012873, "tags": {"addr:city": "Portotorres", "addr:housenumber": "81", "addr:postcode": "07046", "addr:street": "Corso Vittorio Emanuele Secondo di Savoia", "amenity": "restaurant", "name": "La medusa", "name:it": "La medusa", "source": "Regione Autonoma della Sardegna (www.sardegnageoportale.it)"}}, {"type": "node", "id": 4377725506, "lat": 40.8361373, "lon": 8.4011065, "tags": {"addr:city": "Portotorres", "addr:housenumber": "70", "addr:postcode": "07046", "addr:street": "Corso Vittorio Emanuele Secondo di Savoia", "amenity": "restaurant", "cuisine": "italian_pizza;pizza", "name": "La Trana", "source": "Regione Autonoma della Sardegna (www.sardegnageoportale.it)"}}, {"type": "node", "id": 4524691186, "lat": 40.935908, "lon": 8.2295804, "tags": {"addr:city": "Stintino", "addr:housenumber": "57", "addr:postcode": "07040", "addr:street": "Lungomare Cristoforo Colombo", "amenity": "restaurant", "contact:facebook": "https://www.facebook.com/profile.php?id=100057768725144", "cuisine": "seafood;italian;sandwich;regional", "description": "Spaghetteria, Snack bar, Paninoteca", "email": "skipperstintino@libero.it", "name": "Skipper", "outdoor_seating": "yes", "phone": "+39 079 523 460", "website": "http://www.skipperstintino.it"}}, {"type": "node", "id": 4927370824, "lat": 40.8339959, "lon": 8.4020807, "tags": {"amenity": "cafe", "name": "Bar galleria", "name:it": "Bar galleria"}}, {"type": "node", "id": 4927379426, "lat": 40.8348967, "lon": 8.4016359, "tags": {"amenity": "cafe", "name": "Bar 2000", "name:it": "Bar 2000"}}, {"type": "node", "id": 4927379428, "lat": 40.8382522, "lon": 8.4021492, "tags": {"amenity": "cafe", "name": "Mabo"}}, {"type": "node", "id": 4927379429, "lat": 40.8381823, "lon": 8.4017345, "tags": {"amenity": "cafe"}}, {"type": "node", "id": 4927380422, "lat": 40.8380609, "lon": 8.4011305, "tags": {"amenity": "cafe"}}, {"type": "node", "id": 4927380821, "lat": 40.8367853, "lon": 8.4017623, "tags": {"amenity": "restaurant", "name": "Bar sport"}}, {"type": "node", "id": 4929461025, "lat": 40.8401154, "lon": 8.4165694, "tags": {"amenity": "restaurant", "name": "L'ostrica", "name:it": "L'ostrica"}}, {"type": "node", "id": 4929461026, "lat": 40.840276, "lon": 8.4161465, "tags": {"amenity": "cafe", "name": "Tropical", "name:it": "Tropical"}}, {"type": "node", "id": 4929477925, "lat": 40.8343379, "lon": 8.3999189, "tags": {"amenity": "cafe"}}, {"type": "node", "id": 4929477930, "lat": 40.8378574, "lon": 8.4071873, "tags": {"amenity": "cafe", "name": "Smeraldo caf\u00e8", "name:it": "Smeraldo caf\u00e8"}}, {"type": "node", "id": 4929477933, "lat": 40.8368117, "lon": 8.4008909, "tags": {"amenity": "cafe"}}, {"type": "node", "id": 4931477521, "lat": 40.8340614, "lon": 8.401966, "tags": {"amenity": "restaurant", "name": "Il gobbo", "name:it": "Il gobbo"}}, {"type": "node", "id": 4931477528, "lat": 40.8330857, "lon": 8.4157605, "tags": {"amenity": "cafe", "name": "Aladdin", "name:it": "Aladdin"}}, {"type": "node", "id": 4931477622, "lat": 40.8253062, "lon": 8.4120906, "tags": {"amenity": "cafe"}}, {"type": "node", "id": 4931477623, "lat": 40.82932, "lon": 8.4131181, "tags": {"amenity": "restaurant", "cuisine": "pizza", "name": "Pizzeria Pablito", "name:it": "Pizzeria Pablito"}}, {"type": "node", "id": 4931477824, "lat": 40.8314058, "lon": 8.4163729, "tags": {"amenity": "restaurant", "cuisine": "pizza", "name": "Pizzeria Teseo", "name:it": "Pizzeria Teseo"}}, {"type": "node", "id": 4931477825, "lat": 40.8332622, "lon": 8.4157373, "tags": {"amenity": "restaurant", "cuisine": "pizza", "name": "Pizzeria", "name:it": "Pizzeria"}}, {"type": "node", "id": 4949540022, "lat": 40.8373674, "lon": 8.4035899, "tags": {"amenity": "restaurant", "name": "Rosa dei venti", "name:it": "Rosa dei venti"}}, {"type": "node", "id": 5008912323, "lat": 40.8339445, "lon": 8.5721115, "tags": {"addr:postcode": "07037", "addr:street": "Discesa a mare 7, Sorso", "amenity": "restaurant", "internet_access": "wlan", "name": "Al Primo Ristobar", "name:it": "Al Primo Ristobar", "opening_hours": "Mo-Su 09:00-23:00"}}, {"type": "node", "id": 5171719058, "lat": 40.9676657, "lon": 8.204475, "tags": {"amenity": "restaurant", "name": "Ristorante Capo Falcone"}}, {"type": "node", "id": 5171719059, "lat": 40.9678844, "lon": 8.2044106, "tags": {"amenity": "restaurant", "name": "Chameleon Clubbing", "wheelchair": "yes"}}, {"type": "node", "id": 5482271540, "lat": 40.8032727, "lon": 8.578662, "tags": {"amenity": "cafe"}}, {"type": "node", "id": 5482271567, "lat": 40.7991957, "lon": 8.5806951, "tags": {"amenity": "cafe"}}, {"type": "node", "id": 5482271568, "lat": 40.7993774, "lon": 8.5809459, "tags": {"amenity": "cafe"}}, {"type": "node", "id": 5688377519, "lat": 40.9375666, "lon": 8.225917, "tags": {"amenity": "cafe", "name": "Il Veliero"}}, {"type": "node", "id": 5954222585, "lat": 40.9363318, "lon": 8.2294354, "tags": {"addr:housenumber": "16", "addr:postcode": "07040", "addr:street": "Via Marco Polo", "amenity": "restaurant", "cuisine": "italian", "name": "Da Antinio", "name:de": "Da Antonio", "name:en": "Da Antonio", "name:it": "Da Antonio", "phone": "079523077"}}, {"type": "node", "id": 6327533772, "lat": 40.7395519, "lon": 8.1480035, "tags": {"amenity": "cafe"}}, {"type": "node", "id": 6327542625, "lat": 40.7381125, "lon": 8.1484554, "tags": {"amenity": "restaurant"}}, {"type": "node", "id": 6327564644, "lat": 40.8686988, "lon": 8.2365065, "tags": {"amenity": "restaurant", "name": "La Perla del Golfo"}}, {"type": "node", "id": 6340619586, "lat": 40.836873, "lon": 8.2445571, "tags": {"addr:city": "Pozzo San Nicola", "addr:housenumber": "5", "addr:postcode": "07040", "addr:street": "Piazza Leonardo da Vinci", "amenity": "cafe", "name": "Bar Mercurio", "tobacco": "yes"}}, {"type": "node", "id": 6694009985, "lat": 40.7479905, "lon": 8.1900758, "tags": {"amenity": "restaurant", "cuisine": "italian_pizza", "name": "Punta e.. a capo!!!"}}, {"type": "node", "id": 6793754782, "lat": 40.798395, "lon": 8.5729039, "tags": {"addr:housenumber": "14", "addr:street": "Via Ferdinando Magellano", "amenity": "restaurant", "name": "La Giara"}}, {"type": "node", "id": 6817485487, "lat": 40.8288846, "lon": 8.5534397, "tags": {"amenity": "cafe"}}, {"type": "node", "id": 7821055520, "lat": 40.8387908, "lon": 8.4164229}, {"type": "node", "id": 7821055521, "lat": 40.8386954, "lon": 8.4165584}, {"type": "node", "id": 7821055522, "lat": 40.8388588, "lon": 8.4167545}, {"type": "node", "id": 7821055523, "lat": 40.8389515, "lon": 8.4166179}, {"type": "node", "id": 8865958766, "lat": 40.9474704, "lon": 8.2249134}, {"type": "node", "id": 8865958767, "lat": 40.947515, "lon": 8.2250641}, {"type": "node", "id": 8865958768, "lat": 40.947368, "lon": 8.2251404}, {"type": "node", "id": 8865958769, "lat": 40.9473234, "lon": 8.2249896}, {"type": "node", "id": 9676888769, "lat": 40.7478634, "lon": 8.1900643, "tags": {"amenity": "cafe", "name": "Belli e ribelli"}}, {"type": "node", "id": 9851195457, "lat": 40.9871522, "lon": 8.2391117}, {"type": "node", "id": 9851195458, "lat": 40.9871681, "lon": 8.2391439}, {"type": "node", "id": 9851195459, "lat": 40.9871291, "lon": 8.2391257}, {"type": "node", "id": 9851195460, "lat": 40.9871317, "lon": 8.2391167}, {"type": "node", "id": 9882956613, "lat": 40.8310613, "lon": 8.4052326, "tags": {"amenity": "cafe", "name": "Millenium"}}, {"type": "node", "id": 9883011912, "lat": 40.8286781, "lon": 8.4070416, "tags": {"addr:housenumber": "137", "addr:street": "via Sassari", "amenity": "restaurant", "name": "Enogastronomia Porto di Bacco"}}, {"type": "node", "id": 9883021015, "lat": 40.8280461, "lon": 8.4074968, "tags": {"amenity": "cafe", "name": "Turritano"}}, {"type": "node", "id": 9883021016, "lat": 40.8359569, "lon": 8.416214, "tags": {"amenity": "cafe", "name": "El Golfo"}}, {"type": "node", "id": 9883021100, "lat": 40.8270029, "lon": 8.4094924, "tags": {"amenity": "cafe", "name": "Domy"}}, {"type": "node", "id": 9883022670, "lat": 40.8343516, "lon": 8.4054748, "tags": {"amenity": "cafe", "name": "Unida"}}, {"type": "node", "id": 9883032174, "lat": 40.8268771, "lon": 8.4096962, "tags": {"amenity": "restaurant", "cuisine": "pizza", "name": "La roccia"}}, {"type": "node", "id": 9883033710, "lat": 40.8314807, "lon": 8.406566, "tags": {"amenity": "cafe", "name": "Artemisa Artcafe"}}, {"type": "node", "id": 9883040263, "lat": 40.8308752, "lon": 8.4104311, "tags": {"amenity": "cafe", "name": "Orchidea"}}, {"type": "node", "id": 9883047417, "lat": 40.8315525, "lon": 8.4061888, "tags": {"amenity": "restaurant", "name": "Il Carillon"}}, {"type": "node", "id": 9920413534, "lat": 40.8808549, "lon": 8.2367817, "tags": {"amenity": "restaurant", "name": "Sa Pintadera"}}, {"type": "node", "id": 9937518597, "lat": 40.8377875, "lon": 8.4020301, "tags": {"amenity": "restaurant", "name": "Il Cicchetto"}}, {"type": "node", "id": 9966859836, "lat": 40.8419114, "lon": 8.5926386, "tags": {"amenity": "cafe"}}, {"type": "node", "id": 10538884165, "lat": 40.8093111, "lon": 8.1986768, "tags": {"amenity": "restaurant", "cuisine": "regional", "name": "Agriturismo il Canneto"}}, {"type": "node", "id": 10538950865, "lat": 40.9376366, "lon": 8.2262519, "tags": {"amenity": "restaurant", "cuisine": "fish", "name": "La Tonnara di Stintino"}}, {"type": "node", "id": 11262123140, "lat": 40.8383894, "lon": 8.4030114, "tags": {"amenity": "restaurant", "name": "Porto Pizza"}}, {"type": "node", "id": 11262123437, "lat": 40.8380731, "lon": 8.4038411, "tags": {"amenity": "restaurant", "name": "Le Paranze"}}, {"type": "node", "id": 11487074416, "lat": 40.7878427, "lon": 8.5885484, "tags": {"amenity": "restaurant", "cuisine": "pizza", "name": "Salamagna 196"}}, {"type": "node", "id": 12005614015, "lat": 40.9378757, "lon": 8.2292982}, {"type": "node", "id": 12005614016, "lat": 40.9378342, "lon": 8.2293272}, {"type": "node", "id": 12005614017, "lat": 40.9377335, "lon": 8.2293448}, {"type": "node", "id": 12005614018, "lat": 40.9377709, "lon": 8.2293448}, {"type": "node", "id": 12539523631, "lat": 40.8376008, "lon": 8.2454351}, {"type": "node", "id": 12618541452, "lat": 40.818838, "lon": 8.4597605, "tags": {"amenity": "cafe", "name": "Bar La Torre"}}, {"type": "node", "id": 12628902002, "lat": 40.8376674, "lon": 8.4034894, "tags": {"amenity": "restaurant", "cuisine": "italian_pizza;pizza", "name": "Solum Pizzeria"}}, {"type": "node", "id": 12630203202, "lat": 40.9369952, "lon": 8.226476, "tags": {"addr:housenumber": "3", "addr:street": "Lungomare Cristoforo Colombo", "amenity": "restaurant", "name": "La Calanca"}}, {"type": "node", "id": 12630709601, "lat": 40.8372018, "lon": 8.3996785, "tags": {"amenity": "cafe", "name": "Glamour Caff\u00e8"}}, {"type": "node", "id": 12630717601, "lat": 40.8371109, "lon": 8.4006315, "tags": {"addr:housenumber": "20", "addr:street": "Via Josto", "amenity": "cafe", "name": "Caff\u00e8 Microtorrefazione"}}, {"type": "node", "id": 12899710165, "lat": 40.8190618, "lon": 8.4784512}, {"type": "node", "id": 12899710177, "lat": 40.8380754, "lon": 8.3985315, "tags": {"amenity": "cafe"}}, {"type": "way", "id": 185348386, "nodes": [1959348044, 1959348045, 1959348049, 1959348053, 1959348055, 1959348051, 1959348048, 1959348044], "tags": {"addr:city": "Sorso", "addr:country": "IT", "addr:place": "Marina di Sorso", "addr:postcode": "07037", "amenity": "restaurant", "building": "yes", "name": "La Risacca", "source": "Bing"}}, {"type": "way", "id": 251642394, "nodes": [2578283754, 2578283755, 2578283756, 2578283757, 2578283754], "tags": {"amenity": "cafe", "building": "yes", "cuisine": "coffee_shop;tea", "name": "Chicco Bar"}}, {"type": "way", "id": 279142763, "nodes": [2833890912, 2833890902, 2833890889, 2833890900, 2833890905, 2833890901, 2833890930, 2833890931, 2833890940, 2833890941, 2833890949, 2833890944, 2833890937, 2833890912], "tags": {"amenity": "restaurant", "building": "yes", "name": "La Pelosetta"}}, {"type": "way", "id": 279143511, "nodes": [2833863230, 2833863228, 2833863247, 2833863249, 2833863230], "tags": {"amenity": "restaurant", "amenity_1": "bar", "building": "yes", "name": "Ristorante da Franco"}}, {"type": "way", "id": 279144210, "nodes": [2833863274, 2833863270, 12539523631, 2833863283, 2833863287, 2833863291, 2833863274], "tags": {"amenity": "restaurant", "building": "commercial", "building:levels": "2", "height": "6", "name": "Trattoria da Antonio e Margherita"}}, {"type": "way", "id": 279179685, "nodes": [2834194367, 2834194380, 2834194332, 2834194280, 12899710165, 2834194207, 2834194092, 2834194305, 2834194344, 2834194356, 2834194372, 2834194545, 2834194553, 2834194564, 2834194585, 2834194367], "tags": {"amenity": "restaurant", "building": "yes", "mobile": "+39 339 5410242", "name": "Il Pescatore", "opening_hours": "Mo-Su 12:30-15:00,19:30-23:00", "operator": "Marco Fogarizzu & C.", "outdoor_seating": "yes"}}, {"type": "way", "id": 279209802, "nodes": [2834502289, 2834502292, 2834502282, 2834502276, 2834502246, 2834502243, 2834502253, 2834502257, 2834502267, 2834502274, 2834502298, 2834502300, 2834502289], "tags": {"amenity": "restaurant", "brand": "Autogrill", "brand:wikidata": "Q786790", "building": "yes", "cuisine": "italian;regional", "name": "Autogrill", "operator": "G.Pietro Spezzigu", "outdoor_seating": "yes"}}, {"type": "way", "id": 279210040, "nodes": [2834501716, 2834501717, 2834501597, 2834501596, 2834501705, 2834501600, 2834501594, 2834501580, 2834501546, 2834501533, 2834501768, 2834501793, 2834501716], "tags": {"amenity": "restaurant", "building": "yes", "name": "Scogliolungo"}}, {"type": "way", "id": 279212335, "nodes": [2834489351, 2834488800, 2834488013, 2834489415, 2834489351], "tags": {"amenity": "restaurant", "building": "yes", "name": "Ristorante \"La Marinella\""}}, {"type": "way", "id": 284731831, "nodes": [2884419937, 2884419916, 2884419913, 2884419874, 2884419873, 2884419833, 2884419884, 2884419933, 2884419938, 2884419967, 2884419951, 2884419968, 2884419948, 2884419977, 2884419937], "tags": {"amenity": "restaurant", "building": "yes"}}, {"type": "way", "id": 359440153, "nodes": [3641645355, 3641645354, 3641645349, 3641645350, 3641645351, 3641645352, 3641645355], "tags": {"amenity": "cafe", "building": "yes"}}, {"type": "way", "id": 361163287, "nodes": [3656777462, 3656777459, 3656777460, 3656777468, 3656777464, 3656777466, 3656777462], "tags": {"amenity": "cafe", "building": "yes", "cuisine": "regional", "description": "Piccolo spaccio bevande con terrazza", "name": "Yellow"}}, {"type": "way", "id": 421765439, "nodes": [4215106991, 9851195457, 4215106992, 4215106993, 4215106994, 9851195460, 9851195459, 9851195458, 4215106991], "tags": {"amenity": "cafe", "building": "yes", "name": "Fornelli"}}, {"type": "way", "id": 421770167, "nodes": [4215144600, 12005614015, 12005614016, 4215144601, 12005614018, 12005614017, 4215144602, 4215144603, 4215144604, 4215144600], "tags": {"amenity": "restaurant", "building": "yes", "cuisine": "regional", "name": "Lu Fanali"}}, {"type": "way", "id": 421770322, "nodes": [4215151621, 4215151622, 4215151623, 4215151624, 4215151625, 4215151626, 4215151621], "tags": {"amenity": "restaurant", "building": "yes", "cuisine": "regional", "name": "Lu Fanali"}}, {"type": "way", "id": 837966455, "nodes": [7821055520, 7821055521, 7821055522, 7821055523, 7821055520], "tags": {"amenity": "cafe", "building": "yes"}}, {"type": "way", "id": 958197613, "nodes": [8865958766, 8865958767, 8865958768, 8865958769, 8865958766], "tags": {"amenity": "restaurant", "building": "yes", "name": "Trattoria Chiringuito Da Fabiano"}}]}