{"version": 0.6, "generator": "Overpass API 0.7.62.7 375dc00a", "osm3s": {"timestamp_osm_base": "2025-06-14T15:34:23Z", "copyright": "The data included in this document is from www.openstreetmap.org. The data is made available under ODbL."}, "elements": [{"type": "node", "id": 97918422, "lat": 11.6017232, "lon": 37.3820747}, {"type": "node", "id": 595142440, "lat": 11.603787, "lon": 37.403233, "tags": {"amenity": "cafe", "name": "Freinds", "name:am": "\u134d\u122c\u1295\u12f5\u1235 \u12ab\u134c"}}, {"type": "node", "id": 1150570839, "lat": 11.5937097, "lon": 37.387091, "tags": {"amenity": "cafe", "name": "Cloud Nine Cafe", "source": "300TDI"}}, {"type": "node", "id": 1172613305, "lat": 11.6015846, "lon": 37.3820277}, {"type": "node", "id": 1172613353, "lat": 11.6013672, "lon": 37.382042}, {"type": "node", "id": 1175641384, "lat": 11.6024921, "lon": 37.3817188}, {"type": "node", "id": 1175641736, "lat": 11.6023855, "lon": 37.3813178}, {"type": "node", "id": 1175642014, "lat": 11.6020518, "lon": 37.3820903}, {"type": "node", "id": 1175642214, "lat": 11.6024361, "lon": 37.3807791}, {"type": "node", "id": 1938024301, "lat": 11.5970868, "lon": 37.3884744, "tags": {"amenity": "restaurant", "cuisine": "ethiopian", "name": "\u1340\u1203\u12ed\u1271 \u1218\u12dd\u1293\u129b", "name:am": "\u1323\u12ed\u1271 \u1218\u12dd\u1293\u129b", "name:en": "Tayitu mezinagna"}}, {"type": "node", "id": 2631084721, "lat": 11.5936042, "lon": 37.3878223, "tags": {"amenity": "restaurant", "cuisine": "regional,_soups,_pasta", "name": "Blue Jayz Restaurant"}}, {"type": "node", "id": 2631084728, "lat": 11.5936974, "lon": 37.3882337, "tags": {"amenity": "restaurant", "cuisine": "pizza;_burger", "name": "Wawi Pizzeria", "name:am": "\u12cb\u12ca \u1352\u12db\u122a\u12eb"}}, {"type": "node", "id": 2781395977, "lat": 11.6012088, "lon": 37.3818566}, {"type": "node", "id": 2781395978, "lat": 11.6012297, "lon": 37.3817451}, {"type": "node", "id": 2781395979, "lat": 11.6012486, "lon": 37.3816448}, {"type": "node", "id": 2781395990, "lat": 11.6015463, "lon": 37.3817031}, {"type": "node", "id": 2781395993, "lat": 11.601649, "lon": 37.3816965}, {"type": "node", "id": 2781396002, "lat": 11.6017579, "lon": 37.3816656}, {"type": "node", "id": 2781396006, "lat": 11.6018501, "lon": 37.3816193}, {"type": "node", "id": 2781396019, "lat": 11.6019303, "lon": 37.381539}, {"type": "node", "id": 2781396021, "lat": 11.6019907, "lon": 37.380923}, {"type": "node", "id": 2781396022, "lat": 11.6019938, "lon": 37.3814387}, {"type": "node", "id": 2781396027, "lat": 11.6020346, "lon": 37.381045}, {"type": "node", "id": 2781396028, "lat": 11.6020346, "lon": 37.3813537}, {"type": "node", "id": 2781396030, "lat": 11.6020527, "lon": 37.3812812}, {"type": "node", "id": 2781396031, "lat": 11.6020573, "lon": 37.3811592}, {"type": "node", "id": 2781396269, "lat": 11.6022569, "lon": 37.3820673}, {"type": "node", "id": 2781396278, "lat": 11.6024187, "lon": 37.3809377}, {"type": "node", "id": 2781396279, "lat": 11.6024579, "lon": 37.3821174}, {"type": "node", "id": 2781396282, "lat": 11.6024572, "lon": 37.3815185}, {"type": "node", "id": 2781396284, "lat": 11.6025187, "lon": 37.3818896}, {"type": "node", "id": 2781396285, "lat": 11.6024843, "lon": 37.3816007}, {"type": "node", "id": 2781396286, "lat": 11.6026169, "lon": 37.3824653}, {"type": "node", "id": 2781396289, "lat": 11.6026789, "lon": 37.3825489}, {"type": "node", "id": 2781396290, "lat": 11.6026226, "lon": 37.3820579}, {"type": "node", "id": 2781396291, "lat": 11.6027744, "lon": 37.3825302}, {"type": "node", "id": 2781396295, "lat": 11.6028103, "lon": 37.3823022}, {"type": "node", "id": 2781396297, "lat": 11.6028287, "lon": 37.3824486}, {"type": "node", "id": 2822064169, "lat": 11.5963335, "lon": 37.3885947, "tags": {"amenity": "cafe", "name": "Mango Park"}}, {"type": "node", "id": 3161277617, "lat": 11.5969498, "lon": 37.3908829, "tags": {"amenity": "restaurant", "name": "Lake Shore Resort"}}, {"type": "node", "id": 3368076992, "lat": 11.5972774, "lon": 37.3865271, "tags": {"amenity": "restaurant"}}, {"type": "node", "id": 3445076310, "lat": 11.5955885, "lon": 37.3858579, "tags": {"amenity": "restaurant", "name": "Bahir Dar Hotel"}}, {"type": "node", "id": 3445076313, "lat": 11.5957304, "lon": 37.3918124, "tags": {"amenity": "restaurant", "name": "\u1260\u122d\u1296\u1235", "name:en": "Bernos Restaurant and Art Gallery"}}, {"type": "node", "id": 3915753090, "lat": 11.5851406, "lon": 37.3704678, "tags": {"amenity": "restaurant", "cuisine": "international", "name": "Alwaq Hotel"}}, {"type": "node", "id": 4128157291, "lat": 11.5938156, "lon": 37.3924149, "tags": {"amenity": "restaurant"}}, {"type": "node", "id": 4226770502, "lat": 11.5978933, "lon": 37.3838042, "tags": {"amenity": "restaurant", "cuisine": "ethiopian", "name": "Wude Coffee"}}, {"type": "node", "id": 4226808089, "lat": 11.5942313, "lon": 37.3878132, "tags": {"amenity": "restaurant", "name": "Sky Cafe"}}, {"type": "node", "id": 4535253596, "lat": 11.5946172, "lon": 37.3886839, "tags": {"amenity": "cafe", "name": "\u1265\u1209\u1260\u122d\u12f5", "name:am": "\u1265\u1209\u1260\u122d\u12f5"}}, {"type": "node", "id": 4669341899, "lat": 11.5975898, "lon": 37.3842401, "tags": {"amenity": "restaurant", "name": "Checheho Cultural Restaurant"}}, {"type": "node", "id": 4731728621, "lat": 11.5883725, "lon": 37.3881683, "tags": {"amenity": "cafe", "name:en": "Millennium  Cafe"}}, {"type": "node", "id": 4941167057, "lat": 11.575325, "lon": 37.3941884}, {"type": "node", "id": 4941167058, "lat": 11.5753203, "lon": 37.3942847}, {"type": "node", "id": 4941167059, "lat": 11.5752207, "lon": 37.3942797}, {"type": "node", "id": 4941167060, "lat": 11.575227, "lon": 37.3941525}, {"type": "node", "id": 4941167061, "lat": 11.575051, "lon": 37.3941435}, {"type": "node", "id": 4941167062, "lat": 11.5750554, "lon": 37.3940537}, {"type": "node", "id": 4941167063, "lat": 11.5753105, "lon": 37.3940668}, {"type": "node", "id": 4941167064, "lat": 11.5753046, "lon": 37.3941874}, {"type": "node", "id": 4944260147, "lat": 11.5712401, "lon": 37.3965122}, {"type": "node", "id": 4944260148, "lat": 11.5711885, "lon": 37.3964555}, {"type": "node", "id": 4944260149, "lat": 11.5710805, "lon": 37.396558}, {"type": "node", "id": 4944260150, "lat": 11.5711778, "lon": 37.3966648}, {"type": "node", "id": 4944260151, "lat": 11.5712245, "lon": 37.3966204}, {"type": "node", "id": 4944260152, "lat": 11.5711789, "lon": 37.3965704}, {"type": "node", "id": 4944543670, "lat": 11.5744966, "lon": 37.3995136}, {"type": "node", "id": 4944543671, "lat": 11.5744893, "lon": 37.3998164}, {"type": "node", "id": 4944543672, "lat": 11.5744061, "lon": 37.3998143}, {"type": "node", "id": 4944543673, "lat": 11.5744041, "lon": 37.3998962}, {"type": "node", "id": 4944543674, "lat": 11.5744373, "lon": 37.399897}, {"type": "node", "id": 4944543675, "lat": 11.5744345, "lon": 37.4000113}, {"type": "node", "id": 4944543676, "lat": 11.574294, "lon": 37.4000077}, {"type": "node", "id": 4944543677, "lat": 11.5742979, "lon": 37.3998477}, {"type": "node", "id": 4944543678, "lat": 11.574259, "lon": 37.3998467}, {"type": "node", "id": 4944543679, "lat": 11.5742648, "lon": 37.3996093}, {"type": "node", "id": 4944543680, "lat": 11.574219, "lon": 37.3996081}, {"type": "node", "id": 4944543681, "lat": 11.5742212, "lon": 37.3995172}, {"type": "node", "id": 4944543682, "lat": 11.5741778, "lon": 37.3995161}, {"type": "node", "id": 4944543683, "lat": 11.5741851, "lon": 37.3992159}, {"type": "node", "id": 4944543684, "lat": 11.5742326, "lon": 37.3992171}, {"type": "node", "id": 4944543685, "lat": 11.5742348, "lon": 37.3991307}, {"type": "node", "id": 4944543686, "lat": 11.5744245, "lon": 37.3991355}, {"type": "node", "id": 4944543687, "lat": 11.5744153, "lon": 37.3995116}, {"type": "node", "id": 4945522124, "lat": 11.5756783, "lon": 37.3978694}, {"type": "node", "id": 4945522125, "lat": 11.5756767, "lon": 37.3981318}, {"type": "node", "id": 4945522126, "lat": 11.5755918, "lon": 37.3981359}, {"type": "node", "id": 4945522127, "lat": 11.5755917, "lon": 37.3980502}, {"type": "node", "id": 4945522128, "lat": 11.575548, "lon": 37.3980502}, {"type": "node", "id": 4945522129, "lat": 11.5755479, "lon": 37.3979566}, {"type": "node", "id": 4945522130, "lat": 11.5755948, "lon": 37.3979565}, {"type": "node", "id": 4945522131, "lat": 11.5755948, "lon": 37.3978695}, {"type": "node", "id": 4945806243, "lat": 11.5756784, "lon": 37.3979593}, {"type": "node", "id": 4945806244, "lat": 11.5756779, "lon": 37.3980474}, {"type": "node", "id": 4945806245, "lat": 11.5756454, "lon": 37.3980475}, {"type": "node", "id": 4945806246, "lat": 11.5756453, "lon": 37.3979593}, {"type": "node", "id": 4945806248, "lat": 11.5756454, "lon": 37.3980011}, {"type": "node", "id": 4945806249, "lat": 11.5755479, "lon": 37.398003}, {"type": "node", "id": 5239150721, "lat": 11.5983239, "lon": 37.3833796, "tags": {"addr:street": "Route 3", "amenity": "restaurant", "cuisine": "african", "internet_access": "wlan", "name": "\u1328\u1328\u1206 \u12e8\u1263\u1205\u120d \u121d\u130d\u1265 \u12a0\u12f3\u122b\u123d", "name:en": "Checheho Cultural Restaurant", "opening_hours": "Mo-Su 07:00-23:00"}}, {"type": "node", "id": 5239459421, "lat": 11.59372, "lon": 37.3875989, "tags": {"amenity": "restaurant", "name:en": "Olive Restaurant"}}, {"type": "node", "id": 5242459222, "lat": 11.5992884, "lon": 37.3820627, "tags": {"amenity": "restaurant", "cuisine": "fish;regional;tea;coffee_shop;ethiopian;local;noodles;pizza", "diet:vegetarian": "yes", "name:en": "Misrak Restaurant"}}, {"type": "node", "id": 5242459223, "lat": 11.5999962, "lon": 37.3802144, "tags": {"addr:street": "Route 3", "amenity": "cafe", "email": "Hanijuice@gmail.com", "name": "HANI Juice Cafe"}}, {"type": "node", "id": 5546066721, "lat": 11.6000676, "lon": 37.3722991, "tags": {"amenity": "restaurant", "name:en": "Tentesh Restaurant"}}, {"type": "node", "id": 5645343624, "lat": 11.5996457, "lon": 37.375137, "tags": {"amenity": "cafe", "name:en": "Ours cafe"}}, {"type": "node", "id": 5645354725, "lat": 11.5946934, "lon": 37.3934745, "tags": {"amenity": "cafe", "name": "\u12a0\u1266\u120d \u12ab\u134c", "name:en": "Abol cafe"}}, {"type": "node", "id": 5645355921, "lat": 11.5937331, "lon": 37.3878102, "tags": {"amenity": "cafe", "name:en": "Ours cafe"}}, {"type": "node", "id": 5645356023, "lat": 11.6039544, "lon": 37.3678945, "tags": {"amenity": "restaurant", "name": "\u12f3\u1233\u123d \u121d\u130d\u1265 \u1264\u1275", "name:en": "Dasash restaurant"}}, {"type": "node", "id": 5648213129, "lat": 11.5988668, "lon": 37.3825891, "tags": {"amenity": "cafe"}}, {"type": "node", "id": 5648213130, "lat": 11.598961, "lon": 37.3824973, "tags": {"amenity": "cafe"}}, {"type": "node", "id": 5648240021, "lat": 11.599401, "lon": 37.382016, "tags": {"amenity": "cafe", "name": "\u12ab\u1296\u1295 \u1261\u1293", "name:en": "Cannon coffee"}}, {"type": "node", "id": 5648490022, "lat": 11.5995944, "lon": 37.3759809, "tags": {"amenity": "restaurant", "name": "\u1306\u1295 \u120d\u12e9 \u12e8\u12a0\u1233 \u122c\u1235\u1276\u122b\u1295\u1275", "name:en": "John fish house"}}, {"type": "node", "id": 5648490023, "lat": 11.5997719, "lon": 37.3746413, "tags": {"amenity": "restaurant", "name": "\u12f2\u1356 \u1241\u122d\u1325 \u1264\u1275", "name:en": "Dipo kurit bet"}}, {"type": "node", "id": 5670527931, "lat": 11.5941742, "lon": 37.3845988, "tags": {"amenity": "cafe", "name": "\u130d\u122b\u1295\u12f5 \u12ab\u1348", "name:am": "\u130d\u122b\u1295\u12f5 \u12ab\u134c", "name:en": "Grand cafe"}}, {"type": "node", "id": 5670527939, "lat": 11.5981684, "lon": 37.3835004, "tags": {"amenity": "restaurant", "cuisine": "ethiopian", "name": "\u1328\u1328\u1206 \u12e8\u1263\u1205\u120d \u121d\u130d\u1265 \u12a0\u12f3\u122b\u123d", "name:en": "Checheho Cultural Restaurant"}}, {"type": "node", "id": 5670550827, "lat": 11.6011943, "lon": 37.3693188, "tags": {"amenity": "restaurant"}}, {"type": "node", "id": 5670552226, "lat": 11.5985545, "lon": 37.382975, "tags": {"amenity": "restaurant", "cuisine": "ethiopian", "name": "\u120c\u121b\u1275 \u12ad\u1275\u134e", "name:en": "Lemat kitifo"}}, {"type": "node", "id": 5670559025, "lat": 11.599813, "lon": 37.3698581, "tags": {"amenity": "restaurant", "name": "\u12ee\u1203\u1295\u1235 \u12ad\u1275\u134e", "name:en": "Yohannes kitfo"}}, {"type": "node", "id": 5670559026, "lat": 11.5927529, "lon": 37.3881084, "tags": {"amenity": "cafe", "name": "\u121c\u120b\u1275 \u12ab\u134c", "name:en": "Melat Cafe"}}, {"type": "node", "id": 5670559033, "lat": 11.5946413, "lon": 37.3895158, "tags": {"amenity": "restaurant", "name:en": "Classic"}}, {"type": "node", "id": 5679967422, "lat": 11.5814025, "lon": 37.3751472, "tags": {"amenity": "restaurant", "name": "\u12ee\u1293\u1235 \u1241\u122d", "name:am": "\u12ee\u1293\u1235 \u1241\u122d\u1325\u1293 \u1303\u121d\u1266 \u1200\u12cd\u1235", "name:en": "Yonas Jambo House"}}, {"type": "node", "id": 5721188422, "lat": 11.5878635, "lon": 37.3881258, "tags": {"amenity": "restaurant", "name:en": "Bonjour pizzeria and cafe"}}, {"type": "node", "id": 5902296887, "lat": 11.5997981, "lon": 37.3750083, "tags": {"amenity": "cafe", "name:en": "Ours Cafe"}}, {"type": "node", "id": 6511486685, "lat": 11.593907, "lon": 37.387527, "tags": {"amenity": "restaurant", "name": "\u121c\u122c \u1261\u1293", "name:en": "Merry Buna"}}, {"type": "node", "id": 6511486686, "lat": 11.5939111, "lon": 37.3872813, "tags": {"amenity": "restaurant", "name": "\u1265\u1209 \u1303\u12ed\u12dd", "name:en": "Blue Jayz"}}, {"type": "node", "id": 6514122253, "lat": 11.595745, "lon": 37.3863164, "tags": {"amenity": "cafe", "name": "Hab Cafe"}}, {"type": "node", "id": 6525065685, "lat": 11.5938008, "lon": 37.3951661, "tags": {"addr:street": "University Rd", "amenity": "cafe", "name": "\u1356\u120a \u1354\u12f3 \u12e8\u1300\u1260\u1293 \u1261\u1293", "name:en": "Poly Peda Traditional Coffee", "operator": "Michael", "phone": "+251918716409"}}, {"type": "node", "id": 6554550073, "lat": 11.6025646, "lon": 37.3822997}, {"type": "node", "id": 6554550074, "lat": 11.6027511, "lon": 37.3822086}, {"type": "node", "id": 6564386896, "lat": 11.5993385, "lon": 37.3795034, "tags": {"amenity": "restaurant", "name": "\u12c8\u12ed\u122b", "name:en": "Weyra Bar and Restaurant"}}, {"type": "node", "id": 6564386899, "lat": 11.6096432, "lon": 37.3773712, "tags": {"amenity": "restaurant", "cuisine": "seafood", "name": "\u121d\u12ab\u12a4\u120d \u12a0\u1233 \u1264\u1275"}}, {"type": "node", "id": 6564386900, "lat": 11.5939008, "lon": 37.3866632, "tags": {"amenity": "restaurant", "name:en": "Karibu Cafe"}}, {"type": "node", "id": 6564386901, "lat": 11.5973043, "lon": 37.3868608, "tags": {"amenity": "restaurant", "name:en": "Kokel Fish House and Park"}}, {"type": "node", "id": 6564386902, "lat": 11.5924039, "lon": 37.3881246, "tags": {"amenity": "cafe", "name:en": "Grand Cafe"}}, {"type": "node", "id": 6564386903, "lat": 11.5942739, "lon": 37.3922021, "tags": {"amenity": "restaurant", "name": "\u120c\u121b\u1275", "name:en": "Lemat Kitfo"}}, {"type": "node", "id": 6564386993, "lat": 11.5992477, "lon": 37.3822571, "tags": {"amenity": "cafe", "name": "\u1203\u1292 \u132d\u121b\u1242", "name:en": "Hani Juice"}}, {"type": "node", "id": 6564397486, "lat": 11.5959294, "lon": 37.3835115, "tags": {"amenity": "restaurant", "name:en": "Local restaurant"}}, {"type": "node", "id": 6578421485, "lat": 11.5947208, "lon": 37.3935858, "tags": {"amenity": "cafe", "cuisine": "pizza;coffee_shop;bakery", "name": "WOW Pastry and Cake Cafe", "name:en": "WOW Cafe"}}, {"type": "node", "id": 6744136789, "lat": 11.5927494, "lon": 37.3877756, "tags": {"addr:street": "Giorgis Road", "amenity": "cafe", "internet_access": "wlan", "name": "Tamir Sher", "name:en": "Wakanda Coffee", "operator": "Salomon"}}, {"type": "node", "id": 6896217585, "lat": 11.597547, "lon": 37.385905, "tags": {"amenity": "cafe", "name:en": "Traditional coffee vendors"}}, {"type": "node", "id": 7130262385, "lat": 11.6046531, "lon": 37.3702603, "tags": {"addr:street": "Hospita road", "amenity": "cafe", "name": "\u12ed\u1263\u1264 \u1303\u1295\u1266\u1293 \u1241\u122d\u1325 \u1264\u1275", "name:en": "yibabe janbona kurt bet"}}, {"type": "node", "id": 7149166785, "lat": 11.5951634, "lon": 37.3873692, "tags": {"amenity": "restaurant", "name:en": "Zhemare Restaurant"}}, {"type": "node", "id": 8150946517, "lat": 11.6002713, "lon": 37.4192842, "tags": {"amenity": "restaurant", "name:en": "Abnet restaurant"}}, {"type": "node", "id": 8150946717, "lat": 11.6020376, "lon": 37.4202271, "tags": {"amenity": "restaurant", "name:en": "Melody cafe & restaurant"}}, {"type": "node", "id": 8196333324, "lat": 11.602746, "lon": 37.3655616, "tags": {"amenity": "restaurant", "name:en": "Sami restaurant"}}, {"type": "node", "id": 8196338517, "lat": 11.5940524, "lon": 37.3878913, "tags": {"amenity": "restaurant"}}, {"type": "node", "id": 8540442817, "lat": 11.5928175, "lon": 37.3853861, "tags": {"amenity": "restaurant", "name": "\u1200\u12eb\u1275 \u12e8\u1219\u1235\u120a\u121d \u122c\u1235\u1276\u122b\u1295\u1275"}}, {"type": "node", "id": 8700400724, "lat": 11.5868584, "lon": 37.3678967, "tags": {"amenity": "cafe", "name": "\u12a0\u12ce\u122d\u1235 \u12ab\u134c", "name:en": "Ours Caf\u00e9"}}, {"type": "node", "id": 9166538817, "lat": 11.5950089, "lon": 37.393151, "tags": {"amenity": "cafe", "name:en": "Yeshi Coffee"}}, {"type": "node", "id": 10815826206, "lat": 11.6103862, "lon": 37.3777344, "tags": {"amenity": "restaurant", "name": "Cafes like a beergarden. Beautiful view"}}, {"type": "node", "id": 10980259506, "lat": 11.5736567, "lon": 37.3629207, "tags": {"addr:street": "Bahirdar", "amenity": "cafe", "name:en": "Rozi BD"}}, {"type": "node", "id": 12840365501, "lat": 11.5957226, "lon": 37.3833334, "tags": {"amenity": "restaurant", "internet_access": "wlan", "name": "Yirdaw"}}, {"type": "way", "id": 273260913, "nodes": [1172613353, 1172613305, 97918422, 1175642014, 2781396269, 2781396279, 6554550073, 2781396286, 2781396289, 2781396291, 2781396297, 2781396295, 6554550074, 2781396290, 2781396284, 1175641384, 2781396285, 2781396282, 1175641736, 2781396278, 1175642214, 2781396021, 2781396027, 2781396031, 2781396030, 2781396028, 2781396022, 2781396019, 2781396006, 2781396002, 2781395993, 2781395990, 2781395979, 2781395978, 2781395977, 1172613353], "tags": {"amenity": "restaurant", "cuisine": "regional", "leisure": "garden", "name": "Desset Lodge"}}, {"type": "way", "id": 503868827, "nodes": [4941167057, 4941167058, 4941167059, 4941167060, 4941167061, 4941167062, 4941167063, 4941167064, 4941167057], "tags": {"amenity": "cafe", "building": "yes", "name": "Cafeteria"}}, {"type": "way", "id": 504249423, "nodes": [4944260147, 4944260148, 4944260149, 4944260150, 4944260151, 4944260152, 4944260147], "tags": {"amenity": "cafe", "building": "yes", "name": "Cafeteria"}}, {"type": "way", "id": 504280928, "nodes": [4944543687, 4944543670, 4944543671, 4944543672, 4944543673, 4944543674, 4944543675, 4944543676, 4944543677, 4944543678, 4944543679, 4944543680, 4944543681, 4944543682, 4944543683, 4944543684, 4944543685, 4944543686, 4944543687], "tags": {"amenity": "cafe", "building": "yes", "name": "Cafeteria"}}, {"type": "way", "id": 504385820, "nodes": [4945522124, 4945806243, 4945806246, 4945806248, 4945806245, 4945806244, 4945522125, 4945522126, 4945522127, 4945522128, 4945806249, 4945522129, 4945522130, 4945522131, 4945522124], "tags": {"amenity": "cafe", "building": "yes", "name": "Cafeteria"}}]}