{"version": 0.6, "generator": "Overpass API 0.7.62.7 375dc00a", "osm3s": {"timestamp_osm_base": "2025-06-14T14:34:11Z", "copyright": "The data included in this document is from www.openstreetmap.org. The data is made available under ODbL."}, "elements": [{"type": "node", "id": 1385333058, "lat": 42.9286365, "lon": 20.3684178, "tags": {"amenity": "restaurant", "int_name": "Ibarski biser", "name": "\u0418\u0431\u0430\u0440\u0441\u043a\u0438 \u0431\u0438\u0441\u0435\u0440", "name:sr": "\u0418\u0431\u0430\u0440\u0441\u043a\u0438 \u0431\u0438\u0441\u0435\u0440", "name:sr-Latn": "Ibarski biser"}}, {"type": "node", "id": 1558635344, "lat": 42.8770569, "lon": 20.8749755, "tags": {"amenity": "restaurant", "cuisine": "fish", "name": "Villa Lux"}}, {"type": "node", "id": 1563597002, "lat": 42.8885634, "lon": 20.8686807, "tags": {"amenity": "cafe", "name": "Ma Bella"}}, {"type": "node", "id": 1563597026, "lat": 42.889024, "lon": 20.8670554, "tags": {"amenity": "cafe", "name": "Sofra"}}, {"type": "node", "id": 1563597029, "lat": 42.8889338, "lon": 20.8690173, "tags": {"amenity": "restaurant", "cuisine": "american", "name": "Route 66"}}, {"type": "node", "id": 1598895525, "lat": 42.8885278, "lon": 20.8701865}, {"type": "node", "id": 1600584703, "lat": 42.8893242, "lon": 20.8664026, "tags": {"amenity": "cafe", "name": "Charly"}}, {"type": "node", "id": 1603150645, "lat": 42.8865408, "lon": 20.866266}, {"type": "node", "id": 1603150686, "lat": 42.8863292, "lon": 20.8662242}, {"type": "node", "id": 1603150769, "lat": 42.8865192, "lon": 20.8664701}, {"type": "node", "id": 1603150850, "lat": 42.88641, "lon": 20.8664485}, {"type": "node", "id": 1603322941, "lat": 42.8889274, "lon": 20.8725034}, {"type": "node", "id": 1603323089, "lat": 42.8890978, "lon": 20.8725052}, {"type": "node", "id": 1603323262, "lat": 42.8889281, "lon": 20.8723851}, {"type": "node", "id": 1603323348, "lat": 42.8890985, "lon": 20.8723869}, {"type": "node", "id": 1603435659, "lat": 42.8871552, "lon": 20.8701366}, {"type": "node", "id": 1603435677, "lat": 42.8870531, "lon": 20.8704276}, {"type": "node", "id": 1603435684, "lat": 42.8872161, "lon": 20.8703175}, {"type": "node", "id": 1603435703, "lat": 42.886994, "lon": 20.8702417}, {"type": "node", "id": 2379038173, "lat": 42.8863013, "lon": 20.8992531}, {"type": "node", "id": 2379038179, "lat": 42.8864283, "lon": 20.8990384}, {"type": "node", "id": 2379038186, "lat": 42.8862811, "lon": 20.8988741}, {"type": "node", "id": 2379038207, "lat": 42.8861535, "lon": 20.899108}, {"type": "node", "id": 2482258151, "lat": 42.8898037, "lon": 20.8662149, "tags": {"addr:city": "Mitrovica", "addr:housenumber": "16", "addr:postcode": "40000", "addr:street": "Bulevardi Isa Boletini", "amenity": "cafe", "internet_access": "wlan", "name": "Hit Caffe", "name:sq": "Restauran \"Koha\""}}, {"type": "node", "id": 2542924390, "lat": 42.8675591, "lon": 20.8098765, "tags": {"amenity": "restaurant", "name": "Restaurant Ibri"}}, {"type": "node", "id": 2542934691, "lat": 42.8892423, "lon": 20.8687704, "tags": {"amenity": "cafe", "cuisine": "coffee_shop", "name": "Plus Bar"}}, {"type": "node", "id": 2542950637, "lat": 42.8906109, "lon": 20.8650002, "tags": {"addr:city": "Mitrovica", "addr:postcode": "40000", "amenity": "restaurant", "cuisine": "burger,pizza,ect", "name": "River Side", "note": "an very good relaxing restaurant with a great look to the river"}}, {"type": "node", "id": 2543214156, "lat": 42.8883469, "lon": 20.8700876}, {"type": "node", "id": 2543278863, "lat": 42.8937866, "lon": 20.8653782}, {"type": "node", "id": 2543278865, "lat": 42.8937374, "lon": 20.8653675}, {"type": "node", "id": 2543278867, "lat": 42.8937203, "lon": 20.8655473}, {"type": "node", "id": 2543278868, "lat": 42.893773, "lon": 20.8655475}, {"type": "node", "id": 2543328908, "lat": 42.8873745, "lon": 20.8704848}, {"type": "node", "id": 2543328909, "lat": 42.8873273, "lon": 20.8705009}, {"type": "node", "id": 2543328911, "lat": 42.8873017, "lon": 20.8703319}, {"type": "node", "id": 2543328914, "lat": 42.8873509, "lon": 20.8703158}, {"type": "node", "id": 2543342979, "lat": 42.8874486, "lon": 20.870471}, {"type": "node", "id": 2543342982, "lat": 42.8874066, "lon": 20.8704835}, {"type": "node", "id": 2543342984, "lat": 42.8874273, "lon": 20.8702907}, {"type": "node", "id": 2543342987, "lat": 42.8874339, "lon": 20.8703464}, {"type": "node", "id": 2543348258, "lat": 42.8898138, "lon": 20.8679663, "tags": {"addr:city": "Mitrovica", "addr:postcode": "40000", "amenity": "cafe", "internet_access": "no", "name": "Don Cafe"}}, {"type": "node", "id": 2543348980, "lat": 42.8942182, "lon": 20.8658745, "tags": {"addr:city": "Mitrovica", "addr:housename": "Sar", "addr:postcode": "40000", "addr:street": "Kralja Petra I", "amenity": "cafe", "name": "Knez"}}, {"type": "node", "id": 2543351260, "lat": 42.8941583, "lon": 20.8658771, "tags": {"addr:city": "Mitrovica", "addr:housename": "London", "addr:postcode": "40000", "addr:street": "Kralja Petra I", "amenity": "cafe", "name": "London"}}, {"type": "node", "id": 2543354091, "lat": 42.8897437, "lon": 20.8681672, "tags": {"addr:city": "Mitrovica", "addr:postcode": "40000", "addr:street": "Agim Hajrizi", "amenity": "cafe", "internet_access": "wlan", "name": "Modesta", "name:en": "Grammy's Longe"}}, {"type": "node", "id": 2543356327, "lat": 42.8941121, "lon": 20.8658772, "tags": {"addr:city": "Mitrovica", "addr:housename": "Padrino", "addr:postcode": "40000", "addr:street": "Kralja Petra I", "amenity": "cafe", "name": "Padrino"}}, {"type": "node", "id": 2543357559, "lat": 42.8940721, "lon": 20.8658789, "tags": {"addr:city": "Mitrovica", "addr:housename": "Della Casa", "addr:postcode": "40000", "addr:street": "Kralja Petra I", "amenity": "restaurant", "cuisine": "pizza", "name": "Della Casa"}}, {"type": "node", "id": 2543358020, "lat": 42.8876394, "lon": 20.8714262}, {"type": "node", "id": 2543358021, "lat": 42.8875539, "lon": 20.8713216}, {"type": "node", "id": 2543358022, "lat": 42.8874773, "lon": 20.8714423}, {"type": "node", "id": 2543358023, "lat": 42.8875697, "lon": 20.8715509}, {"type": "node", "id": 2543361084, "lat": 42.8896722, "lon": 20.8690697, "tags": {"addr:city": "Mitrovica", "addr:postcode": "40000", "amenity": "restaurant", "name": "Lux"}}, {"type": "node", "id": 2543364934, "lat": 42.8897977, "lon": 20.8674559, "tags": {"addr:city": "Mitrovica", "addr:postcode": "40000", "amenity": "restaurant", "name": "Fiona"}}, {"type": "node", "id": 2543365226, "lat": 42.8871697, "lon": 20.8709152}, {"type": "node", "id": 2543365229, "lat": 42.8870774, "lon": 20.8710453}, {"type": "node", "id": 2543373067, "lat": 42.8871314, "lon": 20.8711164}, {"type": "node", "id": 2543373069, "lat": 42.8872179, "lon": 20.8709716}, {"type": "node", "id": 2543373071, "lat": 42.8871786, "lon": 20.871166}, {"type": "node", "id": 2543373073, "lat": 42.8872729, "lon": 20.8710292}, {"type": "node", "id": 2543427161, "lat": 42.8897106, "lon": 20.8678444, "tags": {"amenity": "cafe", "cuisine": "regional", "name": "Kafe Sport"}}, {"type": "node", "id": 2544670551, "lat": 42.8910454, "lon": 20.8686234, "tags": {"addr:city": "Mitrovica", "addr:postcode": "40000", "amenity": "restaurant", "name": "Vivianit"}}, {"type": "node", "id": 2544681491, "lat": 42.8888984, "lon": 20.8702549, "tags": {"addr:city": "Mitrovica", "addr:postcode": "40000", "addr:street": "Fan Noli", "amenity": "cafe", "cuisine": "international", "internet_access": "yes", "name": "Passage Cafe.", "phone": "+383 49 710 107", "website": "https://www.facebook.com/pages/Passage-Cafe/153908771443949", "wheelchair": "yes"}}, {"type": "node", "id": 2544810591, "lat": 42.8893545, "lon": 20.8685779, "tags": {"addr:city": "Mitrovica", "addr:postcode": "40000", "addr:street": "Agim Hajrizi", "amenity": "cafe", "internet_access": "yes", "name": "Pizzeria Verona"}}, {"type": "node", "id": 2544936036, "lat": 42.890789, "lon": 20.8660254}, {"type": "node", "id": 2544936037, "lat": 42.8907059, "lon": 20.866048}, {"type": "node", "id": 2544936038, "lat": 42.8906735, "lon": 20.8658514}, {"type": "node", "id": 2544936039, "lat": 42.8907546, "lon": 20.865826}, {"type": "node", "id": 2545214872, "lat": 42.8820662, "lon": 20.8662881, "tags": {"amenity": "cafe", "name": "Twins"}}, {"type": "node", "id": 2545246330, "lat": 42.8886293, "lon": 20.8707271, "tags": {"amenity": "restaurant", "cuisine": "pizza", "name": "Okarina"}}, {"type": "node", "id": 2545256753, "lat": 42.8883222, "lon": 20.8701526}, {"type": "node", "id": 2545256765, "lat": 42.8883912, "lon": 20.8701818}, {"type": "node", "id": 2545256767, "lat": 42.8884151, "lon": 20.8701246}, {"type": "node", "id": 2545256774, "lat": 42.8884397, "lon": 20.87023}, {"type": "node", "id": 2545256776, "lat": 42.8884496, "lon": 20.8701145}, {"type": "node", "id": 2545256777, "lat": 42.8884545, "lon": 20.8702222}, {"type": "node", "id": 2545256783, "lat": 42.8884948, "lon": 20.8702592}, {"type": "node", "id": 2545317445, "lat": 42.8860145, "lon": 20.8564244, "tags": {"amenity": "cafe"}}, {"type": "node", "id": 2545453407, "lat": 42.8885395, "lon": 20.8791052}, {"type": "node", "id": 2545453408, "lat": 42.8883966, "lon": 20.879116}, {"type": "node", "id": 2545453409, "lat": 42.8884054, "lon": 20.8793349}, {"type": "node", "id": 2545453410, "lat": 42.8884802, "lon": 20.8793293}, {"type": "node", "id": 2545453411, "lat": 42.8884765, "lon": 20.879237}, {"type": "node", "id": 2545453412, "lat": 42.8885446, "lon": 20.8792319}, {"type": "node", "id": 2555761295, "lat": 42.8939175, "lon": 20.8740163, "tags": {"amenity": "restaurant", "cuisine": "pizza", "name": "Proper Pizza"}}, {"type": "node", "id": 2559844221, "lat": 42.886999, "lon": 20.8701063, "tags": {"amenity": "restaurant", "name": "Jaffa"}}, {"type": "node", "id": 2559844395, "lat": 42.8873848, "lon": 20.8702926}, {"type": "node", "id": 2582302510, "lat": 42.8765012, "lon": 20.7963186, "tags": {"amenity": "restaurant", "cuisine": "fish", "name": "Freskila"}}, {"type": "node", "id": 2582371962, "lat": 42.8924951, "lon": 20.8730191, "tags": {"amenity": "restaurant", "name": "Va Piano"}}, {"type": "node", "id": 2583461517, "lat": 42.8807127, "lon": 20.8537481}, {"type": "node", "id": 2583461524, "lat": 42.8807992, "lon": 20.8536093}, {"type": "node", "id": 2583461525, "lat": 42.8807676, "lon": 20.8539311}, {"type": "node", "id": 2583461535, "lat": 42.8809921, "lon": 20.8536985}, {"type": "node", "id": 2583461536, "lat": 42.8807396, "lon": 20.8537976}, {"type": "node", "id": 2583461537, "lat": 42.8806418, "lon": 20.8540578}, {"type": "node", "id": 2583461538, "lat": 42.8808441, "lon": 20.8536923}, {"type": "node", "id": 2583461539, "lat": 42.8808625, "lon": 20.8539126}, {"type": "node", "id": 2583461540, "lat": 42.8805584, "lon": 20.8539036}, {"type": "node", "id": 2583461541, "lat": 42.8807946, "lon": 20.853981}, {"type": "node", "id": 2583461542, "lat": 42.8808332, "lon": 20.8538586}, {"type": "node", "id": 2614486948, "lat": 42.8892747, "lon": 20.8661829, "tags": {"amenity": "cafe", "cuisine": "pizza;burger;sandwich;salad", "internet_access": "wlan", "name": "H2O"}}, {"type": "node", "id": 3077378103, "lat": 42.8865215, "lon": 20.8815403}, {"type": "node", "id": 3077378104, "lat": 42.8863641, "lon": 20.8816243}, {"type": "node", "id": 3077378105, "lat": 42.8862905, "lon": 20.8813862}, {"type": "node", "id": 3077378106, "lat": 42.8864616, "lon": 20.8812904}, {"type": "node", "id": 3077382505, "lat": 42.8864422, "lon": 20.8815826}, {"type": "node", "id": 3133188617, "lat": 42.9688704, "lon": 20.8811575, "tags": {"amenity": "restaurant", "cuisine": "steak_house", "name": "Villa Vllahia"}}, {"type": "node", "id": 4149208989, "lat": 42.8808928, "lon": 20.853515}, {"type": "node", "id": 4371434616, "lat": 42.7994207, "lon": 20.848199, "tags": {"amenity": "cafe"}}, {"type": "node", "id": 4371611506, "lat": 42.8781667, "lon": 20.8659387, "tags": {"amenity": "restaurant", "name": "Drini", "name:sq": "Drini"}}, {"type": "node", "id": 4708913590, "lat": 42.9168115, "lon": 20.9006881, "tags": {"amenity": "cafe", "name": "Tunel City", "name:sq": "Tunel City"}}, {"type": "node", "id": 4962808488, "lat": 42.960671, "lon": 20.5496382, "tags": {"amenity": "cafe"}}, {"type": "node", "id": 4962808489, "lat": 42.9221762, "lon": 20.6814203, "tags": {"amenity": "restaurant"}}, {"type": "node", "id": 4995476536, "lat": 42.9905103, "lon": 20.3364559, "tags": {"amenity": "cafe", "name": "Urban Mellow"}}, {"type": "node", "id": 4995476558, "lat": 42.9905615, "lon": 20.335817, "tags": {"amenity": "cafe", "int_name": "Tas Taman", "internet_access": "wlan", "internet_access:fee": "no", "name": "\u0422\u0430\u0441 \u0422\u0430\u043c\u0430\u043d"}}, {"type": "node", "id": 4995476564, "lat": 42.9903546, "lon": 20.3361489, "tags": {"amenity": "cafe", "int_name": "Atrijum", "internet_access": "wlan", "internet_access:fee": "no", "name": "\u0410\u0442\u0440\u0438\u0458\u0443\u043c"}}, {"type": "node", "id": 4995476587, "lat": 42.9900206, "lon": 20.3366662, "tags": {"amenity": "cafe", "int_name": "No. 1", "name": "\u041d\u043e. 1"}}, {"type": "node", "id": 4995476588, "lat": 42.9902021, "lon": 20.3363765, "tags": {"amenity": "cafe", "int_name": "Njujork", "name": "\u040a\u0443\u0458\u043e\u0440\u043a", "name:en": "New York"}}, {"type": "node", "id": 4995477134, "lat": 42.9897729, "lon": 20.3370598, "tags": {"amenity": "restaurant", "int_name": "Sahat kula", "name": "\u0421\u0430\u0445\u0430\u0442 \u043a\u0443\u043b\u0430"}}, {"type": "node", "id": 4995477158, "lat": 42.9897135, "lon": 20.3374904, "tags": {"amenity": "restaurant", "int_name": "Bosfor", "name": "\u0411\u043e\u0441\u0444\u043e\u0440"}}, {"type": "node", "id": 5147610706, "lat": 42.8728123, "lon": 20.7998672}, {"type": "node", "id": 5147610707, "lat": 42.8725593, "lon": 20.7996636}, {"type": "node", "id": 5147610708, "lat": 42.8724143, "lon": 20.7999991}, {"type": "node", "id": 5147610709, "lat": 42.8726673, "lon": 20.8002027}, {"type": "node", "id": 5149386623, "lat": 42.8578529, "lon": 20.8366042, "tags": {"amenity": "restaurant", "internet_access": "wlan", "name": "Dielli", "opening_hours": "Mo-Su 07:00-23:00"}}, {"type": "node", "id": 5163211721, "lat": 42.8845053, "lon": 20.8653405, "tags": {"addr:postcode": "40000", "addr:street": "Ukshin Kovacica", "amenity": "cafe", "name": "Furra atdheu"}}, {"type": "node", "id": 5387984424, "lat": 42.9006627, "lon": 20.7797906, "tags": {"amenity": "cafe", "name": "Te Alia"}}, {"type": "node", "id": 5652492024, "lat": 42.8754559, "lon": 20.8367153, "tags": {"amenity": "restaurant", "name": "Restaurant Liqeni"}}, {"type": "node", "id": 5801194553, "lat": 42.8886517, "lon": 20.865255, "tags": {"addr:postcode": "40000", "addr:street": "Miti", "amenity": "cafe", "internet_access": "wlan", "name": "BaraBar", "name:en": "Barabar", "name:sr": "Barabar", "opening_hours": "Mo-Su 07:00-23:00", "operator": "Luba"}}, {"type": "node", "id": 5801194653, "lat": 42.8903851, "lon": 20.8676614, "tags": {"addr:postcode": "40000", "addr:street": "Bulevardi Isa Boletini", "amenity": "cafe", "internet_access": "wlan", "name": "Selfie Kafiq", "opening_hours": "Mo-Su 08:00-20:00"}}, {"type": "node", "id": 6079888285, "lat": 42.8843875, "lon": 20.8476251, "tags": {"addr:street": "Ura e Liqenit te Mitrovic\u00ebs", "amenity": "restaurant", "internet_access": "wlan", "name": "Restaurant & Bar Mesura", "opening_hours": "Mo-Su 06:30-00:00", "phone": "+38344147839"}}, {"type": "node", "id": 6299201185, "lat": 42.8683907, "lon": 20.8090638, "tags": {"amenity": "restaurant", "internet_access": "wlan"}}, {"type": "node", "id": 6539511485, "lat": 42.8758637, "lon": 20.8379911, "tags": {"addr:postcode": "40000", "addr:street": "rruga Liqeni", "amenity": "restaurant", "cuisine": "international", "internet_access": "wlan", "name": "UJVARA", "name:sq": "Restaurant UJVARA", "opening_hours": "Mo-Su 06:00-00:00", "phone": "+38349355885"}}, {"type": "node", "id": 6542838886, "lat": 42.8895857, "lon": 20.8687629, "tags": {"addr:postcode": "40000", "addr:street": "Agim Hajrizi", "amenity": "cafe", "cuisine": "coffee_shop;ice_cream;international;tea;turkish;local;cake;balkan", "internet_access": "wlan", "name": "Cherry", "outdoor_seating": "yes"}}, {"type": "node", "id": 6657223831, "lat": 42.8903093, "lon": 20.8659066, "tags": {"amenity": "restaurant", "name": "Qendra Tregtare"}}, {"type": "node", "id": 6711535927, "lat": 42.908528, "lon": 20.8385494, "tags": {"addr:street": "Kara\u0111or\u0111eva, Zve\u010dan", "amenity": "cafe", "internet_access": "yes", "internet_access:fee": "no", "internet_access:type": "WiFi", "name": "Trebjesa", "opening_hours": "Mo-Th, Su 08:00-01:00; Fr, Sa 08:00-03:00", "payment:cash": "yes"}}, {"type": "node", "id": 6814443792, "lat": 43.0531023, "lon": 20.809324, "tags": {"amenity": "cafe", "name": "Kafana Car"}}, {"type": "node", "id": 6814460685, "lat": 43.0528296, "lon": 20.8091393, "tags": {"amenity": "restaurant", "name": "Kafana Gavri\u0107"}}, {"type": "node", "id": 7343745948, "lat": 42.8831384, "lon": 20.8635989, "tags": {"addr:housenumber": "151", "addr:street": "Ukshin Kovaqica", "amenity": "cafe", "internet_access": "wlan", "name": "Morso"}}, {"type": "node", "id": 7658783390, "lat": 42.8914518, "lon": 20.8740122, "tags": {"addr:street": "Bislim Bajgora", "amenity": "cafe", "name": "Mond\u00e9 Cafe"}}, {"type": "node", "id": 8554256323, "lat": 42.8972826, "lon": 20.8814736, "tags": {"addr:postcode": "40000", "addr:street": "Martir\u00ebt e Studim\u00ebs", "amenity": "restaurant", "internet_access": "wlan", "name": "Restaurant Sitnica", "opening_hours": "24/7", "phone": "+38343514154"}}, {"type": "node", "id": 9810432010, "lat": 42.9872598, "lon": 20.4421653, "tags": {"amenity": "restaurant", "name": "Ristoran Kamnik"}}, {"type": "node", "id": 10748148634, "lat": 42.8863242, "lon": 20.8662708}, {"type": "node", "id": 10748148635, "lat": 42.8864196, "lon": 20.8663581}, {"type": "node", "id": 10946047537, "lat": 42.8809843, "lon": 20.8944281}, {"type": "node", "id": 10946047538, "lat": 42.880856, "lon": 20.8943644}, {"type": "node", "id": 10946047539, "lat": 42.8808039, "lon": 20.8945596}, {"type": "node", "id": 10946047540, "lat": 42.8809322, "lon": 20.8946232}, {"type": "node", "id": 11059291307, "lat": 42.875751, "lon": 20.837202, "tags": {"amenity": "restaurant"}}, {"type": "node", "id": 11078998905, "lat": 42.8896252, "lon": 20.868191, "tags": {"amenity": "restaurant", "internet_access": "wlan", "name": "Monum"}}, {"type": "node", "id": 11080374905, "lat": 42.8888633, "lon": 20.869077, "tags": {"amenity": "cafe", "internet_access": "wlan", "name": "Gusto"}}, {"type": "node", "id": 11242373305, "lat": 42.8984773, "lon": 20.8663966, "tags": {"amenity": "restaurant", "cuisine": "regional", "name": "Studentska menza", "name:sr": "Studenska menza", "note": "Dorucak: 7:00 - 9:00 Rucak: 11:30 - 3:00 / Vikendom 11:30 - 2:30 Vecera: 5:30 - 8:00 / Vikendom za poneti", "opening_hours": "Mo-Fr 7:00-20:00", "website": "https://scp.org.rs/"}}, {"type": "node", "id": 11246782340, "lat": 42.8992143, "lon": 20.8642158, "tags": {"amenity": "cafe", "name": "Rendez-vous", "opening_hours": "Mo-Sa 07:00-12:00"}}, {"type": "node", "id": 11516198266, "lat": 42.8941168, "lon": 20.8638011, "tags": {"amenity": "restaurant", "name": "Grey"}}, {"type": "node", "id": 11516224620, "lat": 42.8939992, "lon": 20.8647276, "tags": {"amenity": "cafe", "check_date:opening_hours": "2024-01-14", "name": "Soho", "opening_hours:signed": "no"}}, {"type": "node", "id": 11516245236, "lat": 42.8958909, "lon": 20.8646953, "tags": {"amenity": "cafe", "name": "Diskont Vrbas", "opening_hours": "Mo-Sa 07:00-23:00, Su 07:00-14:00"}}, {"type": "node", "id": 11516245237, "lat": 42.8981669, "lon": 20.8651217, "tags": {"amenity": "cafe", "name": "Caffe Pub", "opening_hours": "Mo-Su 07:00-24:00"}}, {"type": "node", "id": 11701873203, "lat": 42.9345862, "lon": 20.8397979, "tags": {"amenity": "restaurant", "name": "Vidovdan", "opening_hours": "Mo-Sa 07:00-23:00"}}, {"type": "node", "id": 11714835734, "lat": 42.8971223, "lon": 20.8677355, "tags": {"amenity": "cafe", "name": "Eksplicit"}}, {"type": "node", "id": 11731755037, "lat": 42.8983955, "lon": 20.8657359, "tags": {"amenity": "cafe", "internet_access": "yes", "internet_access:fee": "customers", "name": "Cuba", "outdoor_seating": "no"}}, {"type": "node", "id": 11774385771, "lat": 42.9815369, "lon": 20.4986138, "tags": {"amenity": "cafe", "int_name": "Strumce", "name": "\u0421\u0442\u0440\u0443\u043c\u0446\u0435", "name:sr": "\u0421\u0442\u0440\u0443\u043c\u0446\u0435", "name:sr-Latn": "Strumce"}}, {"type": "node", "id": 12150305525, "lat": 42.9096694, "lon": 20.8410439, "tags": {"amenity": "cafe", "name": "Borsalino"}}, {"type": "node", "id": 12159955897, "lat": 42.8936716, "lon": 20.8634131, "tags": {"amenity": "restaurant", "cuisine": "italian", "name": "Siena"}}, {"type": "node", "id": 12280458814, "lat": 42.8927499, "lon": 20.8634078, "tags": {"amenity": "cafe", "name": "AMBIENT", "name:sr-Latn": "AMBIENT", "outdoor_seating": "yes"}}, {"type": "node", "id": 12280458819, "lat": 42.8978723, "lon": 20.8675414, "tags": {"amenity": "cafe", "name": "Index"}}, {"type": "node", "id": 12281862402, "lat": 42.8959845, "lon": 20.8664553, "tags": {"amenity": "cafe", "cuisine": "bubble_tea", "name": "Fluffy fluffy", "opening_hours": "Mo-Sa 08:00-10:00"}}, {"type": "way", "id": 147110271, "nodes": [1603150769, 1603150850, 10748148635, 10748148634, 1603150686, 1603150645, 1603150769], "tags": {"amenity": "restaurant", "building": "yes", "name": "Garden"}}, {"type": "way", "id": 147125044, "nodes": [1603322941, 1603323262, 1603323348, 1603323089, 1603322941], "tags": {"amenity": "restaurant", "building": "yes", "name": "Majestic"}}, {"type": "way", "id": 147135446, "nodes": [1603435677, 1603435703, 1603435659, 1603435684, 1603435677], "tags": {"amenity": "restaurant", "building": "yes", "name": "\u00cbmb\u00ebltorja Jaffa"}}, {"type": "way", "id": 229281960, "nodes": [2379038186, 2379038207, 2379038173, 2379038179, 2379038186], "tags": {"amenity": "restaurant", "building": "yes", "capacity": "100", "name": "Restaurant Viktoria", "smoking": "outside"}}, {"type": "way", "id": 247449339, "nodes": [2543278863, 2543278865, 2543278867, 2543278868, 2543278863], "tags": {"amenity": "restaurant", "building": "yes"}}, {"type": "way", "id": 247452862, "nodes": [2543328908, 2543328909, 2543328911, 2543328914, 2543328908], "tags": {"amenity": "restaurant", "building": "yes", "cuisine": "pizza", "name": "Tiffany"}}, {"type": "way", "id": 247453870, "nodes": [2543342979, 2543342982, 2559844395, 2543342984, 2543342987, 2543342979], "tags": {"amenity": "cafe", "building": "yes"}}, {"type": "way", "id": 247455136, "nodes": [2543358020, 2543358021, 2543358022, 2543358023, 2543358020], "tags": {"amenity": "cafe", "building": "yes", "name": "caffe"}}, {"type": "way", "id": 247457356, "nodes": [2543365226, 2543365229, 2543373067, 2543373069, 2543365226], "tags": {"amenity": "cafe", "building": "yes", "name": "Kafe Qaj Nazi"}}, {"type": "way", "id": 247457358, "nodes": [2543373069, 2543373067, 2543373071, 2543373073, 2543373069], "tags": {"amenity": "cafe", "building": "yes"}}, {"type": "way", "id": 247601779, "nodes": [2544936036, 2544936037, 2544936038, 2544936039, 2544936036], "tags": {"amenity": "restaurant", "building": "yes", "name": "Ura"}}, {"type": "way", "id": 247648623, "nodes": [2543214156, 2545256753, 2545256765, 2545256774, 2545256777, 2545256783, 1598895525, 2545256776, 2545256767, 2543214156], "tags": {"addr:city": "Mitrovic\u00eb", "addr:postcode": "40000", "addr:street": "Agim Hajrizi", "air_conditioning": "yes", "amenity": "restaurant", "bar": "yes", "building": "yes", "contact:facebook": "https://www.facebook.com/missinisweetsofficial", "cuisine": "burger;regional;pizza;coffee_shop;chicken;italian;sandwich", "description": "Tek \"Missini Sweets\" do t\u00eb gjeni \u00ebmb\u00eblsira nga m\u00eb t\u00eb ndryshmet dhe m\u00eb t\u00eb shijshmet. Tek ne gjithashtu , mund t\u00eb gjeni ushqime t\u00eb ndryshme si sallata, pizza, sandwich me pul\u00eb,p\u00ebrshut\u00eb etj, pal\u00ebpeta, hamburger\u00eb etj. Na vizitoni dhe shijet e ndryshme t\u00eb \u00ebmb\u00eb", "diet:halal": "yes", "diet:local": "yes", "diet:vegetarian": "yes", "email": "info@missinisweets.com", "image": "https://www.facebook.com/missinisweetsofficial/photos/a.161813473835584/1254446334572287", "name": "MISSINI Sweets", "opening_hours": "Mo-Su 07:00-23:30", "outdoor_seating": "yes", "payment:cards": "yes", "payment:cash": "yes", "payment:credit_cards": "yes", "payment:debit_cards": "yes", "payment:maestro": "yes", "payment:mastercard": "yes", "payment:visa": "yes", "phone": "+383 46 886 666", "reservation": "yes", "smoking": "separated", "takeaway": "yes", "wheelchair": "yes"}}, {"type": "way", "id": 247674734, "nodes": [2545453407, 2545453408, 2545453409, 2545453410, 2545453411, 2545453412, 2545453407], "tags": {"addr:city": "Mitrovic", "addr:postcode": "40000", "addr:street": "Pim", "amenity": "restaurant", "building": "yes", "capacity": "200", "cuisine": "regional", "name": "Restaurant Verona", "opening_hours": "24/7", "smoking": "outside"}}, {"type": "way", "id": 252249603, "nodes": [4149208989, 2583461535, 2583461542, 2583461539, 2583461541, 2583461525, 2583461537, 2583461540, 2583461517, 2583461536, 2583461538, 2583461524, 4149208989], "tags": {"addr:housenumber": "2", "addr:street": "Driton Veliu", "amenity": "restaurant", "building": "yes", "email": "ntp_bamex@hotmail.com", "internet_access": "wlan", "name": "Restauran Krapi", "phone": "+38344944400"}}, {"type": "way", "id": 303383741, "nodes": [3077378103, 3077382505, 3077378104, 3077378105, 3077378106, 3077378103], "tags": {"amenity": "restaurant", "building": "yes", "building:levels": "1", "building:material": "concrete", "capacity": "300", "name": "Restaurant Trep\u00e7a", "roof:shape": "flat"}}, {"type": "way", "id": 529997657, "nodes": [5147610706, 5147610707, 5147610708, 5147610709, 5147610706], "tags": {"amenity": "restaurant", "building": "yes", "name": "Restaurant Vigu"}}, {"type": "way", "id": 1178293850, "nodes": [10946047537, 10946047538, 10946047539, 10946047540, 10946047537], "tags": {"amenity": "restaurant", "building": "yes", "name": "Restaurant \"Mrizi Zanave\""}}]}