{"version": 0.6, "generator": "Overpass API 0.7.62.7 375dc00a", "osm3s": {"timestamp_osm_base": "2025-06-14T13:48:30Z", "copyright": "The data included in this document is from www.openstreetmap.org. The data is made available under ODbL."}, "elements": [{"type": "node", "id": 313359307, "lat": 36.8308023, "lon": 11.9398821, "tags": {"addr:city": "Pantelleria", "addr:housenumber": "81", "addr:postcode": "91017", "addr:street": "Via Borgo Italia", "amenity": "restaurant", "facebook": "https://www.facebook.com/Ristorante-Pizzeria-Franco-Castiglione-101058238183393/", "name": "Ristorante Franco Castiglione", "opening_hours": "Mo-Su 19:00-24:00", "phone": "+39 0923 780247"}}, {"type": "node", "id": 313905583, "lat": 36.8307752, "lon": 11.9418295, "tags": {"amenity": "cafe", "name": "Caffe Aurora"}}, {"type": "node", "id": 314238531, "lat": 36.8339371, "lon": 11.9445046, "tags": {"addr:housenumber": "18", "addr:street": "Via Don Alonzo Errera", "amenity": "restaurant", "facebook": "https://www.facebook.com/Ristorante-LA-RISACCA-Pantelleria-137346679671584/", "name": "La Risacca", "opening_hours": "Mo-Su 12:30-14:30,19:45-23:00", "phone": "+39 0923 912975"}}, {"type": "node", "id": 315235397, "lat": 36.831305, "lon": 11.9391509, "tags": {"addr:city": "Pantelleria", "addr:postcode": "91017", "addr:street": "Via Borgo Italia", "amenity": "restaurant", "name": "Trattoria del porto di Castiglione Brigida", "opening_hours": "Mo-Su 19:30-23:30", "phone": "+39 0923 912677"}}, {"type": "node", "id": 445821490, "lat": 36.8072363, "lon": 12.0111355, "tags": {"addr:postcode": "91017", "addr:street": "Via Favarotta", "amenity": "restaurant", "cuisine": "regional", "name": "La Favarotta", "opening_hours": "Mo-Su 16:00-02:00", "phone": "+39 0923 915446"}}, {"type": "node", "id": 445824791, "lat": 36.7973602, "lon": 12.0487327, "tags": {"amenity": "restaurant", "name": "Le Cale"}}, {"type": "node", "id": 445825170, "lat": 36.8088861, "lon": 11.995555, "tags": {"amenity": "restaurant", "name": "L'Oasi di Venere"}}, {"type": "node", "id": 814625145, "lat": 36.791748, "lon": 12.0355016, "tags": {"amenity": "restaurant", "cuisine": "regional", "name": "Papuscia"}}, {"type": "node", "id": 814645583, "lat": 36.8310661, "lon": 11.9408915, "tags": {"amenity": "restaurant", "cuisine": "regional", "name": "Trattoria Il Gabbiano"}}, {"type": "node", "id": 2463928213, "lat": 36.830935, "lon": 11.9413616, "tags": {"amenity": "cafe", "internet_access": "wlan", "internet_access:fee": "no", "name": "Goloso & Goloso", "opening_hours": "06:00-02:00"}}, {"type": "node", "id": 2467410129, "lat": 36.8312159, "lon": 11.9461778, "tags": {"amenity": "restaurant", "cuisine": "italian;pizza;regional", "name": "Il Cappero"}}, {"type": "node", "id": 2475530040, "lat": 36.7779378, "lon": 11.9576151, "tags": {"addr:postcode": "91017", "amenity": "restaurant", "cuisine": "italian;regional", "name": "Al Tramonto", "opening_hours": "Mo-Su 12:30-14:30, 19:30-23:30", "outdoor_seating": "yes", "phone": "+39 0923 697420", "website": "https://www.ristorantealtramonto.it/"}}, {"type": "node", "id": 2475530042, "lat": 36.7990571, "lon": 11.9348801, "tags": {"addr:city": "Localit\u00e0 Suvaki", "addr:postcode": "91017", "addr:street": "Strada Perimetrale Ovest", "amenity": "restaurant", "contact:facebook": "https://www.facebook.com/La-Pergola-Ristorante-Pizzeria-400066420576751/", "contact:mobile": "+39 333 850 6744", "cuisine": "italian;pizza;regional", "name": "La Pergola", "opening_hours": "Mo-Th,Sa,Su 19:30-01:00; Fr 20:00-01:00", "phone": "+39 0923 918420", "website": "https://pergolapantelleria.myadj.it/v/pergolapantelleria"}}, {"type": "node", "id": 4188023028, "lat": 36.8312439, "lon": 11.9412206, "tags": {"amenity": "restaurant"}}, {"type": "node", "id": 4294715244, "lat": 36.7675746, "lon": 11.966533}, {"type": "node", "id": 4294715245, "lat": 36.7676399, "lon": 11.9663639}, {"type": "node", "id": 4294715246, "lat": 36.7676301, "lon": 11.9663644}, {"type": "node", "id": 4294715247, "lat": 36.7677034, "lon": 11.9665563}, {"type": "node", "id": 4294716515, "lat": 36.7676382, "lon": 11.9663153}, {"type": "node", "id": 4294716516, "lat": 36.7675671, "lon": 11.9663192}, {"type": "node", "id": 4294730743, "lat": 36.769544, "lon": 11.9689902}, {"type": "node", "id": 4294730744, "lat": 36.7697954, "lon": 11.9689767}, {"type": "node", "id": 4294730745, "lat": 36.7695353, "lon": 11.9690691}, {"type": "node", "id": 4294730746, "lat": 36.7697351, "lon": 11.9688385}, {"type": "node", "id": 4294730747, "lat": 36.7695655, "lon": 11.9691833}, {"type": "node", "id": 5168446249, "lat": 36.7696687, "lon": 11.9636652, "tags": {"addr:housenumber": "5", "addr:postcode": "91017", "addr:street": "Via Scauri Basso", "amenity": "restaurant", "name": "Altamarea", "opening_hours": "Mo-Su 20:00-24:00", "website": "https://www.altamareapantelleria.it/"}}, {"type": "node", "id": 5774577353, "lat": 36.8327484, "lon": 11.9439706, "tags": {"amenity": "restaurant", "name": "Blu Bar"}}, {"type": "node", "id": 5838314478, "lat": 36.8310483, "lon": 11.9411731, "tags": {"addr:housenumber": "43", "amenity": "cafe", "name": "Caff\u00e8 Aurora Policardo", "phone": "+390923911098"}}, {"type": "node", "id": 5838396559, "lat": 36.8316516, "lon": 11.9455001, "tags": {"addr:housenumber": "47", "addr:street": "Piazza Cavour", "amenity": "cafe", "name": "Pasticceria da Giovanni", "opening_hours": "Mo-Su 06:30-21:00"}}, {"type": "node", "id": 6360698823, "lat": 36.831468, "lon": 11.9354885, "tags": {"amenity": "restaurant", "name": "Trattoria da Bice"}}, {"type": "node", "id": 6360698828, "lat": 36.8305625, "lon": 11.9421053, "tags": {"amenity": "restaurant", "name": "Ristorante Dammuso"}}, {"type": "node", "id": 6360698841, "lat": 36.8305048, "lon": 11.9428697, "tags": {"amenity": "restaurant", "name": "Donne Fugate"}}, {"type": "node", "id": 6360698843, "lat": 36.8317301, "lon": 11.9473158, "tags": {"amenity": "restaurant", "name": "Birrificio La Panteska SNC"}}, {"type": "node", "id": 6360698844, "lat": 36.8301147, "lon": 11.9419894, "tags": {"addr:city": "Pantelleria", "addr:housenumber": "11", "addr:postcode": "91017", "amenity": "cafe", "name": "Mouna Caf\u00e9", "opening_hours": "Mo-Su 06:00-23:00", "outdoor_seating": "yes"}}, {"type": "node", "id": 6749436425, "lat": 36.8122398, "lon": 11.9305026, "tags": {"addr:city": "Pantelleria", "addr:housenumber": "16", "addr:postcode": "91017", "addr:street": "Via del Muro Alto", "amenity": "restaurant", "bar": "yes", "contact:email": "sesiventipantelleria@gmail.com", "contact:facebook": "https://facebook.com/Sesiventi", "contact:phone": "+39 327 6611186", "contact:twitter": "https://twitter.com/hashtag/sesiventi", "facebook": "https://www.facebook.com/Sesiventi", "name": "Sesiventi", "opening_hours": "Su-Th 19:00-01:00, Fr-Sa 19:00-03:00", "outdoor_seating": "yes"}}, {"type": "node", "id": 6749632615, "lat": 36.8306657, "lon": 11.9421761, "tags": {"amenity": "restaurant", "cuisine": "seafood", "name": "Aquamarina", "phone": "+39 328 823 0541"}}, {"type": "node", "id": 7149099064, "lat": 36.8304415, "lon": 11.9421715, "tags": {"amenity": "restaurant", "cuisine": "fast_food;italian", "name": "Pippo il buongustaio", "phone": "+39 3382915124"}}, {"type": "node", "id": 7149104673, "lat": 36.8304599, "lon": 11.942043, "tags": {"addr:city": "Pantelleria", "addr:housenumber": "8", "addr:postcode": "91017", "addr:street": "Via Catania", "amenity": "restaurant", "cuisine": "fast_food;italian", "name": "Strit Fud", "phone": "+39 389 790 9834"}}, {"type": "node", "id": 7556376594, "lat": 36.7834102, "lon": 11.9779479, "tags": {"addr:city": "Pantelleria", "addr:housenumber": "21", "addr:postcode": "91017", "addr:street": "Via Grotta di Benikul\u00e0", "amenity": "restaurant", "contact:facebook": "https://www.facebook.com/Firiciakki/", "name": "Rifugio Firi\u00e7iakki", "opening_hours": "Mo-Su 18:00-24:00", "phone": "+39 0923 582415"}}, {"type": "node", "id": 7563544359, "lat": 36.7959362, "lon": 11.9354675, "tags": {"addr:city": "Pantelleria", "addr:postcode": "91017", "addr:street": "Suvaki discesa a mare", "amenity": "restaurant", "bar": "yes", "contact:mobile": "+39 366 978 1658", "drink:wine": "yes", "email": "info@lidoshurhuq.it", "facebook": "https://www.facebook.com/shurhuq/", "name": "Lido Shurhuq", "opening_hours": "Mo-Su 08:00-01:00", "website": "https://www.lidoshurhuq.it/"}}, {"type": "node", "id": 7575464316, "lat": 36.8184158, "lon": 11.9284719, "tags": {"amenity": "restaurant", "name": "Oxidiana"}}, {"type": "node", "id": 7751975485, "lat": 36.7595066, "lon": 11.9890624, "tags": {"addr:postcode": "91017", "addr:street": "Via Bonomo Alto", "amenity": "restaurant", "cuisine": "regional", "name": "I Giardini dei Rodo", "name:it": "I Giardini dei Rodo", "opening_hours": "Mo-Su 20:00-01:00", "phone": "+39 0923 916606", "website": "https://igiardinideirodo.it/"}}, {"type": "node", "id": 7868534385, "lat": 36.8181038, "lon": 11.9894645, "tags": {"amenity": "restaurant", "name": "Trattoria \"Da Pina\""}}, {"type": "node", "id": 7869714685, "lat": 36.8119707, "lon": 12.0248426, "tags": {"amenity": "restaurant", "name": "Da Andrea"}}, {"type": "node", "id": 8285896779, "lat": 36.8158312, "lon": 11.9794698, "tags": {"addr:city": "Pantelleria", "addr:housenumber": "sn", "addr:postcode": "91017", "addr:street": "Via Zinedi", "amenity": "restaurant", "cuisine": "regional", "name": "Agriturismo Zinedi", "phone": "+39 0923 914023"}}, {"type": "node", "id": 8296329217, "lat": 36.8228336, "lon": 12.009546, "tags": {"addr:postcode": "91017", "addr:street": "Via Spadillo", "amenity": "restaurant", "name": "U'Truscio", "phone": "+393274599926"}}, {"type": "node", "id": 8987604633, "lat": 36.7676324, "lon": 11.9664304}, {"type": "node", "id": 8987604634, "lat": 36.7676552, "lon": 11.9664292}, {"type": "node", "id": 8987604635, "lat": 36.7676559, "lon": 11.9664505}, {"type": "node", "id": 8987604636, "lat": 36.7676996, "lon": 11.9664481}, {"type": "node", "id": 8987604637, "lat": 36.7675907, "lon": 11.9665624}, {"type": "node", "id": 8987604638, "lat": 36.7675896, "lon": 11.9665321}, {"type": "node", "id": 10795777608, "lat": 36.7676555, "lon": 11.9664368}, {"type": "way", "id": 430199539, "nodes": [4294716515, 4294716516, 4294715244, 8987604638, 8987604637, 4294715247, 8987604636, 8987604635, 10795777608, 8987604634, 8987604633, 4294715246, 4294715245, 4294716515], "tags": {"addr:city": "Pantelleria", "addr:housename": "Complesso La Vela", "addr:postcode": "91017", "addr:street": "Via dello Scalo", "amenity": "restaurant", "building": "yes", "cuisine": "regional", "name": "La Vela"}}, {"type": "way", "id": 430201046, "nodes": [4294730743, 4294730746, 4294730744, 4294730747, 4294730745, 4294730743], "tags": {"amenity": "restaurant", "name": "La Nicchia"}}]}