{"version": 0.6, "generator": "Overpass API 0.7.62.7 375dc00a", "osm3s": {"timestamp_osm_base": "2025-06-14T15:16:01Z", "copyright": "The data included in this document is from www.openstreetmap.org. The data is made available under ODbL."}, "elements": [{"type": "node", "id": 1647106128, "lat": 2.7740018, "lon": 32.2996386, "tags": {"amenity": "restaurant", "fixme": "fix location", "name": "The Kitchen"}}, {"type": "node", "id": 1647106179, "lat": 2.7739215, "lon": 32.2991504, "tags": {"amenity": "restaurant", "fixme": "fix location"}}, {"type": "node", "id": 1655906897, "lat": 2.7701438, "lon": 32.3084839, "tags": {"amenity": "restaurant"}}, {"type": "node", "id": 1866835473, "lat": 2.7709454, "lon": 32.2984939}, {"type": "node", "id": 1866835476, "lat": 2.7709505, "lon": 32.2986292}, {"type": "node", "id": 1866835488, "lat": 2.7709827, "lon": 32.2984896}, {"type": "node", "id": 1866835489, "lat": 2.7709606, "lon": 32.2986281}, {"type": "node", "id": 1866835490, "lat": 2.7709626, "lon": 32.2987359}, {"type": "node", "id": 1866835496, "lat": 2.7710117, "lon": 32.2984415}, {"type": "node", "id": 1866835499, "lat": 2.7709976, "lon": 32.2986208}, {"type": "node", "id": 1866835520, "lat": 2.7710316, "lon": 32.2986169}, {"type": "node", "id": 1866835564, "lat": 2.7710677, "lon": 32.2984352}, {"type": "node", "id": 1866835588, "lat": 2.7711, "lon": 32.2987203}, {"type": "node", "id": 1873909182, "lat": 2.7878399, "lon": 32.3162829}, {"type": "node", "id": 1873909191, "lat": 2.7879058, "lon": 32.3164491}, {"type": "node", "id": 1873909194, "lat": 2.7879248, "lon": 32.3162491}, {"type": "node", "id": 1873909198, "lat": 2.7879558, "lon": 32.3163274}, {"type": "node", "id": 1873909203, "lat": 2.7879816, "lon": 32.316419}, {"type": "node", "id": 1873909204, "lat": 2.7879959, "lon": 32.316455}, {"type": "node", "id": 1873909208, "lat": 2.7880285, "lon": 32.3164056}, {"type": "node", "id": 1873909210, "lat": 2.7880409, "lon": 32.3164371}, {"type": "node", "id": 1873909213, "lat": 2.7880705, "lon": 32.3162818}, {"type": "node", "id": 1873909217, "lat": 2.7881072, "lon": 32.3163743}, {"type": "node", "id": 1898499689, "lat": 2.773845, "lon": 32.3002626, "tags": {"addr:street": "Awere Road", "amenity": "restaurant", "name": "Alulululu Pork Roasting joint", "name:en": "ALULULULU Pork joint"}}, {"type": "node", "id": 2894717806, "lat": 2.7731826, "lon": 32.30735, "tags": {"addr:street": "Jomo Kenyatta Road", "amenity": "restaurant", "cuisine": "african;american;breakfast;burger;coffee_shop;international", "denomination": "pentecostal", "email": "hello@elephantecommons.org", "internet_access": "wlan", "name": "Elephante commons", "opening_hours": "Mo-Sa 09:00-21:00; Su 11:00-21:00", "phone": "0783115811", "website": "https://elephantecommons.org/"}}, {"type": "node", "id": 3555812995, "lat": 2.7678808, "lon": 32.3051432, "tags": {"amenity": "restaurant", "name": "Sports View Hotel"}}, {"type": "node", "id": 4121475689, "lat": 2.7854996, "lon": 32.3046857, "tags": {"amenity": "restaurant", "cuisine": "international", "internet_access": "wlan", "name": "Well Springs"}}, {"type": "node", "id": 4122641493, "lat": 2.7764588, "lon": 32.2995193, "tags": {"amenity": "restaurant"}}, {"type": "node", "id": 4287863493, "lat": 2.7715022, "lon": 32.3011316, "tags": {"amenity": "restaurant", "cuisine": "mexican", "name": "Iron Donkey Cafe & Guesthouse", "opening_hours": "Tu-Sa 09:00-19:00", "phone": "+256 793 719 563"}}, {"type": "node", "id": 4589341690, "lat": 2.7705047, "lon": 32.3031398, "tags": {"amenity": "restaurant", "internet_access": "wlan", "name": "Pagoda"}}, {"type": "node", "id": 4589341691, "lat": 2.7701892, "lon": 32.296646, "tags": {"amenity": "restaurant", "internet_access": "wlan", "name": "Cafe Larem"}}, {"type": "node", "id": 4589341693, "lat": 2.7712539, "lon": 32.3012008, "tags": {"amenity": "restaurant", "cuisine": "indian", "internet_access": "wlan", "name": "Anna's Food Point"}}, {"type": "node", "id": 5573153130, "lat": 2.7394557, "lon": 32.2986194, "tags": {"amenity": "restaurant", "name": "Dining Hall"}}, {"type": "node", "id": 6418932795, "lat": 2.7702456, "lon": 32.2967305, "tags": {"amenity": "cafe", "name": "Caf\u00e9 Gulu"}}, {"type": "node", "id": 7043822272, "lat": 2.7826339, "lon": 32.3009847, "tags": {"amenity": "restaurant", "description": "Indian Restaurant", "name": "Anna Food Point"}}, {"type": "node", "id": 8040555985, "lat": 2.7683904, "lon": 32.2978851, "tags": {"addr:street": "Main Street", "amenity": "restaurant", "cuisine": "african", "name": "New Comred Restaurant", "name:en": "New Comrade Restaurant"}}, {"type": "node", "id": 8213568368, "lat": 2.8017902, "lon": 32.1911874}, {"type": "node", "id": 8213568369, "lat": 2.8017372, "lon": 32.1912158}, {"type": "node", "id": 8213568370, "lat": 2.8018185, "lon": 32.1914741}, {"type": "node", "id": 8213568371, "lat": 2.8018963, "lon": 32.1914316}, {"type": "node", "id": 8427623519, "lat": 2.7661472, "lon": 32.2986888, "tags": {"addr:street": "Jomo Kenyatta Road", "amenity": "restaurant", "name": "Bismillah Gaz restaurant", "opening_hours": "24/7", "phone": "0757890558"}}, {"type": "node", "id": 8489169846, "lat": 2.7684829, "lon": 32.2982072, "tags": {"amenity": "restaurant", "name": "New Comrades Restaurant"}}, {"type": "node", "id": 8723739564, "lat": 2.7662973, "lon": 32.2986193, "tags": {"amenity": "restaurant", "name": "Basmati Restaurant", "opening_hours": "Mo-Su 08:00-19:00"}}, {"type": "node", "id": 8733036899, "lat": 2.7705376, "lon": 32.3059628, "tags": {"amenity": "restaurant", "description": "Pork Joint and Restaurant", "name": "VIP P'KAKA Pork Joint", "phone": "0772427373"}}, {"type": "node", "id": 8733047337, "lat": 2.7661224, "lon": 32.2987013, "tags": {"amenity": "restaurant", "name": "Bismillah Gaz Restaurant"}}, {"type": "node", "id": 8870480034, "lat": 2.7809182, "lon": 32.3004457, "tags": {"addr:city": "Gulu, Uganda", "addr:housenumber": "Plot Br 85", "addr:postcode": "27", "addr:street": "Lower Churchill Drive", "amenity": "restaurant", "bar": "yes", "capacity": "200", "cuisine": "regional;international", "name": "The DOT Restaurant", "opening_hours": "Mo-Fr 08:00-12:45", "phone": "+256772435098, +256772351256, +256760210132", "website": "https://www.facebook.com/foodsDotpub/"}}, {"type": "node", "id": 9164653052, "lat": 2.7878692, "lon": 32.3163538}, {"type": "node", "id": 10046420891, "lat": 2.786541, "lon": 32.302587, "tags": {"amenity": "restaurant", "beds": "5 single standard, 6 AC Deluxe, 1 Suit, 1 Twin suit", "contact:email": "nothernpearluganda@gmail.com", "fee": "110,000 UGX - 350,000 UGX with breakfast", "food": "Fast Foods and Local Foods", "image": "https://live.staticflickr.com/65535/52215775163_56be90f461.jpg", "name": "Northern Pearl Hotel", "phone": "+256 781 840 581 +256 709 080 808", "rating": "Mid-range", "rooms": "13", "time:check_in": "11:00:00", "time:check_out": "11:00:00", "tourism": "hotel", "website": "www.northernpearlhotel.com"}}, {"type": "node", "id": 10046637936, "lat": 2.774067, "lon": 32.300448, "tags": {"amenity": "restaurant", "beds": "20", "fee": "30000-60000 Breakfast and complimentary evening tea", "food": "Fast Foods and Local Foods", "image": "https://live.staticflickr.com/65535/52216034934_6a87379e03.jpg", "name": "Jojo's Palace", "phone": "+256 393 238 097", "rating": "Low_end", "rooms": "16", "time:check_in": "10:18:00", "time:check_out": "09:00:00", "tourism": "guest_house"}}, {"type": "node", "id": 10046752652, "lat": 2.785957, "lon": 32.302664, "tags": {"amenity": "restaurant", "beds": "19", "contact:email": "reservation@virginsuites.co.ug", "fee": "122,000 UGX to 202,000 UGX", "food": "Fast Foods and Local Foods", "image": "https://live.staticflickr.com/65535/52215760671_4dc8a2125e.jpg", "name": "Virgin World Suites Limited", "phone": "+256 393 241 303", "rating": "High_end", "rooms": "17", "time:check_in": "15:01:00", "time:check_out": "10:00:00", "tourism": "hotel"}}, {"type": "node", "id": 10046752659, "lat": 2.782692, "lon": 32.301145, "tags": {"amenity": "restaurant", "beds": "10 beds", "fee": "30,000 UGX - 40,000 UGX without breakfast", "food": "Fast Foods and Local Foods", "name": "Urban King Inn", "phone": "+256 787 487 663 or +256 770 554 999", "rating": "Low_end", "rooms": "10", "time:check_out": "10:00:00", "tourism": "guest_house"}}, {"type": "node", "id": 10047166398, "lat": 2.774131, "lon": 32.300145, "tags": {"amenity": "restaurant", "beds": "46", "fee": "65000-75000", "food": "Fast Foods and Local Foods", "image": "https://live.staticflickr.com/65535/52215779653_e3b7e704db.jpg", "name": "Free Zone Hotel", "phone": "+256 789 099 748 or +256 705 902 876", "rating": "Mid-range", "rooms": "46", "time:check_in": "10:09:00", "time:check_out": "10:00:00", "tourism": "hotel"}}, {"type": "node", "id": 10047221907, "lat": 2.769822, "lon": 32.305549, "tags": {"amenity": "restaurant", "beds": "26", "fee": "30000-70000 With Breakfast", "food": "Fast Foods and Local Foods", "image": "https://live.staticflickr.com/65535/52214752222_053313115a.jpg", "name": "Tina Hotel", "phone": "+256 393 193 007 or +256 780 802 196 or +256 779 745 827", "rating": "Low_end", "rooms": "26", "time:check_in": "09:26:00", "time:check_out": "10:00:00", "tourism": "hotel"}}, {"type": "node", "id": 10047395762, "lat": 2.7719, "lon": 32.297162, "tags": {"amenity": "restaurant", "beds": "12", "fee": "20000-35000", "name": "Sanyu Guesthouse", "phone": "+256 709 531 373", "rating": "Low_end", "rooms": "12", "time:check_out": "09:00:00", "tourism": "guest_house"}}, {"type": "node", "id": 10047395767, "lat": 2.769824, "lon": 32.30831, "tags": {"amenity": "restaurant", "beds": "18", "fee": "36000", "food": "Fast Foods and Local Foods", "image": "https://live.staticflickr.com/65535/52292796942_38de3ea94b.jpg", "name": "Toplex Hotel", "phone": "+256 780 452 715", "rating": "Mid-range", "rooms": "18", "tourism": "hotel"}}, {"type": "node", "id": 10047395772, "lat": 2.780932, "lon": 32.297785, "tags": {"amenity": "restaurant", "beds": "105 beds", "contact:email": "acholiinn@yahoo.com", "fee": "102000(single)-400000(family room) with breakfast, wifi, health club", "food": "Fast Foods and Local Foods", "image": "https://live.staticflickr.com/65535/52293740831_f54373c5f1.jpg", "name": "Acholi Inn", "phone": "+256 393 249 399", "rating": "High_end", "rooms": "100", "time:check_in": "07:00:00", "time:check_out": "10:00:00", "tourism": "hotel"}}, {"type": "node", "id": 10053020239, "lat": 2.772018, "lon": 32.297077, "tags": {"amenity": "restaurant", "food": "Fast Foods and Local Foods", "name": "Hotel Gran Ville Gulu City", "phone": "+256 773 178 747"}}, {"type": "node", "id": 10053020247, "lat": 2.772485, "lon": 32.297069, "tags": {"amenity": "restaurant", "food": "Fast Foods and Local Foods", "name": "Hotel HR Roma"}}, {"type": "node", "id": 10053020250, "lat": 2.770469, "lon": 32.301895, "tags": {"amenity": "restaurant", "email": "newlife.15@gmail.com", "food": "Fast Foods and Local Foods", "image": "https://live.staticflickr.com/65535/52216032144_443c70f5da_z.jpg", "name": "New Life Restaurant", "phone": "+256 701 081 022"}}, {"type": "node", "id": 10053020252, "lat": 2.771603, "lon": 32.297487, "tags": {"amenity": "restaurant", "food": "Fast Foods and Local Foods", "name": "Montana Restaurant and Bar"}}, {"type": "node", "id": 10053020254, "lat": 2.772628, "lon": 32.297037, "tags": {"amenity": "restaurant", "food": "Fast Foods and Local Foods", "name": "Binen Restaurant"}}, {"type": "node", "id": 10053020258, "lat": 2.769796, "lon": 32.308328, "tags": {"amenity": "restaurant", "beds": "18", "fee": "36000", "food": "Local Foods and Fast Foods", "image": "https://live.staticflickr.com/65535/52292796942_38de3ea94b.jpg", "name": "Stadium view toplex hotel", "phone": "+256 778 045 271", "rating": "Mid-range", "rooms": "18"}}, {"type": "node", "id": 10053020261, "lat": 2.773638, "lon": 32.299325, "tags": {"amenity": "restaurant", "food": "Local Foods", "name": "Sanyu Guesthouse", "phone": "+256 752 270 229 or +256 785 612 442"}}, {"type": "node", "id": 10235544524, "lat": 2.7855849, "lon": 32.3039407, "tags": {"amenity": "restaurant", "cuisine": "barbecue", "name": "Pork Joint"}}, {"type": "node", "id": 10235549709, "lat": 2.7833017, "lon": 32.3030379, "tags": {"amenity": "restaurant", "cuisine": "indian", "name": "Walter Komakech Kitchen"}}, {"type": "node", "id": 10235549713, "lat": 2.7844158, "lon": 32.3070549, "tags": {"amenity": "restaurant", "cuisine": "barbecue", "name": "Zodongo"}}, {"type": "node", "id": 10982819251, "lat": 2.7730965, "lon": 32.299461, "tags": {"amenity": "restaurant", "cuisine": "burger;chicken", "name": "RFC Restaurant"}}, {"type": "node", "id": 11054386942, "lat": 2.7730883, "lon": 32.2994193, "tags": {"amenity": "restaurant", "cuisine": "breakfast, pizza, burger, chicken", "delivery": "yes", "diet:vegetarian": "yes", "name": "RFC Fast Food", "phone": "+256200905018", "takeaway": "yes"}}, {"type": "node", "id": 11745186870, "lat": 2.7667326, "lon": 32.2991652, "tags": {"amenity": "restaurant", "name": "Orchid Cafe"}}, {"type": "node", "id": 12337277001, "lat": 2.766448, "lon": 32.2991049, "tags": {"amenity": "restaurant", "name": "Orchid restraurant"}}, {"type": "way", "id": 176115756, "nodes": [1866835490, 1866835476, 1866835489, 1866835473, 1866835488, 1866835499, 1866835520, 1866835496, 1866835564, 1866835588, 1866835490], "tags": {"amenity": "cafe", "building": "yes", "internet_access": "wlan", "name": "The Coffee Hut", "source": "NextView"}}, {"type": "way", "id": 176907148, "nodes": [1873909198, 1873909194, 1873909182, 9164653052, 1873909191, 1873909203, 1873909204, 1873909210, 1873909208, 1873909217, 1873909213, 1873909198], "tags": {"amenity": "cafe", "building": "yes", "name": "Public Cafe"}}, {"type": "way", "id": 883220890, "nodes": [8213568368, 8213568369, 8213568370, 8213568371, 8213568368], "tags": {"amenity": "restaurant", "building": "yes"}}]}