{"version": 0.6, "generator": "Overpass API 0.7.62.7 375dc00a", "osm3s": {"timestamp_osm_base": "2025-06-14T14:33:06Z", "copyright": "The data included in this document is from www.openstreetmap.org. The data is made available under ODbL."}, "elements": [{"type": "node", "id": 493925448, "lat": 39.5866601, "lon": 19.9139534, "tags": {"amenity": "restaurant", "name": "Ninos Restaurant"}}, {"type": "node", "id": 493925449, "lat": 39.5822971, "lon": 19.9134538, "tags": {"amenity": "restaurant", "name": "Taverne Alkinos"}}, {"type": "node", "id": 534607973, "lat": 39.6251555, "lon": 19.9238208, "tags": {"amenity": "cafe", "name": "Cafe Bar 92"}}, {"type": "node", "id": 760506570, "lat": 39.5014676, "lon": 19.8529678, "tags": {"addr:city": "Corfu", "addr:postcode": "49084", "addr:street": "Paramonas Beach", "amenity": "restaurant", "capacity": "80", "cuisine": "greek", "name": "Sunset", "opening_hours": "11:00-23:00", "phone": "00302661075149", "smoking": "outside", "takeaway": "yes"}}, {"type": "node", "id": 761130024, "lat": 39.5455128, "lon": 19.8504497, "tags": {"amenity": "restaurant", "name": "Sabbia"}}, {"type": "node", "id": 761130030, "lat": 39.5463005, "lon": 19.8500343, "tags": {"amenity": "restaurant", "name": "Dandidis"}}, {"type": "node", "id": 761130031, "lat": 39.5469867, "lon": 19.852796, "tags": {"amenity": "restaurant", "name": "Alexis's Restaurant"}}, {"type": "node", "id": 761130035, "lat": 39.544542, "lon": 19.8506953, "tags": {"amenity": "restaurant", "cuisine": "greek", "name": "Elena's Taverna", "website": "https://elenasapartments.com/restaurant/"}}, {"type": "node", "id": 761130040, "lat": 39.5443857, "lon": 19.8506975, "tags": {"amenity": "restaurant", "cuisine": "greek", "name": "Tavernaki Green Stone", "website": "https://tavernaki-green-stone.business.site/"}}, {"type": "node", "id": 761130044, "lat": 39.5450115, "lon": 19.8506528, "tags": {"amenity": "restaurant", "cuisine": "italian;greek", "email": "info@seabreezecorfu.gr", "fax": "(+30) 26610 53744", "name": "See Breeze", "phone": "(+30) 26610 53214", "tourism": "hotel", "website": "https://www.seabreezecorfu.com/"}}, {"type": "node", "id": 761130046, "lat": 39.5468398, "lon": 19.8519244, "tags": {"amenity": "restaurant", "name": "Linda's Restaurant"}}, {"type": "node", "id": 761130050, "lat": 39.547212, "lon": 19.8496692, "tags": {"amenity": "restaurant", "name": "Skal"}}, {"type": "node", "id": 761130055, "lat": 39.5470348, "lon": 19.8516893, "tags": {"amenity": "restaurant", "name": "La Tabernita Mexicana", "opening_hours": "closed"}}, {"type": "node", "id": 761130061, "lat": 39.5464694, "lon": 19.8500291, "tags": {"amenity": "restaurant", "name": "Taverna Romantica"}}, {"type": "node", "id": 761130071, "lat": 39.5468359, "lon": 19.8513496, "tags": {"amenity": "cafe", "internet_access": "yes", "internet_access:fee": "no", "name": "Time Out", "note": "free internet access", "opening_hours": "closed"}}, {"type": "node", "id": 761130076, "lat": 39.5477955, "lon": 19.8492159, "tags": {"amenity": "restaurant", "name": "Alo Bar"}}, {"type": "node", "id": 761130077, "lat": 39.5470238, "lon": 19.8520157, "tags": {"amenity": "restaurant", "name": "Delphi"}}, {"type": "node", "id": 761130090, "lat": 39.5451709, "lon": 19.8506188, "tags": {"amenity": "restaurant", "name": "Thalassa"}}, {"type": "node", "id": 762520818, "lat": 39.5915116, "lon": 19.9175759, "tags": {"amenity": "cafe", "name": "Ma Cocotte"}}, {"type": "node", "id": 762536334, "lat": 39.6152844, "lon": 19.8428629, "tags": {"amenity": "cafe", "name": "Spider Cafe"}}, {"type": "node", "id": 763208311, "lat": 39.5436995, "lon": 19.8508365, "tags": {"amenity": "restaurant", "name": "Ortholiti", "opening_hours": "Mo-Su 09:00-00:00", "phone": "+30 2661 774770"}}, {"type": "node", "id": 764418560, "lat": 39.5924198, "lon": 19.8207919, "tags": {"amenity": "restaurant", "name": "Alexandros", "website": "https://www.alexandrospelekas.com"}}, {"type": "node", "id": 764418568, "lat": 39.591869, "lon": 19.8217353, "tags": {"amenity": "cafe", "name": "O Foros"}}, {"type": "node", "id": 764418570, "lat": 39.5914178, "lon": 19.8218416, "tags": {"amenity": "restaurant", "name": "Roula's Taverna"}}, {"type": "node", "id": 764418573, "lat": 39.5919459, "lon": 19.8220493, "tags": {"amenity": "cafe", "name": "Pelekas Cafe"}}, {"type": "node", "id": 764418574, "lat": 39.5917069, "lon": 19.8219275, "tags": {"air_conditioning": "no", "amenity": "restaurant", "name": "Agnes", "outdoor_seating": "yes", "wheelchair": "no"}}, {"type": "node", "id": 764418576, "lat": 39.5921907, "lon": 19.8210585, "tags": {"amenity": "restaurant", "name": "Jimmy's"}}, {"type": "node", "id": 764418577, "lat": 39.5918652, "lon": 19.8210025, "tags": {"amenity": "restaurant", "name": "Antonis"}}, {"type": "node", "id": 827255038, "lat": 39.4261024, "lon": 19.9447421, "tags": {"amenity": "restaurant", "name": "Panorama"}}, {"type": "node", "id": 827255041, "lat": 39.4270301, "lon": 19.9438746, "tags": {"amenity": "restaurant", "cuisine": "crepe", "name": "Cosy Finger Food Bar"}}, {"type": "node", "id": 827255045, "lat": 39.4256503, "lon": 19.9488607, "tags": {"amenity": "restaurant", "cuisine": "italian", "name": "Il Mare"}}, {"type": "node", "id": 827255047, "lat": 39.4257926, "lon": 19.9463361, "tags": {"amenity": "restaurant", "cuisine": "greek", "name": "Sea Gulls"}}, {"type": "node", "id": 828707176, "lat": 39.4274229, "lon": 19.9437372, "tags": {"amenity": "restaurant", "cuisine": "greek", "name": "Balcony"}}, {"type": "node", "id": 859337580, "lat": 39.4071113, "lon": 20.2405288, "tags": {"amenity": "restaurant", "cuisine": "greek", "name": "Mediterraneo"}}, {"type": "node", "id": 913247689, "lat": 39.4921158, "lon": 20.2641337, "tags": {"amenity": "cafe", "name": "Verde"}}, {"type": "node", "id": 929657285, "lat": 39.6216522, "lon": 19.9227405, "tags": {"amenity": "restaurant"}}, {"type": "node", "id": 929657290, "lat": 39.6219077, "lon": 19.9227486, "tags": {"amenity": "restaurant"}}, {"type": "node", "id": 929657294, "lat": 39.6212582, "lon": 19.9228929, "tags": {"amenity": "restaurant"}}, {"type": "node", "id": 939128971, "lat": 39.6273211, "lon": 19.9149379, "tags": {"amenity": "restaurant", "name": "Stathis"}}, {"type": "node", "id": 1092649950, "lat": 39.6101577, "lon": 19.9279318}, {"type": "node", "id": 1092650124, "lat": 39.6101635, "lon": 19.927819}, {"type": "node", "id": 1092650734, "lat": 39.6103378, "lon": 19.9279474}, {"type": "node", "id": 1092651396, "lat": 39.6103436, "lon": 19.9278346}, {"type": "node", "id": 1135370455, "lat": 39.6392198, "lon": 19.9235321}, {"type": "node", "id": 1135370456, "lat": 39.6392366, "lon": 19.9237565}, {"type": "node", "id": 1135370457, "lat": 39.6393815, "lon": 19.9237382}, {"type": "node", "id": 1135370458, "lat": 39.6393768, "lon": 19.9236746}, {"type": "node", "id": 1135370459, "lat": 39.6394604, "lon": 19.9236641}, {"type": "node", "id": 1135370460, "lat": 39.6394537, "lon": 19.9235755}, {"type": "node", "id": 1135370461, "lat": 39.6393727, "lon": 19.9235857}, {"type": "node", "id": 1135370462, "lat": 39.6393672, "lon": 19.9235134}, {"type": "node", "id": 1269193728, "lat": 39.4233324, "lon": 20.0728544, "tags": {"amenity": "restaurant", "cuisine": "greek", "name": "\u03a3\u03c4\u03b7\u03bd \u03c0\u03bb\u03b1\u03c4\u03b5\u03af\u03b1", "name:el": "\u03a3\u03c4\u03b7\u03bd \u03c0\u03bb\u03b1\u03c4\u03b5\u03af\u03b1", "name:en": "Stin Platia"}}, {"type": "node", "id": 1269193731, "lat": 39.4108024, "lon": 20.0713968, "tags": {"amenity": "cafe", "name": "Cube Bistrot Coffee Bar", "phone": "+302662024967"}}, {"type": "node", "id": 1269193741, "lat": 39.4234046, "lon": 20.0624218, "tags": {"amenity": "cafe", "int_name": "Mikro Cafe Espresso Bar", "name": "\u039c\u03b9\u03ba\u03c1\u03cc Cafe Espresso Bar"}}, {"type": "node", "id": 1269193743, "lat": 39.4223889, "lon": 20.0584574, "tags": {"amenity": "cafe", "int_name": "O Katsotas", "name": "\u039f \u039a\u03b1\u03c4\u03c3\u03ce\u03c4\u03b1\u03c2", "name:el": "\u039f \u039a\u03b1\u03c4\u03c3\u03ce\u03c4\u03b1\u03c2"}}, {"type": "node", "id": 1306075133, "lat": 39.4540332, "lon": 20.001782, "tags": {"addr:city": "Petriti", "amenity": "restaurant", "cuisine": "greek", "name": "Taverna Leonidas", "website": "https://tavernapetriti.wordpress.com/"}}, {"type": "node", "id": 1339597373, "lat": 39.6460496, "lon": 19.8504181, "tags": {"amenity": "restaurant", "name": "Bistro Boileau"}}, {"type": "node", "id": 1339783269, "lat": 39.4520131, "lon": 20.2767819, "tags": {"amenity": "restaurant", "name": "Olga's"}}, {"type": "node", "id": 1340038276, "lat": 39.6242585, "lon": 19.9285626, "tags": {"amenity": "restaurant", "int_name": "Corfu Sailing Club", "name": "\u0399\u03c3\u03c4\u03b9\u03bf\u03c0\u03bb\u03bf\u03ca\u03ba\u03cc\u03c2 \u038c\u03bc\u03b9\u03bb\u03bf\u03c2 \u039a\u03b5\u03c1\u03ba\u03cd\u03c1\u03b1\u03c2"}}, {"type": "node", "id": 1359295588, "lat": 39.5085386, "lon": 19.9092598, "tags": {"amenity": "restaurant", "indoor_seating": "yes", "name:de": "Spiros", "name:en": "Spiros", "outdoor_seating": "yes"}}, {"type": "node", "id": 1361204536, "lat": 39.5655224, "lon": 19.8482242, "tags": {"amenity": "cafe", "name": "\u03a3\u03b9\u03bd\u03b1\u03c1\u03ac\u03b4\u03b5\u03c2", "outdoor_seating": "yes"}}, {"type": "node", "id": 1361204557, "lat": 39.5657147, "lon": 19.8486172, "tags": {"amenity": "restaurant", "internet_access": "wlan", "name": "Apxontapiki", "tourism": "apartment"}}, {"type": "node", "id": 1361205842, "lat": 39.5648214, "lon": 19.8393422, "tags": {"amenity": "restaurant", "int_name": "Aerostato", "name": "\u0391\u03b5\u03c1\u03cc\u03c3\u03c4\u03b1\u03c4\u03bf"}}, {"type": "node", "id": 1361225561, "lat": 39.5971942, "lon": 19.795775}, {"type": "node", "id": 1421020673, "lat": 39.4774061, "lon": 19.8852069}, {"type": "node", "id": 1421074304, "lat": 39.4543796, "lon": 19.9564521, "tags": {"amenity": "restaurant", "name": "Sirtaki"}}, {"type": "node", "id": 1421074306, "lat": 39.4561524, "lon": 19.877166, "tags": {"amenity": "restaurant", "name": "Nikolas"}}, {"type": "node", "id": 1421199983, "lat": 39.455792, "lon": 19.956766, "tags": {"amenity": "restaurant"}}, {"type": "node", "id": 1421199986, "lat": 39.4563388, "lon": 19.9576806, "tags": {"amenity": "cafe"}}, {"type": "node", "id": 1424312522, "lat": 39.5918318, "lon": 19.91713, "tags": {"amenity": "cafe", "name": "Cafe Royal"}}, {"type": "node", "id": 1424312523, "lat": 39.5915545, "lon": 19.9173603, "tags": {"amenity": "cafe", "name": "Kanoni", "phone": "+30 693 680 5330", "website": "http://www.cafekanoni.gr/"}}, {"type": "node", "id": 1424565155, "lat": 39.4286515, "lon": 19.9412742, "tags": {"amenity": "cafe", "name": "Harley Cafe", "wheelchair": "yes"}}, {"type": "node", "id": 1424565157, "lat": 39.4280843, "lon": 19.9415837, "tags": {"amenity": "restaurant", "name": "Akvila Travel Company", "opening_hours": "Mo-Su 10:00-22:00"}}, {"type": "node", "id": 1425859534, "lat": 39.6256013, "lon": 19.9251749, "tags": {"amenity": "cafe", "name": "Art Cafe"}}, {"type": "node", "id": 1426472052, "lat": 39.5520542, "lon": 19.8623446, "tags": {"amenity": "restaurant", "name": "Golden View"}}, {"type": "node", "id": 1426478380, "lat": 39.5939266, "lon": 19.8208973, "tags": {"amenity": "restaurant", "name": "Sunset"}}, {"type": "node", "id": 1435560705, "lat": 39.5121353, "lon": 20.2187687, "tags": {"amenity": "cafe", "name": "Barbarrossa"}}, {"type": "node", "id": 1435561650, "lat": 39.5154115, "lon": 20.2100796, "tags": {"amenity": "cafe"}}, {"type": "node", "id": 1491155959, "lat": 39.6078956, "lon": 19.9142948, "tags": {"amenity": "cafe"}}, {"type": "node", "id": 1782477091, "lat": 39.4641411, "lon": 19.9391846, "tags": {"amenity": "restaurant", "name": "75 steps", "phone": "+30 26610750028"}}, {"type": "node", "id": 1842855350, "lat": 39.4142515, "lon": 20.0960574, "tags": {"amenity": "cafe", "name": "Clepsydra"}}, {"type": "node", "id": 1943275973, "lat": 39.5005444, "lon": 19.8528731, "tags": {"amenity": "restaurant", "cuisine": "greek", "name": "Taverna Plori"}}, {"type": "node", "id": 1968743846, "lat": 39.4224922, "lon": 20.0623048, "tags": {"amenity": "cafe", "name": "Central Cafe"}}, {"type": "node", "id": 1968743850, "lat": 39.4233883, "lon": 20.0637454, "tags": {"amenity": "cafe", "name": "Delsol Cafe Bar"}}, {"type": "node", "id": 1968743856, "lat": 39.4233742, "lon": 20.0639087, "tags": {"amenity": "restaurant", "cuisine": "greek;meze;grill", "int_name": "Methistanes", "name": "\u039c\u03b5\u03b8\u03c5\u03c3\u03c4\u03ac\u03bd\u03b5\u03c2"}}, {"type": "node", "id": 1968743859, "lat": 39.4230682, "lon": 20.0627656, "tags": {"amenity": "cafe", "int_name": "Neon", "name": "\u039d\u03ad\u03bf\u03bd"}}, {"type": "node", "id": 1968743862, "lat": 39.4240673, "lon": 20.0641254, "tags": {"amenity": "restaurant", "cuisine": "pizza", "name": "Venus", "phone": "+302662022210"}}, {"type": "node", "id": 1983916879, "lat": 39.4073377, "lon": 20.2393141, "tags": {"amenity": "cafe", "name": "Bamboo"}}, {"type": "node", "id": 1983916884, "lat": 39.407146, "lon": 20.2392315, "tags": {"amenity": "restaurant", "cuisine": "greek", "name": "Georgeos"}}, {"type": "node", "id": 1983916895, "lat": 39.4072498, "lon": 20.2392694, "tags": {"amenity": "restaurant", "cuisine": "greek", "name": "O Faros"}}, {"type": "node", "id": 1983916900, "lat": 39.4091491, "lon": 20.2393462, "tags": {"amenity": "restaurant", "cuisine": "greek", "name": "Porto Greco"}}, {"type": "node", "id": 1983916911, "lat": 39.4069536, "lon": 20.2392349, "tags": {"amenity": "restaurant", "cuisine": "greek", "name": "Trehantiri"}}, {"type": "node", "id": 1993289443, "lat": 39.5425921, "lon": 19.8692167, "tags": {"amenity": "restaurant", "cuisine": "greek", "name": "Manelouzou"}}, {"type": "node", "id": 2013930014, "lat": 39.4228716, "lon": 20.0719599, "tags": {"amenity": "cafe", "name": "Cafe 7 Bistro"}}, {"type": "node", "id": 2015895208, "lat": 39.4234175, "lon": 20.0634772, "tags": {"amenity": "cafe", "name": "Mersedes"}}, {"type": "node", "id": 2083125945, "lat": 39.4233275, "lon": 20.0625333, "tags": {"amenity": "cafe"}}, {"type": "node", "id": 2096363912, "lat": 39.3946307, "lon": 20.022281}, {"type": "node", "id": 2096363915, "lat": 39.3946562, "lon": 20.022095}, {"type": "node", "id": 2096363917, "lat": 39.3947031, "lon": 20.0218604}, {"type": "node", "id": 2096363918, "lat": 39.3947069, "lon": 20.0222457}, {"type": "node", "id": 2096363920, "lat": 39.3947274, "lon": 20.022111}, {"type": "node", "id": 2096363922, "lat": 39.3947519, "lon": 20.0221165}, {"type": "node", "id": 2096363924, "lat": 39.3947544, "lon": 20.0223181}, {"type": "node", "id": 2096363925, "lat": 39.3947641, "lon": 20.0222608}, {"type": "node", "id": 2096363926, "lat": 39.3947942, "lon": 20.0219485}, {"type": "node", "id": 2100621337, "lat": 39.3896803, "lon": 20.0668027, "tags": {"amenity": "cafe", "name": "Albatros"}}, {"type": "node", "id": 2100621339, "lat": 39.3902931, "lon": 20.0671181, "tags": {"amenity": "cafe", "name": "\u03a4\u03bf \u039a\u03bf\u03c5\u03c4\u03bf\u03cd\u03ba\u03b9", "name:el": "\u03a4\u03bf \u039a\u03bf\u03c5\u03c4\u03bf\u03cd\u03ba\u03b9", "name:en": "Koutouki"}}, {"type": "node", "id": 2100621341, "lat": 39.3931472, "lon": 20.0706467, "tags": {"amenity": "cafe", "name": "\u03a4\u03bf \u03a0\u03ad\u03c1\u03b1\u03c3\u03bc\u03b1", "name:el": "\u03a4\u03bf \u03a0\u03ad\u03c1\u03b1\u03c3\u03bc\u03b1", "name:en": "Perasma"}}, {"type": "node", "id": 2100621465, "lat": 39.388751, "lon": 20.0659027}, {"type": "node", "id": 2100621466, "lat": 39.3887873, "lon": 20.0660052}, {"type": "node", "id": 2100621467, "lat": 39.3888278, "lon": 20.0658573}, {"type": "node", "id": 2100621468, "lat": 39.3888641, "lon": 20.0659597}, {"type": "node", "id": 2111969836, "lat": 39.4229969, "lon": 20.0727897, "tags": {"amenity": "cafe"}}, {"type": "node", "id": 2178497191, "lat": 39.4064366, "lon": 20.2384892, "tags": {"amenity": "restaurant", "cuisine": "greek"}}, {"type": "node", "id": 2178497198, "lat": 39.4066079, "lon": 20.2496951, "tags": {"amenity": "restaurant", "cuisine": "greek"}}, {"type": "node", "id": 2178497226, "lat": 39.4071314, "lon": 20.2477578, "tags": {"amenity": "cafe"}}, {"type": "node", "id": 2287028665, "lat": 39.457065, "lon": 19.869874, "tags": {"amenity": "restaurant", "cuisine": "greek;barbecue", "indoor_seating": "yes", "internet_access": "wlan", "name": "Alonaki Bay View", "outdoor_seating": "yes"}}, {"type": "node", "id": 2287079704, "lat": 39.5343962, "lon": 19.8479717, "tags": {"amenity": "restaurant", "cuisine": "fish", "name": "Angela Rest"}}, {"type": "node", "id": 2288402193, "lat": 39.4788662, "lon": 19.8604866, "tags": {"amenity": "restaurant", "name": "Prasoudi Meze"}}, {"type": "node", "id": 2292348017, "lat": 39.518199, "lon": 19.9238734, "tags": {"amenity": "restaurant", "cuisine": "fish", "name": "Local Ouside"}}, {"type": "node", "id": 2292397237, "lat": 39.4689894, "lon": 19.8874336, "tags": {"amenity": "restaurant", "cuisine": "greek;pizza", "email": "thefarmcorfu@hotmail.com", "name": "Lamb Restaurant", "name:el": "The Farm", "name:en": "The Farm", "phone": "+302661022044"}}, {"type": "node", "id": 2292401718, "lat": 39.459769, "lon": 19.9800115, "tags": {"amenity": "restaurant", "cuisine": "fish", "name": "Inside and Terrace"}}, {"type": "node", "id": 2296357842, "lat": 39.6208675, "lon": 19.9246188, "tags": {"amenity": "restaurant", "name": "Beach Bar"}}, {"type": "node", "id": 2297992803, "lat": 39.4468178, "lon": 20.0049937, "tags": {"amenity": "restaurant", "check_date": "2023-06-18", "contact:facebook": "https://www.facebook.com/panorama.vagias", "contact:youtube": "https://www.youtube.com/channel/UClegQiXO-4T3p5VyucuGJ-A", "cuisine": "greek", "email": "panoramacorfu@hotmail.com", "internet_access": "wlan", "internet_access:fee": "customers", "internet_access:ssid": "Panorama Restaurant", "mobile": "+30 6977715892", "name": "Panorama", "name:cs": "u Anglicanky", "outdoor_seating": "yes", "payment:mastercard": "yes", "payment:visa": "yes", "phone": "+30 2662 051612", "toilets": "yes", "toilets:wheelchair": "no", "website": "https://www.panoramacorfu.gr/restaurant/", "wheelchair": "no"}}, {"type": "node", "id": 2299201191, "lat": 39.623176, "lon": 19.9284966}, {"type": "node", "id": 2299201203, "lat": 39.6231074, "lon": 19.9285664}, {"type": "node", "id": 2299201217, "lat": 39.6230702, "lon": 19.9284512}, {"type": "node", "id": 2299201219, "lat": 39.6230474, "lon": 19.9285407}, {"type": "node", "id": 2368135179, "lat": 39.477466, "lon": 19.8851263}, {"type": "node", "id": 2368135180, "lat": 39.4774536, "lon": 19.8852661}, {"type": "node", "id": 2368135186, "lat": 39.4775135, "lon": 19.8851855}, {"type": "node", "id": 2429791307, "lat": 39.4840343, "lon": 19.9248093, "tags": {"amenity": "restaurant", "check_date:opening_hours": "2023-08-23", "cuisine": "greek;barbecue", "name": "Enjoy Fast Food", "opening_hours:signed": "no"}}, {"type": "node", "id": 2457650963, "lat": 39.2346953, "lon": 20.1353589, "tags": {"amenity": "restaurant", "name": "Taverna Nionios"}}, {"type": "node", "id": 2642478066, "lat": 39.2055207, "lon": 20.1435555, "tags": {"amenity": "restaurant", "name": "\u0395\u03c1\u03b7\u03bc\u03af\u03c4\u03b7\u03c2"}}, {"type": "node", "id": 2835288619, "lat": 39.4353398, "lon": 20.0140985, "tags": {"amenity": "restaurant", "cuisine": "regional", "name": "Tavern Aristo"}}, {"type": "node", "id": 2891558719, "lat": 39.5095978, "lon": 20.221351}, {"type": "node", "id": 2891558720, "lat": 39.5096428, "lon": 20.2215078}, {"type": "node", "id": 2891558722, "lat": 39.5098466, "lon": 20.2212312}, {"type": "node", "id": 2891558725, "lat": 39.5098915, "lon": 20.2213879}, {"type": "node", "id": 2892769314, "lat": 39.5469869, "lon": 19.8531529, "tags": {"amenity": "restaurant", "name": "Sebastian's"}}, {"type": "node", "id": 2914235250, "lat": 39.4754431, "lon": 19.9342774, "tags": {"amenity": "restaurant", "name": "Anna's Garden"}}, {"type": "node", "id": 2914235252, "lat": 39.4753551, "lon": 19.9346895, "tags": {"amenity": "restaurant", "name": "The Stars"}}, {"type": "node", "id": 2914410841, "lat": 39.4765432, "lon": 19.9291016, "tags": {"amenity": "cafe", "name": "Palla"}}, {"type": "node", "id": 2914410900, "lat": 39.4764028, "lon": 19.9292933, "tags": {"amenity": "cafe", "name": "Kokos"}}, {"type": "node", "id": 2914522618, "lat": 39.4802745, "lon": 19.9254592, "tags": {"amenity": "cafe", "check_date:opening_hours": "2023-08-27", "name": "La Nuit", "opening_hours:signed": "no"}}, {"type": "node", "id": 2914522620, "lat": 39.4795276, "lon": 19.9264438, "tags": {"amenity": "cafe", "check_date:opening_hours": "2023-08-27", "name": "Maksim's", "opening_hours:signed": "no"}}, {"type": "node", "id": 2914522623, "lat": 39.4803296, "lon": 19.9253738, "tags": {"amenity": "restaurant", "check_date:opening_hours": "2023-08-27", "name": "Steki", "opening_hours:signed": "no"}}, {"type": "node", "id": 2914522625, "lat": 39.4784193, "lon": 19.9277596, "tags": {"amenity": "restaurant", "cuisine": "greek", "name": "The Three Sisters"}}, {"type": "node", "id": 2914616578, "lat": 39.4748699, "lon": 19.9335499, "tags": {"amenity": "restaurant", "check_date:opening_hours": "2023-08-22", "cuisine": "greek", "internet_access": "wlan", "name": "Minore Taverna", "opening_hours:signed": "no"}}, {"type": "node", "id": 2914669390, "lat": 39.4697447, "lon": 19.9427889}, {"type": "node", "id": 2914669391, "lat": 39.4697675, "lon": 19.9426863}, {"type": "node", "id": 2914669398, "lat": 39.4698535, "lon": 19.9428296}, {"type": "node", "id": 2914669399, "lat": 39.4698576, "lon": 19.9428112}, {"type": "node", "id": 2914669605, "lat": 39.4699135, "lon": 19.9428322}, {"type": "node", "id": 2914669607, "lat": 39.4699323, "lon": 19.9427479}, {"type": "node", "id": 2917243556, "lat": 39.4774993, "lon": 19.9255204, "tags": {"amenity": "cafe", "check_date:opening_hours": "2023-08-25", "name": "Billy's", "opening_hours:signed": "no"}}, {"type": "node", "id": 2917497070, "lat": 39.4773394, "lon": 19.9152009, "tags": {"amenity": "cafe"}}, {"type": "node", "id": 2917644124, "lat": 39.4750287, "lon": 19.9119456, "tags": {"amenity": "cafe"}}, {"type": "node", "id": 2917915123, "lat": 39.4723485, "lon": 19.9109616, "tags": {"amenity": "cafe"}}, {"type": "node", "id": 2918019885, "lat": 39.4812411, "lon": 19.9248345, "tags": {"amenity": "restaurant", "check_date:opening_hours": "2023-08-27", "cuisine": "italian", "name": "Pizzeria Sul Posto", "opening_hours:signed": "no"}}, {"type": "node", "id": 2918019886, "lat": 39.4810399, "lon": 19.9245692, "tags": {"amenity": "cafe", "name": "Rani's"}}, {"type": "node", "id": 2935876422, "lat": 39.4757185, "lon": 19.8856967}, {"type": "node", "id": 2935876427, "lat": 39.4758087, "lon": 19.8856522}, {"type": "node", "id": 2935876429, "lat": 39.4758538, "lon": 19.8858057}, {"type": "node", "id": 2951442195, "lat": 39.5469665, "lon": 19.8529341, "tags": {"amenity": "cafe", "name": "Kalimera"}}, {"type": "node", "id": 2953151789, "lat": 39.5451023, "lon": 19.8540596}, {"type": "node", "id": 2953151790, "lat": 39.5451069, "lon": 19.8539963}, {"type": "node", "id": 2953151795, "lat": 39.5451301, "lon": 19.8539991}, {"type": "node", "id": 2953151797, "lat": 39.5451452, "lon": 19.8537901}, {"type": "node", "id": 2953151799, "lat": 39.5451936, "lon": 19.8540707}, {"type": "node", "id": 2953151800, "lat": 39.545195, "lon": 19.8540508}, {"type": "node", "id": 2953151802, "lat": 39.5453068, "lon": 19.8540643}, {"type": "node", "id": 2953151804, "lat": 39.545325, "lon": 19.8538119}, {"type": "node", "id": 2953803783, "lat": 39.5469687, "lon": 19.850843}, {"type": "node", "id": 2953803785, "lat": 39.5470943, "lon": 19.8510049}, {"type": "node", "id": 2953803787, "lat": 39.547107, "lon": 19.8508654}, {"type": "node", "id": 2953972060, "lat": 39.5467933, "lon": 19.8498749}, {"type": "node", "id": 2953972061, "lat": 39.5468255, "lon": 19.8499232}, {"type": "node", "id": 2976081200, "lat": 39.2866493, "lon": 20.3401214, "tags": {"amenity": "restaurant", "cuisine": "greek"}}, {"type": "node", "id": 2976081202, "lat": 39.2882249, "lon": 20.3389989, "tags": {"amenity": "restaurant", "cuisine": "greek", "name": "\u0395\u03c3\u03c4\u03b9\u03b1\u03c4\u03cc\u03c1\u03b9\u03bf \u0391\u03b3\u03ba\u03ac\u03bb\u03b7", "name:de": "Agali", "name:el": "\u0395\u03c3\u03c4\u03b9\u03b1\u03c4\u03cc\u03c1\u03b9\u03bf \u0391\u03b3\u03ba\u03ac\u03bb\u03b7", "name:en": "Agali", "name:fr": "Agali", "name:it": "Agali"}}, {"type": "node", "id": 3014148681, "lat": 39.6157836, "lon": 19.8484966, "tags": {"amenity": "restaurant", "cuisine": "greek", "name": "Kosta's Taverna", "source": "Own observation; GPS"}}, {"type": "node", "id": 3040693811, "lat": 39.6213225, "lon": 19.9185562, "tags": {"amenity": "cafe", "name": "Coconela"}}, {"type": "node", "id": 3040693812, "lat": 39.6214075, "lon": 19.9188791, "tags": {"amenity": "cafe"}}, {"type": "node", "id": 3040693813, "lat": 39.6215534, "lon": 19.9188062, "tags": {"amenity": "cafe", "internet_access": "wlan", "internet_access:fee": "no", "name": "Deseo"}}, {"type": "node", "id": 3084727735, "lat": 39.4276953, "lon": 19.9423407, "tags": {"amenity": "restaurant", "cuisine": "greek", "name": "Oceano"}}, {"type": "node", "id": 3089697687, "lat": 39.4473057, "lon": 20.0047463, "tags": {"amenity": "restaurant", "cuisine": "greek", "name": "Electra's garden"}}, {"type": "node", "id": 3089709665, "lat": 39.4210513, "lon": 20.0785351, "tags": {"amenity": "cafe", "bar": "yes", "contact:facebook": "https://www.facebook.com/Laverandapotami", "food": "yes", "indoor_seating": "yes", "name": "La Veranda", "outdoor_seating": "yes", "phone": "+30 2662 023814"}}, {"type": "node", "id": 3097520754, "lat": 39.622878, "lon": 19.9198995, "tags": {"amenity": "cafe", "internet_access": "wlan", "internet_access:fee": "no", "name": "Coffeeway", "phone": "2661042162"}}, {"type": "node", "id": 3097524399, "lat": 39.6232636, "lon": 19.9207868, "tags": {"amenity": "cafe", "internet_access": "wlan", "internet_access:fee": "no", "name": "Earth cafe"}}, {"type": "node", "id": 3100647197, "lat": 39.4261824, "lon": 19.9451562, "tags": {"amenity": "restaurant", "cuisine": "pizza", "name": "Alex"}}, {"type": "node", "id": 3100647198, "lat": 39.4260984, "lon": 19.9448678, "tags": {"amenity": "restaurant", "cuisine": "sandwich", "name": "Evergreen Casual Food Bar", "opening_hours": "24/7"}}, {"type": "node", "id": 3100647200, "lat": 39.4279021, "lon": 19.9419545, "tags": {"amenity": "restaurant", "name": "San Carlos"}}, {"type": "node", "id": 3100647396, "lat": 39.4271245, "lon": 19.9429683}, {"type": "node", "id": 3100647398, "lat": 39.4272858, "lon": 19.9429633}, {"type": "node", "id": 3100647400, "lat": 39.4272553, "lon": 19.9434757}, {"type": "node", "id": 3100647401, "lat": 39.4273054, "lon": 19.9429796}, {"type": "node", "id": 3100647405, "lat": 39.4273221, "lon": 19.9428904}, {"type": "node", "id": 3100647409, "lat": 39.427275, "lon": 19.9432501}, {"type": "node", "id": 3100647411, "lat": 39.4273208, "lon": 19.9433114}, {"type": "node", "id": 3100647418, "lat": 39.4273616, "lon": 19.9435468}, {"type": "node", "id": 3100647425, "lat": 39.4274565, "lon": 19.9430023}, {"type": "node", "id": 3100647427, "lat": 39.4274272, "lon": 19.9433826}, {"type": "node", "id": 3100647631, "lat": 39.4368873, "lon": 19.9352639}, {"type": "node", "id": 3100647633, "lat": 39.4369529, "lon": 19.9353218}, {"type": "node", "id": 3100647634, "lat": 39.4369891, "lon": 19.9350709}, {"type": "node", "id": 3100647635, "lat": 39.4370547, "lon": 19.9351289}, {"type": "node", "id": 3106503733, "lat": 39.6251754, "lon": 19.9209189, "tags": {"amenity": "restaurant", "name": "Bellissimo"}}, {"type": "node", "id": 3329754473, "lat": 39.5841367, "lon": 19.8204192}, {"type": "node", "id": 3329754474, "lat": 39.5840314, "lon": 19.8204911}, {"type": "node", "id": 3329754475, "lat": 39.5841147, "lon": 19.8206965}, {"type": "node", "id": 3329754476, "lat": 39.58422, "lon": 19.8206246}, {"type": "node", "id": 3437747891, "lat": 39.6218323, "lon": 20.1955107}, {"type": "node", "id": 3437749398, "lat": 39.6220008, "lon": 20.1955803}, {"type": "node", "id": 3437749419, "lat": 39.6219635, "lon": 20.1957327}, {"type": "node", "id": 3437749423, "lat": 39.6217949, "lon": 20.1956631}, {"type": "node", "id": 3437749425, "lat": 39.6218554, "lon": 20.195688}, {"type": "node", "id": 3495622952, "lat": 39.5907482, "lon": 19.9179603, "tags": {"amenity": "restaurant", "cuisine": "greek", "name": "FLISVOS RESTAURANT"}}, {"type": "node", "id": 3546998298, "lat": 39.5925035, "lon": 19.9177944, "tags": {"addr:city": "\u039a\u03b1\u03bd\u03bf\u03bd\u03b9", "addr:housenumber": "41", "addr:street": "Nafsikas", "amenity": "restaurant", "contact:email": "mitropouloua@yahoo.com", "contact:facebook": "http://www.facebook.com/pages/Captain-George/942833259082614", "cuisine": "greek", "email": "mitropouloua@yahoo.com", "internet_access": "wlan", "name": "Captain George", "opening_hours": "Mo-Su 12:00-24:00", "outdoor_seating": "yes", "payment:american_express": "yes", "payment:mastercard": "yes", "payment:visa": "yes", "phone": "+30 694 820 8208", "takeaway": "yes"}}, {"type": "node", "id": 3581361251, "lat": 39.6270091, "lon": 19.9044105}, {"type": "node", "id": 3581361252, "lat": 39.6270277, "lon": 19.9042492}, {"type": "node", "id": 3581361398, "lat": 39.6243169, "lon": 19.923646, "tags": {"amenity": "restaurant", "name": "REX"}}, {"type": "node", "id": 3673955957, "lat": 39.4856825, "lon": 19.9230222, "tags": {"amenity": "restaurant", "cuisine": "regional", "name": "Bella Vista Taverna"}}, {"type": "node", "id": 3673962189, "lat": 39.4833885, "lon": 19.929965, "tags": {"amenity": "restaurant", "check_date:opening_hours": "2023-08-27", "cuisine": "regional", "internet_access": "wlan", "name": "Alexakis Taverna", "opening_hours:signed": "no"}}, {"type": "node", "id": 3673962190, "lat": 39.4774619, "lon": 19.9343745, "tags": {"amenity": "restaurant", "name": "Christina"}}, {"type": "node", "id": 3673994822, "lat": 39.4834667, "lon": 19.9246286, "tags": {"amenity": "restaurant", "check_date:opening_hours": "2023-08-23", "name": "Freddy's", "opening_hours:signed": "no"}}, {"type": "node", "id": 3673994823, "lat": 39.4825128, "lon": 19.9247642, "tags": {"amenity": "restaurant", "check_date:opening_hours": "2023-08-27", "cuisine": "regional", "internet_access": "wlan", "name": "Stavros Taverna", "opening_hours:signed": "no"}}, {"type": "node", "id": 3674478379, "lat": 39.6251723, "lon": 20.1814219, "tags": {"amenity": "restaurant", "cuisine": "greek", "name": "Panorama"}}, {"type": "node", "id": 3674479249, "lat": 39.6255202, "lon": 20.1811586, "tags": {"addr:city": "Sagiada", "addr:postcode": "46300", "amenity": "restaurant", "cuisine": "greek;fish", "name": "\u0391\u03bb\u03ad\u03ba\u03bf\u03c2", "name:de": "Alekos", "name:el": "\u0391\u03bb\u03ad\u03ba\u03bf\u03c2", "name:en": "Alekos", "phone": "+30 2664 051 244"}}, {"type": "node", "id": 3674479250, "lat": 39.625338, "lon": 20.1813021, "tags": {"amenity": "cafe", "cuisine": "greek", "name": "Faros"}}, {"type": "node", "id": 3687696868, "lat": 39.4838277, "lon": 19.9296287, "tags": {"amenity": "restaurant", "cuisine": "greek", "internet_access": "wlan", "internet_access:fee": "no", "name": "Taverna Margarita"}}, {"type": "node", "id": 3687826523, "lat": 39.4823096, "lon": 19.9312651, "tags": {"amenity": "restaurant"}}, {"type": "node", "id": 3688478497, "lat": 39.4845429, "lon": 19.9251096, "tags": {"amenity": "restaurant", "check_date:opening_hours": "2023-08-27", "name": "Alkionis", "opening_hours:signed": "no"}}, {"type": "node", "id": 3688478498, "lat": 39.4848117, "lon": 19.9252383, "tags": {"amenity": "restaurant", "check_date:opening_hours": "2023-08-27", "name": "Jimmys", "opening_hours:signed": "no"}}, {"type": "node", "id": 3688489152, "lat": 39.4839826, "lon": 19.9251433, "tags": {"amenity": "restaurant", "check_date:opening_hours": "2023-08-27", "name": "Edema taverna", "opening_hours:signed": "no"}}, {"type": "node", "id": 3688584208, "lat": 39.4871048, "lon": 19.9239872, "tags": {"amenity": "restaurant", "contact:facebook": "thevillagetavernacorfu", "cuisine": "deli;fish;greek;regional", "name": "The Village Taverna", "phone": "+30 26610 76403"}}, {"type": "node", "id": 3688641384, "lat": 39.4875994, "lon": 19.9242686, "tags": {"amenity": "restaurant", "name": "Tassos"}}, {"type": "node", "id": 3688952347, "lat": 39.4848336, "lon": 19.9289424, "tags": {"amenity": "restaurant", "name": "Sea Breeze"}}, {"type": "node", "id": 3688981258, "lat": 39.4856304, "lon": 19.9270699, "tags": {"amenity": "restaurant", "name": "Firefly Taverna"}}, {"type": "node", "id": 3689865109, "lat": 39.486951, "lon": 19.9283779, "tags": {"amenity": "restaurant", "name": "Taverna"}}, {"type": "node", "id": 3694017771, "lat": 39.4850043, "lon": 19.9251625, "tags": {"amenity": "restaurant", "internet_access": "wlan", "name": "The Islands"}}, {"type": "node", "id": 3697652137, "lat": 39.4150128, "lon": 19.9833418, "tags": {"amenity": "restaurant", "check_date": "2023-06-24", "cuisine": "greek", "name": "Fisheye", "outdoor_seating": "yes", "payment:mastercard": "yes", "payment:visa": "yes", "toilets": "yes", "wheelchair": "no"}}, {"type": "node", "id": 3697666135, "lat": 39.4130946, "lon": 19.9863494, "tags": {"amenity": "restaurant", "name": "Restaurant and Cafe-Bar Santa Barbara"}}, {"type": "node", "id": 3697666140, "lat": 39.4133113, "lon": 19.9860776, "tags": {"amenity": "restaurant", "name": "Manduvala"}}, {"type": "node", "id": 3698170828, "lat": 39.470927, "lon": 19.9421109, "tags": {"amenity": "restaurant", "name": "The Fishermans Haunt"}}, {"type": "node", "id": 3699949695, "lat": 39.5853855, "lon": 19.8187247}, {"type": "node", "id": 3699949702, "lat": 39.5854593, "lon": 19.8186648}, {"type": "node", "id": 3699949704, "lat": 39.5854324, "lon": 19.8187513}, {"type": "node", "id": 3699949715, "lat": 39.585409, "lon": 19.8186417}, {"type": "node", "id": 3699949720, "lat": 39.5854339, "lon": 19.8169661, "tags": {"amenity": "cafe"}}, {"type": "node", "id": 3700230076, "lat": 39.5851419, "lon": 19.8188583}, {"type": "node", "id": 3700230077, "lat": 39.5852353, "lon": 19.8189051}, {"type": "node", "id": 3700230079, "lat": 39.5852059, "lon": 19.8186433}, {"type": "node", "id": 3700230104, "lat": 39.5852993, "lon": 19.8186901}, {"type": "node", "id": 3700488999, "lat": 39.5826674, "lon": 19.8217773}, {"type": "node", "id": 3700489004, "lat": 39.5825992, "lon": 19.8215232}, {"type": "node", "id": 3700489007, "lat": 39.5825356, "lon": 19.8216144}, {"type": "node", "id": 3700489014, "lat": 39.5825367, "lon": 19.821707}, {"type": "node", "id": 3700489015, "lat": 39.5825846, "lon": 19.821778}, {"type": "node", "id": 3700489018, "lat": 39.5827294, "lon": 19.8217084}, {"type": "node", "id": 3700489021, "lat": 39.5827341, "lon": 19.8216063}, {"type": "node", "id": 3700489226, "lat": 39.5826768, "lon": 19.8215265}, {"type": "node", "id": 3916528364, "lat": 39.6270704, "lon": 19.925287}, {"type": "node", "id": 3916528365, "lat": 39.6270685, "lon": 19.9253821}, {"type": "node", "id": 3916528367, "lat": 39.626989, "lon": 19.9255633}, {"type": "node", "id": 3916528372, "lat": 39.6270652, "lon": 19.9255711}, {"type": "node", "id": 3916528377, "lat": 39.6271073, "lon": 19.9252887}, {"type": "node", "id": 3916528378, "lat": 39.6271093, "lon": 19.9254449}, {"type": "node", "id": 3916528379, "lat": 39.627127, "lon": 19.9253231}, {"type": "node", "id": 3916528380, "lat": 39.6271221, "lon": 19.9254504}, {"type": "node", "id": 3916528382, "lat": 39.6271435, "lon": 19.9253234}, {"type": "node", "id": 4238303149, "lat": 39.5349606, "lon": 19.8489795}, {"type": "node", "id": 4238303150, "lat": 39.5350065, "lon": 19.8491208}, {"type": "node", "id": 4238303151, "lat": 39.5350678, "lon": 19.8489209}, {"type": "node", "id": 4238303152, "lat": 39.5351138, "lon": 19.8490622}, {"type": "node", "id": 4238303157, "lat": 39.4999907, "lon": 19.8543699, "tags": {"amenity": "restaurant", "cuisine": "greek", "name": "Skala", "outdoor_seating": "yes"}}, {"type": "node", "id": 4247143960, "lat": 39.4238262, "lon": 19.9615294}, {"type": "node", "id": 4247143966, "lat": 39.4239008, "lon": 19.9615719}, {"type": "node", "id": 4247143968, "lat": 39.4239416, "lon": 19.9611902}, {"type": "node", "id": 4247143974, "lat": 39.4240162, "lon": 19.9612328}, {"type": "node", "id": 4247161535, "lat": 39.4242767, "lon": 19.9584465}, {"type": "node", "id": 4247161539, "lat": 39.4242441, "lon": 19.9591583}, {"type": "node", "id": 4247161542, "lat": 39.4243234, "lon": 19.9582839}, {"type": "node", "id": 4247161545, "lat": 39.4243101, "lon": 19.9579879}, {"type": "node", "id": 4247161550, "lat": 39.4243419, "lon": 19.9589875}, {"type": "node", "id": 4247161555, "lat": 39.4243775, "lon": 19.9589817}, {"type": "node", "id": 4247161558, "lat": 39.4244005, "lon": 19.9593339}, {"type": "node", "id": 4247161560, "lat": 39.4244204, "lon": 19.9577025}, {"type": "node", "id": 4247161561, "lat": 39.4244031, "lon": 19.9585073}, {"type": "node", "id": 4247161568, "lat": 39.4244498, "lon": 19.9583447}, {"type": "node", "id": 4247161576, "lat": 39.424488, "lon": 19.9578512}, {"type": "node", "id": 4247161581, "lat": 39.424501, "lon": 19.9579165}, {"type": "node", "id": 4247161584, "lat": 39.4245179, "lon": 19.9578689}, {"type": "node", "id": 4247161585, "lat": 39.4245191, "lon": 19.9591382}, {"type": "node", "id": 4247161587, "lat": 39.424521, "lon": 19.9577582}, {"type": "node", "id": 4247161588, "lat": 39.4245265, "lon": 19.9566697}, {"type": "node", "id": 4247161898, "lat": 39.424567, "lon": 19.9579561}, {"type": "node", "id": 4247161901, "lat": 39.4245858, "lon": 19.9569864}, {"type": "node", "id": 4247161902, "lat": 39.4245888, "lon": 19.9565008}, {"type": "node", "id": 4247161909, "lat": 39.4246363, "lon": 19.9567024}, {"type": "node", "id": 4247161915, "lat": 39.4246674, "lon": 19.9566045}, {"type": "node", "id": 4247161920, "lat": 39.4246837, "lon": 19.956543}, {"type": "node", "id": 4247161925, "lat": 39.4247104, "lon": 19.957021}, {"type": "node", "id": 4247161933, "lat": 39.4247771, "lon": 19.9566524}, {"type": "node", "id": 4247205974, "lat": 39.4227796, "lon": 19.9630801}, {"type": "node", "id": 4247205983, "lat": 39.422859, "lon": 19.9631299}, {"type": "node", "id": 4247205986, "lat": 39.4228789, "lon": 19.9628148}, {"type": "node", "id": 4247205998, "lat": 39.4229583, "lon": 19.9628646}, {"type": "node", "id": 4247206011, "lat": 39.4232909, "lon": 19.9627171}, {"type": "node", "id": 4247206035, "lat": 39.4233746, "lon": 19.9625777}, {"type": "node", "id": 4247206048, "lat": 39.4235086, "lon": 19.962929}, {"type": "node", "id": 4247206049, "lat": 39.4235914, "lon": 19.9627805}, {"type": "node", "id": 4248070932, "lat": 39.4254071, "lon": 19.951144}, {"type": "node", "id": 4248070935, "lat": 39.4254338, "lon": 19.950979}, {"type": "node", "id": 4248070945, "lat": 39.4255023, "lon": 19.9533938}, {"type": "node", "id": 4248070951, "lat": 39.4255047, "lon": 19.9511705}, {"type": "node", "id": 4248070958, "lat": 39.4255348, "lon": 19.9532736}, {"type": "node", "id": 4248070959, "lat": 39.4255314, "lon": 19.9510055}, {"type": "node", "id": 4248070964, "lat": 39.4255818, "lon": 19.9512142}, {"type": "node", "id": 4248070966, "lat": 39.425594, "lon": 19.9476664}, {"type": "node", "id": 4248070969, "lat": 39.4256007, "lon": 19.9511316}, {"type": "node", "id": 4248070973, "lat": 39.4256133, "lon": 19.9513653}, {"type": "node", "id": 4248070974, "lat": 39.4256157, "lon": 19.9475098}, {"type": "node", "id": 4248070982, "lat": 39.4256202, "lon": 19.9461318}, {"type": "node", "id": 4248070983, "lat": 39.4256426, "lon": 19.9512375}, {"type": "node", "id": 4248070990, "lat": 39.4256726, "lon": 19.9511866}, {"type": "node", "id": 4248070991, "lat": 39.4256533, "lon": 19.9460335}, {"type": "node", "id": 4248070992, "lat": 39.4256784, "lon": 19.9511614}, {"type": "node", "id": 4248070993, "lat": 39.4257037, "lon": 19.9534849}, {"type": "node", "id": 4248071012, "lat": 39.4257362, "lon": 19.9533646}, {"type": "node", "id": 4248071018, "lat": 39.4257486, "lon": 19.9514172}, {"type": "node", "id": 4248071019, "lat": 39.4257368, "lon": 19.9462068}, {"type": "node", "id": 4248071029, "lat": 39.425791, "lon": 19.951232}, {"type": "node", "id": 4248071031, "lat": 39.4258006, "lon": 19.9477142}, {"type": "node", "id": 4248071038, "lat": 39.4258222, "lon": 19.9475577}, {"type": "node", "id": 4248071063, "lat": 39.4258547, "lon": 19.946267}, {"type": "node", "id": 4248071064, "lat": 39.4260279, "lon": 19.9450841}, {"type": "node", "id": 4248071068, "lat": 39.4258692, "lon": 19.9462741}, {"type": "node", "id": 4248071076, "lat": 39.4258957, "lon": 19.9461702}, {"type": "node", "id": 4248071080, "lat": 39.4258325, "lon": 19.9448876}, {"type": "node", "id": 4248071224, "lat": 39.4260054, "lon": 19.9451543}, {"type": "node", "id": 4248071226, "lat": 39.4260922, "lon": 19.9450333}, {"type": "node", "id": 4248071231, "lat": 39.4260768, "lon": 19.945025}, {"type": "node", "id": 4248071240, "lat": 39.4260463, "lon": 19.9451763}, {"type": "node", "id": 4248071342, "lat": 39.4263664, "lon": 19.9475657}, {"type": "node", "id": 4248071358, "lat": 39.4264087, "lon": 19.9474461}, {"type": "node", "id": 4248071382, "lat": 39.4265099, "lon": 19.9476508}, {"type": "node", "id": 4248071389, "lat": 39.4265522, "lon": 19.9475312}, {"type": "node", "id": 4275203166, "lat": 39.4541683, "lon": 20.0015802, "tags": {"addr:city": "Petriti", "amenity": "restaurant", "name": "Taverna Apaggio"}}, {"type": "node", "id": 4275221224, "lat": 39.4604271, "lon": 19.9686506}, {"type": "node", "id": 4275221225, "lat": 39.4603275, "lon": 19.9687978}, {"type": "node", "id": 4275221226, "lat": 39.4602933, "lon": 19.968759}, {"type": "node", "id": 4275221227, "lat": 39.460262, "lon": 19.9688054}, {"type": "node", "id": 4275221228, "lat": 39.4602239, "lon": 19.9687623}, {"type": "node", "id": 4275221229, "lat": 39.4603549, "lon": 19.9685686}, {"type": "node", "id": 4275280626, "lat": 39.4702768, "lon": 19.9436663}, {"type": "node", "id": 4275280627, "lat": 39.4702706, "lon": 19.9437803}, {"type": "node", "id": 4275280628, "lat": 39.4701992, "lon": 19.9437723}, {"type": "node", "id": 4275280629, "lat": 39.4702064, "lon": 19.9436569}, {"type": "node", "id": 4275311730, "lat": 39.3789929, "lon": 20.0936587}, {"type": "node", "id": 4275311732, "lat": 39.3788936, "lon": 20.0936009}, {"type": "node", "id": 4275311733, "lat": 39.3789443, "lon": 20.0935594}, {"type": "node", "id": 4275351773, "lat": 39.4575237, "lon": 19.9576254}, {"type": "node", "id": 4275351781, "lat": 39.4576106, "lon": 19.9575104}, {"type": "node", "id": 4275351783, "lat": 39.4574707, "lon": 19.9575583}, {"type": "node", "id": 4275351784, "lat": 39.4575575, "lon": 19.9574432}, {"type": "node", "id": 4275351785, "lat": 39.4575732, "lon": 19.9575599, "tags": {"tourism": "viewpoint"}}, {"type": "node", "id": 4281691514, "lat": 39.4242558, "lon": 19.9591379}, {"type": "node", "id": 4281691516, "lat": 39.4244374, "lon": 19.9590479}, {"type": "node", "id": 4281790697, "lat": 39.6215708, "lon": 19.9236758, "tags": {"addr:housenumber": "8", "addr:postcode": "49100", "addr:street": "\u039a\u03b1\u03c0\u03bf\u03b4\u03b9\u03c3\u03c4\u03c1\u03af\u03bf\u03c5", "amenity": "cafe", "cuisine": "coffee_shop", "email": "info@cafetierra.gr", "name": "Cafetierra", "operator": "Micro Roasters Coffee Lab", "phone": "+302661025904", "website": "https://www.cafetierra.gr/"}}, {"type": "node", "id": 4282017693, "lat": 39.4796227, "lon": 19.9270915, "tags": {"amenity": "restaurant", "check_date:opening_hours": "2023-08-23", "cuisine": "greek", "internet_access": "wlan", "name": "Mammo's Taverna", "opening_hours:signed": "no"}}, {"type": "node", "id": 4282582078, "lat": 39.4251846, "lon": 19.9562469, "tags": {"amenity": "restaurant", "name": "Zacks"}}, {"type": "node", "id": 4282646272, "lat": 39.4270683, "lon": 19.9430979}, {"type": "node", "id": 4282646273, "lat": 39.4272304, "lon": 19.9432088}, {"type": "node", "id": 4282646275, "lat": 39.4272594, "lon": 19.9430604}, {"type": "node", "id": 4306248692, "lat": 39.6138937, "lon": 19.9109783, "tags": {"amenity": "restaurant", "name": "Gyroperasma Souvlaki", "name:el": "\u0393\u03c5\u03c1\u03bf\u03c0\u03ad\u03c1\u03b1\u03c3\u03bc\u03b1 \u03a3\u03bf\u03c5\u03b2\u03bb\u03ac\u03ba\u03b9"}}, {"type": "node", "id": 4306459129, "lat": 39.5462162, "lon": 19.9131251, "tags": {"amenity": "restaurant", "name:en": "mama grill"}}, {"type": "node", "id": 4306459132, "lat": 39.5464333, "lon": 19.9129025, "tags": {"amenity": "cafe"}}, {"type": "node", "id": 4306460648, "lat": 39.5618486, "lon": 19.9048586, "tags": {"amenity": "cafe", "cuisine": "sandwich;ice_cream", "name:en": "\"Achilleion\" Snack-Caf\u00e9"}}, {"type": "node", "id": 4306460649, "lat": 39.5617978, "lon": 19.9051818, "tags": {"amenity": "restaurant", "name": "Bella Vista Restaurant Cafe"}}, {"type": "node", "id": 4312681348, "lat": 39.4441385, "lon": 20.0066916, "tags": {"addr:city": "Notos", "amenity": "restaurant", "cuisine": "regional", "name": "Taverna Savvas"}}, {"type": "node", "id": 4316719594, "lat": 39.4763134, "lon": 19.9299921, "tags": {"amenity": "restaurant", "cuisine": "greek", "name": "Zaks Family Taverna", "opening_hours": "Mo-Sa 18:30-18:00+"}}, {"type": "node", "id": 4316974190, "lat": 39.39451, "lon": 20.0238593, "tags": {"amenity": "restaurant", "cuisine": "greek", "name": "Baratos"}}, {"type": "node", "id": 4321034798, "lat": 39.4132411, "lon": 19.9904946, "tags": {"amenity": "restaurant", "name": "Tavern Barbados"}}, {"type": "node", "id": 4321035021, "lat": 39.4140209, "lon": 19.9920313, "tags": {"amenity": "restaurant", "name": "Restaurant and Coctail Bar Maltas"}}, {"type": "node", "id": 4328123005, "lat": 39.4089483, "lon": 20.2399134, "tags": {"amenity": "restaurant", "name": "Pizzeria Mamma Mia"}}, {"type": "node", "id": 4329568397, "lat": 39.525034, "lon": 19.9224673, "tags": {"amenity": "restaurant", "cuisine": "greek", "internet_access": "wlan", "name": "Arokaria"}}, {"type": "node", "id": 4329607711, "lat": 39.5465427, "lon": 19.9128016, "tags": {"amenity": "restaurant", "cuisine": "greek", "internet_access": "wlan", "name": "Loris. Traditional taverna."}}, {"type": "node", "id": 4333449403, "lat": 39.5412582, "lon": 19.9147694, "tags": {"amenity": "restaurant", "cuisine": "greek", "internet_access": "wlan", "name": "Taverna Barbara's"}}, {"type": "node", "id": 4336217608, "lat": 39.4084452, "lon": 20.240337, "tags": {"amenity": "restaurant", "cuisine": "chicken;burger;grill;greek;seafood;fish;breakfast;mediterranean;barbecue", "name": "Ostria"}}, {"type": "node", "id": 4336218804, "lat": 39.4058516, "lon": 20.2389251, "tags": {"amenity": "restaurant", "cuisine": "chicken;sausage;grill;greek;fish;seafood;mediterranean;hot_dog;kebab", "name": "Psitoupoli Snack - Bar - Grill", "phone": "+306973801466"}}, {"type": "node", "id": 4337549289, "lat": 39.4757636, "lon": 19.8858501}, {"type": "node", "id": 4339504089, "lat": 39.5469127, "lon": 19.912702, "tags": {"amenity": "restaurant", "cuisine": "greek", "internet_access": "wlan", "name": "Mezza volta"}}, {"type": "node", "id": 4345808196, "lat": 39.5461567, "lon": 19.9126267, "tags": {"amenity": "restaurant", "cuisine": "greek", "internet_access": "wlan", "name": "Paxinos Restaurant"}}, {"type": "node", "id": 4357368558, "lat": 39.6259149, "lon": 19.9105869, "tags": {"amenity": "cafe", "check_date": "2025-05-14", "cuisine": "coffee_shop;sandwich", "name": "Sette Venti", "outdoor_seating": "yes", "payment:cash": "yes", "payment:credit_cards": "yes", "payment:debit_cards": "yes", "wheelchair": "yes"}}, {"type": "node", "id": 4359251289, "lat": 39.4753853, "lon": 19.9346705, "tags": {"amenity": "restaurant", "cuisine": "greek", "name": "Marilena Family Taverna"}}, {"type": "node", "id": 4364641559, "lat": 39.6262074, "lon": 19.9032742, "tags": {"amenity": "cafe"}}, {"type": "node", "id": 4370712076, "lat": 39.610905, "lon": 19.9231844, "tags": {"addr:housenumber": "7", "addr:street": "Alkiviadou Dari", "amenity": "restaurant", "cuisine": "fish;regional;greek;seafood;mediterranean;local", "name": "TA PSARAKIA TSI GARITSAS", "name:el": "TA PSARAKIA TSI GARITSAS", "name:en": "Garitsa Fish Tavern", "opening_hours": "Mo-Su 12:30-00:30", "phone": "+30 694 850 9095"}}, {"type": "node", "id": 4386859895, "lat": 39.6241362, "lon": 19.9193822, "tags": {"amenity": "cafe", "name:en": "Red hot chilly burger"}}, {"type": "node", "id": 4401512289, "lat": 39.6230094, "lon": 19.918796, "tags": {"addr:street": "Spirou Vlaikou", "amenity": "restaurant", "check_date": "2024-09-10", "cuisine": "seafood", "internet_access": "wlan", "name:en": "Fishalida Fish Restaurant", "phone": "+2661082150"}}, {"type": "node", "id": 4423882304, "lat": 39.6230594, "lon": 19.9284938, "tags": {"entrance": "main"}}, {"type": "node", "id": 4424243630, "lat": 39.6269913, "lon": 19.9255338, "tags": {"entrance": "yes"}}, {"type": "node", "id": 4424243632, "lat": 39.6270305, "lon": 19.9255662, "tags": {"entrance": "yes"}}, {"type": "node", "id": 4424243645, "lat": 39.6270744, "lon": 19.9255443, "tags": {"entrance": "yes"}}, {"type": "node", "id": 4424243648, "lat": 39.6271298, "lon": 19.9252967}, {"type": "node", "id": 4549756180, "lat": 39.4242629, "lon": 19.9581704}, {"type": "node", "id": 4549756181, "lat": 39.4244691, "lon": 19.9582723}, {"type": "node", "id": 4549756182, "lat": 39.4245261, "lon": 19.9580899}, {"type": "node", "id": 4552967459, "lat": 39.4360249, "lon": 19.9512041}, {"type": "node", "id": 4552967460, "lat": 39.4359827, "lon": 19.9511751}, {"type": "node", "id": 4552967461, "lat": 39.43602, "lon": 19.9510839}, {"type": "node", "id": 4552967462, "lat": 39.4360604, "lon": 19.9511116}, {"type": "node", "id": 4552967463, "lat": 39.43607, "lon": 19.951088}, {"type": "node", "id": 4552967464, "lat": 39.4361506, "lon": 19.9511433}, {"type": "node", "id": 4552967465, "lat": 39.4360881, "lon": 19.9512961}, {"type": "node", "id": 4552967466, "lat": 39.4360093, "lon": 19.951242}, {"type": "node", "id": 4810105072, "lat": 39.2172042, "lon": 20.1618017}, {"type": "node", "id": 4810105073, "lat": 39.2171038, "lon": 20.1618613}, {"type": "node", "id": 4810105074, "lat": 39.2171127, "lon": 20.1617361}, {"type": "node", "id": 4810105075, "lat": 39.2171827, "lon": 20.1617414}, {"type": "node", "id": 4810105076, "lat": 39.2170685, "lon": 20.1617624}, {"type": "node", "id": 4810105077, "lat": 39.2171265, "lon": 20.1617748}, {"type": "node", "id": 4810105078, "lat": 39.2170889, "lon": 20.1619487}, {"type": "node", "id": 4810105079, "lat": 39.217091, "lon": 20.1619929}, {"type": "node", "id": 4810105080, "lat": 39.2171159, "lon": 20.1619876}, {"type": "node", "id": 4810105081, "lat": 39.2171273, "lon": 20.1620077}, {"type": "node", "id": 4810105082, "lat": 39.2171263, "lon": 20.1620358}, {"type": "node", "id": 4810105083, "lat": 39.2171159, "lon": 20.1620506}, {"type": "node", "id": 4810105084, "lat": 39.2171003, "lon": 20.1620586}, {"type": "node", "id": 4810105085, "lat": 39.2170806, "lon": 20.1620707}, {"type": "node", "id": 4810105086, "lat": 39.2170577, "lon": 20.1620707}, {"type": "node", "id": 4810105087, "lat": 39.2170307, "lon": 20.1620586}, {"type": "node", "id": 4810105088, "lat": 39.2170172, "lon": 20.1620439}, {"type": "node", "id": 4810105089, "lat": 39.2170047, "lon": 20.1620157}, {"type": "node", "id": 4810105090, "lat": 39.2169995, "lon": 20.1619956}, {"type": "node", "id": 4810105091, "lat": 39.2169985, "lon": 20.1619715}, {"type": "node", "id": 4810105092, "lat": 39.2169964, "lon": 20.16195}, {"type": "node", "id": 4812144885, "lat": 39.2259166, "lon": 20.161266}, {"type": "node", "id": 4812144903, "lat": 39.2258715, "lon": 20.1613236}, {"type": "node", "id": 4812144926, "lat": 39.2257362, "lon": 20.1605462}, {"type": "node", "id": 4812144927, "lat": 39.2256611, "lon": 20.1605702}, {"type": "node", "id": 4812144928, "lat": 39.225689, "lon": 20.1607152}, {"type": "node", "id": 4812144929, "lat": 39.2257454, "lon": 20.1606971}, {"type": "node", "id": 4812144930, "lat": 39.2257394, "lon": 20.1606656}, {"type": "node", "id": 4812144931, "lat": 39.225758, "lon": 20.1606596}, {"type": "node", "id": 4812144940, "lat": 39.2258277, "lon": 20.1614195}, {"type": "node", "id": 4812144941, "lat": 39.2257803, "lon": 20.1614883}, {"type": "node", "id": 4812144942, "lat": 39.225736, "lon": 20.1614337}, {"type": "node", "id": 4812144943, "lat": 39.2257833, "lon": 20.1613649}, {"type": "node", "id": 4812179877, "lat": 39.225726, "lon": 20.1619248}, {"type": "node", "id": 4812179880, "lat": 39.2257916, "lon": 20.1619128}, {"type": "node", "id": 4812179887, "lat": 39.2256465, "lon": 20.1617929}, {"type": "node", "id": 4812179888, "lat": 39.2255721, "lon": 20.1618023}, {"type": "node", "id": 4812179889, "lat": 39.2255791, "lon": 20.1618952}, {"type": "node", "id": 4812179890, "lat": 39.2256535, "lon": 20.1618858}, {"type": "node", "id": 4812179899, "lat": 39.2257978, "lon": 20.1620031}, {"type": "node", "id": 4812179902, "lat": 39.2257476, "lon": 20.1620088}, {"type": "node", "id": 4812180732, "lat": 39.225887, "lon": 20.1624924}, {"type": "node", "id": 4820727287, "lat": 39.5957721, "lon": 19.8010366}, {"type": "node", "id": 4820727288, "lat": 39.5958552, "lon": 19.8011984}, {"type": "node", "id": 4820727289, "lat": 39.5957985, "lon": 19.8012475}, {"type": "node", "id": 4820727290, "lat": 39.5957154, "lon": 19.8010857}, {"type": "node", "id": 4826174068, "lat": 39.5970868, "lon": 19.7957499}, {"type": "node", "id": 4826174069, "lat": 39.5970599, "lon": 19.795943}, {"type": "node", "id": 4826174070, "lat": 39.5971673, "lon": 19.7959682}, {"type": "node", "id": 4847330187, "lat": 39.2249808, "lon": 20.1644802}, {"type": "node", "id": 4847330188, "lat": 39.2249912, "lon": 20.1644543}, {"type": "node", "id": 4847330189, "lat": 39.2250379, "lon": 20.1644855}, {"type": "node", "id": 4847330190, "lat": 39.2249856, "lon": 20.1646156}, {"type": "node", "id": 4847330191, "lat": 39.2248827, "lon": 20.1645466}, {"type": "node", "id": 4847330192, "lat": 39.2249246, "lon": 20.1644425}, {"type": "node", "id": 4908446021, "lat": 39.460057, "lon": 19.982223, "tags": {"amenity": "restaurant", "cuisine": "greek", "email": "filinopolos@rambler.ru", "internet_access": "wlan", "name:en": "Kalami Taverna", "name:ru": "\u041a\u0430\u043b\u0430\u043c\u0438 \u0422\u0430\u0432\u0435\u0440\u043d\u0430", "opening_hours": "24/7", "operator": "\u0418\u0440\u0438\u043d\u0430", "phone": "+302662053003"}}, {"type": "node", "id": 4931192356, "lat": 39.5614226, "lon": 19.8985443, "tags": {"amenity": "restaurant", "name": "Taverna To Pouli Tsi Kotas"}}, {"type": "node", "id": 4931573847, "lat": 39.2350046, "lon": 20.1346256, "tags": {"amenity": "restaurant", "name": "Fanis"}}, {"type": "node", "id": 4931573954, "lat": 39.2314579, "lon": 20.1509484, "tags": {"amenity": "restaurant", "name": "Ben's Bar"}}, {"type": "node", "id": 4946867422, "lat": 39.4072554, "lon": 20.2470178, "tags": {"amenity": "restaurant", "cuisine": "mediterranean;greek", "language:cs": "yes", "language:el": "main", "name": "Taverna Tessalia", "operator": "\u039c\u03b1\u03bd\u03c4\u03b6\u03b1\u03b2\u03ad\u03bb\u03bb\u03b1\u03c2 \u0393\u03b5\u03ce\u03c1\u03b3\u03b9\u03bf\u03c2", "outdoor_seating": "yes"}}, {"type": "node", "id": 4951659215, "lat": 39.4143406, "lon": 19.9878283}, {"type": "node", "id": 4951659216, "lat": 39.4141662, "lon": 19.988074}, {"type": "node", "id": 4951659217, "lat": 39.4144244, "lon": 19.987924}, {"type": "node", "id": 4951659218, "lat": 39.4144134, "lon": 19.9879412}, {"type": "node", "id": 4951659219, "lat": 39.4144266, "lon": 19.987954}, {"type": "node", "id": 4951659220, "lat": 39.4143792, "lon": 19.9880283}, {"type": "node", "id": 4951660121, "lat": 39.4143648, "lon": 19.9880155}, {"type": "node", "id": 4951660122, "lat": 39.4142567, "lon": 19.9881712}, {"type": "node", "id": 4951660140, "lat": 39.4153794, "lon": 19.9876842}, {"type": "node", "id": 4951660141, "lat": 39.4155228, "lon": 19.9874883}, {"type": "node", "id": 4951660142, "lat": 39.4155985, "lon": 19.9875811}, {"type": "node", "id": 4951660143, "lat": 39.4154551, "lon": 19.987777}, {"type": "node", "id": 4951660209, "lat": 39.4148199, "lon": 19.9871809}, {"type": "node", "id": 4951660210, "lat": 39.4147711, "lon": 19.986984}, {"type": "node", "id": 4951660211, "lat": 39.4146454, "lon": 19.9870364}, {"type": "node", "id": 4951660212, "lat": 39.4146943, "lon": 19.9872333}, {"type": "node", "id": 4970808520, "lat": 39.6241022, "lon": 19.9200503, "tags": {"amenity": "cafe", "name": "Averto"}}, {"type": "node", "id": 4970808557, "lat": 39.627289, "lon": 19.9231955, "tags": {"amenity": "restaurant", "name": "Veranda", "seasonal": "yes"}}, {"type": "node", "id": 4970808558, "lat": 39.610625, "lon": 19.9238003, "tags": {"amenity": "restaurant", "fixme": "is this still open? if yes, please update with a webpage or social media", "name": "Alexakis", "phone": "+302661020170"}}, {"type": "node", "id": 4970809037, "lat": 39.6450451, "lon": 19.8523456, "tags": {"amenity": "restaurant", "cuisine": "seafood", "name": "Gerekos"}}, {"type": "node", "id": 4970809121, "lat": 39.6272404, "lon": 19.9232462, "tags": {"amenity": "restaurant", "name": "Mouragia"}}, {"type": "node", "id": 4988069025, "lat": 39.6257099, "lon": 19.9194047, "tags": {"addr:housenumber": "131-133", "addr:street": "\u039d\u03b9\u03ba\u03bf\u03bb\u03ac\u03bf\u03c5 \u03a0\u03bf\u03bb\u03af\u03c4\u03b7", "amenity": "restaurant", "cuisine": "greek", "internet_access": "wlan", "name": "\u03a0\u03b9\u03c4\u03bf\u03bd\u03bf\u03c3\u03c4\u03b9\u03bc\u03b9\u03ad\u03c2", "name:el": "\u03a0\u03b9\u03c4\u03bf\u03bd\u03bf\u03c3\u03c4\u03b9\u03bc\u03b9\u03ad\u03c2", "name:en": "Pitonostimies", "opening_hours": "Mo-Su 09:00-01:00", "website": "https://www.tripadvisor.ru/Restaurant_Review-g662629-d6993821-Reviews-Pitonostimies-Corfu_Town_Corfu_Ionian_Islands.html?m=19904"}}, {"type": "node", "id": 5008381915, "lat": 39.5793879, "lon": 19.9130309, "tags": {"amenity": "restaurant", "cuisine": "greek;german;mediterranean", "name": "Restaurant \"Zeffiros\"", "outdoor_seating": "yes", "smoking": "outside"}}, {"type": "node", "id": 5027804223, "lat": 39.4261404, "lon": 19.9453639, "tags": {"amenity": "restaurant", "cuisine": "greek;chicken", "internet_access": "wlan", "name": "Makis"}}, {"type": "node", "id": 5044514122, "lat": 39.6230333, "lon": 19.9233559, "tags": {"amenity": "cafe", "brand": "Starbucks", "brand:wikidata": "Q37158", "cuisine": "coffee_shop", "name": "Starbucks", "name:en": "Starbucks", "name:ru": "\u0421\u0442\u0430\u0440\u0431\u0430\u043a\u0441", "official_name": "Starbucks Coffee", "takeaway": "yes"}}, {"type": "node", "id": 5044532323, "lat": 39.624765, "lon": 19.9212856, "tags": {"addr:city": "\u039a\u03ad\u03c1\u03ba\u03c5\u03c1\u03b1", "addr:housenumber": "42", "addr:street": "\u0398\u03b5\u03bf\u03c4\u03cc\u03ba\u03b7 \u039a\u03bf\u03c4\u03b1\u03c1\u03b4\u03bf\u03c5", "amenity": "cafe", "cuisine": "greek", "internet_access": "wlan", "name": "\u039c\u03b9\u03ba\u03c1\u03cc caf\u00e9", "name:el": "\u039c\u03b9\u03ba\u03c1\u03cc caf\u00e9", "name:en": "Mikro Cafe", "opening_hours": "Mo-Sa 09:00-01:00, Su 09:00-00:00", "outdoor_seating": "yes", "phone": "26610 31009", "website": "https://www.facebook.com/mikrocafecorfu"}}, {"type": "node", "id": 5054379021, "lat": 39.6108191, "lon": 19.9226949, "tags": {"amenity": "restaurant", "cuisine": "seafood;greek;grill", "internet_access": "wlan", "name:en": "Avli", "website": "https://www.avlicorfu.com/"}}, {"type": "node", "id": 5067021667, "lat": 39.3700315, "lon": 20.3014985, "tags": {"amenity": "restaurant", "name": "Fork & Knife"}}, {"type": "node", "id": 5067021668, "lat": 39.3694853, "lon": 20.3016957, "tags": {"amenity": "restaurant", "cuisine": "pizza", "name": "\u039a\u03b1\u03c1\u03b2\u03bf\u03cd\u03bd\u03b7\u03c2", "outdoor_seating": "yes", "takeaway": "yes"}}, {"type": "node", "id": 5067021676, "lat": 39.3545617, "lon": 20.288368, "tags": {"amenity": "restaurant", "name": "Akti Arilla", "outdoor_seating": "yes"}}, {"type": "node", "id": 5067021680, "lat": 39.3694931, "lon": 20.3019885, "tags": {"amenity": "restaurant", "name": "\u039c\u03c5\u03c3\u03c4\u03ae\u03c1\u03b9\u03bf\u03c2"}}, {"type": "node", "id": 5067021681, "lat": 39.3704467, "lon": 20.3002129, "tags": {"amenity": "restaurant", "name": "Onoiron geuseis"}}, {"type": "node", "id": 5067021685, "lat": 39.3704914, "lon": 20.3004655, "tags": {"amenity": "restaurant", "name": "Thalia"}}, {"type": "node", "id": 5075001088, "lat": 39.5404479, "lon": 19.9158747, "tags": {"amenity": "restaurant", "name": "Zorbas Taverna"}}, {"type": "node", "id": 5075313319, "lat": 39.3831337, "lon": 20.1183475, "tags": {"amenity": "restaurant"}}, {"type": "node", "id": 5100227123, "lat": 39.4633453, "lon": 19.9220344, "tags": {"addr:street": "\u039a\u03ad\u03c1\u03ba\u03c5\u03c1\u03b1 - \u039b\u03b5\u03c5\u03ba\u03af\u03bc\u03bc\u03b7", "amenity": "restaurant", "cuisine": "greek", "name:de": "Archontiko", "name:en": "Archontiko", "operator": "Akis Kouris", "phone": "2661 075851", "website": "http://Archontiko.gr.com"}}, {"type": "node", "id": 5107126122, "lat": 39.6209812, "lon": 19.9173007, "tags": {"amenity": "cafe", "internet_access": "wlan", "name:en": "Sugar Cafe"}}, {"type": "node", "id": 5112419927, "lat": 39.4752203, "lon": 19.9347117, "tags": {"amenity": "restaurant", "name": "Romeo"}}, {"type": "node", "id": 5112419928, "lat": 39.4750878, "lon": 19.9354224, "tags": {"amenity": "restaurant", "cuisine": "regional", "name": "Baccus"}}, {"type": "node", "id": 5112419929, "lat": 39.4756034, "lon": 19.9350287, "tags": {"amenity": "restaurant", "name": "Korali"}}, {"type": "node", "id": 5112419930, "lat": 39.4783512, "lon": 19.9342491, "tags": {"amenity": "restaurant", "name": "Dionysos"}}, {"type": "node", "id": 5112442521, "lat": 39.4728707, "lon": 19.9367253, "tags": {"amenity": "restaurant", "name": "Merimaid bar and restaurant"}}, {"type": "node", "id": 5144966122, "lat": 39.6248426, "lon": 19.9229251, "tags": {"addr:housenumber": "17", "addr:street": "\u03a0\u03ac\u03c1\u03b3\u03b1\u03c2", "amenity": "restaurant", "name:en": "Ta Kokoria"}}, {"type": "node", "id": 5144966222, "lat": 39.6267225, "lon": 19.9217718, "tags": {"addr:housenumber": "1", "addr:street": "Lili Desila", "amenity": "restaurant", "name:en": "The Venetian Well"}}, {"type": "node", "id": 5147741321, "lat": 39.5076949, "lon": 20.2623814, "tags": {"amenity": "restaurant", "cuisine": "greek;grill;burger;chicken", "internet_access": "wlan", "name": "\u03a4\u03bf \u039c\u03c0\u03c1\u03b9\u03b6\u03bf\u03bb\u03ac\u03b4\u03b9\u03ba\u03bf \u03c4\u03bf\u03c5 \u039b\u03bf\u03cd\u03b7", "name:el": "\u03a4\u03bf \u039c\u03c0\u03c1\u03b9\u03b6\u03bf\u03bb\u03ac\u03b4\u03b9\u03ba\u03bf \u03c4\u03bf\u03c5 \u039b\u03bf\u03cd\u03b7", "name:en": "To Brizoladiko tou Loui"}}, {"type": "node", "id": 5175235121, "lat": 39.6400676, "lon": 19.8046823, "tags": {"amenity": "restaurant", "cuisine": "greek", "name": "\u039b\u03b1\u03b4\u03cc\u03ba\u03bf\u03bb\u03bb\u03b1 \u03a8\u03b7\u03c3\u03c4\u03b1\u03c1\u03b9\u03ac", "name:el": "\u039b\u03b1\u03b4\u03cc\u03ba\u03bf\u03bb\u03bb\u03b1 \u03a8\u03b7\u03c3\u03c4\u03b1\u03c1\u03b9\u03ac", "name:en": "Ladokola Grill House"}}, {"type": "node", "id": 5187216309, "lat": 39.6247736, "lon": 20.1814861, "tags": {"amenity": "cafe", "name": "Sea You"}}, {"type": "node", "id": 5187216310, "lat": 39.6245763, "lon": 20.1815732, "tags": {"amenity": "restaurant", "name": "\u03a3\u03ba\u03ac\u03bb\u03c9\u03bc\u03b1"}}, {"type": "node", "id": 5190388137, "lat": 39.5216428, "lon": 19.8615916, "tags": {"amenity": "cafe", "name:de": "Ano Pavliana", "name:en": "Ano Pavliana"}}, {"type": "node", "id": 5196592949, "lat": 39.4593795, "lon": 20.2645962}, {"type": "node", "id": 5196592972, "lat": 39.4593682, "lon": 20.264586}, {"type": "node", "id": 5196592973, "lat": 39.4595267, "lon": 20.2644009}, {"type": "node", "id": 5196592974, "lat": 39.4595748, "lon": 20.2644763}, {"type": "node", "id": 5196592975, "lat": 39.4594316, "lon": 20.264643}, {"type": "node", "id": 5215244901, "lat": 39.624708, "lon": 19.9219036, "tags": {"amenity": "cafe", "cuisine": "pancakes", "name": "Creperie \"Koukounara\""}}, {"type": "node", "id": 5300463482, "lat": 39.5027281, "lon": 20.2657254, "tags": {"amenity": "cafe", "name": "\u03a4\u03bf \u03c3\u03c4\u03b5\u03ba\u03b9"}}, {"type": "node", "id": 5300463490, "lat": 39.5021851, "lon": 20.2654637, "tags": {"amenity": "cafe"}}, {"type": "node", "id": 5300463491, "lat": 39.5021112, "lon": 20.2654596, "tags": {"amenity": "cafe", "name": "Da copa"}}, {"type": "node", "id": 5300463496, "lat": 39.5017608, "lon": 20.2649996, "tags": {"amenity": "cafe", "name": "Passepartout"}}, {"type": "node", "id": 5300463497, "lat": 39.5017521, "lon": 20.2649295, "tags": {"amenity": "cafe", "name": "Duomo caff\u00e8"}}, {"type": "node", "id": 5300495375, "lat": 39.5015101, "lon": 20.2643439, "tags": {"amenity": "cafe", "name": "Cartel"}}, {"type": "node", "id": 5300495380, "lat": 39.502787, "lon": 20.2648281, "tags": {"amenity": "cafe", "name": "Meeting"}}, {"type": "node", "id": 5300520434, "lat": 39.5038861, "lon": 20.2631742, "tags": {"amenity": "cafe", "name": "Presto"}}, {"type": "node", "id": 5300581243, "lat": 39.5053199, "lon": 20.2641724, "tags": {"amenity": "cafe", "name": "\u03a7\u03b1\u03c1\u03b1\u03bc\u03b1"}}, {"type": "node", "id": 5300581258, "lat": 39.5052759, "lon": 20.2629577, "tags": {"amenity": "cafe", "name": "Del mar"}}, {"type": "node", "id": 5300605647, "lat": 39.505747, "lon": 20.2629779, "tags": {"amenity": "restaurant", "name": "\u039b\u03b9\u03b8\u03bf\u03c2"}}, {"type": "node", "id": 5300648572, "lat": 39.5036497, "lon": 20.2644291, "tags": {"amenity": "cafe", "name": "All day coffee"}}, {"type": "node", "id": 5300648581, "lat": 39.5032797, "lon": 20.264849, "tags": {"amenity": "cafe", "name": "\u0397 \u03c3\u03c4\u03bf\u03b1"}}, {"type": "node", "id": 5300704925, "lat": 39.5016951, "lon": 20.2644701, "tags": {"amenity": "restaurant", "name": "\u0397 \u0394\u03ce\u03c1\u03b1"}}, {"type": "node", "id": 5300704929, "lat": 39.5013976, "lon": 20.2644788, "tags": {"amenity": "cafe", "name": "Espresso"}}, {"type": "node", "id": 5300704936, "lat": 39.5010746, "lon": 20.2638913, "tags": {"amenity": "cafe"}}, {"type": "node", "id": 5300704940, "lat": 39.500962, "lon": 20.2640063, "tags": {"amenity": "restaurant", "name": "\u03a4\u03bf \u03ba\u03cd\u03bc\u03b1"}}, {"type": "node", "id": 5300704944, "lat": 39.5008765, "lon": 20.2637441, "tags": {"amenity": "cafe", "name": "\u0395\u1f56 \u03ba\u03b1\u03c1\u03c0\u03bf\u1fd6\u03c2"}}, {"type": "node", "id": 5300704945, "lat": 39.5008149, "lon": 20.2637525, "tags": {"amenity": "cafe", "name": "Kafe meze il porto"}}, {"type": "node", "id": 5300704948, "lat": 39.49997, "lon": 20.264004, "tags": {"amenity": "cafe", "name": "Smiris"}}, {"type": "node", "id": 5300704949, "lat": 39.4999286, "lon": 20.2640134, "tags": {"amenity": "cafe", "brand": "Coffee Island", "brand:wikidata": "Q60867333", "brand:wikipedia": "en:Coffee Island", "cuisine": "coffee_shop", "name": "Coffee Island", "takeaway": "yes"}}, {"type": "node", "id": 5300704952, "lat": 39.4993696, "lon": 20.264152, "tags": {"amenity": "cafe", "name": "\u0391\u03af\u03b8\u03c1\u03b9\u03bf (quadrangle)"}}, {"type": "node", "id": 5300704960, "lat": 39.4986791, "lon": 20.2642155, "tags": {"amenity": "restaurant", "name": "Emily akti"}}, {"type": "node", "id": 5300739154, "lat": 39.4958857, "lon": 20.2627337, "tags": {"amenity": "cafe", "name": "Cafe Anatoli"}}, {"type": "node", "id": 5300739157, "lat": 39.4963912, "lon": 20.2629094, "tags": {"amenity": "restaurant", "name": "Oscar restaurant"}}, {"type": "node", "id": 5300793311, "lat": 39.4999785, "lon": 20.2641573, "tags": {"amenity": "restaurant", "name": "Strada Marina"}}, {"type": "node", "id": 5300793315, "lat": 39.5011602, "lon": 20.2636984, "tags": {"amenity": "cafe", "name": "\u0392\u03b1\u03bd\u03af\u03bb\u03b9\u03b1"}}, {"type": "node", "id": 5300793316, "lat": 39.5012379, "lon": 20.2636835, "tags": {"amenity": "cafe", "name": "The bank"}}, {"type": "node", "id": 5300793317, "lat": 39.5015224, "lon": 20.2636267, "tags": {"amenity": "cafe", "name": "Lift"}}, {"type": "node", "id": 5300793318, "lat": 39.5017814, "lon": 20.2635396, "tags": {"amenity": "cafe", "name": "Stretto"}}, {"type": "node", "id": 5300793319, "lat": 39.5019389, "lon": 20.2635098, "tags": {"amenity": "cafe", "name": "City"}}, {"type": "node", "id": 5300793320, "lat": 39.502008, "lon": 20.2635073, "tags": {"amenity": "cafe"}}, {"type": "node", "id": 5300793822, "lat": 39.5021957, "lon": 20.2634435, "tags": {"amenity": "cafe", "name": "\u0394\u03c9\u03b4\u03ce\u03bd\u03b7"}}, {"type": "node", "id": 5300793823, "lat": 39.5022373, "lon": 20.2634401, "tags": {"amenity": "cafe", "name": "Therapy"}}, {"type": "node", "id": 5300793824, "lat": 39.5023237, "lon": 20.2634221, "tags": {"amenity": "cafe", "name": "Tram"}}, {"type": "node", "id": 5300793829, "lat": 39.502615, "lon": 20.2634054, "tags": {"amenity": "cafe", "name": "\u03a4\u03c3\u03af\u03c0\u03bf\u03c5\u03c1\u03bf"}}, {"type": "node", "id": 5302460309, "lat": 39.4946632, "lon": 20.2622769, "tags": {"amenity": "cafe", "cuisine": "burger;sandwich;pasta;breakfast;pizza;coffee_shop", "name": "Chocolat"}}, {"type": "node", "id": 5302460310, "lat": 39.4917117, "lon": 20.2606067, "tags": {"amenity": "restaurant", "name": "\u039f \u03a4\u03af\u03bc\u03bf\u03c2"}}, {"type": "node", "id": 5303724201, "lat": 39.4939881, "lon": 20.2617999, "tags": {"amenity": "cafe", "brand": "Mikel", "brand:wikidata": "Q16952021", "brand:wikipedia": "el:Mikel", "cuisine": "coffee_shop", "name": "Mikel", "takeaway": "yes"}}, {"type": "node", "id": 5303724212, "lat": 39.4953527, "lon": 20.2625464, "tags": {"amenity": "cafe"}}, {"type": "node", "id": 5303724214, "lat": 39.494416, "lon": 20.2622029, "tags": {"amenity": "cafe", "name": "\u039a\u03ac\u03c1\u03bc\u03b1"}}, {"type": "node", "id": 5303724215, "lat": 39.4925263, "lon": 20.2609582, "tags": {"amenity": "cafe", "name": "\u039c\u03c0\u03ad\u03bb\u03bb\u03bf\u03c2"}}, {"type": "node", "id": 5303724216, "lat": 39.4923483, "lon": 20.2608837, "tags": {"amenity": "cafe", "name": "Angelica Pallas"}}, {"type": "node", "id": 5303724218, "lat": 39.4890179, "lon": 20.2604849, "tags": {"amenity": "cafe", "name": "Thirsty dog"}}, {"type": "node", "id": 5310394667, "lat": 39.208992, "lon": 20.1532461, "tags": {"amenity": "restaurant", "name": "\u039f \u0397\u03bb\u03af\u03b1\u03c2"}}, {"type": "node", "id": 5310394668, "lat": 39.2095041, "lon": 20.1522328, "tags": {"amenity": "cafe", "name": "\u039f \u039c\u03c0\u03bf\u03cd\u03c1\u03bd\u03b1\u03bf\u03c2"}}, {"type": "node", "id": 5315110765, "lat": 39.4839575, "lon": 20.2887019}, {"type": "node", "id": 5315110768, "lat": 39.4837726, "lon": 20.2888568}, {"type": "node", "id": 5315110770, "lat": 39.4838273, "lon": 20.2886473}, {"type": "node", "id": 5423015678, "lat": 39.490922, "lon": 20.2602519, "tags": {"amenity": "restaurant", "name": "\u0391\u03c0\u03cc\u03b4\u03c1\u03b1\u03c3\u03b7"}}, {"type": "node", "id": 5423015679, "lat": 39.491646, "lon": 20.2605313, "tags": {"amenity": "cafe", "name": "Dolce"}}, {"type": "node", "id": 5423015688, "lat": 39.4951369, "lon": 20.262418, "tags": {"amenity": "cafe", "name": "Indigo"}}, {"type": "node", "id": 5454577694, "lat": 39.5015776, "lon": 20.2640246}, {"type": "node", "id": 5454577703, "lat": 39.5016918, "lon": 20.2640027}, {"type": "node", "id": 5454577704, "lat": 39.5017014, "lon": 20.2640872}, {"type": "node", "id": 5454577705, "lat": 39.5015706, "lon": 20.2641132}, {"type": "node", "id": 5454577706, "lat": 39.5015612, "lon": 20.2640277}, {"type": "node", "id": 5459425867, "lat": 39.5289367, "lon": 20.1579379}, {"type": "node", "id": 5459425868, "lat": 39.5288518, "lon": 20.158022}, {"type": "node", "id": 5459425869, "lat": 39.5287634, "lon": 20.1578719}, {"type": "node", "id": 5459425870, "lat": 39.5288484, "lon": 20.1577878}, {"type": "node", "id": 5480887367, "lat": 39.4440779, "lon": 20.272871, "tags": {"amenity": "restaurant", "cuisine": "pizza;italian;greek", "name": "Pizzeria To Lithino", "outdoor_seating": "yes"}}, {"type": "node", "id": 5480887371, "lat": 39.4444401, "lon": 20.2733112, "tags": {"amenity": "restaurant", "cuisine": "seafood;greek", "name": "Seafood Kokosis", "outdoor_seating": "yes"}}, {"type": "node", "id": 5482819622, "lat": 39.6239003, "lon": 19.9229037, "tags": {"addr:housenumber": "12", "addr:postcode": "49100", "addr:street": "\u0391\u03b3\u03af\u03c9\u03bd \u03a0\u03ac\u03bd\u03c4\u03c9\u03bd", "amenity": "restaurant", "cuisine": "greek", "internet_access": "wlan", "name": "\u0397 \u03a0\u03af\u03c4\u03b1 \u03c4\u03bf\u03c5 \u03a0\u03b1\u03c0\u03c0\u03bf\u03cd", "name:el": "\u0397 \u03a0\u03af\u03c4\u03b1 \u03c4\u03bf\u03c5 \u03a0\u03b1\u03c0\u03c0\u03bf\u03cd", "name:en": "Pitta Pappou", "name:ru": "\u042f \u043f\u0438\u0442\u0442\u0430 \u0441\u044c\u0435\u0448\u044c \u043c\u0435\u043d\u044f", "opening_hours": "Mo-Su 09:00-22:00", "website": "http://www.pittapappoukerkyra.gr"}}, {"type": "node", "id": 5541391466, "lat": 39.5227528, "lon": 20.2613724, "tags": {"amenity": "restaurant", "name": "Sea's"}}, {"type": "node", "id": 5600698713, "lat": 39.6452526, "lon": 19.8599553, "tags": {"amenity": "restaurant", "check_date": "2024-05-22", "cuisine": "greek", "name": "\u039a\u03ad\u03c1\u03ba\u03c5\u03c1\u03b1", "outdoor_seating": "yes"}}, {"type": "node", "id": 5622601123, "lat": 39.6046674, "lon": 19.7959271, "tags": {"amenity": "restaurant", "indoor_seating": "yes", "name": "Spiros", "outdoor_seating": "yes"}}, {"type": "node", "id": 5629970822, "lat": 39.6342485, "lon": 19.7806889, "tags": {"amenity": "cafe"}}, {"type": "node", "id": 5659092385, "lat": 39.4258469, "lon": 19.9460837, "tags": {"amenity": "restaurant", "name": "Seaside Restaurant Cafe"}}, {"type": "node", "id": 5663788921, "lat": 39.3856719, "lon": 20.1121065, "tags": {"amenity": "restaurant", "cuisine": "greek;seafood;italian_pizza;mexican", "diet:vegetarian": "yes", "internet_access": "wlan", "name:en": "The Shack"}}, {"type": "node", "id": 5667474133, "lat": 39.3847208, "lon": 20.1131698, "tags": {"amenity": "restaurant", "cuisine": "american;greek;italian_pizza;mexican", "internet_access": "wlan", "name": "Flames", "name:en": "Flames"}}, {"type": "node", "id": 5705441255, "lat": 39.5016951, "lon": 20.2640318, "tags": {"entrance": "yes"}}, {"type": "node", "id": 5705441256, "lat": 39.5016983, "lon": 20.2640595, "tags": {"entrance": "yes"}}, {"type": "node", "id": 5727907115, "lat": 39.3349398, "lon": 20.2884183, "tags": {"amenity": "restaurant", "name": "Taberna Skala"}}, {"type": "node", "id": 5734292121, "lat": 39.4522102, "lon": 20.0014777, "tags": {"amenity": "restaurant", "cuisine": "greek", "name": "Limnopoula Tavern", "name:el": "\u03a4\u03b1\u03b2\u03ad\u03c1\u03bd\u03b1 \u039b\u03b9\u03bc\u03bd\u03bf\u03c0\u03bf\u03cd\u03bb\u03b1", "opening_hours": "Mo-Su 09:30-22:30"}}, {"type": "node", "id": 5741243121, "lat": 39.3749985, "lon": 20.0684535, "tags": {"amenity": "restaurant", "cuisine": "mediterranean;burger;noodles;pasta;sandwich", "name": "Micronisi", "name:en": "Mikronisi beach venue", "opening_hours": "Mo-Su 09:00-02:00", "phone": "+306980686611", "website": "https://mikro-nisi.com/"}}, {"type": "node", "id": 5745205722, "lat": 39.6227003, "lon": 19.9192667, "tags": {"addr:city": "\u039a\u03ad\u03c1\u03ba\u03c5\u03c1\u03b1", "addr:housenumber": "13", "addr:postcode": "49100", "addr:street": "\u03a3\u03c4\u03b1\u03bc\u03b1\u03c4\u03af\u03bf\u03c5 \u0394\u03b5\u03c3\u03cd\u03bb\u03bb\u03b1", "amenity": "restaurant", "cuisine": "greek", "diet:vegan": "yes", "diet:vegetarian": "yes", "name": "Tavernas Rouvas", "name:el": "Taverna Rouvas", "name:en": "Taverna Rouvas", "name:fr": "Taverna Rouvas"}}, {"type": "node", "id": 5840200456, "lat": 39.4785317, "lon": 19.8605933, "tags": {"amenity": "restaurant", "cuisine": "regional;greek", "name": "Avra Oceanos", "outdoor_seating": "yes", "website": "https://prasoudi.gr/?page_id=75"}}, {"type": "node", "id": 5890433785, "lat": 39.6248909, "lon": 19.9091201, "tags": {"amenity": "cafe", "check_date": "2025-05-13", "cuisine": "bakery;coffee_shop", "internet_access": "no", "level": "0", "name": "\u03a6\u03bf\u03cd\u03c1\u03bd\u03bf\u03c2 \u0391\u03c5\u03b3\u03b5\u03c1\u03b9\u03bd\u03bf\u03cd", "name:el": "\u03a6\u03bf\u03cd\u03c1\u03bd\u03bf\u03c2 \u0391\u03c5\u03b3\u03b5\u03c1\u03b9\u03bd\u03bf\u03cd", "name:en": "Avgerinou Bakery", "payment:cash": "yes", "payment:credit_cards": "yes", "payment:debit_cards": "yes", "wheelchair": "limited"}}, {"type": "node", "id": 5892565186, "lat": 39.6219685, "lon": 19.9171224, "tags": {"amenity": "cafe", "name:en": "Espresso Island", "wheelchair": "limited"}}, {"type": "node", "id": 5897386592, "lat": 39.5617736, "lon": 19.9050661, "tags": {"FIXME": "continue"}}, {"type": "node", "id": 5899429386, "lat": 39.6265474, "lon": 19.9206356, "tags": {"addr:housenumber": "23", "addr:street": "\u0394\u03cc\u03bd\u03b6\u03b5\u03bb\u03bf\u03c4", "amenity": "restaurant", "name": "Salto Wine Bar"}}, {"type": "node", "id": 5908083886, "lat": 39.6244789, "lon": 19.9195042, "tags": {"amenity": "cafe", "cuisine": "greek", "name": "Gia-souvlaki"}}, {"type": "node", "id": 5912091585, "lat": 39.6244497, "lon": 19.9192066, "tags": {"addr:housenumber": "30", "addr:postcode": "49100", "addr:street": "\u0392\u03b5\u03bb\u03b9\u03c3\u03c3\u03b1\u03c1\u03af\u03bf\u03c5", "amenity": "restaurant", "name": "Abakas mezedopoleio", "phone": "+30 2661304219"}}, {"type": "node", "id": 5918111026, "lat": 39.6238505, "lon": 19.9234894, "tags": {"addr:city": "\u039a\u03ad\u03c1\u03ba\u03c5\u03c1\u03b1", "addr:housenumber": "5", "addr:postcode": "49100", "addr:street": "\u039a\u03b1\u03c0\u03bf\u03b4\u03b9\u03c3\u03c4\u03c1\u03af\u03bf\u03c5", "amenity": "cafe", "check_date": "2023-06-25", "name": "Cafe Grec", "outdoor_seating": "yes", "toilets": "yes", "wheelchair": "no"}}, {"type": "node", "id": 5964169730, "lat": 39.6199255, "lon": 19.9181734, "tags": {"amenity": "cafe"}}, {"type": "node", "id": 5964169732, "lat": 39.6155253, "lon": 19.9201849, "tags": {"amenity": "cafe"}}, {"type": "node", "id": 5964170499, "lat": 39.6214653, "lon": 19.9167463, "tags": {"amenity": "restaurant", "name": "\u039c\u03ad\u03c1\u03b9\u03b1\u03bd\u03bf\u03c2", "wheelchair": "limited"}}, {"type": "node", "id": 5969053371, "lat": 39.426073, "lon": 19.9449786, "tags": {"addr:city": "Corfu", "addr:postcode": "49080", "addr:street": "St. George South", "amenity": "restaurant", "capacity": "50", "cuisine": "greek", "name": "Rouvelas taverna", "opening_hours": "Mo-Su 09:00-23:30", "outdoor_seating": "yes", "takeaway": "no", "toilets:wheelchair": "no", "wheelchair": "yes"}}, {"type": "node", "id": 5983125004, "lat": 39.6160973, "lon": 19.9119494, "tags": {"amenity": "cafe"}}, {"type": "node", "id": 5993767689, "lat": 39.5831139, "lon": 19.915051, "tags": {"amenity": "restaurant", "name:en": "Avra"}}, {"type": "node", "id": 5993767690, "lat": 39.5770723, "lon": 19.9133945, "tags": {"amenity": "cafe", "name:en": "Monte Caf\u00e9"}}, {"type": "node", "id": 6022133917, "lat": 39.5800342, "lon": 19.9138642}, {"type": "node", "id": 6022133924, "lat": 39.5800774, "lon": 19.9140174}, {"type": "node", "id": 6022133945, "lat": 39.5799642, "lon": 19.913897}, {"type": "node", "id": 6022133946, "lat": 39.5800066, "lon": 19.9140633}, {"type": "node", "id": 6022133947, "lat": 39.5800087, "lon": 19.9141398}, {"type": "node", "id": 6022133948, "lat": 39.5801069, "lon": 19.91418}, {"type": "node", "id": 6022133949, "lat": 39.5801709, "lon": 19.913973}, {"type": "node", "id": 6117197055, "lat": 39.3983478, "lon": 20.255694}, {"type": "node", "id": 6117197056, "lat": 39.3984649, "lon": 20.2556371}, {"type": "node", "id": 6117197057, "lat": 39.3986498, "lon": 20.2556158}, {"type": "node", "id": 6117197058, "lat": 39.3987011, "lon": 20.2556585}, {"type": "node", "id": 6117197059, "lat": 39.3988054, "lon": 20.2554689}, {"type": "node", "id": 6117197060, "lat": 39.3989207, "lon": 20.2555495}, {"type": "node", "id": 6117197061, "lat": 39.3987487, "lon": 20.2559166}, {"type": "node", "id": 6117197062, "lat": 39.3986425, "lon": 20.2559759}, {"type": "node", "id": 6117197063, "lat": 39.3985949, "lon": 20.2558408}, {"type": "node", "id": 6117197064, "lat": 39.3985327, "lon": 20.2557793}, {"type": "node", "id": 6201884651, "lat": 39.6222164, "lon": 19.9178092, "tags": {"amenity": "cafe", "check_date": "2025-05-14", "cuisine": "ice_cream;cake;coffee_shop;tea;juice;dessert;pastry;bakery", "internet_access": "wlan", "internet_access:fee": "customers", "level": "0", "name": "Emeral", "outdoor_seating": "yes", "payment:cash": "yes", "payment:credit_cards": "yes", "payment:debit_cards": "yes"}}, {"type": "node", "id": 6201884652, "lat": 39.6221473, "lon": 19.9172609, "tags": {"amenity": "cafe", "brand": "Coffee Island", "brand:wikidata": "Q60867333", "brand:wikipedia": "en:Coffee Island", "check_date": "2025-05-14", "cuisine": "coffee_shop;sandwich;donut;tea;juice", "internet_access": "wlan", "internet_access:fee": "customers", "level": "0", "name": "Coffee Island", "outdoor_seating": "yes", "payment:cash": "yes", "payment:credit_cards": "yes", "payment:debit_cards": "yes", "takeaway": "yes", "wheelchair": "no"}}, {"type": "node", "id": 6207525393, "lat": 39.6217363, "lon": 19.9174266, "tags": {"amenity": "cafe", "name": "Rialto Cafe"}}, {"type": "node", "id": 6207525401, "lat": 39.6213786, "lon": 19.9181186, "tags": {"amenity": "cafe", "check_date": "2025-05-14", "cuisine": "sandwich;crepe;burger", "level": "0", "name": "Metro Crepe Station", "name:en": "Metro Crepe Station", "outdoor_seating": "yes", "payment:cash": "yes", "payment:credit_cards": "yes", "payment:debit_cards": "yes", "wheelchair": "no"}}, {"type": "node", "id": 6207550135, "lat": 39.6221854, "lon": 19.9173118, "tags": {"amenity": "restaurant", "check_date": "2023-06-17", "cuisine": "kebab", "internet_access": "wlan", "internet_access:fee": "no", "internet_access:ssid": "EXPRESSSAROCO", "level": "0", "name": "Souvlike", "outdoor_seating": "yes", "payment:debit_cards": "yes", "phone": "+30 2661 027131", "takeaway": "yes", "wheelchair": "limited"}}, {"type": "node", "id": 6207569297, "lat": 39.6223853, "lon": 19.9172791, "tags": {"amenity": "cafe", "name": "5th Avenue"}}, {"type": "node", "id": 6207569298, "lat": 39.6223482, "lon": 19.9173864, "tags": {"amenity": "cafe", "name": "Momen"}}, {"type": "node", "id": 6207722024, "lat": 39.6221124, "lon": 19.9181275, "tags": {"amenity": "cafe", "name": "Del Capo", "wheelchair": "no"}}, {"type": "node", "id": 6207722028, "lat": 39.622195, "lon": 19.9178619, "tags": {"amenity": "cafe", "name": "Big Apple", "wheelchair": "no"}}, {"type": "node", "id": 6207727446, "lat": 39.6220339, "lon": 19.9188628, "tags": {"amenity": "cafe", "name": "Azienda Cafe"}}, {"type": "node", "id": 6207736395, "lat": 39.6210857, "lon": 19.9186974, "tags": {"amenity": "cafe", "cuisine": "burger;sandwich", "internet_access": "wlan", "name": "Miky Coffee", "outdoor_seating": "yes", "toilets:wheelchair": "no", "wheelchair": "yes"}}, {"type": "node", "id": 6207738247, "lat": 39.6211818, "lon": 19.9189786, "tags": {"amenity": "cafe", "name": "My Habit"}}, {"type": "node", "id": 6327151540, "lat": 39.4671216, "lon": 20.2504381}, {"type": "node", "id": 6327151541, "lat": 39.4670452, "lon": 20.2505384}, {"type": "node", "id": 6327151542, "lat": 39.4669437, "lon": 20.2504061}, {"type": "node", "id": 6327151543, "lat": 39.4670226, "lon": 20.2503075}, {"type": "node", "id": 6327170933, "lat": 39.4839065, "lon": 20.2889117}, {"type": "node", "id": 6327207656, "lat": 39.4884991, "lon": 20.2777768}, {"type": "node", "id": 6327207657, "lat": 39.4884252, "lon": 20.2777764}, {"type": "node", "id": 6327207658, "lat": 39.4884998, "lon": 20.2776458}, {"type": "node", "id": 6327207659, "lat": 39.4884253, "lon": 20.2776455}, {"type": "node", "id": 6449408454, "lat": 39.5667756, "lon": 19.8641176}, {"type": "node", "id": 6449408455, "lat": 39.5668331, "lon": 19.8641507}, {"type": "node", "id": 6449408456, "lat": 39.5669469, "lon": 19.8641357}, {"type": "node", "id": 6449408457, "lat": 39.5667987, "lon": 19.8640503}, {"type": "node", "id": 6449408458, "lat": 39.5667662, "lon": 19.8643461}, {"type": "node", "id": 6449408459, "lat": 39.5668569, "lon": 19.8643984}, {"type": "node", "id": 6450575762, "lat": 39.6068979, "lon": 19.8955847}, {"type": "node", "id": 6450575763, "lat": 39.6068061, "lon": 19.8956435}, {"type": "node", "id": 6450575764, "lat": 39.6066367, "lon": 19.8951986}, {"type": "node", "id": 6450575765, "lat": 39.6067394, "lon": 19.8951327}, {"type": "node", "id": 6468242786, "lat": 39.6156271, "lon": 19.8944743, "tags": {"addr:street": "Mamaloi, 491 50 Alepou, Corfu Corfu Greece", "amenity": "restaurant", "cuisine": "greek;barbecue", "internet_access": "wlan", "name": "\u03a0\u03ac\u03c0\u03c1\u03b9\u03ba\u03b1", "name:de": "Paprika Steakhouse", "name:el": "\u03a0\u03ac\u03c0\u03c1\u03b9\u03ba\u03b1", "opening_hours": "Mo-Su 12:30-00:30", "website": "https://www.corfudeliveras.gr/corfu-delivery-kerkyra/\u03c0\u03b1\u03c0\u03c1\u03b9\u03ba\u03b1/"}}, {"type": "node", "id": 6469999317, "lat": 39.5184915, "lon": 20.1949368, "tags": {"amenity": "cafe"}}, {"type": "node", "id": 6473757407, "lat": 39.3649629, "lon": 20.3010046}, {"type": "node", "id": 6473757408, "lat": 39.3649183, "lon": 20.3009636}, {"type": "node", "id": 6473757409, "lat": 39.364854, "lon": 20.3010804}, {"type": "node", "id": 6473757410, "lat": 39.3648986, "lon": 20.3011215}, {"type": "node", "id": 6506428933, "lat": 39.5017966, "lon": 20.264068}, {"type": "node", "id": 6506428934, "lat": 39.5018662, "lon": 20.2640582}, {"type": "node", "id": 6506428935, "lat": 39.5018597, "lon": 20.2639804}, {"type": "node", "id": 6506428936, "lat": 39.5017901, "lon": 20.2639902}, {"type": "node", "id": 6506428937, "lat": 39.5017881, "lon": 20.2639612}, {"type": "node", "id": 6506428938, "lat": 39.5018562, "lon": 20.2639506}, {"type": "node", "id": 6506428939, "lat": 39.5018458, "lon": 20.2638383}, {"type": "node", "id": 6506428940, "lat": 39.5017777, "lon": 20.2638489}, {"type": "node", "id": 6550946501, "lat": 39.5962256, "lon": 19.8254576, "tags": {"amenity": "restaurant", "name": "staurodromi"}}, {"type": "node", "id": 6550977502, "lat": 39.5955165, "lon": 19.8270762, "tags": {"amenity": "restaurant", "internet_access": "wlan", "name": "Sun-Splashed Skyline Apt.", "operator": "Booking.com", "rooms": "1"}}, {"type": "node", "id": 6555614562, "lat": 39.207297, "lon": 20.1548173, "tags": {"amenity": "restaurant"}}, {"type": "node", "id": 6555632899, "lat": 39.2170665, "lon": 20.1619924, "tags": {"amenity": "restaurant", "name": "Pratigos Taverna"}}, {"type": "node", "id": 6560277179, "lat": 39.2089514, "lon": 20.1630238, "tags": {"amenity": "restaurant", "name": "Dolos"}}, {"type": "node", "id": 6564268430, "lat": 39.2345638, "lon": 20.1361078, "tags": {"amenity": "restaurant", "name": "La Piazza"}}, {"type": "node", "id": 6564271830, "lat": 39.2344657, "lon": 20.1356261, "tags": {"amenity": "restaurant", "name": "Stasinos Garden Restaurant"}}, {"type": "node", "id": 6587367178, "lat": 39.383356, "lon": 20.1155192, "tags": {"amenity": "restaurant", "cuisine": "chinese", "description": "Chinese and Thai Cuisine", "name": "Golden Courser", "opening_hours": "Mo-Su 17:00-23:45"}}, {"type": "node", "id": 6656178089, "lat": 39.6256305, "lon": 19.9091972, "tags": {"addr:postcode": "49100", "amenity": "restaurant", "check_date": "2025-05-15", "cuisine": "sandwich;hot_dog", "delivery": "no", "diet:meat": "yes", "diet:pork": "yes", "diet:vegan": "yes", "diet:vegetarian": "yes", "highchair": "yes", "internet_access": "no", "level": "0", "name": "To Vromiko", "name:en": "To Vromiko", "outdoor_seating": "yes", "payment:cash": "yes", "payment:credit_cards": "yes", "payment:debit_cards": "yes", "source": "local knowledge", "takeaway": "yes", "toilets": "yes", "toilets:menstrual_products": "no", "wheelchair": "yes"}}, {"type": "node", "id": 6656178100, "lat": 39.6256425, "lon": 19.9193863, "tags": {"amenity": "restaurant"}}, {"type": "node", "id": 6656178107, "lat": 39.6238889, "lon": 19.9236263, "tags": {"amenity": "cafe", "check_date": "2023-06-25", "name": "Libro d'Oro", "name:en": "Libro d'Oro"}}, {"type": "node", "id": 6656178285, "lat": 39.626876, "lon": 19.9060829, "tags": {"amenity": "cafe"}}, {"type": "node", "id": 6656178286, "lat": 39.625804, "lon": 19.9069163, "tags": {"amenity": "cafe", "name:en": "Cava Nekka"}}, {"type": "node", "id": 6656178298, "lat": 39.6270964, "lon": 19.9150111, "tags": {"amenity": "cafe", "name:en": "Stathis"}}, {"type": "node", "id": 6656178299, "lat": 39.6270908, "lon": 19.9152646, "tags": {"amenity": "cafe", "name:en": "Alegr\u00eda"}}, {"type": "node", "id": 6656178310, "lat": 39.6237701, "lon": 19.9204235, "tags": {"amenity": "restaurant", "cuisine": "greek", "name": "Elia Homemade Greek Cuisine", "name:es": "Taberna Elia"}}, {"type": "node", "id": 6656178332, "lat": 39.6247373, "lon": 19.9237993, "tags": {"amenity": "restaurant", "name:en": "Gondola"}}, {"type": "node", "id": 6656178343, "lat": 39.626066, "lon": 19.920036, "tags": {"amenity": "cafe"}}, {"type": "node", "id": 6656178352, "lat": 39.624941, "lon": 19.9188522, "tags": {"amenity": "restaurant", "name": "Marinas Tavern"}}, {"type": "node", "id": 6656178494, "lat": 39.625873, "lon": 19.9197133, "tags": {"amenity": "restaurant", "name": "Mavros Tatoor"}}, {"type": "node", "id": 6656178498, "lat": 39.6249881, "lon": 19.9196945, "tags": {"amenity": "cafe", "name": "The Dream"}}, {"type": "node", "id": 6656178511, "lat": 39.6257805, "lon": 19.9196555, "tags": {"amenity": "restaurant", "name": "Xenia"}}, {"type": "node", "id": 6656178517, "lat": 39.6258864, "lon": 19.9123394, "tags": {"amenity": "cafe", "name:en": "Porto Bello"}}, {"type": "node", "id": 6656178518, "lat": 39.6258288, "lon": 19.912177, "tags": {"amenity": "cafe", "name:en": "Onan"}}, {"type": "node", "id": 6656178519, "lat": 39.625667, "lon": 19.9119828, "tags": {"amenity": "cafe", "indoor_seating": "yes", "name:en": "Cofee Factory", "outdoor_seating": "yes"}}, {"type": "node", "id": 6656178521, "lat": 39.6256145, "lon": 19.9117441, "tags": {"amenity": "cafe", "check_date": "2025-05-14", "cuisine": "coffee_shop;greek;sandwich;burger", "internet_access": "wlan", "internet_access:fee": "customers", "name": "\u0386\u03bb\u03c3\u03bf\u03c2 Coffee & Food Bar", "name:el": "\u0386\u03bb\u03c3\u03bf\u03c2 Coffee & Food Bar", "name:en": "Alsos Coffee & Food Bar", "outdoor_seating": "yes", "payment:cash": "yes", "payment:credit_cards": "yes", "payment:debit_cards": "yes", "wheelchair": "limited"}}, {"type": "node", "id": 6656178525, "lat": 39.6257496, "lon": 19.9071694, "tags": {"amenity": "cafe", "name:en": "\u00d8a"}}, {"type": "node", "id": 6656187687, "lat": 39.6261174, "lon": 19.9201547, "tags": {"amenity": "restaurant", "name": "Mapkas"}}, {"type": "node", "id": 6673264285, "lat": 39.5466839, "lon": 19.9128421, "tags": {"addr:city": "\u039a\u03b5\u03c1\u03ba\u03c5\u03c1\u03b1", "addr:country": "GR", "addr:postcode": "49100", "addr:street": "Benitses main Square", "amenity": "restaurant", "cuisine": "greek", "email": "neongrillbenitses@gmail.com", "internet_access": "wlan", "name": "Neon Grill & Restaurant", "phone": "+302661072334"}}, {"type": "node", "id": 6681488097, "lat": 39.6232116, "lon": 19.9225761, "tags": {"amenity": "restaurant", "cuisine": "italian", "name": "Nolita", "outdoor_seating": "yes", "smoking": "outside"}}, {"type": "node", "id": 6681488098, "lat": 39.6233957, "lon": 19.9225742, "tags": {"amenity": "restaurant", "cuisine": "greek", "name": "Olive tree", "outdoor_seating": "yes", "smoking": "outside"}}, {"type": "node", "id": 6681840878, "lat": 39.6298837, "lon": 19.8950893, "tags": {"amenity": "restaurant", "name": "Mylos"}}, {"type": "node", "id": 6696597630, "lat": 39.3528657, "lon": 20.2877389}, {"type": "node", "id": 6696597631, "lat": 39.3527435, "lon": 20.2877814}, {"type": "node", "id": 6696597632, "lat": 39.3527834, "lon": 20.2879729}, {"type": "node", "id": 6696597633, "lat": 39.3529056, "lon": 20.2879304}, {"type": "node", "id": 6696873910, "lat": 39.354609, "lon": 20.2884822}, {"type": "node", "id": 6696873911, "lat": 39.3544525, "lon": 20.2884179}, {"type": "node", "id": 6696873912, "lat": 39.3544987, "lon": 20.2882299}, {"type": "node", "id": 6696873913, "lat": 39.3546541, "lon": 20.2882937}, {"type": "node", "id": 6696873914, "lat": 39.3546405, "lon": 20.2883491}, {"type": "node", "id": 6696873915, "lat": 39.3546697, "lon": 20.2883611}, {"type": "node", "id": 6696873916, "lat": 39.3546406, "lon": 20.2884796}, {"type": "node", "id": 6696873917, "lat": 39.3546125, "lon": 20.288468}, {"type": "node", "id": 6696899152, "lat": 39.3528996, "lon": 20.2879015}, {"type": "node", "id": 6696899153, "lat": 39.35288, "lon": 20.2878074}, {"type": "node", "id": 6700421326, "lat": 39.6452488, "lon": 19.8516327, "tags": {"amenity": "cafe", "name": "Pita Pita"}}, {"type": "node", "id": 6707461485, "lat": 39.6450822, "lon": 19.85566, "tags": {"amenity": "restaurant", "name": "Taverna Zorbas Kontokali", "name:fr": "zorba"}}, {"type": "node", "id": 6723037586, "lat": 39.5421776, "lon": 19.914413, "tags": {"amenity": "restaurant", "name:en": "Big Bite", "opening_hours": "Mo-Su 09:00-02:00"}}, {"type": "node", "id": 6727444100, "lat": 39.6243036, "lon": 19.9213165, "tags": {"addr:city": "Kerkyra - CORFU TOWN", "addr:housenumber": "14", "addr:postcode": "491 31", "addr:street": "\u039a\u039f\u03a1\u0399\u039d\u0398\u0399\u03a9\u039d", "air_conditioning": "yes", "amenity": "cafe", "bar": "yes", "cuisine": "coffee_shop", "description": "No frills coffee shop. Locals and visitors. Mixed ages. Family friendly. Greek and international coffee.", "internet_access": "yes", "internet_access:fee": "yes", "name": "Cafe ARKOUDA", "outdoor_seating": "yes", "payment:cash": "yes", "payment:contactless": "yes", "payment:credit_cards": "yes", "payment:debit_cards": "yes"}}, {"type": "node", "id": 6865103485, "lat": 39.6232212, "lon": 19.9233201, "tags": {"amenity": "restaurant", "name": "Pane e Psaraki", "name:en": "Pane e Psaraki"}}, {"type": "node", "id": 6867918887, "lat": 39.6220122, "lon": 19.9226224, "tags": {"amenity": "restaurant", "name": "Il Vesuvio", "name:en": "Il Vesuvio"}}, {"type": "node", "id": 6918313640, "lat": 39.5529105, "lon": 19.8875508, "tags": {"addr:city": "\u0386\u03b3\u03b9\u03bf\u03b9 \u0394\u03ad\u03ba\u03b1", "amenity": "restaurant", "cuisine": "regional", "name": "Areti's Place", "phone": "+302661056348;+306946727551"}}, {"type": "node", "id": 7040539685, "lat": 39.6251026, "lon": 19.9237984, "tags": {"amenity": "restaurant"}}, {"type": "node", "id": 7150341286, "lat": 39.6252453, "lon": 19.9196865, "tags": {"amenity": "restaurant", "name": "Safran Mediterranean"}}, {"type": "node", "id": 7150345485, "lat": 39.6249141, "lon": 19.9220476, "tags": {"amenity": "restaurant", "name": "Anthos"}}, {"type": "node", "id": 7575762385, "lat": 39.6400773, "lon": 19.8047749, "tags": {"amenity": "restaurant", "cuisine": "greek", "name": "\u03a3\u03c4\u03bf\u03c5 \u039c\u03b1\u03ba\u03ac", "phone": "6936607277"}}, {"type": "node", "id": 7625771385, "lat": 39.6238831, "lon": 19.9206788, "tags": {"amenity": "restaurant", "name": "\u03a4\u03b1\u03b2\u03ad\u03c1\u03bd\u03b1 \u03a8\u03b7\u03c3\u03c4\u03b1\u03c1\u03b9\u03ac \u03a4\u03bf \u0394\u03af\u03c0\u03bf\u03c1\u03c4\u03bf", "name:el": "\u03a4\u03b1\u03b2\u03ad\u03c1\u03bd\u03b1 \u03a8\u03b7\u03c3\u03c4\u03b1\u03c1\u03b9\u03ac \u03a4\u03bf \u0394\u03af\u03c0\u03bf\u03c1\u03c4\u03bf", "name:en": "Traditional Taverna Diporto"}}, {"type": "node", "id": 7637957786, "lat": 39.3872881, "lon": 20.2740477, "tags": {"amenity": "restaurant", "internet_access": "wlan", "name:en": "Elaia plus"}}, {"type": "node", "id": 7638015885, "lat": 39.3834815, "lon": 20.2780684, "tags": {"amenity": "restaurant", "cuisine": "fish;greek", "name": "\u039a\u03b1\u03bc\u03af\u03bd\u03b9", "name:el": "\u039a\u03b1\u03bc\u03af\u03bd\u03b9", "name:en": "Kamini"}}, {"type": "node", "id": 7647368259, "lat": 39.3836239, "lon": 20.2797303, "tags": {"amenity": "restaurant", "cuisine": "greek", "name": "\u0391\u03b3\u03ba\u03ac\u03bb\u03b7", "name:el": "\u0391\u03b3\u03ba\u03ac\u03bb\u03b7", "name:en": "Agali", "website": "http://agali-restaurant.gr/"}}, {"type": "node", "id": 7673605385, "lat": 39.4222777, "lon": 20.0624657, "tags": {"amenity": "restaurant", "int_name": "Ladokolla", "name": "\u039b\u03b1\u03b4\u03cc\u03ba\u03bf\u03bb\u03bb\u03b1"}}, {"type": "node", "id": 7728770100, "lat": 39.4280451, "lon": 19.9416608, "tags": {"amenity": "restaurant", "cuisine": "american", "name": "Mondo's Bar & Grill", "outdoor_seating": "yes", "phone": "+306988525809", "smoking": "outside"}}, {"type": "node", "id": 7829845016, "lat": 39.2875932, "lon": 20.3401685, "tags": {"amenity": "restaurant", "cuisine": "greek", "name": "Taverna Resalto"}}, {"type": "node", "id": 7832459501, "lat": 39.5620692, "lon": 19.9033832}, {"type": "node", "id": 7832459502, "lat": 39.5619744, "lon": 19.9034976}, {"type": "node", "id": 7832459503, "lat": 39.5618487, "lon": 19.9033222}, {"type": "node", "id": 7832459504, "lat": 39.5619435, "lon": 19.9032078}, {"type": "node", "id": 7832459505, "lat": 39.561843, "lon": 19.9052331}, {"type": "node", "id": 7832459506, "lat": 39.5618356, "lon": 19.9050733}, {"type": "node", "id": 7832459507, "lat": 39.5617755, "lon": 19.9050123}, {"type": "node", "id": 7832459508, "lat": 39.5616874, "lon": 19.9050099}, {"type": "node", "id": 7832459509, "lat": 39.5616955, "lon": 19.9052493}, {"type": "node", "id": 7832459510, "lat": 39.5617813, "lon": 19.9052985}, {"type": "node", "id": 7842219285, "lat": 39.6268653, "lon": 19.9219455, "tags": {"amenity": "cafe", "name:en": "Favela #17"}}, {"type": "node", "id": 7900035503, "lat": 39.5946008, "lon": 19.804626, "tags": {"amenity": "restaurant", "name": "Glyfada Mexas Club", "outdoor_seating": "yes", "website": "https://www.facebook.com/glydadabeachrestaurant"}}, {"type": "node", "id": 7917866378, "lat": 39.6253886, "lon": 19.9239477, "tags": {"amenity": "restaurant", "diet:vegetarian": "yes", "name": "Aubergine"}}, {"type": "node", "id": 7937401849, "lat": 39.3936247, "lon": 20.2685174}, {"type": "node", "id": 7937401850, "lat": 39.3935712, "lon": 20.2685008}, {"type": "node", "id": 7937401851, "lat": 39.3935899, "lon": 20.2683997}, {"type": "node", "id": 7937401852, "lat": 39.3936435, "lon": 20.2684163}, {"type": "node", "id": 8384693200, "lat": 39.5669654, "lon": 19.9091817, "tags": {"amenity": "restaurant", "cuisine": "greek", "name": "\u03a4\u03b1\u03b2\u03ad\u03c1\u03bd\u03b1 \u03a4\u03ac\u03c3\u03bf\u03c2", "name:el": "\u03a4\u03b1\u03b2\u03ad\u03c1\u03bd\u03b1 \u03a4\u03ac\u03c3\u03bf\u03c2", "name:en": "Tasos Taverna", "opening_hours": "Jun-Sep: Mo-Su 10:00-23:00"}}, {"type": "node", "id": 8390120659, "lat": 39.2260019, "lon": 20.1611761}, {"type": "node", "id": 8390324589, "lat": 39.2257728, "lon": 20.162006}, {"type": "node", "id": 8612119339, "lat": 39.5466031, "lon": 19.9128184, "tags": {"addr:city": "\u039a\u03b5\u03c1\u03ba\u03c5\u03c1\u03b1", "addr:country": "GR", "addr:postcode": "49084", "addr:street": "\u039a\u03ad\u03c1\u03ba\u03c5\u03c1\u03b1 - \u039b\u03b5\u03c5\u03ba\u03af\u03bc\u03bc\u03b7", "addr:unit": "\u039c\u03c0\u03b5\u03bd\u03b9\u03c4\u03c3\u03b5\u03c2", "amenity": "restaurant", "cuisine": "greek;seafood;traditional", "email": "florasrestaurant1@gmail.com", "name": "Flora's Restaurant", "phone": "+306980905588"}}, {"type": "node", "id": 8752587138, "lat": 39.6225919, "lon": 19.9226489, "tags": {"amenity": "restaurant", "name": "Porta Remounda", "name:en": "Porta Remounda"}}, {"type": "node", "id": 8753110761, "lat": 39.604736, "lon": 19.7958114}, {"type": "node", "id": 8753110762, "lat": 39.6047334, "lon": 19.7960084}, {"type": "node", "id": 8753110763, "lat": 39.6046569, "lon": 19.796}, {"type": "node", "id": 8753110764, "lat": 39.6046543, "lon": 19.7958704}, {"type": "node", "id": 8765046677, "lat": 39.5958542, "lon": 19.8011993}, {"type": "node", "id": 8784791126, "lat": 39.6270022, "lon": 19.9253777}, {"type": "node", "id": 8789191140, "lat": 39.6066938, "lon": 19.9153169}, {"type": "node", "id": 8789191145, "lat": 39.6066978, "lon": 19.9152315}, {"type": "node", "id": 8789191149, "lat": 39.6068968, "lon": 19.9152672}, {"type": "node", "id": 8789191151, "lat": 39.6068963, "lon": 19.9153264}, {"type": "node", "id": 8836820317, "lat": 39.6235084, "lon": 19.919739, "tags": {"addr:housenumber": "2", "addr:street": "\u0391\u03b3\u03af\u03b1\u03c2 \u03a3\u03bf\u03c6\u03af\u03b1\u03c2", "amenity": "restaurant", "cuisine": "burger;chicken;coffee_shop;diner;fine_dining;fish;fish_and_chips", "name": "Megusto", "opening_hours": "Mo-Su 11:00-23:00"}}, {"type": "node", "id": 8874948196, "lat": 39.5323911, "lon": 19.8475715, "tags": {"amenity": "cafe"}}, {"type": "node", "id": 8902039519, "lat": 39.6231757, "lon": 19.9194177}, {"type": "node", "id": 8902039520, "lat": 39.6231757, "lon": 19.9194824}, {"type": "node", "id": 8902039521, "lat": 39.6231157, "lon": 19.9195946}, {"type": "node", "id": 8902039522, "lat": 39.62306, "lon": 19.9195395}, {"type": "node", "id": 8902039523, "lat": 39.6231391, "lon": 19.9193892}, {"type": "node", "id": 8902039529, "lat": 39.6231113, "lon": 19.9194419}, {"type": "node", "id": 8922989833, "lat": 39.6212062, "lon": 19.9154827}, {"type": "node", "id": 8922989834, "lat": 39.6212037, "lon": 19.9157062}, {"type": "node", "id": 8923157187, "lat": 39.6204855, "lon": 19.9156198}, {"type": "node", "id": 8923157189, "lat": 39.6203936, "lon": 19.9154409}, {"type": "node", "id": 8923157190, "lat": 39.6205803, "lon": 19.9152791}, {"type": "node", "id": 8923157195, "lat": 39.6203446, "lon": 19.9153407}, {"type": "node", "id": 8923157196, "lat": 39.6205265, "lon": 19.9151783}, {"type": "node", "id": 8923170144, "lat": 39.620404, "lon": 19.9156904}, {"type": "node", "id": 8923170145, "lat": 39.6203892, "lon": 19.9156608}, {"type": "node", "id": 8923170146, "lat": 39.6203546, "lon": 19.9156899}, {"type": "node", "id": 8923170147, "lat": 39.620339, "lon": 19.9156588}, {"type": "node", "id": 8923170148, "lat": 39.6203134, "lon": 19.9156804}, {"type": "node", "id": 8923170149, "lat": 39.6202709, "lon": 19.9155953}, {"type": "node", "id": 8923170150, "lat": 39.6204122, "lon": 19.9154763}, {"type": "node", "id": 8923170151, "lat": 39.6203962, "lon": 19.9154869}, {"type": "node", "id": 8923170154, "lat": 39.6202904, "lon": 19.9155791}, {"type": "node", "id": 9058267017, "lat": 39.623751, "lon": 19.9148986, "tags": {"amenity": "cafe", "check_date": "2025-05-14", "name": "\u039d\u03ad\u03bf\u03bd \u039a\u03b1\u03c6\u03ad", "name:el": "\u039d\u03ad\u03bf\u03bd \u039a\u03b1\u03c6\u03ad", "name:en": "Neon cafe"}}, {"type": "node", "id": 9101827376, "lat": 39.5778122, "lon": 19.8259902}, {"type": "node", "id": 9101845133, "lat": 39.5777846, "lon": 19.8259368}, {"type": "node", "id": 9101845134, "lat": 39.577838, "lon": 19.8260399}, {"type": "node", "id": 9101845135, "lat": 39.577981, "lon": 19.8259151}, {"type": "node", "id": 9101845136, "lat": 39.5779552, "lon": 19.8258653}, {"type": "node", "id": 9101845137, "lat": 39.5779212, "lon": 19.825895}, {"type": "node", "id": 9101845138, "lat": 39.5778937, "lon": 19.8258417}, {"type": "node", "id": 9104004819, "lat": 39.6252615, "lon": 19.9113929, "tags": {"addr:housenumber": "122", "addr:postcode": "49100", "addr:street": "\u0399\u03c9\u03ac\u03bd\u03bd\u03bf\u03c5 \u0398\u03b5\u03bf\u03c4\u03cc\u03ba\u03b7", "amenity": "restaurant", "check_date": "2025-05-14", "cuisine": "pizza", "name": "Pizza Naos", "name:en": "Pizza Naos", "opening_hours": "Th-Tu 18:00-00:00", "payment:cash": "yes", "payment:credit_cards": "yes", "payment:debit_cards": "yes", "wheelchair": "limited"}}, {"type": "node", "id": 9120065653, "lat": 39.5827031, "lon": 19.8217376}, {"type": "node", "id": 9120325242, "lat": 39.6217161, "lon": 19.9121291, "tags": {"amenity": "restaurant"}}, {"type": "node", "id": 9121307303, "lat": 39.5466269, "lon": 19.8714353}, {"type": "node", "id": 9121307304, "lat": 39.5466344, "lon": 19.8714495}, {"type": "node", "id": 9121307305, "lat": 39.5466558, "lon": 19.8715704}, {"type": "node", "id": 9121307306, "lat": 39.5465978, "lon": 19.8714613}, {"type": "node", "id": 9121307307, "lat": 39.5467502, "lon": 19.8713461}, {"type": "node", "id": 9121307308, "lat": 39.5468006, "lon": 19.871441}, {"type": "node", "id": 9134746420, "lat": 39.2347565, "lon": 20.1358585, "tags": {"amenity": "restaurant", "name": "Diogenes Restaurant"}}, {"type": "node", "id": 9134750635, "lat": 39.2346171, "lon": 20.1352364, "tags": {"amenity": "restaurant", "name": "Taverna Pounentes"}}, {"type": "node", "id": 9134770759, "lat": 39.2345259, "lon": 20.1353075, "tags": {"amenity": "restaurant", "name": "Restaurant Alexandros"}}, {"type": "node", "id": 9171745625, "lat": 39.4075686, "lon": 20.2424619, "tags": {"amenity": "cafe", "name:en": "Bakery"}}, {"type": "node", "id": 9301460446, "lat": 39.473788, "lon": 20.2399631, "tags": {"amenity": "restaurant"}}, {"type": "node", "id": 9523487660, "lat": 39.5059828, "lon": 20.2628003, "tags": {"amenity": "restaurant", "name": "\u0395\u03c3\u03c4\u03b9\u03b1\u03c4\u03cc\u03c1\u03b9\u03bf \u0391\u03bb\u03ad\u03ba\u03bf\u03c2"}}, {"type": "node", "id": 9644036517, "lat": 39.5467802, "lon": 19.849916, "tags": {"amenity": "restaurant", "name": "Funky Land"}}, {"type": "node", "id": 9645685104, "lat": 39.6107401, "lon": 19.9275809}, {"type": "node", "id": 9645685105, "lat": 39.6108073, "lon": 19.9275829}, {"type": "node", "id": 9645685106, "lat": 39.6108048, "lon": 19.9277209}, {"type": "node", "id": 9645685107, "lat": 39.6107377, "lon": 19.9277189}, {"type": "node", "id": 9654180123, "lat": 39.6068578, "lon": 19.9152663}, {"type": "node", "id": 9654180124, "lat": 39.606755, "lon": 19.9152324}, {"type": "node", "id": 9654180125, "lat": 39.6068571, "lon": 19.9152409}, {"type": "node", "id": 9654180126, "lat": 39.6068207, "lon": 19.9152068}, {"type": "node", "id": 9654180127, "lat": 39.6067555, "lon": 19.9152077}, {"type": "node", "id": 9669773017, "lat": 39.6242727, "lon": 19.9237448, "tags": {"amenity": "cafe", "name:en": "Europe"}}, {"type": "node", "id": 9669773117, "lat": 39.6244705, "lon": 19.9238489, "tags": {"amenity": "cafe", "name:en": "Kohlias"}}, {"type": "node", "id": 9669773217, "lat": 39.6245543, "lon": 19.9238635, "tags": {"amenity": "restaurant", "cuisine": "greek", "name:en": "Aegli"}}, {"type": "node", "id": 9669773317, "lat": 39.6249508, "lon": 19.9239978, "tags": {"amenity": "cafe"}}, {"type": "node", "id": 9669773318, "lat": 39.6241187, "lon": 19.9236977, "tags": {"amenity": "cafe", "name": "\u039b\u03b9\u03c3\u03c4\u03cc\u03bd \u039a\u03b1\u03c6\u03ad", "name:el": "\u039b\u03b9\u03c3\u03c4\u03cc\u03bd \u039a\u03b1\u03c6\u03ad", "name:en": "Liston Cafe"}}, {"type": "node", "id": 9669775218, "lat": 39.626413, "lon": 19.9206642, "tags": {"amenity": "cafe", "name": "Espresso Bar"}}, {"type": "node", "id": 9669775517, "lat": 39.6261089, "lon": 19.9209091, "tags": {"addr:housenumber": "1", "addr:street": "Mitropoleos Square", "amenity": "restaurant", "cuisine": "greek", "name": "Orama", "phone": "+302661038733", "website": "https://oramacorfu.gr"}}, {"type": "node", "id": 9669780417, "lat": 39.6214303, "lon": 19.9237015, "tags": {"addr:housenumber": "6", "addr:postcode": "49100", "addr:street": "\u039a\u03b1\u03c0\u03bf\u03b4\u03b9\u03c3\u03c4\u03c1\u03af\u03bf\u03c5", "addr:street:en": "Kapodistriou", "amenity": "restaurant", "cuisine": "italian", "email": "italian1962@hotmail.it", "name": "Da Giovanni", "name:en": "Da Giovanni", "phone": "+30 26610 44055", "website": "https://dagiovanni.net/"}}, {"type": "node", "id": 9669925217, "lat": 39.6252959, "lon": 19.9210858, "tags": {"amenity": "restaurant", "cuisine": "italian", "name:en": "Artisti", "website": "https://www.facebook.com/artisti.corfu/"}}, {"type": "node", "id": 9670084417, "lat": 39.5650357, "lon": 19.8844438, "tags": {"amenity": "cafe"}}, {"type": "node", "id": 9671680617, "lat": 39.4956915, "lon": 19.872708, "tags": {"amenity": "restaurant"}}, {"type": "node", "id": 9671680817, "lat": 39.4944621, "lon": 19.8729637, "tags": {"amenity": "restaurant"}}, {"type": "node", "id": 9671680917, "lat": 39.4943952, "lon": 19.8730647, "tags": {"amenity": "cafe"}}, {"type": "node", "id": 9671680918, "lat": 39.4941099, "lon": 19.8732621, "tags": {"amenity": "cafe"}}, {"type": "node", "id": 9671687717, "lat": 39.4814646, "lon": 19.8918519, "tags": {"amenity": "cafe"}}, {"type": "node", "id": 9671723417, "lat": 39.4586091, "lon": 19.8782209, "tags": {"amenity": "restaurant", "name": "Spyros", "name:en": "Taverna"}}, {"type": "node", "id": 9671815218, "lat": 39.4430242, "lon": 19.9431056, "tags": {"amenity": "cafe"}}, {"type": "node", "id": 9671815518, "lat": 39.4373215, "lon": 19.9751932, "tags": {"amenity": "cafe"}}, {"type": "node", "id": 9671838217, "lat": 39.4146983, "lon": 20.0143509, "tags": {"amenity": "cafe", "name": "Bairro Coffee and Friends", "phone": "+30 698 341 5710"}}, {"type": "node", "id": 9671838317, "lat": 39.4153559, "lon": 20.0189593, "tags": {"amenity": "restaurant"}}, {"type": "node", "id": 9671838517, "lat": 39.4221888, "lon": 20.0394257, "tags": {"amenity": "cafe"}}, {"type": "node", "id": 9671838519, "lat": 39.3837992, "lon": 20.0825396, "tags": {"amenity": "cafe"}}, {"type": "node", "id": 9671838718, "lat": 39.394188, "lon": 20.0707037, "tags": {"amenity": "restaurant"}}, {"type": "node", "id": 9671838721, "lat": 39.3833634, "lon": 20.0828975, "tags": {"amenity": "cafe"}}, {"type": "node", "id": 9671839017, "lat": 39.3940595, "lon": 20.0757876, "tags": {"amenity": "cafe", "name": "\u0391\u03bb\u03ad\u03ba\u03bf\u03c2", "name:el": "\u0391\u03bb\u03ad\u03ba\u03bf\u03c2", "name:en": "Alekos"}}, {"type": "node", "id": 9671845717, "lat": 39.3780039, "lon": 20.0890194, "tags": {"amenity": "restaurant", "cuisine": "seafood;greek", "name": "\u03a6\u03b1\u03bd\u03c4\u03b1\u03c3\u03af\u03b1", "name:el": "\u03a6\u03b1\u03bd\u03c4\u03b1\u03c3\u03af\u03b1", "name:en": "Fantasia"}}, {"type": "node", "id": 9671850517, "lat": 39.3785164, "lon": 20.1138953, "tags": {"amenity": "restaurant"}}, {"type": "node", "id": 9671850518, "lat": 39.3804719, "lon": 20.1153906, "tags": {"amenity": "restaurant"}}, {"type": "node", "id": 9671850917, "lat": 39.3829998, "lon": 20.1159513, "tags": {"amenity": "restaurant"}}, {"type": "node", "id": 9671851017, "lat": 39.38437, "lon": 20.1168648, "tags": {"amenity": "cafe"}}, {"type": "node", "id": 9671876217, "lat": 39.3838939, "lon": 20.1158219, "tags": {"amenity": "restaurant"}}, {"type": "node", "id": 9671876219, "lat": 39.3841843, "lon": 20.1138021, "tags": {"amenity": "restaurant", "name": "The Tex Mex"}}, {"type": "node", "id": 9671876319, "lat": 39.3878535, "lon": 20.1095312, "tags": {"amenity": "restaurant"}}, {"type": "node", "id": 9671877017, "lat": 39.3886949, "lon": 20.1087837, "tags": {"amenity": "restaurant"}}, {"type": "node", "id": 9671880917, "lat": 39.4179579, "lon": 20.0836395, "tags": {"amenity": "restaurant", "cuisine": "greek;barbecue", "indoor_seating": "yes", "name": "\u039f \u03a0\u03bf\u03c5\u03bb\u03af\u03b3\u03ba\u03b1\u03c2", "name:el": "\u039f \u03a0\u03bf\u03c5\u03bb\u03af\u03b3\u03ba\u03b1\u03c2", "name:en": "O Pouligkas", "outdoor_seating": "yes"}}, {"type": "node", "id": 9671887917, "lat": 39.4216591, "lon": 20.0792835, "tags": {"amenity": "restaurant", "cuisine": "greek", "name": "\u0391\u03b3\u03ba\u03ac\u03bb\u03b7", "name:el": "\u0391\u03b3\u03ba\u03ac\u03bb\u03b7", "name:en": "Agkali", "opening_hours": "Mo-Su 10:00-01:00", "outdoor_seating": "yes", "phone": "+302662300480", "website": "https://www.agkalicorfu.gr"}}, {"type": "node", "id": 9671890317, "lat": 39.4211398, "lon": 20.0785337, "tags": {"addr:housenumber": "436", "addr:street": "21\u03b7\u03c2 \u039c\u03b1\u03c1\u03c4\u03af\u03bf\u03c5", "amenity": "restaurant", "contact:email": "ovelos2020@gmail.com", "contact:facebook": "https://www.facebook.com/people/%CE%9F%CE%B2%CE%B5%CE%BB%CF%8C%CF%82/100034784362022/", "cuisine": "barbecue;souvlaki;gyros;greek", "delivery": "no", "internet_access": "wlan", "internet_access:fee": "customers", "internet_access:ssid": "ovelosgrilroomandtavern", "name": "\u039f\u03b2\u03b5\u03bb\u03cc\u03c2", "name:el": "\u039f\u03b2\u03b5\u03bb\u03cc\u03c2", "name:en": "Ovelos", "opening_hours": "Mo-Su 12:00-23:30", "operator": "\u0391\u03b9\u03ba\u03b1\u03c4\u03b5\u03c1\u03af\u03bd\u03b7 \u0396\u03b5\u03c1\u03b2\u03bf\u03cd", "outdoor_seating": "yes", "phone": "+302662024755", "ref:vatin": "GR073348525", "takeaway": "yes", "wheelchair": "no"}}, {"type": "node", "id": 9671936918, "lat": 39.4239973, "lon": 20.0641471, "tags": {"amenity": "cafe", "name": "Royal"}}, {"type": "node", "id": 9671975817, "lat": 39.4431849, "lon": 19.9440782, "tags": {"amenity": "cafe", "name": "Linia Caf\u00e9"}}, {"type": "node", "id": 9672000117, "lat": 39.455854, "lon": 19.9570005, "tags": {"amenity": "cafe", "name:en": "to steki"}}, {"type": "node", "id": 9672042617, "lat": 39.4833366, "lon": 19.9301897, "tags": {"amenity": "cafe", "name": "Golden Beach Cafe"}}, {"type": "node", "id": 9672072617, "lat": 39.4828796, "lon": 19.9248909, "tags": {"amenity": "restaurant", "check_date:opening_hours": "2023-08-27", "name": "Mandalena", "opening_hours:signed": "no"}}, {"type": "node", "id": 9672072718, "lat": 39.5091267, "lon": 19.9236256, "tags": {"amenity": "restaurant", "name:en": "Marbella Taverna"}}, {"type": "node", "id": 9672072817, "lat": 39.506138, "lon": 19.9237487, "tags": {"amenity": "restaurant", "name": "Drogiali"}}, {"type": "node", "id": 9672076817, "lat": 39.5454012, "lon": 19.9140651, "tags": {"amenity": "restaurant", "name:en": "Ether"}}, {"type": "node", "id": 9672081518, "lat": 39.5470343, "lon": 19.912403, "tags": {"amenity": "restaurant", "name:en": "Captain Octopus"}}, {"type": "node", "id": 9672094417, "lat": 39.5470225, "lon": 19.9134238, "tags": {"amenity": "cafe", "name:en": "Captain Tackos"}}, {"type": "node", "id": 9672188217, "lat": 39.546345, "lon": 19.9130705, "tags": {"amenity": "restaurant", "cuisine": "fish;seafood", "name:en": "Kilimataria Bellos"}}, {"type": "node", "id": 9673792118, "lat": 39.6383201, "lon": 19.8374905, "tags": {"amenity": "restaurant", "name:en": "Taverna"}}, {"type": "node", "id": 9673792417, "lat": 39.6372457, "lon": 19.8388986, "tags": {"amenity": "cafe"}}, {"type": "node", "id": 9674317923, "lat": 39.6448022, "lon": 19.8541011, "tags": {"amenity": "restaurant", "int_name": "Pipilas"}}, {"type": "node", "id": 9674321421, "lat": 39.6331553, "lon": 19.8801476, "tags": {"amenity": "cafe", "name": "Nadali"}}, {"type": "node", "id": 9674423517, "lat": 39.6299239, "lon": 19.8955945, "tags": {"amenity": "restaurant", "cuisine": "seafood", "int_name": "Dora", "name": "\u0394\u03ce\u03c1\u03b1"}}, {"type": "node", "id": 9674423618, "lat": 39.6285857, "lon": 19.9003431, "tags": {"amenity": "restaurant"}}, {"type": "node", "id": 9674443217, "lat": 39.6242536, "lon": 19.9194289, "tags": {"amenity": "cafe"}}, {"type": "node", "id": 9674443417, "lat": 39.6239422, "lon": 19.9195379, "tags": {"amenity": "restaurant", "name": "Palette Caf\u00e9 and Wine", "name:en": "Palette"}}, {"type": "node", "id": 9674445917, "lat": 39.6239416, "lon": 19.9198202, "tags": {"amenity": "restaurant", "name:en": "Pergola"}}, {"type": "node", "id": 9674890520, "lat": 39.6030124, "lon": 19.89537, "tags": {"amenity": "cafe", "cuisine": "burger;coffee_shop;sandwich", "name:en": "Vespa Coffee and More"}}, {"type": "node", "id": 9674890719, "lat": 39.5665888, "lon": 19.8863339, "tags": {"amenity": "restaurant", "int_name": "Spiros", "name": "\u03a4\u03b1\u03b2\u03ad\u03c1\u03bd\u03b1 \u03a3\u03c0\u03cd\u03c1\u03bf\u03c2"}}, {"type": "node", "id": 9674890918, "lat": 39.5659998, "lon": 19.8487358, "tags": {"amenity": "restaurant"}}, {"type": "node", "id": 9674891420, "lat": 39.567829, "lon": 19.847068, "tags": {"amenity": "cafe"}}, {"type": "node", "id": 9674891617, "lat": 39.5728782, "lon": 19.8439148, "tags": {"amenity": "restaurant"}}, {"type": "node", "id": 9676556117, "lat": 39.5918725, "lon": 19.822406, "tags": {"amenity": "cafe"}}, {"type": "node", "id": 9677938618, "lat": 39.6348153, "lon": 19.8005738, "tags": {"amenity": "restaurant"}}, {"type": "node", "id": 9677938619, "lat": 39.6313, "lon": 19.8022211, "tags": {"amenity": "cafe", "name": "NYRNBERG"}}, {"type": "node", "id": 9677938717, "lat": 39.6328662, "lon": 19.801126, "tags": {"amenity": "cafe"}}, {"type": "node", "id": 9677943017, "lat": 39.609786, "lon": 19.8129433, "tags": {"amenity": "restaurant"}}, {"type": "node", "id": 9679393018, "lat": 39.5615906, "lon": 19.9011061, "tags": {"amenity": "restaurant", "name:en": "Ellia"}}, {"type": "node", "id": 9679575017, "lat": 39.5905204, "lon": 19.8945829, "tags": {"amenity": "cafe"}}, {"type": "node", "id": 9679616117, "lat": 39.6036159, "lon": 19.8948476, "tags": {"amenity": "restaurant", "cuisine": "italian_pizza", "name:en": "Al Dente"}}, {"type": "node", "id": 9679617117, "lat": 39.6106083, "lon": 19.9028818, "tags": {"amenity": "cafe", "name:en": "Barista Coffee.caf\u00e9"}}, {"type": "node", "id": 9680136417, "lat": 39.4268458, "lon": 19.9439968, "tags": {"amenity": "cafe"}}, {"type": "node", "id": 9684889517, "lat": 39.5384751, "lon": 19.8646438, "tags": {"amenity": "cafe"}}, {"type": "node", "id": 9685225617, "lat": 39.606123, "lon": 19.8941204, "tags": {"amenity": "cafe"}}, {"type": "node", "id": 9685225717, "lat": 39.6153825, "lon": 19.9102273, "tags": {"amenity": "cafe", "name": "Boiler", "name:en": "Boiler"}}, {"type": "node", "id": 9691661438, "lat": 39.5475389, "lon": 19.8540342, "tags": {"amenity": "cafe"}}, {"type": "node", "id": 9691704221, "lat": 39.5013786, "lon": 19.8528959, "tags": {"amenity": "restaurant", "name": "Sunset"}}, {"type": "node", "id": 9691928578, "lat": 39.6262136, "lon": 19.9197064, "tags": {"amenity": "restaurant", "name": "Agora"}}, {"type": "node", "id": 9691971936, "lat": 39.606845, "lon": 19.8954101}, {"type": "node", "id": 9691971937, "lat": 39.6068715, "lon": 19.8955155}, {"type": "node", "id": 9691971938, "lat": 39.6069529, "lon": 19.8954633}, {"type": "node", "id": 9691971939, "lat": 39.6069154, "lon": 19.8953649}, {"type": "node", "id": 9805552838, "lat": 39.6249918, "lon": 19.9190169, "tags": {"amenity": "cafe", "name": "Cozy"}}, {"type": "node", "id": 9805552839, "lat": 39.6246323, "lon": 19.918007, "tags": {"amenity": "restaurant", "email": "firifiricorfu@gmail.com", "name": "Firi Firi Beer House", "phone": "+30 2661 033953", "website": "https://www.facebook.com/FiriFiriCorfu"}}, {"type": "node", "id": 9810630537, "lat": 39.5443092, "lon": 19.8507063, "tags": {"amenity": "restaurant", "cuisine": "greek", "name": "Akrogiali Family Taverna", "opening_hours": "Mo-Su 12:00-23:30", "phone": "+30 6982082872"}}, {"type": "node", "id": 9813816687, "lat": 39.5469535, "lon": 19.8510007}, {"type": "node", "id": 9813816688, "lat": 39.5470403, "lon": 19.8511523}, {"type": "node", "id": 9813816691, "lat": 39.5470999, "lon": 19.8510852}, {"type": "node", "id": 9813816692, "lat": 39.5469719, "lon": 19.8511496, "tags": {"amenity": "restaurant", "name": "Grill Time"}}, {"type": "node", "id": 9813816694, "lat": 39.5469431, "lon": 19.8510795}, {"type": "node", "id": 9813816695, "lat": 39.5469421, "lon": 19.8512302}, {"type": "node", "id": 9813820016, "lat": 39.546746, "lon": 19.849867}, {"type": "node", "id": 9813843906, "lat": 39.5470381, "lon": 19.8512126}, {"type": "node", "id": 9813843910, "lat": 39.5471017, "lon": 19.8511477}, {"type": "node", "id": 9813859817, "lat": 39.5468999, "lon": 19.8501784}, {"type": "node", "id": 9813859821, "lat": 39.5468342, "lon": 19.8499401}, {"type": "node", "id": 9813859822, "lat": 39.5468213, "lon": 19.8502002}, {"type": "node", "id": 9813859824, "lat": 39.5467599, "lon": 19.8499728}, {"type": "node", "id": 9813859825, "lat": 39.5466906, "lon": 19.8498917}, {"type": "node", "id": 9813859827, "lat": 39.5467203, "lon": 19.8499929}, {"type": "node", "id": 9814245853, "lat": 39.5471755, "lon": 19.8497495}, {"type": "node", "id": 9814245858, "lat": 39.5471753, "lon": 19.8497042}, {"type": "node", "id": 9814245859, "lat": 39.5473474, "lon": 19.8496315}, {"type": "node", "id": 9814245860, "lat": 39.5473019, "lon": 19.8496345}, {"type": "node", "id": 9814245862, "lat": 39.5471753, "lon": 19.8496424}, {"type": "node", "id": 9814245863, "lat": 39.5473545, "lon": 19.8498134}, {"type": "node", "id": 9814245865, "lat": 39.5471983, "lon": 19.8498165}, {"type": "node", "id": 9822996858, "lat": 39.5919918, "lon": 19.8084231}, {"type": "node", "id": 9822996859, "lat": 39.592091, "lon": 19.808526}, {"type": "node", "id": 9822996860, "lat": 39.592006, "lon": 19.8086641}, {"type": "node", "id": 9822996861, "lat": 39.5919068, "lon": 19.8085612}, {"type": "node", "id": 9822996862, "lat": 39.5921406, "lon": 19.8089447}, {"type": "node", "id": 9822996863, "lat": 39.5922942, "lon": 19.8091437}, {"type": "node", "id": 9822996864, "lat": 39.5923757, "lon": 19.8090378}, {"type": "node", "id": 9822996865, "lat": 39.5922221, "lon": 19.8088388}, {"type": "node", "id": 9822996888, "lat": 39.5925831, "lon": 19.8079385}, {"type": "node", "id": 9822996889, "lat": 39.5923558, "lon": 19.8082389}, {"type": "node", "id": 9822996890, "lat": 39.5922276, "lon": 19.8080941}, {"type": "node", "id": 9822996891, "lat": 39.5924715, "lon": 19.807748}, {"type": "node", "id": 9822996902, "lat": 39.5928525, "lon": 19.8074983}, {"type": "node", "id": 9822996903, "lat": 39.592851, "lon": 19.8078118}, {"type": "node", "id": 9822996904, "lat": 39.5927369, "lon": 19.8078079}, {"type": "node", "id": 9822996905, "lat": 39.5927399, "lon": 19.8074906}, {"type": "node", "id": 9823021026, "lat": 39.5944258, "lon": 19.8041568}, {"type": "node", "id": 9823021027, "lat": 39.5942316, "lon": 19.8041203}, {"type": "node", "id": 9823021028, "lat": 39.5942583, "lon": 19.8039222}, {"type": "node", "id": 9823021029, "lat": 39.5944821, "lon": 19.8039895}, {"type": "node", "id": 9823021030, "lat": 39.5945947, "lon": 19.804076}, {"type": "node", "id": 9823021031, "lat": 39.5945413, "lon": 19.8042087}, {"type": "node", "id": 9834809275, "lat": 39.627061, "lon": 19.9044206}, {"type": "node", "id": 9839110950, "lat": 39.4851595, "lon": 19.925052, "tags": {"amenity": "restaurant", "name": "Pesce Fish Bar"}}, {"type": "node", "id": 9839110951, "lat": 39.4837704, "lon": 19.9247033, "tags": {"amenity": "restaurant", "cuisine": "asian;sushi", "name": "Wok n Roll Sushi Bar", "website": "https://woknrollsushibar.business.site"}}, {"type": "node", "id": 9839110982, "lat": 39.4811199, "lon": 19.9245593, "tags": {"amenity": "restaurant", "cuisine": "greek", "name": "Ranis Dream Food"}}, {"type": "node", "id": 9839110983, "lat": 39.4810525, "lon": 19.9247993, "tags": {"amenity": "restaurant", "cuisine": "greek", "name": "Lava Taverna", "opening_hours": "Mo-Su 09:00-24:00"}}, {"type": "node", "id": 9839110984, "lat": 39.4811364, "lon": 19.9248358, "tags": {"amenity": "restaurant", "check_date:opening_hours": "2023-08-27", "cuisine": "greek", "name": "Zorbas Taverna Bar", "opening_hours:signed": "no", "website": "http://www.zorbasapartments.com/taverna.html"}}, {"type": "node", "id": 9839110997, "lat": 39.4813599, "lon": 19.9245094, "tags": {"amenity": "restaurant", "cuisine": "italian", "name": "Pizzeria La Dolce Vita"}}, {"type": "node", "id": 9925162693, "lat": 39.6255578, "lon": 19.9226439, "tags": {"amenity": "restaurant", "name": "Thymari"}}, {"type": "node", "id": 9927531924, "lat": 39.6242366, "lon": 19.9221659, "tags": {"amenity": "restaurant", "cuisine": "greek", "name": "\u039d\u03af\u03bd\u03bf\u03c2", "name:el": "\u039d\u03af\u03bd\u03bf\u03c2", "name:en": "Taverna Ninos"}}, {"type": "node", "id": 9928135789, "lat": 39.3129693, "lon": 20.3564978, "tags": {"addr:city": "\u0391\u03b3\u03b9\u03ac", "amenity": "restaurant", "cuisine": "greek;regional", "name": "\u039f \u0398\u0395\u0399\u039f\u03a3", "name:el": "\u039f \u0398\u0395\u0399\u039f\u03a3", "outdoor_seating": "yes", "phone": "+30 2684 035432", "website": "http://www.otheiosparga.com/"}}, {"type": "node", "id": 9950714236, "lat": 39.6061576, "lon": 19.9149359, "tags": {"amenity": "cafe", "brand": "Starbucks", "brand:wikidata": "Q37158", "cuisine": "coffee_shop", "name": "Starbucks", "official_name": "Starbucks Coffee", "takeaway": "yes"}}, {"type": "node", "id": 9950714237, "lat": 39.6063486, "lon": 19.9148189, "tags": {"amenity": "restaurant", "name": "So Verry Greek"}}, {"type": "node", "id": 9954469692, "lat": 39.5927577, "lon": 19.8077534, "tags": {"amenity": "restaurant", "name": "Gorgona"}}, {"type": "node", "id": 9954512685, "lat": 39.5924183, "lon": 19.8079826, "tags": {"amenity": "restaurant", "name": "Pazuzu"}}, {"type": "node", "id": 9956399523, "lat": 39.6261607, "lon": 19.9038654, "tags": {"amenity": "cafe", "internet_access": "wlan", "name": "Del Mar Coffee & More", "outdoor_seating": "yes"}}, {"type": "node", "id": 9958911917, "lat": 39.6248493, "lon": 19.9231218, "tags": {"amenity": "restaurant", "name": "\u03a4\u03b1 \u039a\u03bf\u03ba\u03cc\u03c1\u03b9\u03b1", "name:el": "\u03a4\u03b1 \u039a\u03bf\u03ba\u03cc\u03c1\u03b9\u03b1", "name:en": "Ta \u039aokopia"}}, {"type": "node", "id": 9959121279, "lat": 39.621743, "lon": 19.9154484, "tags": {"amenity": "cafe", "internet_access": "wlan", "name": "\u0395\u03bd \u03c3\u03c4\u03ac\u03c3\u03b5\u03b9"}}, {"type": "node", "id": 9959598453, "lat": 39.6125798, "lon": 19.9191726, "tags": {"amenity": "cafe"}}, {"type": "node", "id": 9970219428, "lat": 39.5134027, "lon": 20.2487637, "tags": {"amenity": "restaurant", "bar": "yes", "name": "Naval Seaside Gastro Bar", "website": "https://www.navalgastrobar.gr/"}}, {"type": "node", "id": 9970269798, "lat": 39.5156556, "lon": 20.2474328, "tags": {"amenity": "restaurant", "name": "\u039c\u03b1\u03ca\u03c3\u03c4\u03c1\u03ac\u03bb\u03b9", "name:el": "\u039c\u03b1\u03ca\u03c3\u03c4\u03c1\u03ac\u03bb\u03b9", "name:en": "Maistrali"}}, {"type": "node", "id": 9970276653, "lat": 39.5160913, "lon": 20.2474963, "tags": {"amenity": "restaurant", "name": "\u03a3\u03c0\u03b9\u03c4\u03ac\u03ba\u03b9"}}, {"type": "node", "id": 9972514717, "lat": 39.6236138, "lon": 19.9219728, "tags": {"amenity": "cafe", "cuisine": "coffee_shop;fine_dining;ice_cream", "name": "\u039a\u03b1\u03c6\u03ad \u03a0\u03ad\u03c4\u03c1\u03b9\u03bd\u03bf", "name:de": "Petrino Caf\u00e9", "name:el": "\u039a\u03b1\u03c6\u03ad \u03a0\u03ad\u03c4\u03c1\u03b9\u03bd\u03bf", "name:en": "Petrino Caf\u00e9"}}, {"type": "node", "id": 9976777817, "lat": 39.6252501, "lon": 19.9183605, "tags": {"amenity": "restaurant", "cuisine": "coffee_shop;greek;grill;ice_cream"}}, {"type": "node", "id": 9995557025, "lat": 39.6178127, "lon": 19.8384306}, {"type": "node", "id": 9995557026, "lat": 39.6178608, "lon": 19.8384999}, {"type": "node", "id": 9995557027, "lat": 39.617948, "lon": 19.838516}, {"type": "node", "id": 9995557028, "lat": 39.6179373, "lon": 19.838613}, {"type": "node", "id": 9995557029, "lat": 39.6179787, "lon": 19.8386194}, {"type": "node", "id": 9995557030, "lat": 39.617923, "lon": 19.8389226}, {"type": "node", "id": 9995557031, "lat": 39.6176579, "lon": 19.8388671}, {"type": "node", "id": 9995557032, "lat": 39.6176864, "lon": 19.8385715}, {"type": "node", "id": 9995557033, "lat": 39.6177914, "lon": 19.8388949}, {"type": "node", "id": 9995557034, "lat": 39.6178572, "lon": 19.8389087}, {"type": "node", "id": 10005029517, "lat": 39.4222168, "lon": 20.0131509, "tags": {"amenity": "restaurant", "cuisine": "greek", "name": "Taverna Xenythis", "survey:date": "2022-09-06"}}, {"type": "node", "id": 10017695117, "lat": 39.2075027, "lon": 20.1547897, "tags": {"addr:postcode": "490 82", "amenity": "restaurant", "name": "\u03a4\u03b1\u03b2\u03ad\u03c1\u03bd\u03b1 \u039f \u039b\u03b9\u03bb\u03ac\u03c2", "name:el": "\u03a4\u03b1\u03b2\u03ad\u03c1\u03bd\u03b1 \u039f \u039b\u03b9\u03bb\u03ac\u03c2", "name:en": "Lila's Tavern", "phone": "2662 031497"}}, {"type": "node", "id": 10017703717, "lat": 39.2091471, "lon": 20.152922, "tags": {"addr:postcode": "490 82", "amenity": "restaurant", "name": "Averto", "phone": "2662 030239", "website": "http://avertopaxos.gr"}}, {"type": "node", "id": 10064710674, "lat": 39.4594781, "lon": 19.9756933, "tags": {"amenity": "restaurant", "name": "Taverne Potamaki"}}, {"type": "node", "id": 10067565067, "lat": 39.4368508, "lon": 19.9758621, "tags": {"amenity": "restaurant", "name": "Snack Bar Manos"}}, {"type": "node", "id": 10067565068, "lat": 39.4369526, "lon": 19.9757621, "tags": {"amenity": "cafe", "name": "Tasso's Caf\u00e9 KAFENEIO"}}, {"type": "node", "id": 10068597418, "lat": 39.6236534, "lon": 19.9214999, "tags": {"amenity": "cafe"}}, {"type": "node", "id": 10068597419, "lat": 39.6251577, "lon": 19.9217321, "tags": {"amenity": "cafe", "name": "Gabao"}}, {"type": "node", "id": 10068601418, "lat": 39.6250185, "lon": 19.92165, "tags": {"amenity": "restaurant", "name": "Porcelani"}}, {"type": "node", "id": 10068604817, "lat": 39.62522, "lon": 19.9217586, "tags": {"amenity": "restaurant", "name": "Anthos"}}, {"type": "node", "id": 10068663517, "lat": 39.6252234, "lon": 19.9216763, "tags": {"amenity": "restaurant", "name": "La Famiglia"}}, {"type": "node", "id": 10129521828, "lat": 39.4259779, "lon": 19.9449719}, {"type": "node", "id": 10129716029, "lat": 39.5928332, "lon": 19.9170151, "tags": {"amenity": "restaurant", "contact:phone": "+30 697 5533 120", "name": "Skyview", "website": "https://www.skyviewcorfu.com/"}}, {"type": "node", "id": 10137939135, "lat": 39.5918099, "lon": 19.8215867}, {"type": "node", "id": 10137939136, "lat": 39.5917526, "lon": 19.8215444}, {"type": "node", "id": 10137939138, "lat": 39.5917109, "lon": 19.8215871}, {"type": "node", "id": 10137939141, "lat": 39.5917855, "lon": 19.821711}, {"type": "node", "id": 10137939145, "lat": 39.5917925, "lon": 19.8216042}, {"type": "node", "id": 10138112988, "lat": 39.5934504, "lon": 19.8184235}, {"type": "node", "id": 10138112989, "lat": 39.5934133, "lon": 19.8185051}, {"type": "node", "id": 10138112990, "lat": 39.5933751, "lon": 19.8184745}, {"type": "node", "id": 10138112991, "lat": 39.5934189, "lon": 19.8183798}, {"type": "node", "id": 10138112992, "lat": 39.5934442, "lon": 19.8183966}, {"type": "node", "id": 10138112993, "lat": 39.5934375, "lon": 19.8184148}, {"type": "node", "id": 10166514152, "lat": 39.4138385, "lon": 20.2325759}, {"type": "node", "id": 10166514153, "lat": 39.4136957, "lon": 20.2325654}, {"type": "node", "id": 10166514154, "lat": 39.4136832, "lon": 20.2328579}, {"type": "node", "id": 10166514155, "lat": 39.4138445, "lon": 20.2328697}, {"type": "node", "id": 10539856363, "lat": 39.6253936, "lon": 19.9217878, "tags": {"amenity": "cafe", "contact:facebook": "BizouVeganVegetarianCafe", "diet:vegan": "yes", "diet:vegetarian": "only", "name": "Bizo\u00fa Caf\u00e9", "opening_hours": "Feb 03 - Mar 01 off", "phone": "+302661302104"}}, {"type": "node", "id": 10540121587, "lat": 39.6228484, "lon": 19.9198627, "tags": {"addr:housenumber": "9", "addr:street": "\u0393\u03b5\u03c9\u03c1\u03b3\u03af\u03bf\u03c5 \u0398\u03b5\u03bf\u03c4\u03cc\u03ba\u03b7", "amenity": "cafe", "diet:vegan": "yes", "name": "Coffee Shop", "phone": "+302661042162", "source": "https://www.facebook.com/profile.php?id=100023081303491"}}, {"type": "node", "id": 10556570616, "lat": 39.572389, "lon": 19.8748022, "tags": {"door": "yes", "entrance": "yes", "level": "0"}}, {"type": "node", "id": 10556570618, "lat": 39.5723806, "lon": 19.874799}, {"type": "node", "id": 10556570619, "lat": 39.5724191, "lon": 19.8748143}, {"type": "node", "id": 10556570620, "lat": 39.5724069, "lon": 19.8748656}, {"type": "node", "id": 10556570621, "lat": 39.5723658, "lon": 19.874849}, {"type": "node", "id": 10556570622, "lat": 39.5723736, "lon": 19.8748228, "tags": {"door": "yes", "indoor": "door"}}, {"type": "node", "id": 10556570648, "lat": 39.5710224, "lon": 19.87491}, {"type": "node", "id": 10556570649, "lat": 39.5710383, "lon": 19.8748124}, {"type": "node", "id": 10556570650, "lat": 39.5710963, "lon": 19.8748417}, {"type": "node", "id": 10556570700, "lat": 39.5722919, "lon": 19.8743754}, {"type": "node", "id": 10556570701, "lat": 39.5722676, "lon": 19.8744077}, {"type": "node", "id": 10556570702, "lat": 39.5722292, "lon": 19.8743591}, {"type": "node", "id": 10556610240, "lat": 39.5724153, "lon": 19.8748128, "tags": {"man_made": "water_tap"}}, {"type": "node", "id": 10556620465, "lat": 39.6234891, "lon": 19.9233121, "tags": {"amenity": "restaurant", "name": "Arcadion"}}, {"type": "node", "id": 10556686543, "lat": 39.627074, "lon": 19.904308}, {"type": "node", "id": 10556686586, "lat": 39.6270796, "lon": 19.9042593}, {"type": "node", "id": 10556729894, "lat": 39.6247876, "lon": 19.9231033, "tags": {"amenity": "restaurant", "name": "\u0388\u03c6\u03b7"}}, {"type": "node", "id": 10557273778, "lat": 39.5710785, "lon": 19.8749344}, {"type": "node", "id": 10557273779, "lat": 39.5710848, "lon": 19.8746812}, {"type": "node", "id": 10557273780, "lat": 39.5711543, "lon": 19.8744399}, {"type": "node", "id": 10557273781, "lat": 39.571204, "lon": 19.8744601}, {"type": "node", "id": 10557273782, "lat": 39.5711339, "lon": 19.8747069}, {"type": "node", "id": 10570516918, "lat": 39.5852944, "lon": 19.8187068}, {"type": "node", "id": 10665801178, "lat": 39.5722535, "lon": 19.8743269}, {"type": "node", "id": 10704415104, "lat": 39.6219547, "lon": 19.9252096}, {"type": "node", "id": 10704415105, "lat": 39.6219363, "lon": 19.9252021}, {"type": "node", "id": 10704415106, "lat": 39.6219112, "lon": 19.9253498}, {"type": "node", "id": 10704415107, "lat": 39.6219302, "lon": 19.9253529}, {"type": "node", "id": 10704415108, "lat": 39.6219169, "lon": 19.9252027}, {"type": "node", "id": 10704415109, "lat": 39.6218988, "lon": 19.9252115}, {"type": "node", "id": 10704415110, "lat": 39.6218839, "lon": 19.9252274}, {"type": "node", "id": 10704415111, "lat": 39.6218739, "lon": 19.9252488}, {"type": "node", "id": 10704415112, "lat": 39.6218697, "lon": 19.9252733}, {"type": "node", "id": 10704415113, "lat": 39.6218719, "lon": 19.9252982}, {"type": "node", "id": 10704415114, "lat": 39.6218803, "lon": 19.9253208}, {"type": "node", "id": 10704415115, "lat": 39.6218939, "lon": 19.9253387}, {"type": "node", "id": 10704415116, "lat": 39.6219489, "lon": 19.9253479}, {"type": "node", "id": 10704415117, "lat": 39.6219654, "lon": 19.9253354}, {"type": "node", "id": 10704415118, "lat": 39.6219779, "lon": 19.9253166}, {"type": "node", "id": 10704415119, "lat": 39.6219851, "lon": 19.9252936}, {"type": "node", "id": 10704415120, "lat": 39.6219861, "lon": 19.9252688}, {"type": "node", "id": 10704415121, "lat": 39.6219817, "lon": 19.925247}, {"type": "node", "id": 10704415122, "lat": 39.6219758, "lon": 19.9251951}, {"type": "node", "id": 10705224677, "lat": 39.5710923, "lon": 19.8748606}, {"type": "node", "id": 10705324080, "lat": 39.6233681, "lon": 19.9209361, "tags": {"amenity": "cafe", "brand": "Mikel", "brand:wikidata": "Q16952021", "cuisine": "coffee_shop", "name": "Mikel", "takeaway": "yes"}}, {"type": "node", "id": 10855845505, "lat": 39.459526, "lon": 19.9713908, "tags": {"amenity": "restaurant", "name": "Boukari beach restaurant"}}, {"type": "node", "id": 10873824628, "lat": 39.6453415, "lon": 19.8520927, "tags": {"amenity": "restaurant", "name": "Takis Taverna"}}, {"type": "node", "id": 10876676005, "lat": 39.6062182, "lon": 19.8511428, "tags": {"addr:postcode": "491 00", "addr:street": "\u0391\u03bb\u03b5\u03c0\u03bf\u03cd - \u03a0\u03ad\u03bb\u03b5\u03ba\u03b1\u03c2", "amenity": "restaurant", "name:en": "Ambelonas Corfu/Vineyard & restaurant", "website": "https://ambelonas-corfu.gr/"}}, {"type": "node", "id": 10878378857, "lat": 39.2347447, "lon": 20.1348574, "tags": {"amenity": "restaurant", "name": "Paximadi"}}, {"type": "node", "id": 10881602755, "lat": 39.5619909, "lon": 19.9033998, "tags": {"amenity": "cafe", "name": "\u039c\u03b1\u03bd\u03c1\u03bf\u03b7\u03b9\u03ad\u03c1\u03bd\u03c2 Mavroni\u00e9ris Caf\u00e9"}}, {"type": "node", "id": 10890285966, "lat": 39.3831911, "lon": 20.1156175, "tags": {"amenity": "restaurant", "name": "Savvas Taverna"}}, {"type": "node", "id": 10904847006, "lat": 39.4627319, "lon": 19.9645534, "tags": {"addr:postcode": "49080", "addr:street": "Agia Pelagia, Chlomos", "amenity": "cafe", "cuisine": "greek;ice_cream;sandwich", "email": "corfuolivetree@gmail.com", "name": "Olive Tree", "opening_hours": "Mo-Su 08:30-23:45", "phone": "+30 26620 52398;+30 69315 00256"}}, {"type": "node", "id": 10923864284, "lat": 39.5907443, "lon": 19.917911}, {"type": "node", "id": 10923864285, "lat": 39.5907172, "lon": 19.9179652}, {"type": "node", "id": 10923864286, "lat": 39.590763, "lon": 19.9180036}, {"type": "node", "id": 10923864287, "lat": 39.59079, "lon": 19.9179495}, {"type": "node", "id": 10943929231, "lat": 39.2259837, "lon": 20.161011, "tags": {"amenity": "restaurant", "name": "El Toro"}}, {"type": "node", "id": 10982879828, "lat": 39.6258273, "lon": 19.919899, "tags": {"amenity": "restaurant", "check_date": "2023-06-17", "cuisine": "greek", "level": "0", "name": "Lampadina"}}, {"type": "node", "id": 10982879830, "lat": 39.6258006, "lon": 19.9198343, "tags": {"amenity": "restaurant", "level": "0", "name": "Tabule Rasa", "opening_hours": "Mo-Su 12:00-24:00", "payment:credit_cards": "yes", "payment:debit_cards": "yes"}}, {"type": "node", "id": 10982879832, "lat": 39.6258014, "lon": 19.9200648, "tags": {"amenity": "restaurant", "check_date": "2023-06-17", "cuisine": "greek", "highchair": "yes", "internet_access": "wlan", "internet_access:fee": "customers", "level": "0", "name": "Bakalogatos", "name:el": "\u039c\u03c0\u03b1\u03ba\u03b1\u03bb\u03cc\u03b3\u03b1\u03c4\u03bf\u03c3", "opening_hours": "Mo-Sa 12:00-24:30", "outdoor_seating": "yes", "payment:mastercard": "yes", "payment:visa": "yes", "phone": "+30 2661 301721", "wheelchair": "no"}}, {"type": "node", "id": 10988889535, "lat": 39.5136179, "lon": 20.2490687}, {"type": "node", "id": 10988889536, "lat": 39.5134377, "lon": 20.2490878}, {"type": "node", "id": 10988889537, "lat": 39.5134123, "lon": 20.2489995}, {"type": "node", "id": 10988889538, "lat": 39.5135899, "lon": 20.248932}, {"type": "node", "id": 10988889539, "lat": 39.5134251, "lon": 20.2485644}, {"type": "node", "id": 10988889540, "lat": 39.5133122, "lon": 20.2487537}, {"type": "node", "id": 10988889541, "lat": 39.5135154, "lon": 20.2487392}, {"type": "node", "id": 10988889542, "lat": 39.5133689, "lon": 20.2486586}, {"type": "node", "id": 11002986355, "lat": 39.3883034, "lon": 20.0661558, "tags": {"amenity": "restaurant", "check_date": "2023-06-23", "cuisine": "seafood", "internet_access": "wlan", "internet_access:fee": "customers", "internet_access:ssid": "birbilos", "name": "\u039f \u039c\u03c0\u03af\u03c1\u03bc\u03c0\u03b9\u03bb\u03bf\u03c2", "name:el": "\u039f \u039c\u03c0\u03af\u03c1\u03bc\u03c0\u03b9\u03bb\u03bf\u03c2", "name:en": "Birbilos", "outdoor_seating": "yes", "phone": "+30 2662 023854", "toilets": "yes"}}, {"type": "node", "id": 11010605573, "lat": 39.6238372, "lon": 19.9233077, "tags": {"amenity": "cafe", "check_date": "2023-06-25", "name": "Sway", "outdoor_seating": "yes", "wheelchair": "no"}}, {"type": "node", "id": 11014115795, "lat": 39.6231458, "lon": 19.9286152}, {"type": "node", "id": 11014115796, "lat": 39.6231, "lon": 19.9285955}, {"type": "node", "id": 11014115797, "lat": 39.6230981, "lon": 19.9285625, "tags": {"entrance": "yes"}}, {"type": "node", "id": 11083638150, "lat": 39.4597225, "lon": 19.971871, "tags": {"amenity": "cafe", "check_date": "2023-08-02", "name": "Akrogiali", "payment:mastercard": "yes", "payment:visa": "yes", "phone": "+30 2662 051993; +30 698 712 5631"}}, {"type": "node", "id": 11122105638, "lat": 39.6219875, "lon": 19.9252376}, {"type": "node", "id": 11122105639, "lat": 39.6219624, "lon": 19.925217}, {"type": "node", "id": 11122105640, "lat": 39.6219837, "lon": 19.9252054}, {"type": "node", "id": 11122105641, "lat": 39.6219878, "lon": 19.9252136}, {"type": "node", "id": 11122105642, "lat": 39.6219887, "lon": 19.9252264}, {"type": "node", "id": 11139817194, "lat": 39.3787106, "lon": 20.282528, "tags": {"amenity": "restaurant", "name": "Restaurant Camping Sofas", "opening_hours": "Mo-Su 09:00-11:00,13:30-16:30,19:30-22:30", "smoking": "outside", "toilets": "yes", "wheelchair": "limited"}}, {"type": "node", "id": 11154492137, "lat": 39.4259311, "lon": 19.9449406}, {"type": "node", "id": 11154492138, "lat": 39.4259233, "lon": 19.9449647}, {"type": "node", "id": 11154492139, "lat": 39.4259719, "lon": 19.9449908}, {"type": "node", "id": 11154492140, "lat": 39.4259, "lon": 19.9450153}, {"type": "node", "id": 11154492141, "lat": 39.4258075, "lon": 19.9449656}, {"type": "node", "id": 11160882467, "lat": 39.4194662, "lon": 19.9875144}, {"type": "node", "id": 11160882468, "lat": 39.4194492, "lon": 19.9876077}, {"type": "node", "id": 11160882469, "lat": 39.4194217, "lon": 19.9876022}, {"type": "node", "id": 11160882470, "lat": 39.4193942, "lon": 19.9877023}, {"type": "node", "id": 11160882471, "lat": 39.4193529, "lon": 19.9876707}, {"type": "node", "id": 11160882472, "lat": 39.4193772, "lon": 19.9875981}, {"type": "node", "id": 11160882473, "lat": 39.4193147, "lon": 19.9875062}, {"type": "node", "id": 11160882474, "lat": 39.4193666, "lon": 19.9874637}, {"type": "node", "id": 11160882475, "lat": 39.4194122, "lon": 19.9874897}, {"type": "node", "id": 11160882476, "lat": 39.4194249, "lon": 19.987498}, {"type": "node", "id": 11162792003, "lat": 39.6212838, "lon": 19.9154841}, {"type": "node", "id": 11162792004, "lat": 39.6212813, "lon": 19.9157077}, {"type": "node", "id": 11174486917, "lat": 39.6175659, "lon": 19.8987268, "tags": {"amenity": "restaurant", "cuisine": "pizza", "name": "\u03a6\u03bb\u03cc\u03b3\u03b1", "name:el": "\u03a6\u03bb\u03cc\u03b3\u03b1", "name:en": "Floga"}}, {"type": "node", "id": 11242342865, "lat": 39.623854, "lon": 19.8961379, "tags": {"addr:city": "\u039a\u03ad\u03c1\u03ba\u03c5\u03c1\u03b1", "addr:housenumber": "100", "addr:postcode": "49100", "addr:street": "\u039a\u03ad\u03c1\u03ba\u03c5\u03c1\u03b1\u03c2 - \u03a0\u03b1\u03bb\u03b1\u03b9\u03bf\u03ba\u03b1\u03c3\u03c4\u03c1\u03af\u03c4\u03c3\u03b1\u03c2", "amenity": "cafe", "brand": "Coffee Island", "brand:wikidata": "Q60867333", "cuisine": "coffee_shop", "name": "Coffee Island", "outdoor_seating": "yes", "takeaway": "yes", "website": "https://www.coffeeisland.gr/"}}, {"type": "node", "id": 11283502951, "lat": 39.5711119, "lon": 19.8746943, "tags": {"entrance": "yes"}}, {"type": "node", "id": 11283502952, "lat": 39.5710673, "lon": 19.8748271, "tags": {"entrance": "yes"}}, {"type": "node", "id": 11284371990, "lat": 39.6168541, "lon": 19.8373643, "tags": {"amenity": "restaurant", "cuisine": "barbecue", "name": "Grill Corner", "ref": "1"}}, {"type": "node", "id": 11396045763, "lat": 39.5620604, "lon": 19.9039186}, {"type": "node", "id": 11396045764, "lat": 39.5619713, "lon": 19.9039249}, {"type": "node", "id": 11396045765, "lat": 39.5619749, "lon": 19.9040117}, {"type": "node", "id": 11396045766, "lat": 39.5619977, "lon": 19.9040101}, {"type": "node", "id": 11396045767, "lat": 39.5620003, "lon": 19.9040714}, {"type": "node", "id": 11396045768, "lat": 39.5619351, "lon": 19.9040761}, {"type": "node", "id": 11396056069, "lat": 39.5619404, "lon": 19.9042037}, {"type": "node", "id": 11396056070, "lat": 39.562019, "lon": 19.9041981}, {"type": "node", "id": 11396056071, "lat": 39.562016, "lon": 19.9041263}, {"type": "node", "id": 11396056072, "lat": 39.562069, "lon": 19.9041226}, {"type": "node", "id": 11435674369, "lat": 39.4073993, "lon": 20.2439406, "tags": {"amenity": "cafe", "name:en": "Break Bread Bakery"}}, {"type": "node", "id": 11465690594, "lat": 39.6260569, "lon": 19.9206968, "tags": {"amenity": "restaurant", "name": "To Tsipouradiko", "phone": "+30 2661082240", "website": "https://to-tsipouradiko-corfu.business.site/?utm_source=gmb&utm_medium=referral"}}, {"type": "node", "id": 11498203932, "lat": 39.6300535, "lon": 19.883461}, {"type": "node", "id": 11498203933, "lat": 39.6301429, "lon": 19.8834358}, {"type": "node", "id": 11498203934, "lat": 39.6300668, "lon": 19.8835745}, {"type": "node", "id": 11498203935, "lat": 39.6300933, "lon": 19.8835591}, {"type": "node", "id": 11498203936, "lat": 39.6301266, "lon": 19.8835315}, {"type": "node", "id": 11498203937, "lat": 39.6301475, "lon": 19.8835005}, {"type": "node", "id": 11498203938, "lat": 39.6301493, "lon": 19.8834599}, {"type": "node", "id": 11516294648, "lat": 39.421516, "lon": 20.0786955, "tags": {"amenity": "restaurant", "contact:facebook": "https://www.facebook.com/potamirestaurant", "cuisine": "greek;pizza;burger;snack", "indoor_seating": "yes", "name": "\u0386\u03bb\u03c4\u03c1\u03bf", "name:el": "\u0386\u03bb\u03c4\u03c1\u03bf", "name:en": "Altro", "outdoor_seating": "yes", "phone": "+30 2662 023445"}}, {"type": "node", "id": 11673919685, "lat": 39.3789422, "lon": 20.0937002}, {"type": "node", "id": 11673919686, "lat": 39.3789077, "lon": 20.0936296}, {"type": "node", "id": 11701476845, "lat": 39.3940956, "lon": 20.0760327, "tags": {"amenity": "cafe", "int_name": "To Stavrodromi", "name": "\u03a4\u03bf \u03a3\u03c4\u03b1\u03c5\u03c1\u03bf\u03b4\u03c1\u03cc\u03bc\u03b9", "name:el": "\u03a4\u03bf \u03a3\u03c4\u03b1\u03c5\u03c1\u03bf\u03b4\u03c1\u03cc\u03bc\u03b9", "name:en": "The Crossroad"}}, {"type": "node", "id": 11749048149, "lat": 39.6370406, "lon": 19.8746491}, {"type": "node", "id": 11749048150, "lat": 39.6370368, "lon": 19.874611}, {"type": "node", "id": 11749048151, "lat": 39.6368659, "lon": 19.8746289}, {"type": "node", "id": 11749048152, "lat": 39.6368665, "lon": 19.8746657}, {"type": "node", "id": 11749048153, "lat": 39.6370235, "lon": 19.8745768}, {"type": "node", "id": 11749048154, "lat": 39.6370022, "lon": 19.8745502}, {"type": "node", "id": 11749048155, "lat": 39.6369753, "lon": 19.8745343}, {"type": "node", "id": 11749048156, "lat": 39.6369458, "lon": 19.8745309}, {"type": "node", "id": 11749048157, "lat": 39.6369172, "lon": 19.8745404}, {"type": "node", "id": 11749048158, "lat": 39.6368926, "lon": 19.8745616}, {"type": "node", "id": 11749048159, "lat": 39.6368748, "lon": 19.8745923}, {"type": "node", "id": 11749048160, "lat": 39.6368762, "lon": 19.8747003}, {"type": "node", "id": 11749048161, "lat": 39.6368938, "lon": 19.8747291}, {"type": "node", "id": 11749048162, "lat": 39.6369176, "lon": 19.8747491}, {"type": "node", "id": 11749048163, "lat": 39.6369451, "lon": 19.8747583}, {"type": "node", "id": 11749048164, "lat": 39.6369733, "lon": 19.8747556}, {"type": "node", "id": 11749048165, "lat": 39.6369995, "lon": 19.8747413}, {"type": "node", "id": 11749048166, "lat": 39.6370208, "lon": 19.874717}, {"type": "node", "id": 11749048167, "lat": 39.637035, "lon": 19.8746852}, {"type": "node", "id": 11822308569, "lat": 39.5067671, "lon": 20.2625645, "tags": {"amenity": "cafe", "name": "\u03a0\u03b1\u03cd\u03bb\u03bf\u03c2 Boutique Gelateria"}}, {"type": "node", "id": 11903278424, "lat": 39.5918319, "lon": 19.8216705}, {"type": "node", "id": 11928168731, "lat": 39.6055379, "lon": 19.7959492, "tags": {"amenity": "restaurant", "indoor_seating": "no", "name": "FoRest", "opening_hours": "Mo-Su,PH 09:00-23:00+", "outdoor_seating": "yes"}}, {"type": "node", "id": 11932483562, "lat": 39.6241632, "lon": 19.9234527, "tags": {"amenity": "cafe", "name": "Vittori"}}, {"type": "node", "id": 11932578961, "lat": 39.6253683, "lon": 19.9194804, "tags": {"amenity": "cafe", "name": "Caf\u00e9-Bar \"Spilia\""}}, {"type": "node", "id": 11939372362, "lat": 39.4517703, "lon": 20.0015416, "tags": {"amenity": "restaurant", "cuisine": "greek", "name": "Limanaki Fish Tavern"}}, {"type": "node", "id": 11942353548, "lat": 39.645392, "lon": 19.85627, "tags": {"amenity": "restaurant", "cuisine": "greek", "mobile": "+30 698 168 6618", "name": "Harry's Taverna", "opening_hours": "Mo-Su 18:00-23:00", "phone": "+30 266 109 1814", "website": "https://harryscorfu.com/"}}, {"type": "node", "id": 11986004334, "lat": 39.3954093, "lon": 20.0215784, "tags": {"amenity": "restaurant", "cuisine": "greek", "name": "Taverna Villa Kostas"}}, {"type": "node", "id": 12053753744, "lat": 39.4022868, "lon": 20.1001216, "tags": {"amenity": "restaurant", "cuisine": "greek", "email": "skaltsounis@gmx.com", "internet_access": "wlan", "internet_access:fee": "no", "name": "\u03a3\u03ba\u03b1\u03bb\u03c4\u03c3\u03bf\u03cd\u03bd\u03b7\u03c2", "name:el": "\u03a3\u03ba\u03b1\u03bb\u03c4\u03c3\u03bf\u03cd\u03bd\u03b7\u03c2", "name:en": "Skaltsounis", "phone": "+30 2662 022140"}}, {"type": "node", "id": 12056890431, "lat": 39.6227107, "lon": 19.9161799, "tags": {"amenity": "cafe", "name": "Zen Caf\u00e9"}}, {"type": "node", "id": 12063754272, "lat": 39.4213634, "lon": 20.0786354, "tags": {"amenity": "cafe", "contact:instagram": "https://www.instagram.com/kokonacorfu.est2024", "cuisine": "barbecue;souvlaki;gyros;greek", "name": "\u039a\u03bf\u03ba\u03cc\u03bd\u03b1", "name:el": "\u039a\u03bf\u03ba\u03cc\u03bd\u03b1", "name:en": "Kokona", "opening_hours": "Mo-Su 09:00-02:00", "outdoor_seating": "yes", "phone": "+30 698 26 810 89", "takeaway": "yes"}}, {"type": "node", "id": 12064860485, "lat": 39.2351659, "lon": 20.1363716, "tags": {"amenity": "restaurant", "name": "Amvrosia"}}, {"type": "node", "id": 12085302595, "lat": 39.3935283, "lon": 20.0524285, "tags": {"addr:city": "\u039a\u03c1\u03b7\u03c4\u03b9\u03ba\u03ac", "addr:place": "\u039a\u03c1\u03b7\u03c4\u03b9\u03ba\u03ac", "addr:postcode": "49080", "amenity": "cafe", "int_name": "Lokal", "name": "\u039b\u03cc\u03ba\u03b1\u03bb", "name:el": "\u039b\u03cc\u03ba\u03b1\u03bb", "name:en": "Local", "phone": "+306974756027"}}, {"type": "node", "id": 12097635843, "lat": 39.4021894, "lon": 20.0978619, "tags": {"amenity": "restaurant", "contact:instagram": "https://www.instagram.com/my_gyraki", "cuisine": "gyros;souvlaki;greek", "delivery": "no", "int_name": "My-gyraki", "name": "My-gyraki", "name:en": "My-gyraki", "outdoor_seating": "yes", "ref:vatin": "GR042164868", "takeaway": "yes"}}, {"type": "node", "id": 12120339702, "lat": 39.6247481, "lon": 19.9227219, "tags": {"amenity": "cafe", "cuisine": "coffee_shop", "name": "Cafetierra Plakado", "opening_hours": "Mo, We 08:00-18:00; Tu, Th-Fr 08:00-20:00; Sa-Su 08:00-16:00", "website": "https://cafetierra.gr"}}, {"type": "node", "id": 12141554136, "lat": 39.6103733, "lon": 19.9253797, "tags": {"addr:city": "\u039a\u03ad\u03c1\u03ba\u03c5\u03c1\u03b1", "addr:housenumber": "53", "addr:postcode": "49100", "addr:street": "\u0391\u03bb\u03ba\u03b9\u03b2\u03b9\u03ac\u03b4\u03bf\u03c5 \u0394\u03b1\u03c1\u03ae", "amenity": "restaurant", "name": "\u039c\u03b5\u03c3\u03cc\u03b3\u03b5\u03b9\u03bf\u03c2", "name:el": "\u039c\u03b5\u03c3\u03cc\u03b3\u03b5\u03b9\u03bf\u03c2", "name:en": "Mesogeios", "opening_hours": "Mo-Su 13:00-23:30", "phone": "+302661045827"}}, {"type": "node", "id": 12169841718, "lat": 39.3693059, "lon": 20.3024001, "tags": {"amenity": "cafe", "name": "\u03a0\u03bb\u03ac\u03c4\u03b1\u03bd\u03bf\u03c2"}}, {"type": "node", "id": 12169841721, "lat": 39.3695929, "lon": 20.3021493, "tags": {"amenity": "cafe", "name": "Agora"}}, {"type": "node", "id": 12169841722, "lat": 39.3698308, "lon": 20.3016743, "tags": {"amenity": "restaurant", "cuisine": "greek;souvlaki", "name": "\u0392\u03b5\u03c4\u03bf\u03cd\u03bb\u03b7\u03c2"}}, {"type": "node", "id": 12169907095, "lat": 39.3702888, "lon": 20.3009928, "tags": {"amenity": "restaurant", "name": "Y.O.L.O. Brothers"}}, {"type": "node", "id": 12169909426, "lat": 39.3706522, "lon": 20.3000479, "tags": {"amenity": "restaurant", "cuisine": "japanese", "name": "The View"}}, {"type": "node", "id": 12169925123, "lat": 39.3704782, "lon": 20.2998799, "tags": {"amenity": "cafe", "name": "Black & White"}}, {"type": "node", "id": 12182546470, "lat": 39.3935934, "lon": 20.051923, "tags": {"amenity": "cafe"}}, {"type": "node", "id": 12200023329, "lat": 39.2259194, "lon": 20.1613876}, {"type": "node", "id": 12200023330, "lat": 39.225969, "lon": 20.1613292}, {"type": "node", "id": 12200023331, "lat": 39.2260456, "lon": 20.1612476}, {"type": "node", "id": 12200023340, "lat": 39.2259782, "lon": 20.1624538}, {"type": "node", "id": 12200023341, "lat": 39.2259954, "lon": 20.1625227}, {"type": "node", "id": 12200023342, "lat": 39.2259133, "lon": 20.1625701}, {"type": "node", "id": 12209544064, "lat": 39.4494391, "lon": 20.3061503}, {"type": "node", "id": 12209544065, "lat": 39.4494226, "lon": 20.3062629}, {"type": "node", "id": 12209544066, "lat": 39.4493076, "lon": 20.3062482}, {"type": "node", "id": 12209544067, "lat": 39.4493169, "lon": 20.3061221}, {"type": "node", "id": 12219208901, "lat": 39.3772035, "lon": 20.114171, "tags": {"addr:street": "\u039b\u03b5\u03c5\u03ba\u03af\u03bc\u03b7 - \u039a\u03ac\u03b2\u03bf\u03c2", "amenity": "restaurant", "cuisine": "greek", "name": "The Rose Tree"}}, {"type": "node", "id": 12228203037, "lat": 39.6260913, "lon": 19.903396, "tags": {"amenity": "restaurant", "check_date": "2024-10-05", "cuisine": "greek", "name": "Taverna psarakia tou daou", "payment:cards": "no", "payment:cash": "yes", "payment:credit_cards": "no", "payment:debit_cards": "no", "phone": "+30 697 279 4994", "toilets": "yes", "toilets:wheelchair": "no"}}, {"type": "node", "id": 12230262445, "lat": 39.6233983, "lon": 19.9197061, "tags": {"amenity": "restaurant", "check_date": "2024-10-06", "cuisine": "greek", "name": "Peperi", "outdoor_seating": "yes"}}, {"type": "node", "id": 12242084302, "lat": 39.4225235, "lon": 20.0741042, "tags": {"amenity": "cafe", "int_name": "Avli", "name": "\u0391\u03c5\u03bb\u03ae", "name:el": "\u0391\u03c5\u03bb\u03ae"}}, {"type": "node", "id": 12290585329, "lat": 39.4273245, "lon": 19.9430675, "tags": {"amenity": "restaurant", "name": "Stamatis", "phone": "+302662052402"}}, {"type": "node", "id": 12402839291, "lat": 39.4221754, "lon": 20.0392972, "tags": {"amenity": "restaurant", "cuisine": "pizza", "delivery": "yes", "name": "Food Mood", "phone": "+30 26620 22100", "ref:vatin": "GR801703750", "takeaway": "yes"}}, {"type": "node", "id": 12471682414, "lat": 39.6204838, "lon": 19.9153627, "tags": {"entrance": "yes"}}, {"type": "node", "id": 12837511123, "lat": 39.6235765, "lon": 19.9156458, "tags": {"addr:housenumber": "1", "addr:street": "4\u03b7 \u03a0\u03ac\u03c1\u03bf\u03b4\u03bf\u03c2 \u0399\u03c9\u03ac\u03bd\u03bd\u03bf\u03c5 \u0398\u03b5\u03bf\u03c4\u03cc\u03ba\u03b7", "amenity": "restaurant", "check_date": "2025-05-14", "cuisine": "greek;seafood;regional", "diet:local": "yes", "diet:mediterranean": "yes", "diet:vegetarian": "yes", "internet_access": "wlan", "internet_access:fee": "customers", "name": "\u039f\u03b9\u03bd\u03bf\u03bc\u03b1\u03b3\u03b5\u03b9\u03c1\u03ad\u03bc\u03b1\u03c4\u03b1 \u0396\u03ac\u03c7\u03bf\u03c5", "name:el": "\u039f\u03b9\u03bd\u03bf\u03bc\u03b1\u03b3\u03b5\u03b9\u03c1\u03ad\u03bc\u03b1\u03c4\u03b1 \u0396\u03ac\u03c7\u03bf\u03c5", "name:en": "Oinomageiremata Zachou", "payment:cash": "yes", "payment:credit_cards": "yes", "payment:debit_cards": "yes", "wheelchair": "no"}}, {"type": "node", "id": 12837511124, "lat": 39.6238538, "lon": 19.915035, "tags": {"amenity": "cafe", "check_date": "2025-05-14", "cuisine": "coffee_shop;tea;juice", "highchair": "yes", "internet_access": "wlan", "internet_access:fee": "customers", "level": "0", "name": "\u039a\u03bb\u03b5\u03c8\u03cd\u03b4\u03c1\u03b1", "name:el": "\u039a\u03bb\u03b5\u03c8\u03cd\u03b4\u03c1\u03b1", "name:en": "Klepsidra", "outdoor_seating": "yes", "payment:cash": "yes", "payment:credit_cards": "yes", "payment:debit_cards": "yes", "source": "survey", "takeaway": "yes", "toilets": "yes", "toilets:menstrual_products": "no", "wheelchair": "yes"}}, {"type": "node", "id": 12879541752, "lat": 39.4214093, "lon": 20.0780377, "tags": {"amenity": "cafe", "name": "\u03a4\u03b6\u03bf\u03c5\u03bd\u03c4", "name:en": "Jude", "outdoor_seating": "yes"}}, {"type": "node", "id": 12893409344, "lat": 39.4193891, "lon": 20.0496217, "tags": {"amenity": "cafe", "name": "Bairro"}}, {"type": "way", "id": 93992163, "nodes": [1092650124, 1092651396, 1092650734, 1092649950, 1092650124], "tags": {"amenity": "restaurant", "building": "yes", "building:levels": "2", "cuisine": "regional", "name": "\u0391\u03bd\u03b5\u03bc\u03cc\u03bc\u03c5\u03bb\u03bf\u03c2", "phone": "2661030047", "toilets:wheelchair": "yes", "website": "https://www.anemomyloscorfu.gr", "wheelchair": "limited"}}, {"type": "way", "id": 98107483, "nodes": [1135370455, 1135370456, 1135370457, 1135370458, 1135370459, 1135370460, 1135370461, 1135370462, 1135370455], "tags": {"amenity": "restaurant", "building": "retail", "name": "Menios Taverna"}}, {"type": "way", "id": 199654399, "nodes": [2096363926, 2096363922, 2096363920, 2096363915, 2096363917, 2096363926], "tags": {"amenity": "restaurant", "building": "yes", "name": "\u039c\u03c0\u03ad\u03bc\u03c0\u03b7\u03c2", "name:el": "\u039c\u03c0\u03ad\u03bc\u03c0\u03b7\u03c2", "name:en": "Bebis"}}, {"type": "way", "id": 199654401, "nodes": [2096363915, 2096363912, 2096363924, 2096363925, 2096363918, 2096363920, 2096363915], "tags": {"amenity": "restaurant", "building": "yes", "cuisine": "greek", "internet_access": "wlan", "name": "Taverna Julia"}}, {"type": "way", "id": 200075519, "nodes": [2100621467, 2100621468, 2100621466, 2100621465, 2100621467], "tags": {"amenity": "restaurant", "building": "yes", "name": "\u0396\u03bf\u03c1\u03bc\u03c0\u03ac\u03c2", "name:el": "\u0396\u03bf\u03c1\u03bc\u03c0\u03ac\u03c2", "name:en": "Zorbas"}}, {"type": "way", "id": 220838997, "nodes": [2299201191, 11014115795, 11014115796, 2299201203, 11014115797, 2299201219, 4423882304, 2299201217, 2299201191], "tags": {"amenity": "restaurant", "building": "yes", "cuisine": "regional;greek", "name": "\u03a0\u03b1\u03bb\u03b1\u03b9\u03cc \u03a6\u03c1\u03bf\u03cd\u03c1\u03b9\u03bf", "name:el": "\u03a0\u03b1\u03bb\u03b1\u03b9\u03cc \u03a6\u03c1\u03bf\u03cd\u03c1\u03b9\u03bf", "name:en": "Palaio Frourio", "outdoor_seating": "yes", "source": "Bing"}}, {"type": "way", "id": 228180624, "nodes": [2368135179, 2368135186, 2368135180, 1421020673, 2368135179], "tags": {"amenity": "restaurant", "building": "yes", "name:en": "Gardiki", "source": "Bing"}}, {"type": "way", "id": 285477702, "nodes": [2891558725, 2891558720, 2891558719, 2891558722, 2891558725], "tags": {"amenity": "restaurant", "building": "yes", "cuisine": "regional", "name": "Sea Side Restaurant", "outdoor_seating": "yes"}}, {"type": "way", "id": 287902812, "nodes": [2914669398, 2914669390, 2914669391, 2914669607, 2914669605, 2914669399, 2914669398], "tags": {"amenity": "restaurant", "building": "yes", "name": "Taverna Dionysos"}}, {"type": "way", "id": 290049250, "nodes": [2935876429, 4337549289, 2935876422, 2935876427, 2935876429], "tags": {"amenity": "cafe", "building": "yes", "cuisine": "buschenschank;greek;local", "name:en": "Chrisoulas Tavern"}}, {"type": "way", "id": 291808006, "nodes": [2953151804, 2953151802, 2953151800, 2953151799, 2953151789, 2953151790, 2953151795, 2953151797, 2953151804], "tags": {"amenity": "restaurant", "building": "yes", "name": "Steven's On The Hill", "tourism": "hotel", "website": "http://www.stevens.gr"}}, {"type": "way", "id": 291869894, "nodes": [2953803787, 2953803783, 9813816687, 2953803785, 2953803787], "tags": {"amenity": "restaurant", "building": "yes", "name": "Argo", "opening_hours": "closed"}}, {"type": "way", "id": 305438165, "nodes": [3100647635, 3100647633, 3100647631, 3100647634, 3100647635], "tags": {"amenity": "restaurant", "building": "yes", "name": "Taverna Ammolofos", "opening_hours": "Mo-Su 10:00-23:00", "phone": "+302662770720"}}, {"type": "way", "id": 305438191, "nodes": [3100647427, 3100647418, 3100647400, 3100647411, 3100647427], "tags": {"amenity": "restaurant", "building": "yes"}}, {"type": "way", "id": 305438201, "nodes": [3100647425, 3100647409, 4282646273, 4282646272, 3100647396, 4282646275, 3100647401, 3100647398, 3100647405, 3100647425], "tags": {"amenity": "restaurant", "building": "yes", "name": "Stamatis Restaurant Bar"}}, {"type": "way", "id": 326342981, "nodes": [3329754473, 3329754474, 3329754475, 3329754476, 3329754473], "tags": {"amenity": "restaurant", "building": "house", "name": "Naftis"}}, {"type": "way", "id": 336710702, "nodes": [3437749425, 3437749419, 3437749398, 3437747891, 3437749423, 3437749425], "tags": {"amenity": "cafe", "building": "yes", "name": "Cafe - Auto Market", "source": "Bing"}}, {"type": "way", "id": 352365304, "nodes": [3581361252, 3581361251, 9834809275, 10556686543, 10556686586, 3581361252], "tags": {"amenity": "cafe", "building": "yes"}}, {"type": "way", "id": 366001437, "nodes": [3699949715, 3699949702, 3699949704, 3699949695, 3699949715], "tags": {"amenity": "cafe", "building": "retail", "name": "Sebastian's"}}, {"type": "way", "id": 366030784, "nodes": [3700230104, 10570516918, 3700230077, 3700230076, 3700230079, 3700230104], "tags": {"amenity": "restaurant", "building": "yes", "name": "Spyros"}}, {"type": "way", "id": 366057191, "nodes": [3700488999, 9120065653, 3700489018, 3700489021, 3700489226, 3700489004, 3700489007, 3700489014, 3700489015, 3700488999], "tags": {"amenity": "restaurant", "building": "yes", "name": "Petra"}}, {"type": "way", "id": 388455628, "nodes": [3916528364, 3916528365, 8784791126, 4424243630, 3916528367, 4424243632, 3916528372, 4424243645, 3916528378, 3916528380, 3916528382, 3916528379, 4424243648, 3916528377, 3916528364], "tags": {"amenity": "restaurant", "building": "yes", "building:levels": "3", "name": "\u0395\u03bd \u03c0\u03bb\u03c9", "name:el": "\u0395\u03bd \u03c0\u03bb\u03c9", "name:en": "En Plo"}}, {"type": "way", "id": 424418183, "nodes": [4238303151, 4238303152, 4238303150, 4238303149, 4238303151], "tags": {"alt_name": "Sofia's", "amenity": "restaurant", "building": "yes", "cuisine": "greek", "name": "Chris Place", "opening_hours": "Mo-Su 14:00-23:30", "outdoor_seating": "yes", "phone": "+30 2661 053846"}}, {"type": "way", "id": 425384684, "nodes": [4247143968, 4247143960, 4247143966, 4247143974, 4247143968], "tags": {"addr:city": "St. George - Argirades", "addr:postcode": "49080", "amenity": "restaurant", "building": "yes", "contact:phone": "+30 26620 52110", "name": "Barbayiannis"}}, {"type": "way", "id": 425387343, "nodes": [4247161587, 4247161560, 4247161545, 4549756182, 4247161898, 4247161581, 4247161584, 4247161576, 4247161587], "tags": {"amenity": "restaurant", "building": "yes", "name": "Napoleon", "opening_hours": "Mo-Su 11:00-24:00"}}, {"type": "way", "id": 425387361, "nodes": [4247161568, 4247161561, 4247161535, 4247161542, 4247161568], "tags": {"amenity": "restaurant", "building": "yes", "name": "SPIROS on the beach"}}, {"type": "way", "id": 425387382, "nodes": [4247161585, 4247161558, 4247161539, 4281691514, 4247161550, 4247161555, 4281691516, 4247161585], "tags": {"amenity": "restaurant", "building": "yes", "name": "Kafesas"}}, {"type": "way", "id": 425387391, "nodes": [4247161933, 4247161915, 4247161920, 4247161902, 4247161588, 4247161909, 4247161901, 4247161925, 4247161933], "tags": {"amenity": "restaurant", "building": "yes", "name": "XL"}}, {"type": "way", "id": 425391450, "nodes": [4247205998, 4247205983, 4247205974, 4247205986, 4247205998], "tags": {"amenity": "restaurant", "building": "yes", "name": "Malibu Taverna"}}, {"type": "way", "id": 425391458, "nodes": [4247206011, 4247206048, 4247206049, 4247206035, 4247206011], "tags": {"amenity": "restaurant", "building": "yes", "cuisine": "self_catering", "disused": "yes", "name": "Saga Team Reisen", "takeaway": "no"}}, {"type": "way", "id": 425507330, "nodes": [4248071358, 4248071342, 4248071382, 4248071389, 4248071358], "tags": {"amenity": "restaurant", "building": "yes", "cuisine": "greek", "name": "The Village"}}, {"type": "way", "id": 425507347, "nodes": [4248070959, 4248070935, 4248070932, 4248070951, 4248070959], "tags": {"amenity": "restaurant", "building": "yes", "name": "Restaurant Ananias"}}, {"type": "way", "id": 425507359, "nodes": [4248070958, 4248070945, 4248070993, 4248071012, 4248070958], "tags": {"amenity": "restaurant", "building": "yes", "name": "Felis"}}, {"type": "way", "id": 425507388, "nodes": [4248071038, 4248071031, 4248070966, 4248070974, 4248071038], "tags": {"amenity": "restaurant", "building": "yes", "name": "Le Bistrot Restaurant"}}, {"type": "way", "id": 425507400, "nodes": [4248071231, 4248071226, 4248071240, 4248071224, 4248071064, 11154492140, 11154492141, 4248071080, 11154492137, 11154492138, 11154492139, 10129521828, 4248071231], "tags": {"addr:city": "Corfu", "addr:unit": "St. George south", "amenity": "restaurant", "building": "house", "building:levels": "1", "capacity": "70", "cuisine": "greek;european;fish;grill;mediterranean", "name": "Rouvelas taverna", "outdoor_seating": "yes", "takeaway": "yes"}}, {"type": "way", "id": 425507415, "nodes": [4248071076, 4248071068, 4248071063, 4248071019, 4248070982, 4248070991, 4248071076], "tags": {"amenity": "restaurant", "building": "yes", "cuisine": "taverna", "name": "Mirsini\u00b4s Garden"}}, {"type": "way", "id": 425507420, "nodes": [4248070969, 4248070964, 4248070983, 4248070973, 4248071018, 4248071029, 4248070990, 4248070992, 4248070969], "tags": {"amenity": "restaurant", "building": "yes", "name": "Takis Golden Heart"}}, {"type": "way", "id": 428421423, "nodes": [4275221224, 4275221225, 4275221226, 4275221227, 4275221228, 4275221229, 4275221224], "tags": {"addr:city": "Boukari", "amenity": "restaurant", "building": "yes", "name": "Taverna Sparos", "website": "http://www.vasilatika.gr/taverna_sparos.htm"}}, {"type": "way", "id": 428429462, "nodes": [4275280626, 4275280627, 4275280628, 4275280629, 4275280626], "tags": {"amenity": "restaurant", "building": "yes", "cuisine": "regional", "name": "George & Elena's taverna"}}, {"type": "way", "id": 428431898, "nodes": [4275311730, 11673919685, 11673919686, 4275311732, 4275311733, 4275311730], "tags": {"amenity": "cafe", "building": "retail", "name": "\u039c\u03ac\u03c1\u03ba\u03bf\u03c5 Bella Vista", "name:el": "\u039c\u03ac\u03c1\u03ba\u03bf\u03c5 Bella Vista", "name:en": "Markou Bella Vista", "outdoor_seating": "yes"}}, {"type": "way", "id": 428437326, "nodes": [4275351781, 4275351785, 4275351773, 4275351783, 4275351784, 4275351781], "tags": {"amenity": "restaurant", "building": "yes", "cuisine": "regional;coffee_shop", "name": "\u039c\u03c0\u03b1\u03bb\u03ae\u03c2 \u039a\u03b1\u03c6\u03ad - \u03a4\u03b1\u03b2\u03ad\u03c1\u03bd\u03b1", "name:el": "\u039c\u03c0\u03b1\u03bb\u03ae\u03c2", "name:en": "Taverna Balis", "website": "https://www.corfu-balis.gr/"}}, {"type": "way", "id": 459057513, "nodes": [4549756182, 4549756181, 4549756180, 4247161545, 4549756182], "tags": {"amenity": "restaurant", "building": "yes", "fixme": "name correct?", "name": "Ouzo Meze Caf\u00e9"}}, {"type": "way", "id": 459446431, "nodes": [4552967466, 4552967465, 4552967464, 4552967463, 4552967462, 4552967461, 4552967460, 4552967459, 4552967466], "tags": {"amenity": "restaurant", "building": "yes", "name": "Ammousa"}}, {"type": "way", "id": 488723308, "nodes": [4810105072, 4810105073, 4810105076, 4810105074, 4810105077, 4810105075, 4810105072], "tags": {"amenity": "restaurant", "building": "yes", "name": "Pratigos"}}, {"type": "way", "id": 488723309, "nodes": [4810105078, 4810105079, 4810105080, 4810105081, 4810105082, 4810105083, 4810105084, 4810105085, 4810105086, 4810105087, 4810105088, 4810105089, 4810105090, 4810105091, 4810105092, 4810105078], "tags": {"amenity": "restaurant", "building": "yes"}}, {"type": "way", "id": 488932308, "nodes": [8390120659, 12200023331, 12200023330, 4812144885, 8390120659], "tags": {"amenity": "restaurant", "building": "yes", "cuisine": "greek", "name": "Vasilis Restaurant", "outdoor_seating": "yes", "source": "Bing Aerial Photos"}}, {"type": "way", "id": 488932313, "nodes": [12200023330, 12200023329, 4812144903, 4812144885, 12200023330], "tags": {"amenity": "restaurant", "building": "yes", "name": "Anna's Place", "source": "Bing Aerial Photos"}}, {"type": "way", "id": 488932319, "nodes": [4812144926, 4812144927, 4812144928, 4812144929, 4812144930, 4812144931, 4812144926], "tags": {"amenity": "restaurant", "building": "yes", "cuisine": "greek", "diet:vegetarian": "yes", "name": "Four Seasons", "phone": "+302662031829", "source": "Bing Aerial Photos", "website": "https://fourseasonspaxos.gr/"}}, {"type": "way", "id": 488932322, "nodes": [4812144940, 4812144941, 4812144942, 4812144943, 4812144940], "tags": {"amenity": "restaurant", "building": "yes", "cuisine": "seafood;greek", "name": "Kohili", "source": "Bing Aerial Photos"}}, {"type": "way", "id": 488935595, "nodes": [4812179877, 4812179902, 8390324589, 4812179899, 4812179880, 4812179877], "tags": {"amenity": "restaurant", "building": "yes", "name": "\u03c4\u03b1\u03b2\u03b5\u03c1\u03bd\u03b1 \u0393\u03b9\u03bf\u03c2", "name:el": "\u03c4\u03b1\u03b2\u03b5\u03c1\u03bd\u03b1 \u0393\u03b9\u03bf\u03c2", "name:en": "Gios Restaurant", "source": "Bing Aerial Photos"}}, {"type": "way", "id": 488935598, "nodes": [4812179887, 4812179888, 4812179889, 4812179890, 4812179887], "tags": {"amenity": "restaurant", "building": "yes", "name": "Nassos Restaurant", "source": "Bing Aerial Photos"}}, {"type": "way", "id": 488935615, "nodes": [12200023340, 12200023341, 12200023342, 4812180732, 12200023340], "tags": {"amenity": "cafe", "building": "yes", "name": "Le Rocher", "source": "Bing Aerial Photos"}}, {"type": "way", "id": 489865003, "nodes": [4820727287, 4820727288, 8765046677, 4820727289, 4820727290, 4820727287], "tags": {"amenity": "restaurant", "building": "yes", "cuisine": "greek", "email": "info@eliamirtiotissa.com", "indoor_seating": "yes", "name": "E\u03bb\u03b9\u03ac Mirtiotissa", "name:el": "E\u03bb\u03b9\u03ac Mirtiotissa", "name:en": "Elia Mirtiotissa", "opening_hours": "May-Oct", "outdoor_seating": "yes", "phone": "+30 69806 96364", "website": "http://www.eliamirtiotissa.com/"}}, {"type": "way", "id": 490434443, "nodes": [1361225561, 4826174070, 4826174069, 4826174068, 1361225561], "tags": {"amenity": "restaurant", "building": "yes", "name": "Bella Vista"}}, {"type": "way", "id": 492751729, "nodes": [4847330187, 4847330188, 4847330189, 4847330190, 4847330191, 4847330192, 4847330187], "tags": {"amenity": "restaurant", "building": "yes", "name": "Bouloukos"}}, {"type": "way", "id": 505145723, "nodes": [4951659215, 4951659217, 4951659218, 4951659219, 4951659220, 4951660121, 4951660122, 4951659216, 4951659215], "tags": {"amenity": "restaurant", "building": "house", "cuisine": "greek", "tourism": "apartment"}}, {"type": "way", "id": 505145727, "nodes": [4951660140, 4951660141, 4951660142, 4951660143, 4951660140], "tags": {"amenity": "restaurant", "building": "roof"}}, {"type": "way", "id": 505145742, "nodes": [4951660209, 4951660210, 4951660211, 4951660212, 4951660209], "tags": {"amenity": "restaurant", "building": "house", "cuisine": "greek", "name": "Taverna Dimitris"}}, {"type": "way", "id": 536439233, "nodes": [5196592972, 5196592973, 5196592974, 5196592975, 5196592949, 5196592972], "tags": {"amenity": "restaurant", "building": "yes"}}, {"type": "way", "id": 550289375, "nodes": [5315110768, 5315110770, 5315110765, 6327170933, 5315110768], "tags": {"amenity": "cafe", "building": "yes"}}, {"type": "way", "id": 566396023, "nodes": [5454577703, 5705441255, 5705441256, 5454577704, 5454577705, 5454577706, 5454577694, 5454577703], "tags": {"amenity": "restaurant", "building": "yes", "cuisine": "seafood", "name": "Thalasografia", "name:el": "\u0398\u03b1\u03bb\u03b1\u03c3\u03c3\u03bf\u03b3\u03c1\u03b1\u03c6\u03af\u03b1"}}, {"type": "way", "id": 567058001, "nodes": [5459425867, 5459425868, 5459425869, 5459425870, 5459425867], "tags": {"amenity": "restaurant", "building": "yes"}}, {"type": "way", "id": 639056577, "nodes": [6022133917, 6022133945, 6022133946, 6022133947, 6022133948, 6022133949, 6022133924, 6022133917], "tags": {"amenity": "restaurant", "building": "yes"}}, {"type": "way", "id": 652525689, "nodes": [6117197055, 6117197056, 6117197057, 6117197058, 6117197059, 6117197060, 6117197061, 6117197062, 6117197063, 6117197064, 6117197055], "tags": {"amenity": "restaurant", "cuisine": "greek;coffee_shop;ice_cream;seafood", "delivery": "no", "name": "Restaurant Mega Ammos", "outdoor_seating": "yes", "smoking": "outside"}}, {"type": "way", "id": 675624346, "nodes": [6327151540, 6327151541, 6327151542, 6327151543, 6327151540], "tags": {"amenity": "cafe", "building": "yes", "name": "\u0386\u03bd\u03b5\u03bc\u03bf\u03c2", "name:el": "\u0386\u03bd\u03b5\u03bc\u03bf\u03c2"}}, {"type": "way", "id": 675632013, "nodes": [6327207656, 6327207658, 6327207659, 6327207657, 6327207656], "tags": {"amenity": "cafe", "building": "yes"}}, {"type": "way", "id": 687938596, "nodes": [6449408459, 6449408458, 6449408455, 6449408454, 6449408457, 6449408456, 6449408459], "tags": {"amenity": "restaurant", "building": "yes", "cuisine": "greek;pizza;grill", "internet_access": "wlan", "name": "\u0397\u03bb\u03af\u03b1\u03c2", "name:el": "\u0397\u03bb\u03af\u03b1\u03c2", "name:en": "Ilias"}}, {"type": "way", "id": 688026335, "nodes": [6450575765, 9691971936, 9691971939, 9691971938, 9691971937, 6450575762, 6450575763, 6450575764, 6450575765], "tags": {"amenity": "restaurant", "building": "yes", "cuisine": "cake;coffee_shop;sandwich", "name": "NOSTOS food Hall"}}, {"type": "way", "id": 690036968, "nodes": [6473757407, 6473757408, 6473757409, 6473757410, 6473757407], "tags": {"amenity": "cafe", "building": "yes", "name": "\u039a\u03b1\u03bd\u03c4\u03af\u03bd\u03b1"}}, {"type": "way", "id": 693032608, "nodes": [6506428933, 6506428934, 6506428935, 6506428936, 6506428933], "tags": {"amenity": "restaurant", "building": "yes", "cuisine": "greek", "name": "Mezodromos", "name:el": "\u039c\u03b5\u03b6\u03bf\u03b4\u03c1\u03bf\u03bc\u03bf\u03c2", "outdoor_seating": "yes"}}, {"type": "way", "id": 693032609, "nodes": [6506428937, 6506428938, 6506428939, 6506428940, 6506428937], "tags": {"amenity": "restaurant", "building": "yes", "cuisine": "greek", "name": "Quick stop  -The Gyros Factory"}}, {"type": "way", "id": 712214789, "nodes": [6696597630, 6696597631, 6696597632, 6696597633, 6696899152, 6696899153, 6696597630], "tags": {"addr:city": "Arillas", "amenity": "restaurant", "building": "yes", "cuisine": "greek", "internet_access": "wlan", "internet_access:fee": "no", "name": "Zoukas", "outdoor_seating": "yes"}}, {"type": "way", "id": 712250983, "nodes": [6696873910, 6696873911, 6696873912, 6696873913, 6696873914, 6696873915, 6696873916, 6696873917, 6696873910], "tags": {"amenity": "restaurant", "building": "yes"}}, {"type": "way", "id": 839339205, "nodes": [7832459501, 7832459502, 7832459503, 7832459504, 7832459501], "tags": {"amenity": "cafe", "building": "yes"}}, {"type": "way", "id": 839339206, "nodes": [7832459505, 7832459506, 5897386592, 7832459507, 7832459508, 7832459509, 7832459510, 7832459505], "tags": {"amenity": "restaurant", "building": "yes"}}, {"type": "way", "id": 850857305, "nodes": [7937401849, 7937401850, 7937401851, 7937401852, 7937401849], "tags": {"amenity": "restaurant", "building": "yes"}}, {"type": "way", "id": 945482745, "nodes": [8753110761, 8753110762, 8753110763, 8753110764, 8753110761], "tags": {"amenity": "restaurant", "building": "yes", "indoor_seating": "yes", "name": "Spiros Taverna", "outdoor_seating": "yes"}}, {"type": "way", "id": 949376433, "nodes": [8789191149, 8789191151, 8789191140, 8789191145, 9654180124, 9654180127, 9654180126, 9654180125, 9654180123, 8789191149], "tags": {"amenity": "cafe", "building": "roof", "cuisine": "coffee_shop", "name": "Street Food Cafe"}}, {"type": "way", "id": 962378281, "nodes": [8902039519, 8902039520, 8902039521, 8902039522, 8902039529, 8902039523, 8902039519], "tags": {"amenity": "restaurant", "building": "yes", "cuisine": "barbecue", "name": "\u0391\u03c1\u03c4\u03ad\u03bc\u03b7\u03c2", "name:el": "\u0391\u03c1\u03c4\u03ad\u03bc\u03b7\u03c2", "name:en": "Artemis"}}, {"type": "way", "id": 964655206, "nodes": [11162792003, 8922989833, 8922989834, 11162792004, 11162792003], "tags": {"amenity": "cafe", "building": "yes", "check_date": "2025-05-14", "cuisine": "coffee_shop;sandwich;tea;juice", "internet_access": "wlan", "internet_access:fee": "customers", "name": "Lunatico", "outdoor_seating": "yes", "payment:cash": "yes", "payment:credit_cards": "yes", "payment:debit_cards": "yes", "wheelchair": "no"}}, {"type": "way", "id": 964677921, "nodes": [8923157190, 12471682414, 8923157189, 8923157195, 8923157196, 8923157190], "tags": {"amenity": "restaurant", "building": "university", "club": "university", "name": "\u03a6\u03bf\u03b9\u03c4\u03b7\u03c4\u03b9\u03ba\u03ae \u039b\u03ad\u03c3\u03c7\u03b7", "name:el": "\u03a6\u03bf\u03b9\u03c4\u03b7\u03c4\u03b9\u03ba\u03ae \u039b\u03ad\u03c3\u03c7\u03b7", "name:en": "Student Restaurant"}}, {"type": "way", "id": 964677935, "nodes": [8923157187, 8923170144, 8923170145, 8923170146, 8923170147, 8923170148, 8923170149, 8923170154, 8923170151, 8923170150, 8923157187], "tags": {"amenity": "restaurant", "building": "university", "name": "\u0395\u03c3\u03c4\u03b9\u03b1\u03c4\u03cc\u03c1\u03b9\u03bf \u0394\u03b9\u03b4\u03b1\u03ba\u03c4\u03b9\u03ba\u03bf\u03cd \u03a0\u03c1\u03bf\u03c3\u03c9\u03c0\u03b9\u03ba\u03bf\u03cd", "name:el": "\u0395\u03c3\u03c4\u03b9\u03b1\u03c4\u03cc\u03c1\u03b9\u03bf \u0394\u03b9\u03b4\u03b1\u03ba\u03c4\u03b9\u03ba\u03bf\u03cd \u03a0\u03c1\u03bf\u03c3\u03c9\u03c0\u03b9\u03ba\u03bf\u03cd", "name:en": "Teaching Staff Restaurant"}}, {"type": "way", "id": 984445301, "nodes": [9101845138, 9101845137, 9101845136, 9101845135, 9101845134, 9101827376, 9101845133, 9101845138], "tags": {"amenity": "restaurant", "building": "yes", "name": "\u0393\u03c5\u03b1\u03bb\u03b9\u03c3\u03ba\u03ac\u03c1\u03b9 \u03a4\u03b1\u03b2\u03ad\u03c1\u03bd\u03b1", "name:el": "\u0393\u03c5\u03b1\u03bb\u03b9\u03c3\u03ba\u03ac\u03c1\u03b9 \u03a4\u03b1\u03b2\u03ad\u03c1\u03bd\u03b1", "name:en": "Yaliskari Tavern"}}, {"type": "way", "id": 986797684, "nodes": [9121307308, 9121307307, 9121307304, 9121307303, 9121307306, 9121307305, 9121307308], "tags": {"amenity": "restaurant", "building": "yes", "int_name": "Iliovasilema", "name": "\u0397\u03bb\u03b9\u03bf\u03b2\u03b1\u03c3\u03af\u03bb\u03b5\u03bc\u03b1", "name:el": "\u0397\u03bb\u03b9\u03bf\u03b2\u03b1\u03c3\u03af\u03bb\u03b5\u03bc\u03b1", "name:en": "Sunset"}}, {"type": "way", "id": 1049604910, "nodes": [9645685104, 9645685105, 9645685106, 9645685107, 9645685104], "tags": {"amenity": "restaurant", "building": "yes", "building:levels": "1", "cuisine": "greek", "name": "NAUTILOS"}}, {"type": "way", "id": 1069146468, "nodes": [9813816694, 9813816691, 9813843910, 9813816688, 9813843906, 9813816695, 9813816694], "tags": {"amenity": "restaurant", "building": "yes"}}, {"type": "way", "id": 1069150722, "nodes": [9813859822, 9813859817, 9813859821, 2953972061, 2953972060, 9813820016, 9813859825, 9813859827, 9813859824, 9813859822], "tags": {"amenity": "restaurant", "building": "yes"}}, {"type": "way", "id": 1069204573, "nodes": [9814245862, 9814245858, 9814245853, 9814245865, 9814245863, 9814245859, 9814245860, 9814245862], "tags": {"amenity": "restaurant", "building": "yes"}}, {"type": "way", "id": 1070351610, "nodes": [9822996858, 9822996859, 9822996860, 9822996861, 9822996858], "tags": {"amenity": "cafe", "building": "yes"}}, {"type": "way", "id": 1070351611, "nodes": [9822996862, 9822996863, 9822996864, 9822996865, 9822996862], "tags": {"amenity": "restaurant", "building": "yes", "name": "Taverna Restaurant Golden Beach"}}, {"type": "way", "id": 1070351618, "nodes": [9822996888, 9822996889, 9822996890, 9822996891, 9822996888], "tags": {"amenity": "restaurant", "building": "yes", "name": "Pazuzu"}}, {"type": "way", "id": 1070351621, "nodes": [9822996902, 9822996903, 9822996904, 9822996905, 9822996902], "tags": {"amenity": "restaurant", "building": "yes", "name": "Gorgona"}}, {"type": "way", "id": 1070351632, "nodes": [9823021029, 9823021026, 9823021027, 9823021028, 9823021029], "tags": {"amenity": "restaurant", "building": "yes"}}, {"type": "way", "id": 1070351633, "nodes": [9823021029, 9823021030, 9823021031, 9823021026, 9823021029], "tags": {"amenity": "restaurant", "building": "yes"}}, {"type": "way", "id": 1091322827, "nodes": [9995557025, 9995557026, 9995557027, 9995557028, 9995557029, 9995557030, 9995557034, 9995557033, 9995557031, 9995557032, 9995557025], "tags": {"addr:city": "Agios Ioannis Parelia", "air_conditioning": "yes", "amenity": "restaurant", "brewery": "yes", "building": "yes", "cuisine": "buffet", "name": "Pleiades Restaurant", "outdoor_seating": "yes", "wheelchair": "yes"}}, {"type": "way", "id": 1107988622, "nodes": [10137939136, 10137939135, 10137939145, 11903278424, 10137939141, 10137939138, 10137939136], "tags": {"amenity": "restaurant", "building": "yes", "name": "Pelekas Grill", "outdoor_seating": "yes", "wheelchair": "no"}}, {"type": "way", "id": 1108006350, "nodes": [10138112988, 10138112989, 10138112990, 10138112991, 10138112992, 10138112993, 10138112988], "tags": {"amenity": "restaurant", "building": "yes", "indoor_seating": "yes", "name": "Pink Panther", "outdoor_seating": "yes"}}, {"type": "way", "id": 1111066513, "nodes": [10166514152, 10166514153, 10166514154, 10166514155, 10166514152], "tags": {"amenity": "restaurant", "building": "yes", "name": "Stavedo Beach Bar Restaurant", "opening_hours": "09:00-21:00", "phone": "+302665093544"}}, {"type": "way", "id": 1132156468, "nodes": [10556570618, 10556570616, 10556610240, 10556570619, 10556570620, 10556570621, 10556570622, 10556570618], "tags": {"amenity": "cafe", "building": "yes"}}, {"type": "way", "id": 1132156484, "nodes": [10556570700, 10556570701, 10556570702, 10665801178, 10556570700], "tags": {"amenity": "restaurant", "building": "yes", "layer": "1", "opening_hours": "7 & 8 of August"}}, {"type": "way", "id": 1132234853, "nodes": [10556570649, 11283502952, 10556570650, 10705224677, 10557273778, 10556570648, 10556570649], "tags": {"amenity": "cafe", "building": "yes", "name": "\u039f \u039c\u03c0\u03cc\u03bd\u03c4\u03b6\u03b7\u03c2", "name:el": "\u039f \u039c\u03c0\u03cc\u03bd\u03c4\u03b6\u03b7\u03c2", "name:en": "O Bontzis"}}, {"type": "way", "id": 1132234854, "nodes": [10557273779, 10557273780, 10557273781, 10557273782, 11283502951, 10557273779], "tags": {"amenity": "cafe", "building": "yes", "cuisine": "coffee_shop", "name": "\u03a4\u03bf \u03a0\u03ad\u03c4\u03c1\u03b9\u03bd\u03bf", "name:el": "\u03a4\u03bf \u03a0\u03ad\u03c4\u03c1\u03b9\u03bd\u03bf", "name:en": "To Petrino"}}, {"type": "way", "id": 1150710623, "nodes": [10704415116, 10704415117, 10704415118, 10704415119, 10704415120, 10704415121, 11122105638, 11122105642, 11122105641, 11122105640, 10704415122, 11122105639, 10704415104, 10704415105, 10704415108, 10704415109, 10704415110, 10704415111, 10704415112, 10704415113, 10704415114, 10704415115, 10704415106, 10704415107, 10704415116], "tags": {"amenity": "restaurant", "building": "yes", "name": "ORA"}}, {"type": "way", "id": 1175586497, "nodes": [10923864284, 10923864287, 10923864286, 10923864285, 10923864284], "tags": {"amenity": "restaurant", "building": "yes", "int_name": "Flisvos - the seaside experience", "name": "\u03a6\u03bb\u03bf\u03b9\u03c3\u03b2\u03bf\u03c2", "name:el": "\u03a6\u03bb\u03bf\u03b9\u03c3\u03b2\u03bf\u03c2"}}, {"type": "way", "id": 1183328241, "nodes": [10988889535, 10988889536, 10988889537, 10988889538, 10988889535], "tags": {"amenity": "restaurant", "building": "yes"}}, {"type": "way", "id": 1183328242, "nodes": [10988889538, 10988889541, 10988889539, 10988889542, 10988889540, 10988889537, 10988889538], "tags": {"amenity": "restaurant", "building": "yes", "outdoor_seating": "yes"}}, {"type": "way", "id": 1204172301, "nodes": [11160882467, 11160882468, 11160882469, 11160882470, 11160882471, 11160882472, 11160882473, 11160882474, 11160882475, 11160882476, 11160882467], "tags": {"amenity": "restaurant", "building": "yes", "name": "Restaurant Nychterida"}}, {"type": "way", "id": 1228844802, "nodes": [11396045763, 11396045764, 11396045765, 11396045766, 11396045767, 11396045768, 11396056069, 11396056070, 11396056071, 11396056072, 11396045763], "tags": {"amenity": "restaurant", "area": "yes", "building": "yes", "internet_access": "wlan", "name": "San Marino"}}, {"type": "way", "id": 1237883334, "nodes": [11498203933, 11498203932, 11498203934, 11498203935, 11498203936, 11498203937, 11498203938, 11498203933], "tags": {"amenity": "cafe", "building": "yes"}}, {"type": "way", "id": 1264643858, "nodes": [11749048160, 11749048161, 11749048162, 11749048163, 11749048164, 11749048165, 11749048166, 11749048167, 11749048149, 11749048150, 11749048153, 11749048154, 11749048155, 11749048156, 11749048157, 11749048158, 11749048159, 11749048151, 11749048152, 11749048160], "tags": {"amenity": "restaurant", "building": "yes", "name": "\u03a4\u03b1\u03b2\u03ad\u03c1\u03bd\u03b1 \u0391\u03bb\u03c5\u03ba\u03ad\u03c2", "name:el": "\u03a4\u03b1\u03b2\u03ad\u03c1\u03bd\u03b1 \u0391\u03bb\u03c5\u03ba\u03ad\u03c2", "name:en": "Taverna Alykes"}}, {"type": "way", "id": 1319319852, "nodes": [12209544064, 12209544065, 12209544066, 12209544067, 12209544064], "tags": {"amenity": "cafe", "building": "yes", "cuisine": "coffee_shop;greek"}}]}