{"version": 0.6, "generator": "Overpass API 0.7.62.7 375dc00a", "osm3s": {"timestamp_osm_base": "2025-06-14T15:14:02Z", "copyright": "The data included in this document is from www.openstreetmap.org. The data is made available under ODbL."}, "elements": [{"type": "node", "id": 4111381090, "lat": 41.3145748, "lon": 36.2506905, "tags": {"addr:housenumber": "Baklal\u0131k mevki", "addr:street": "\u00c7oban\u00f6z\u00fc mah .", "amenity": "restaurant", "email": "info@samsunadventurepark.com", "internet_access": "wlan", "name": "Adventure Park", "opening_hours": "Mo-Su 10:00-01:00", "phone": "+905327401643", "website": "http://www.samsunadventurepark.com"}}, {"type": "node", "id": 4159607157, "lat": 41.3535267, "lon": 35.9607996, "tags": {"amenity": "restaurant"}}, {"type": "node", "id": 4177286819, "lat": 41.1351578, "lon": 36.1267182, "tags": {"addr:street": "Samsun-Erzincan yolu", "amenity": "restaurant", "contact:phone": "+903627516010", "cuisine": "turkish", "internet_access": "wlan", "name": "\u00c7akall\u0131 Bo\u011fazi\u00e7i Menemen", "opening_hours": "24/7", "phone": "+903627516069"}}, {"type": "node", "id": 4942521251, "lat": 41.181296, "lon": 36.1122965}, {"type": "node", "id": 4942521252, "lat": 41.1813151, "lon": 36.1124618}, {"type": "node", "id": 4942521253, "lat": 41.181121, "lon": 36.1125014}, {"type": "node", "id": 4942521254, "lat": 41.1811019, "lon": 36.1123362}, {"type": "node", "id": 4942521259, "lat": 41.1804281, "lon": 36.1121982}, {"type": "node", "id": 4942521260, "lat": 41.1804371, "lon": 36.1124751}, {"type": "node", "id": 4942521261, "lat": 41.1801824, "lon": 36.1124897}, {"type": "node", "id": 4942521262, "lat": 41.1801734, "lon": 36.1122128}, {"type": "node", "id": 4942521268, "lat": 41.1800746, "lon": 36.1122231}, {"type": "node", "id": 4942521269, "lat": 41.1801017, "lon": 36.1124994}, {"type": "node", "id": 4942521270, "lat": 41.1798502, "lon": 36.112543}, {"type": "node", "id": 4942521271, "lat": 41.179823, "lon": 36.1122667}, {"type": "node", "id": 6333335045, "lat": 41.1395658, "lon": 36.1211015, "tags": {"amenity": "restaurant", "name": "Mutlu Menemen"}}, {"type": "node", "id": 6456067687, "lat": 41.1019241, "lon": 36.1115878, "tags": {"amenity": "restaurant", "cuisine": "turkish", "name": "Tekeli dinlenme tesisi", "opening_hours": "Mo-Su 09:00-00:00"}}, {"type": "node", "id": 7276638985, "lat": 41.1751383, "lon": 36.1141193, "tags": {"amenity": "restaurant", "name": "Hanzade"}}, {"type": "node", "id": 8557741140, "lat": 40.9631388, "lon": 35.6652577, "tags": {"amenity": "restaurant", "cuisine": "kebab", "name": "Kervan Hatay Usul\u00fc Soslu D\u00f6ner"}}, {"type": "node", "id": 9256215716, "lat": 41.3265265, "lon": 36.1053792, "tags": {"amenity": "cafe"}}, {"type": "node", "id": 9762874019, "lat": 41.1360727, "lon": 36.1255154}, {"type": "node", "id": 9762874020, "lat": 41.1357906, "lon": 36.1258183}, {"type": "node", "id": 9762874021, "lat": 41.1358736, "lon": 36.1259458}, {"type": "node", "id": 9762874024, "lat": 41.1361471, "lon": 36.1256457}, {"type": "node", "id": 10036519544, "lat": 41.29312, "lon": 36.2474593, "tags": {"amenity": "cafe", "name": "Kuzu Evi Et Mangal"}}, {"type": "node", "id": 10036519545, "lat": 41.2919291, "lon": 36.2474037, "tags": {"amenity": "cafe", "name": "Evi Et Mangal"}}, {"type": "node", "id": 10098803280, "lat": 41.0097541, "lon": 35.8577702, "tags": {"amenity": "cafe", "name": "Dorukhan Et Lokantas\u0131"}}, {"type": "node", "id": 10098803316, "lat": 41.0154853, "lon": 35.873288, "tags": {"amenity": "cafe"}}, {"type": "node", "id": 10098813337, "lat": 41.0451658, "lon": 35.9275054, "tags": {"amenity": "cafe", "name": "Muhtar\u0131n Yeri \u00dc\u00e7hanlar"}}, {"type": "node", "id": 10098813371, "lat": 41.0513689, "lon": 35.9378757, "tags": {"amenity": "cafe", "name": "\u00d6z Akcaabat K\u00f6fte"}}, {"type": "node", "id": 10098813479, "lat": 41.0616816, "lon": 35.977881, "tags": {"amenity": "cafe", "name": "Kavak Belediyesi G\u00fcven Park Tesisleri"}}, {"type": "node", "id": 10098813734, "lat": 41.066598, "lon": 36.0101954, "tags": {"amenity": "cafe", "name": "Karadeniz Menemen Lezzeti Ke\u015ffet"}}, {"type": "node", "id": 10098813763, "lat": 41.0687166, "lon": 36.0156881, "tags": {"amenity": "cafe"}}, {"type": "node", "id": 10098813766, "lat": 41.0682828, "lon": 36.0196073, "tags": {"amenity": "cafe", "name": "Adana Sofrasi"}}, {"type": "node", "id": 10098813801, "lat": 41.0695342, "lon": 36.0292256, "tags": {"amenity": "cafe", "name": "Karde\u015fler"}}, {"type": "node", "id": 10098813817, "lat": 41.0694607, "lon": 36.0280295, "tags": {"amenity": "restaurant", "name": "Karde\u015fler \u00c7ay Salonu"}}, {"type": "node", "id": 10098813828, "lat": 41.070263, "lon": 36.0285878, "tags": {"amenity": "restaurant", "name": "\u00c7ak\u0131nlar Unlu Mamulleri"}}, {"type": "node", "id": 10099088199, "lat": 41.129086, "lon": 36.1337233, "tags": {"amenity": "cafe"}}, {"type": "node", "id": 10099088206, "lat": 41.1313939, "lon": 36.1310673, "tags": {"amenity": "cafe"}}, {"type": "node", "id": 10099088210, "lat": 41.1350412, "lon": 36.1283812, "tags": {"amenity": "cafe"}}, {"type": "node", "id": 10099088232, "lat": 41.1374428, "lon": 36.1242085, "tags": {"amenity": "cafe"}}, {"type": "node", "id": 10099088239, "lat": 41.1387121, "lon": 36.1244275, "tags": {"amenity": "cafe"}}, {"type": "node", "id": 10099088288, "lat": 41.17966, "lon": 36.1126174, "tags": {"amenity": "cafe"}}, {"type": "node", "id": 10099088304, "lat": 41.1869309, "lon": 36.1120152, "tags": {"amenity": "cafe"}}, {"type": "node", "id": 10099088305, "lat": 41.1862445, "lon": 36.1133792, "tags": {"amenity": "cafe"}}, {"type": "node", "id": 10099088321, "lat": 41.2069053, "lon": 36.1207891, "tags": {"amenity": "cafe"}}, {"type": "node", "id": 10100837099, "lat": 41.2914008, "lon": 36.2248503, "tags": {"amenity": "cafe", "name": "Ru\u015fenin Yeri"}}, {"type": "node", "id": 10100853816, "lat": 41.2827504, "lon": 36.1909258, "tags": {"amenity": "restaurant", "name": "\u015eelale"}}, {"type": "node", "id": 10100853851, "lat": 41.2771408, "lon": 36.1850168, "tags": {"amenity": "cafe", "name": "Et Mangal"}}, {"type": "node", "id": 10100853860, "lat": 41.2755338, "lon": 36.183131, "tags": {"amenity": "restaurant", "name": "Kalelinin Yeri"}}, {"type": "node", "id": 10100853964, "lat": 41.2425936, "lon": 36.1706116, "tags": {"amenity": "restaurant", "name": "\u00c7ad\u0131r"}}, {"type": "node", "id": 10100854039, "lat": 41.232029, "lon": 36.1526415, "tags": {"amenity": "cafe", "name": "\u00d6zkara Et Mangal"}}, {"type": "node", "id": 10113668370, "lat": 40.9847184, "lon": 35.6965857, "tags": {"amenity": "cafe"}}, {"type": "node", "id": 10113668373, "lat": 40.9878352, "lon": 35.7056321, "tags": {"amenity": "cafe", "name": "CAFE LAK Cafe&Kahvalt\u0131"}}, {"type": "node", "id": 10113668386, "lat": 40.9972269, "lon": 35.7619146, "tags": {"amenity": "restaurant", "name": "Konak"}}, {"type": "node", "id": 10113668441, "lat": 40.9981136, "lon": 35.7793476, "tags": {"amenity": "restaurant", "name": "Alibaba"}}, {"type": "node", "id": 10114109686, "lat": 41.0006634, "lon": 35.809402, "tags": {"amenity": "restaurant"}}, {"type": "node", "id": 10114109814, "lat": 40.9334405, "lon": 35.8992524, "tags": {"amenity": "restaurant", "name": "Ambark\u00f6y Han Restoran"}}, {"type": "way", "id": 504037781, "nodes": [4942521251, 4942521252, 4942521253, 4942521254, 4942521251], "tags": {"amenity": "restaurant", "building": "yes", "cuisine": "kahvalt\u0131;menemen;\u00e7orba;\u00e7ay;turkish", "name": "Menemenci Day\u0131"}}, {"type": "way", "id": 504037783, "nodes": [4942521259, 4942521260, 4942521261, 4942521262, 4942521259], "tags": {"amenity": "restaurant", "building": "yes", "name": "\u0130cabet Et Lokantas\u0131"}}, {"type": "way", "id": 504037785, "nodes": [4942521268, 4942521269, 4942521270, 4942521271, 4942521268], "tags": {"amenity": "restaurant", "building": "yes", "name": "Taka 61"}}, {"type": "way", "id": 1062732079, "nodes": [9762874019, 9762874020, 9762874021, 9762874024, 9762874019], "tags": {"addr:city": "Samsun", "addr:district": "Kavak", "addr:housenumber": "44/1", "addr:neighbourhood": "\u00c7akall\u0131 Mahallesi", "addr:postcode": "55300", "addr:street": "4.Sokak", "amenity": "restaurant", "building": "restaurant", "building:levels": "2", "cuisine": "turkish", "description": "Ye\u015filo\u011flu restaurant, \u00e7akall\u0131 restaurant, menemen, kahvalt\u0131, yemek, lezzetli", "diet:halal": "yes", "diet:meat": "yes", "diet:organic": "yes", "height": "15", "name": "Ye\u015filo\u011flu Restaurant \u00c7akall\u0131", "opening_hours": "Mo-Su 06:00-23:00", "phone": "+90 362 751 60 60", "source": "microsoft/BuildingFootprints;yemek;\u00e7akall\u0131;menemen;kahvalt\u0131;en g\u00fczel", "website": "http://www.yesiloglurestaurant.com/"}}]}