{"version": 0.6, "generator": "Overpass API 0.7.62.7 375dc00a", "osm3s": {"timestamp_osm_base": "2025-06-14T13:58:38Z", "copyright": "The data included in this document is from www.openstreetmap.org. The data is made available under ODbL."}, "elements": [{"type": "node", "id": 365965710, "lat": 38.948931, "lon": 16.5074, "tags": {"amenity": "restaurant", "name": "Due Mari", "tourism": "hotel"}}, {"type": "node", "id": 1672691173, "lat": 38.6848285, "lon": 16.5565246}, {"type": "node", "id": 1672691235, "lat": 38.6911374, "lon": 16.5476151}, {"type": "node", "id": 1672691261, "lat": 38.6846813, "lon": 16.556538}, {"type": "node", "id": 1768996520, "lat": 38.8204219, "lon": 16.6153264, "tags": {"amenity": "restaurant", "name": "ZenZero"}}, {"type": "node", "id": 1781024677, "lat": 38.8582467, "lon": 16.5697216}, {"type": "node", "id": 1781024728, "lat": 38.8580065, "lon": 16.5699657}, {"type": "node", "id": 1781024752, "lat": 38.8584744, "lon": 16.5700891}, {"type": "node", "id": 1781024809, "lat": 38.8582467, "lon": 16.5703224}, {"type": "node", "id": 1787461373, "lat": 38.8391033, "lon": 16.6111248, "tags": {"amenity": "restaurant", "cuisine": "pizza", "name": "Al Casello"}}, {"type": "node", "id": 1787502044, "lat": 38.8962742, "lon": 16.5995927, "tags": {"amenity": "restaurant", "cuisine": "italian", "name": "La Vecchia Tramvia"}}, {"type": "node", "id": 1807871510, "lat": 39.0298111, "lon": 16.683683, "tags": {"addr:city": "Zagarise", "addr:housenumber": "1", "addr:postcode": "88050", "addr:street": "loc Carrozzino", "amenity": "restaurant", "name": "Ristorante dell' Agriturismo Carrozzino", "operator": "Alessandro"}}, {"type": "node", "id": 1814126039, "lat": 38.7439651, "lon": 16.543573}, {"type": "node", "id": 1814126075, "lat": 38.7440091, "lon": 16.5435488}, {"type": "node", "id": 1814126077, "lat": 38.7439107, "lon": 16.543455}, {"type": "node", "id": 1814126081, "lat": 38.7439024, "lon": 16.5435301}, {"type": "node", "id": 1814126141, "lat": 38.7439819, "lon": 16.5435327}, {"type": "node", "id": 1814126169, "lat": 38.7440091, "lon": 16.5430848}, {"type": "node", "id": 1814126227, "lat": 38.7441032, "lon": 16.5431331}, {"type": "node", "id": 1814161852, "lat": 38.6899648, "lon": 16.5546341}, {"type": "node", "id": 1814161858, "lat": 38.688039, "lon": 16.5551197}, {"type": "node", "id": 1814161860, "lat": 38.6887687, "lon": 16.5552577}, {"type": "node", "id": 1814161861, "lat": 38.6911438, "lon": 16.5469712}, {"type": "node", "id": 1814161865, "lat": 38.6894375, "lon": 16.5539315}, {"type": "node", "id": 1814161869, "lat": 38.6909185, "lon": 16.5478511}, {"type": "node", "id": 1814161874, "lat": 38.6903859, "lon": 16.5526682}, {"type": "node", "id": 1814161877, "lat": 38.6912441, "lon": 16.5475053}, {"type": "node", "id": 1814161880, "lat": 38.6880767, "lon": 16.5552002}, {"type": "node", "id": 1814161889, "lat": 38.6908433, "lon": 16.5481883}, {"type": "node", "id": 1814161894, "lat": 38.6880715, "lon": 16.5550421}, {"type": "node", "id": 1814161897, "lat": 38.6899519, "lon": 16.5542647}, {"type": "node", "id": 1814161898, "lat": 38.6904592, "lon": 16.5526494}, {"type": "node", "id": 1814161910, "lat": 38.6898174, "lon": 16.5544804}, {"type": "node", "id": 1814161912, "lat": 38.6894878, "lon": 16.553843}, {"type": "node", "id": 1814161914, "lat": 38.6881479, "lon": 16.5552619}, {"type": "node", "id": 1814161936, "lat": 38.6909741, "lon": 16.5475828}, {"type": "node", "id": 1814161944, "lat": 38.6881709, "lon": 16.5549669}, {"type": "node", "id": 1814161952, "lat": 38.6908808, "lon": 16.5478403}, {"type": "node", "id": 1814161956, "lat": 38.6905974, "lon": 16.5526709}, {"type": "node", "id": 1814161971, "lat": 38.6909491, "lon": 16.5471294}, {"type": "node", "id": 1814161976, "lat": 38.6906375, "lon": 16.5503398}, {"type": "node", "id": 1814161990, "lat": 38.6904529, "lon": 16.5528452}, {"type": "node", "id": 1814162013, "lat": 38.6905346, "lon": 16.552864}, {"type": "node", "id": 1814162017, "lat": 38.689358, "lon": 16.5538725}, {"type": "node", "id": 1814162019, "lat": 38.6906457, "lon": 16.5502853}, {"type": "node", "id": 1814162023, "lat": 38.6900994, "lon": 16.5544367}, {"type": "node", "id": 1814162025, "lat": 38.6911229, "lon": 16.5470222}, {"type": "node", "id": 1814162026, "lat": 38.6907699, "lon": 16.5505278}, {"type": "node", "id": 1814162030, "lat": 38.6908884, "lon": 16.5479985}, {"type": "node", "id": 1814162043, "lat": 38.6908413, "lon": 16.548029}, {"type": "node", "id": 1814162045, "lat": 38.690522, "lon": 16.5526119}, {"type": "node", "id": 1814162051, "lat": 38.6890003, "lon": 16.5553536}, {"type": "node", "id": 1814162059, "lat": 38.6905471, "lon": 16.5526923}, {"type": "node", "id": 1814162060, "lat": 38.6905937, "lon": 16.5502726}, {"type": "node", "id": 1814162062, "lat": 38.6905115, "lon": 16.5528077}, {"type": "node", "id": 1814162063, "lat": 38.6908049, "lon": 16.5481787}, {"type": "node", "id": 1814162070, "lat": 38.6910307, "lon": 16.5469953}, {"type": "node", "id": 1814162072, "lat": 38.6889086, "lon": 16.5551599}, {"type": "node", "id": 1814162102, "lat": 38.6904487, "lon": 16.5526307}, {"type": "node", "id": 1814162104, "lat": 38.6881165, "lon": 16.5551761}, {"type": "node", "id": 1814162107, "lat": 38.6908601, "lon": 16.5481367}, {"type": "node", "id": 1814162135, "lat": 38.6894061, "lon": 16.5537813}, {"type": "node", "id": 1814162141, "lat": 38.6912846, "lon": 16.5473822}, {"type": "node", "id": 1814162143, "lat": 38.6888458, "lon": 16.5554669}, {"type": "node", "id": 1814162148, "lat": 38.6908702, "lon": 16.547293}, {"type": "node", "id": 1814162150, "lat": 38.69095, "lon": 16.5475469}, {"type": "node", "id": 1814162154, "lat": 38.6908617, "lon": 16.5474026}, {"type": "node", "id": 1814162155, "lat": 38.6882274, "lon": 16.555219}, {"type": "node", "id": 1814162160, "lat": 38.6910219, "lon": 16.5479531}, {"type": "node", "id": 1814162166, "lat": 38.6906508, "lon": 16.5528105}, {"type": "node", "id": 1814162167, "lat": 38.6911605, "lon": 16.5470678}, {"type": "node", "id": 1814162172, "lat": 38.6905632, "lon": 16.5504774}, {"type": "node", "id": 1814162173, "lat": 38.6907923, "lon": 16.5503776}, {"type": "node", "id": 1814162182, "lat": 38.6908481, "lon": 16.5479861}, {"type": "node", "id": 1814162188, "lat": 38.690956, "lon": 16.5481585}, {"type": "node", "id": 1814162203, "lat": 38.6909136, "lon": 16.5479029}, {"type": "node", "id": 1814162231, "lat": 38.6910075, "lon": 16.5476116}, {"type": "node", "id": 1814162239, "lat": 38.69088, "lon": 16.548036}, {"type": "node", "id": 1814162243, "lat": 38.6909377, "lon": 16.5475058}, {"type": "node", "id": 1814162246, "lat": 38.6908855, "lon": 16.5473358}, {"type": "node", "id": 1814162250, "lat": 38.6910789, "lon": 16.5468988}, {"type": "node", "id": 1814162252, "lat": 38.69097, "lon": 16.5470704}, {"type": "node", "id": 1855974213, "lat": 38.9112912, "lon": 16.586137, "tags": {"amenity": "restaurant", "cuisine": "pizza", "name": "Da Ciro"}}, {"type": "node", "id": 1856099763, "lat": 38.8449108, "lon": 16.6469783, "tags": {"amenity": "restaurant", "cuisine": "italian", "indoor_seating": "yes", "name": "Fratelli La Bufala", "outdoor_seating": "no", "wheelchair": "yes"}}, {"type": "node", "id": 1903859698, "lat": 38.6893764, "lon": 16.5517898, "tags": {"addr:housenumber": "8", "addr:postcode": "88068", "addr:street": "Via Colombo", "amenity": "restaurant", "cuisine": "pizza", "delivery": "no", "name": "Klaxon", "outdoor_seating": "yes", "source": "Local_Knowledge", "takeaway": "yes"}}, {"type": "node", "id": 1903930742, "lat": 38.6863538, "lon": 16.5512821, "tags": {"addr:housenumber": "60", "addr:postcode": "88068", "addr:street": "Via Francesco Cilea", "amenity": "restaurant", "cuisine": "pizza", "name": "Da Benito", "source": "Local_Knowledge"}}, {"type": "node", "id": 1940701730, "lat": 38.777456, "lon": 16.5699386, "tags": {"amenity": "restaurant", "cuisine": "fish", "name": "La Cena di Afrodite"}}, {"type": "node", "id": 2048418066, "lat": 39.0208666, "lon": 16.5824436, "tags": {"amenity": "cafe"}}, {"type": "node", "id": 2083084557, "lat": 38.9081175, "lon": 16.5906421}, {"type": "node", "id": 2083084563, "lat": 38.9080371, "lon": 16.5905807}, {"type": "node", "id": 2084734420, "lat": 38.9129016, "lon": 16.5868571, "tags": {"amenity": "cafe", "name": "pasticceria Dany & Ross"}}, {"type": "node", "id": 2124633106, "lat": 38.9998565, "lon": 16.661061, "tags": {"amenity": "cafe", "name": "bar Sport"}}, {"type": "node", "id": 2276142028, "lat": 38.8583497, "lon": 16.5702169}, {"type": "node", "id": 2276229012, "lat": 38.8826086, "lon": 16.5555649}, {"type": "node", "id": 2276229014, "lat": 38.8826274, "lon": 16.5553745}, {"type": "node", "id": 2276229017, "lat": 38.8825004, "lon": 16.5556048}, {"type": "node", "id": 2276229019, "lat": 38.8826508, "lon": 16.5556075}, {"type": "node", "id": 2276229021, "lat": 38.8825794, "lon": 16.5554442}, {"type": "node", "id": 2276229022, "lat": 38.8824687, "lon": 16.5554764}, {"type": "node", "id": 2276229023, "lat": 38.8827214, "lon": 16.5554845}, {"type": "node", "id": 2276342321, "lat": 38.8619492, "lon": 16.5677016}, {"type": "node", "id": 2276342322, "lat": 38.8617318, "lon": 16.5679486}, {"type": "node", "id": 2276342323, "lat": 38.8614298, "lon": 16.5681295}, {"type": "node", "id": 2276342324, "lat": 38.861395, "lon": 16.5680336}, {"type": "node", "id": 2276342326, "lat": 38.86176, "lon": 16.5680263}, {"type": "node", "id": 2276342335, "lat": 38.8620123, "lon": 16.5678752}, {"type": "node", "id": 2295548393, "lat": 38.7435237, "lon": 16.540158, "tags": {"amenity": "restaurant", "name": "agriturismo pietragrande"}}, {"type": "node", "id": 2585754348, "lat": 38.8877705, "lon": 16.3889039, "tags": {"amenity": "restaurant", "cuisine": "regional", "email": "info@jinostrara.it", "name": "Agriturismo \"A Jinostrara\"", "website": "http://www.jinostrara.it/", "wheelchair": "yes"}}, {"type": "node", "id": 2611700791, "lat": 38.8825423, "lon": 16.5555399, "tags": {"amenity": "cafe", "name": "La Sosta"}}, {"type": "node", "id": 2696172703, "lat": 38.9376885, "lon": 16.8694572, "tags": {"amenity": "restaurant"}}, {"type": "node", "id": 2707029432, "lat": 38.8426653, "lon": 16.5846039, "tags": {"amenity": "cafe", "name": "Bar Crispi"}}, {"type": "node", "id": 2744026396, "lat": 38.892679, "lon": 16.551855, "tags": {"amenity": "cafe", "name": "Snack bar IP", "old_name": "Bar API Caraffa"}}, {"type": "node", "id": 2745417281, "lat": 38.9540881, "lon": 16.3883531, "tags": {"addr:city": "Pianopoli", "addr:housenumber": "1", "addr:postcode": "88040", "addr:street": "Via Marconi", "amenity": "cafe", "cuisine": "coffee_shop", "name": "Bar da Mario", "phone": "+39 0968 35401", "smoking": "outside"}}, {"type": "node", "id": 2745417285, "lat": 38.9522241, "lon": 16.3884632, "tags": {"addr:city": "Pianopoli", "addr:postcode": "88040", "addr:street": "Via Palmiro Togliatti", "amenity": "cafe", "cuisine": "donut", "name": "Peccati Golosi", "phone": "+39 366 2560630"}}, {"type": "node", "id": 2764036714, "lat": 38.9525982, "lon": 16.3875915, "tags": {"addr:city": "Pianopoli", "addr:housenumber": "40", "addr:postcode": "88040", "addr:street": "Via Roma", "amenity": "cafe", "name": "Bar Sport", "phone": "+39 0968 32094", "smoking": "outside"}}, {"type": "node", "id": 2764168800, "lat": 38.954323, "lon": 16.3875097, "tags": {"addr:city": "Pianopoli", "addr:postcode": "88040", "addr:street": "Via XX Settembre", "amenity": "cafe", "name": "El Costa Bar", "smoking": "outside"}}, {"type": "node", "id": 2766676692, "lat": 38.953532, "lon": 16.3880548, "tags": {"addr:city": "Pianopoli", "addr:housenumber": "80", "addr:postcode": "88040", "addr:street": "Via Roma", "amenity": "cafe", "name": "Bar del Corso"}}, {"type": "node", "id": 2805298807, "lat": 38.8677378, "lon": 16.6667875, "tags": {"amenity": "cafe", "name": "Eni Caf\u00e8"}}, {"type": "node", "id": 2805301712, "lat": 38.8458438, "lon": 16.6551217}, {"type": "node", "id": 2805301713, "lat": 38.845941, "lon": 16.6553}, {"type": "node", "id": 2805301714, "lat": 38.845747, "lon": 16.6552087}, {"type": "node", "id": 2805301716, "lat": 38.8458442, "lon": 16.6553869}, {"type": "node", "id": 2823705473, "lat": 38.8910239, "lon": 16.5977869}, {"type": "node", "id": 2823725002, "lat": 38.8907981, "lon": 16.5981238}, {"type": "node", "id": 2823725003, "lat": 38.8907912, "lon": 16.5980477}, {"type": "node", "id": 2823725005, "lat": 38.8907744, "lon": 16.597806}, {"type": "node", "id": 2823725006, "lat": 38.89097, "lon": 16.5982011}, {"type": "node", "id": 2823725007, "lat": 38.8910492, "lon": 16.5980093}, {"type": "node", "id": 2823725009, "lat": 38.8910203, "lon": 16.5977569}, {"type": "node", "id": 2823725011, "lat": 38.891001, "lon": 16.5980183}, {"type": "node", "id": 2823725012, "lat": 38.8910207, "lon": 16.5981915}, {"type": "node", "id": 2823725013, "lat": 38.8909584, "lon": 16.5980995}, {"type": "node", "id": 2845268603, "lat": 38.8926517, "lon": 16.5497913, "tags": {"amenity": "cafe", "name": "Bar - Tabacchi Gigliotta", "phone": "+39 0961 771407", "shop": "tobacco"}}, {"type": "node", "id": 2893365457, "lat": 38.922003, "lon": 16.8616401, "tags": {"amenity": "restaurant"}}, {"type": "node", "id": 2898361767, "lat": 38.8582173, "lon": 16.5697515}, {"type": "node", "id": 2952040670, "lat": 39.0175451, "lon": 16.7844689, "tags": {"amenity": "cafe", "name": "Bar Centrale"}}, {"type": "node", "id": 2952125974, "lat": 38.9219211, "lon": 16.8508021, "tags": {"amenity": "restaurant"}}, {"type": "node", "id": 2962297082, "lat": 39.0115969, "lon": 16.7284964, "tags": {"amenity": "cafe"}}, {"type": "node", "id": 2962309616, "lat": 39.0092564, "lon": 16.7288022, "tags": {"amenity": "cafe", "name": "Bar dello Sport"}}, {"type": "node", "id": 2962309626, "lat": 39.0091438, "lon": 16.7290731, "tags": {"amenity": "cafe", "name": "Gran Caff\u00e9"}}, {"type": "node", "id": 2962309629, "lat": 39.0095857, "lon": 16.7293279, "tags": {"amenity": "cafe", "name": "Bar Mario"}}, {"type": "node", "id": 2962311633, "lat": 39.0091501, "lon": 16.7289202, "tags": {"amenity": "cafe"}}, {"type": "node", "id": 3161120030, "lat": 38.905093, "lon": 16.50815, "tags": {"amenity": "restaurant", "cuisine": "regional", "name": "Latticini Silani", "smoking": "no"}}, {"type": "node", "id": 3256661766, "lat": 39.089601, "lon": 16.8034591}, {"type": "node", "id": 3256661767, "lat": 39.0896024, "lon": 16.803505}, {"type": "node", "id": 3256661773, "lat": 39.0896132, "lon": 16.8034996}, {"type": "node", "id": 3256661777, "lat": 39.0896416, "lon": 16.8034388}, {"type": "node", "id": 3256661780, "lat": 39.0896469, "lon": 16.8034563}, {"type": "node", "id": 3256661792, "lat": 39.0897003, "lon": 16.80383}, {"type": "node", "id": 3256661807, "lat": 39.0897504, "lon": 16.8034045}, {"type": "node", "id": 3256661812, "lat": 39.0897702, "lon": 16.8034701}, {"type": "node", "id": 3256661816, "lat": 39.089801, "lon": 16.8034547}, {"type": "node", "id": 3256661820, "lat": 39.0898171, "lon": 16.8035084}, {"type": "node", "id": 3256661823, "lat": 39.0898205, "lon": 16.8036386}, {"type": "node", "id": 3256661825, "lat": 39.0898253, "lon": 16.8035044}, {"type": "node", "id": 3256661828, "lat": 39.0898366, "lon": 16.8035805}, {"type": "node", "id": 3256661833, "lat": 39.0898467, "lon": 16.8035755}, {"type": "node", "id": 3256661834, "lat": 39.0898497, "lon": 16.803624}, {"type": "node", "id": 3256661836, "lat": 39.0898548, "lon": 16.8037528}, {"type": "node", "id": 3360190832, "lat": 39.0690194, "lon": 16.3780879, "tags": {"amenity": "restaurant", "name": "La Rosa nel Bicchiere"}}, {"type": "node", "id": 3942547325, "lat": 38.8905026, "lon": 16.6233874, "tags": {"addr:city": "Catanzaro", "addr:postcode": "88100", "amenity": "restaurant", "cuisine": "italian", "name": "Antonio Abruzzino"}}, {"type": "node", "id": 3990909688, "lat": 38.9061222, "lon": 16.4068547}, {"type": "node", "id": 3990909690, "lat": 38.9062243, "lon": 16.4071119}, {"type": "node", "id": 3990909691, "lat": 38.9062381, "lon": 16.4067788}, {"type": "node", "id": 3990909694, "lat": 38.9063401, "lon": 16.4070359}, {"type": "node", "id": 4031255296, "lat": 39.0214268, "lon": 16.4867936, "tags": {"amenity": "cafe", "name": "Bar Centrale"}}, {"type": "node", "id": 4266895523, "lat": 39.0815709, "lon": 16.786365, "tags": {"amenity": "cafe"}}, {"type": "node", "id": 4348055992, "lat": 38.8130541, "lon": 16.5881039, "tags": {"amenity": "restaurant"}}, {"type": "node", "id": 4357372249, "lat": 38.9552678, "lon": 16.6414447, "tags": {"addr:city": "Simeri Crichi", "addr:housenumber": "10", "addr:postcode": "88050", "addr:street": "Via Cavour", "amenity": "cafe", "cuisine": "snacks", "internet_access": "wlan", "name": "Bar del Corso", "phone": "+39 0961 481004", "smoking": "outside"}}, {"type": "node", "id": 4390237201, "lat": 38.7493008, "lon": 16.4541111, "tags": {"addr:housenumber": "15", "addr:postcode": "88050", "addr:street": "IV Trav Canistr\u00e0", "amenity": "restaurant", "cuisine": "italian_pizza;local;italian", "email": "ivanfulciniti@libero.it", "internet_access": "wlan", "name": "Pizzeria Pizzar\u00e8", "name:it": "Pizzeria Pizzar\u00e8", "opening_hours": "Tu-Su 18:00-01:00", "operator": "Ivan Fulciniti", "phone": "+39 0961 917822", "website": "http://www.pizzeriapizzare.it"}}, {"type": "node", "id": 4390425890, "lat": 38.7492155, "lon": 16.4540404, "tags": {"addr:housenumber": "15", "addr:postcode": "88050", "addr:street": "IV Trav.canistr\u00e0", "amenity": "restaurant", "cuisine": "italian_pizza;local", "email": "ivanfulciniti@libero.it", "internet_access": "wlan", "opening_hours": "Tu-Su 18:30-01:00", "operator": "Ivan Fulciniti", "phone": "+39 0961 917822", "website": "http://www.pizzeriapizzare.it"}}, {"type": "node", "id": 4408635990, "lat": 38.6902081, "lon": 16.5467263, "tags": {"addr:housenumber": "29-33", "addr:postcode": "88068", "addr:street": "Corso Umberto I", "amenity": "cafe", "check_date": "2025-06-06", "cuisine": "ice_cream;coffee_shop;cake", "email": "info@soveratodolci.com", "internet_access": "wlan", "name": "Soverato Dolci", "name:it": "Soverato Dolci", "phone": "+39 0967 25599", "website": "http://www.soveratodolci.com"}}, {"type": "node", "id": 4462544759, "lat": 38.9441581, "lon": 16.5072629, "tags": {"amenity": "restaurant", "cuisine": "italian", "microbrewery": "no", "name": "Ristorante Al Mulino", "operator": "Ristorante Al Mulino di Donato Raffaele"}}, {"type": "node", "id": 4532569690, "lat": 38.6848074, "lon": 16.5562733}, {"type": "node", "id": 4613892864, "lat": 38.902718, "lon": 16.5985909, "tags": {"addr:city": "Catanzaro", "addr:housenumber": "28", "addr:postcode": "88100", "addr:street": "Viale dei Normanni", "amenity": "restaurant", "name": "Bacchus"}}, {"type": "node", "id": 4683237425, "lat": 38.9052116, "lon": 16.6131828}, {"type": "node", "id": 4683237456, "lat": 38.905206, "lon": 16.6132962}, {"type": "node", "id": 4683237466, "lat": 38.9053621, "lon": 16.6131952}, {"type": "node", "id": 4683237487, "lat": 38.9053324, "lon": 16.6133066}, {"type": "node", "id": 4683237896, "lat": 38.9053337, "lon": 16.613281}, {"type": "node", "id": 4683237919, "lat": 38.9052182, "lon": 16.6132972}, {"type": "node", "id": 4683237960, "lat": 38.9053578, "lon": 16.613283}, {"type": "node", "id": 4720087081, "lat": 38.8925086, "lon": 16.6049469, "tags": {"addr:city": "Catanzaro", "addr:housenumber": "127", "addr:postcode": "88100", "addr:street": "Via Degli Svevi", "addr:suburb": "Campagnella", "alt_name": "Moulin Rouge Bar Caffetteria e Lounge Bar", "amenity": "cafe", "contact:phone": "+39 3398582576", "cuisine": "ice_cream", "description": "Caffetteria Pasticceria Cocktails Aperitivi Tramezzini Toast Insalate Panini", "name": "Moulin Rouge", "opening_hours": "Mo-Sa 05:00-22:00"}}, {"type": "node", "id": 4806437288, "lat": 39.05973, "lon": 16.4246486}, {"type": "node", "id": 4806437289, "lat": 39.0597239, "lon": 16.4247075}, {"type": "node", "id": 4806437290, "lat": 39.0596812, "lon": 16.4247036}, {"type": "node", "id": 4806437291, "lat": 39.0596812, "lon": 16.4246368}, {"type": "node", "id": 4993034555, "lat": 38.7497319, "lon": 16.5606979}, {"type": "node", "id": 4993034563, "lat": 38.7496904, "lon": 16.5607759}, {"type": "node", "id": 4993034572, "lat": 38.7467079, "lon": 16.5582416}, {"type": "node", "id": 4993034579, "lat": 38.7497675, "lon": 16.5608434}, {"type": "node", "id": 4993034592, "lat": 38.7469434, "lon": 16.5585302}, {"type": "node", "id": 4993034597, "lat": 38.7466683, "lon": 16.5584401}, {"type": "node", "id": 4993034602, "lat": 38.7469829, "lon": 16.5583317}, {"type": "node", "id": 4993034606, "lat": 38.749809, "lon": 16.5607653}, {"type": "node", "id": 4993036588, "lat": 38.7483556, "lon": 16.5595641}, {"type": "node", "id": 4993036589, "lat": 38.7486108, "lon": 16.5595668}, {"type": "node", "id": 4993036590, "lat": 38.7484377, "lon": 16.5594221}, {"type": "node", "id": 4993036591, "lat": 38.7485046, "lon": 16.5597601}, {"type": "node", "id": 4993036592, "lat": 38.748195, "lon": 16.5595294}, {"type": "node", "id": 4993036593, "lat": 38.74823, "lon": 16.5594649}, {"type": "node", "id": 5000249247, "lat": 38.6905326, "lon": 16.5473813, "tags": {"amenity": "restaurant", "capacity": "15", "check_date": "2025-06-08", "cuisine": "seafood", "delivery": "no", "name": "Friggitoria Lido", "outdoor_seating": "yes"}}, {"type": "node", "id": 5068116533, "lat": 38.9565985, "lon": 16.3938282, "tags": {"amenity": "restaurant", "name": "San Filippo"}}, {"type": "node", "id": 5073437022, "lat": 38.6999494, "lon": 16.5395174}, {"type": "node", "id": 5073437023, "lat": 38.7001651, "lon": 16.5392689}, {"type": "node", "id": 5073437024, "lat": 38.7002572, "lon": 16.5394001}, {"type": "node", "id": 5073437025, "lat": 38.7000414, "lon": 16.5396485}, {"type": "node", "id": 5101052724, "lat": 38.824438, "lon": 16.6200586, "tags": {"amenity": "restaurant", "name": "Antica Trattoria Carmelina"}}, {"type": "node", "id": 5101079722, "lat": 38.9079447, "lon": 16.5910113}, {"type": "node", "id": 5101131321, "lat": 38.8245379, "lon": 16.6215351, "tags": {"amenity": "restaurant", "name": "Le Voglie Spaghetteria"}}, {"type": "node", "id": 5101273738, "lat": 38.8200412, "lon": 16.6119027, "tags": {"amenity": "restaurant", "name": "Osteria Del Mare Da Giuseppe"}}, {"type": "node", "id": 5101282522, "lat": 38.690588, "lon": 16.5510319, "tags": {"amenity": "restaurant", "name": "La Marinella"}}, {"type": "node", "id": 5235309117, "lat": 38.828819, "lon": 16.6354237, "tags": {"amenity": "restaurant", "cuisine": "fish", "name": "Officina del pesce"}}, {"type": "node", "id": 5235310125, "lat": 38.8274272, "lon": 16.6335088, "tags": {"amenity": "restaurant", "cuisine": "fish", "name": "Trattoria del pesce"}}, {"type": "node", "id": 5418456662, "lat": 38.8991235, "lon": 16.7787683}, {"type": "node", "id": 5418456663, "lat": 38.8991539, "lon": 16.7783312}, {"type": "node", "id": 5418456666, "lat": 38.8991478, "lon": 16.7783186}, {"type": "node", "id": 5418456667, "lat": 38.899139, "lon": 16.7788005}, {"type": "node", "id": 5418456668, "lat": 38.8993134, "lon": 16.7786613}, {"type": "node", "id": 5418456673, "lat": 38.8990706, "lon": 16.7786589}, {"type": "node", "id": 5418456676, "lat": 38.8989734, "lon": 16.7784577}, {"type": "node", "id": 5418456680, "lat": 38.8990931, "lon": 16.7783623}, {"type": "node", "id": 5589899901, "lat": 38.9066487, "lon": 16.5918546, "tags": {"amenity": "cafe"}}, {"type": "node", "id": 5732677438, "lat": 38.89907, "lon": 16.7788749, "tags": {"amenity": "cafe", "smoking": "outside", "takeaway": "no", "toilets": "yes", "toilets:access": "customers", "wheelchair": "designated"}}, {"type": "node", "id": 5849855185, "lat": 38.8893734, "lon": 16.760787, "tags": {"amenity": "restaurant", "cuisine": "italian_pizza", "name": "Lido Faro Blu"}}, {"type": "node", "id": 5877967590, "lat": 38.8202786, "lon": 16.6150941, "tags": {"amenity": "restaurant", "name": "L'angolo di Vino"}}, {"type": "node", "id": 5958449485, "lat": 38.9113361, "lon": 16.585879, "tags": {"amenity": "cafe", "cuisine": "italian", "name": "L'angolo d'Arianna"}}, {"type": "node", "id": 6077510750, "lat": 38.6850631, "lon": 16.5480678}, {"type": "node", "id": 6077510751, "lat": 38.6851349, "lon": 16.5481103}, {"type": "node", "id": 6077510752, "lat": 38.6851335, "lon": 16.5481439}, {"type": "node", "id": 6077510753, "lat": 38.6851764, "lon": 16.5481598}, {"type": "node", "id": 6077510754, "lat": 38.6851874, "lon": 16.5482058}, {"type": "node", "id": 6077510755, "lat": 38.6851639, "lon": 16.5482855}, {"type": "node", "id": 6077510756, "lat": 38.6851294, "lon": 16.5482837}, {"type": "node", "id": 6077510757, "lat": 38.6850893, "lon": 16.5482589}, {"type": "node", "id": 6077510758, "lat": 38.6850493, "lon": 16.5483297}, {"type": "node", "id": 6077510759, "lat": 38.684994, "lon": 16.5482766}, {"type": "node", "id": 6086460901, "lat": 38.9543093, "lon": 16.6449851}, {"type": "node", "id": 6086460902, "lat": 38.9541704, "lon": 16.6449727}, {"type": "node", "id": 6086460903, "lat": 38.954156, "lon": 16.6451576}, {"type": "node", "id": 6086460904, "lat": 38.9542758, "lon": 16.6451761, "tags": {"name": "Bar Pizzeria \"Rosa dei Venti\""}}, {"type": "node", "id": 6089770089, "lat": 38.691198, "lon": 16.5471137}, {"type": "node", "id": 6089770090, "lat": 38.6912262, "lon": 16.547157}, {"type": "node", "id": 6089770091, "lat": 38.6912514, "lon": 16.5472193}, {"type": "node", "id": 6089770092, "lat": 38.6912323, "lon": 16.5472646}, {"type": "node", "id": 6089770093, "lat": 38.6913021, "lon": 16.5473432}, {"type": "node", "id": 6089770094, "lat": 38.6908894, "lon": 16.5474288}, {"type": "node", "id": 6089770095, "lat": 38.6908826, "lon": 16.5474541}, {"type": "node", "id": 6089770096, "lat": 38.6910496, "lon": 16.5476301}, {"type": "node", "id": 6089770097, "lat": 38.6912572, "lon": 16.5474666}, {"type": "node", "id": 6089770098, "lat": 38.6913022, "lon": 16.547398}, {"type": "node", "id": 6089770099, "lat": 38.6919462, "lon": 16.5464329}, {"type": "node", "id": 6089770100, "lat": 38.6920033, "lon": 16.5464978}, {"type": "node", "id": 6089770101, "lat": 38.6920496, "lon": 16.5464313}, {"type": "node", "id": 6089770102, "lat": 38.6920682, "lon": 16.5464583}, {"type": "node", "id": 6089770103, "lat": 38.6921897, "lon": 16.5462935}, {"type": "node", "id": 6089770104, "lat": 38.692159, "lon": 16.5462573}, {"type": "node", "id": 6089770105, "lat": 38.6921813, "lon": 16.5462195}, {"type": "node", "id": 6089770106, "lat": 38.6921001, "lon": 16.546124}, {"type": "node", "id": 6089770107, "lat": 38.692073, "lon": 16.5461702}, {"type": "node", "id": 6089770108, "lat": 38.692052, "lon": 16.5461448}, {"type": "node", "id": 6089770109, "lat": 38.6919402, "lon": 16.5462958}, {"type": "node", "id": 6089770110, "lat": 38.6919925, "lon": 16.5463643}, {"type": "node", "id": 6090159731, "lat": 38.6845044, "lon": 16.5563041}, {"type": "node", "id": 6090159736, "lat": 38.684507, "lon": 16.5563749}, {"type": "node", "id": 6090159737, "lat": 38.6846703, "lon": 16.5563586}, {"type": "node", "id": 6093247486, "lat": 38.6881623, "lon": 16.5534674}, {"type": "node", "id": 6528531786, "lat": 38.8759884, "lon": 16.4784741, "tags": {"amenity": "restaurant", "name": "Pizzeria Bar Restaurant La Palma"}}, {"type": "node", "id": 6528531789, "lat": 38.9223396, "lon": 16.4803513, "tags": {"amenity": "cafe", "name": "Oro Rosso"}}, {"type": "node", "id": 6530495385, "lat": 38.923001, "lon": 16.4815425, "tags": {"amenity": "cafe"}}, {"type": "node", "id": 6532156185, "lat": 39.0269242, "lon": 16.5103473, "tags": {"amenity": "restaurant"}}, {"type": "node", "id": 6779003208, "lat": 38.6816832, "lon": 16.5202166}, {"type": "node", "id": 6779003209, "lat": 38.6815233, "lon": 16.5203304}, {"type": "node", "id": 6779003210, "lat": 38.6819793, "lon": 16.5211497}, {"type": "node", "id": 6779003211, "lat": 38.6821569, "lon": 16.5210132}, {"type": "node", "id": 6800343663, "lat": 38.7843, "lon": 16.5564065, "tags": {"amenity": "restaurant", "name": "Le Zagare"}}, {"type": "node", "id": 7570390160, "lat": 38.6866424, "lon": 16.5530302, "tags": {"amenity": "restaurant", "cuisine": "pizza", "name": "L'angolo della pizza"}}, {"type": "node", "id": 7750180159, "lat": 38.7349338, "lon": 16.5498994, "tags": {"amenity": "restaurant"}}, {"type": "node", "id": 7750194257, "lat": 38.7386733, "lon": 16.5546493, "tags": {"amenity": "cafe", "name": "Blue Rose"}}, {"type": "node", "id": 7750204136, "lat": 38.7325464, "lon": 16.5482998, "tags": {"amenity": "restaurant", "name": "On the Beach"}}, {"type": "node", "id": 7750224795, "lat": 38.7657114, "lon": 16.5409162, "tags": {"amenity": "cafe", "name": "Bar Jolli"}}, {"type": "node", "id": 7750228615, "lat": 38.7341183, "lon": 16.550402, "tags": {"amenity": "restaurant"}}, {"type": "node", "id": 7761139856, "lat": 38.6906398, "lon": 16.546835, "tags": {"addr:city": "Soverato", "addr:housenumber": "40", "addr:postcode": "88068", "addr:street": "Via Marina", "amenity": "restaurant", "name": "Roots"}}, {"type": "node", "id": 7761145018, "lat": 38.7514994, "lon": 16.5621872, "tags": {"amenity": "restaurant", "name": "Blanca Cruz"}}, {"type": "node", "id": 7761161263, "lat": 38.6906857, "lon": 16.5467672, "tags": {"addr:city": "Soverato", "addr:housenumber": "38", "addr:postcode": "88068", "addr:street": "Via Marina", "amenity": "restaurant", "name": "Rubes"}}, {"type": "node", "id": 7761189177, "lat": 38.7146722, "lon": 16.5347054}, {"type": "node", "id": 7761189178, "lat": 38.7144964, "lon": 16.534633}, {"type": "node", "id": 7761189179, "lat": 38.7144629, "lon": 16.5347832}, {"type": "node", "id": 7761189180, "lat": 38.7146492, "lon": 16.5348395}, {"type": "node", "id": 7761189181, "lat": 38.7154465, "lon": 16.5349307}, {"type": "node", "id": 7761189182, "lat": 38.7151598, "lon": 16.5348341}, {"type": "node", "id": 7761189183, "lat": 38.715141, "lon": 16.5350299}, {"type": "node", "id": 7761189184, "lat": 38.7154026, "lon": 16.5351077}, {"type": "node", "id": 7761212485, "lat": 38.7160639, "lon": 16.5351184}, {"type": "node", "id": 7761212486, "lat": 38.7159237, "lon": 16.5350755}, {"type": "node", "id": 7761212487, "lat": 38.7158797, "lon": 16.5352982}, {"type": "node", "id": 7761212488, "lat": 38.7160221, "lon": 16.5353491}, {"type": "node", "id": 7761212489, "lat": 38.7183199, "lon": 16.5360733}, {"type": "node", "id": 7761212490, "lat": 38.7183702, "lon": 16.5358856}, {"type": "node", "id": 7761212491, "lat": 38.718525, "lon": 16.535966}, {"type": "node", "id": 7761212492, "lat": 38.718479, "lon": 16.5361323}, {"type": "node", "id": 7761212509, "lat": 38.7192899, "lon": 16.5364622}, {"type": "node", "id": 7761212510, "lat": 38.7190053, "lon": 16.5363228}, {"type": "node", "id": 7761212511, "lat": 38.7189237, "lon": 16.5365856}, {"type": "node", "id": 7761212512, "lat": 38.7192418, "lon": 16.5367063}, {"type": "node", "id": 7761212513, "lat": 38.7258387, "lon": 16.5411427}, {"type": "node", "id": 7761212514, "lat": 38.7257006, "lon": 16.5410139}, {"type": "node", "id": 7761212515, "lat": 38.7257969, "lon": 16.5408584}, {"type": "node", "id": 7761212516, "lat": 38.7259224, "lon": 16.5409871}, {"type": "node", "id": 7761212517, "lat": 38.7272533, "lon": 16.5420493}, {"type": "node", "id": 7761212518, "lat": 38.727157, "lon": 16.5419688}, {"type": "node", "id": 7761212519, "lat": 38.727065, "lon": 16.5421941}, {"type": "node", "id": 7761212520, "lat": 38.7271738, "lon": 16.5422692}, {"type": "node", "id": 7770400929, "lat": 38.7389524, "lon": 16.5557245, "tags": {"amenity": "restaurant", "name": "Lido Tropical"}}, {"type": "node", "id": 7776281883, "lat": 38.7649923, "lon": 16.5403503, "tags": {"amenity": "cafe", "name": "Bar Aversa"}}, {"type": "node", "id": 8048839571, "lat": 38.7397161, "lon": 16.5078636, "tags": {"amenity": "cafe", "name": "Bar Centrale"}}, {"type": "node", "id": 8049945487, "lat": 38.7507501, "lon": 16.4530195, "tags": {"amenity": "cafe"}}, {"type": "node", "id": 8132569152, "lat": 39.0847335, "lon": 16.3701239, "tags": {"amenity": "cafe", "name": "Pascuzzi"}}, {"type": "node", "id": 8818487144, "lat": 38.9216243, "lon": 16.5610746, "tags": {"addr:city": "Catanzaro", "addr:housenumber": "18", "addr:postcode": "88100", "addr:street": "via de Seta", "amenity": "restaurant", "cuisine": "pizza", "name": "da Barnaba", "opening_hours": "Tu-Sa 18:00-22:00", "phone": "+39 334 744 706", "takeaway": "yes"}}, {"type": "node", "id": 8818487160, "lat": 38.9223621, "lon": 16.5578229, "tags": {"amenity": "restaurant", "cuisine": "pizza", "name": "Centrale"}}, {"type": "node", "id": 9016211934, "lat": 38.8377754, "lon": 16.5205686, "tags": {"amenity": "cafe"}}, {"type": "node", "id": 9030053572, "lat": 38.8916713, "lon": 16.6018654, "tags": {"amenity": "restaurant", "name": "La vecchia posta"}}, {"type": "node", "id": 9030054347, "lat": 38.8816479, "lon": 16.4869552, "tags": {"amenity": "cafe", "cuisine": "coffee_shop", "name": "Bar Centrale"}}, {"type": "node", "id": 9030054353, "lat": 38.8812726, "lon": 16.4867311, "tags": {"amenity": "restaurant", "name": "La focacceria"}}, {"type": "node", "id": 9498176212, "lat": 38.8687719, "lon": 16.6106109}, {"type": "node", "id": 9498176213, "lat": 38.8686108, "lon": 16.6105891}, {"type": "node", "id": 9498176214, "lat": 38.8685739, "lon": 16.6109997}, {"type": "node", "id": 9498176215, "lat": 38.8687271, "lon": 16.6110327}, {"type": "node", "id": 9498176216, "lat": 38.8687403, "lon": 16.6109132}, {"type": "node", "id": 9608357858, "lat": 38.8435372, "lon": 16.6139599}, {"type": "node", "id": 9608357859, "lat": 38.8435944, "lon": 16.6139109}, {"type": "node", "id": 9608357860, "lat": 38.8435528, "lon": 16.6138307}, {"type": "node", "id": 9608357861, "lat": 38.8434955, "lon": 16.6138798}, {"type": "node", "id": 9608374602, "lat": 38.8428842, "lon": 16.6158842}, {"type": "node", "id": 9608374603, "lat": 38.8428182, "lon": 16.6159725}, {"type": "node", "id": 9608374604, "lat": 38.8430107, "lon": 16.6162096}, {"type": "node", "id": 9608374605, "lat": 38.8430767, "lon": 16.6161213}, {"type": "node", "id": 9705386540, "lat": 38.9632507, "lon": 16.5084226, "tags": {"amenity": "restaurant", "name": "Il casale di Davalos"}}, {"type": "node", "id": 9705391297, "lat": 38.9476339, "lon": 16.5094165, "tags": {"amenity": "cafe", "name": "La plazA"}}, {"type": "node", "id": 9719956923, "lat": 39.0482031, "lon": 16.7101103, "tags": {"addr:street": "Via Sila", "amenity": "restaurant", "name": "La Locanda - Donaglie", "opening_hours": "Mo-Su 08:00-24:00", "phone": "+39 349 468 1694", "takeaway": "yes", "website": "https://instagram.com/_donaglie"}}, {"type": "node", "id": 9772404493, "lat": 38.8685535, "lon": 16.607875, "tags": {"amenity": "restaurant", "cuisine": "pizza", "name": "La Speranza"}}, {"type": "node", "id": 9788203517, "lat": 38.908674, "lon": 16.5889476, "tags": {"amenity": "cafe", "indoor_seating": "yes", "name": "Pasticceria Colazione da Tiffany", "outdoor_seating": "yes"}}, {"type": "node", "id": 9788207617, "lat": 38.9019956, "lon": 16.5952723, "tags": {"amenity": "restaurant", "name": "Porta Marina"}}, {"type": "node", "id": 9789673518, "lat": 38.9189207, "lon": 16.5848051, "tags": {"amenity": "restaurant", "name": "Manfredi"}}, {"type": "node", "id": 9790780017, "lat": 38.9189245, "lon": 16.580043, "tags": {"amenity": "restaurant", "name": "Inprimis"}}, {"type": "node", "id": 9837726373, "lat": 38.6892242, "lon": 16.5483915, "tags": {"amenity": "restaurant", "check_date": "2025-06-07", "name": "La Tavola di Melusinda"}}, {"type": "node", "id": 9969904110, "lat": 38.963853, "lon": 16.7786964}, {"type": "node", "id": 9969904111, "lat": 38.963921, "lon": 16.7788877}, {"type": "node", "id": 9969904112, "lat": 38.963802, "lon": 16.7789576}, {"type": "node", "id": 9969904113, "lat": 38.963734, "lon": 16.7787664}, {"type": "node", "id": 10702121865, "lat": 38.9397268, "lon": 16.5842536, "tags": {"amenity": "cafe"}}, {"type": "node", "id": 10702129407, "lat": 38.9308567, "lon": 16.5805353, "tags": {"addr:city": "catanzaro", "addr:housenumber": "46", "addr:postcode": "88100", "addr:street": "Via Ettore Vitale", "amenity": "cafe", "internet_access": "no", "name": "De Sessa Attilio Gianni", "outdoor_seating": "yes", "phone": "0961744993"}}, {"type": "node", "id": 10702298673, "lat": 38.9397643, "lon": 16.5844859}, {"type": "node", "id": 10702298674, "lat": 38.9397159, "lon": 16.5845469}, {"type": "node", "id": 10702298675, "lat": 38.9396556, "lon": 16.584615}, {"type": "node", "id": 10702298676, "lat": 38.9395634, "lon": 16.5846232}, {"type": "node", "id": 10702298677, "lat": 38.9395324, "lon": 16.5846291}, {"type": "node", "id": 10702298678, "lat": 38.9394703, "lon": 16.5845833}, {"type": "node", "id": 10702298679, "lat": 38.9395324, "lon": 16.5845505}, {"type": "node", "id": 10702298680, "lat": 38.9394968, "lon": 16.5844154}, {"type": "node", "id": 10702298681, "lat": 38.9395771, "lon": 16.5843603}, {"type": "node", "id": 10702298682, "lat": 38.939631, "lon": 16.5843074}, {"type": "node", "id": 10707050194, "lat": 38.9193391, "lon": 16.5863508, "tags": {"amenity": "cafe"}}, {"type": "node", "id": 10711766685, "lat": 38.93205, "lon": 16.5807397, "tags": {"addr:city": "catanzaro", "addr:housenumber": "86", "addr:postcode": "88100", "addr:street": "Via Ettore Vitale", "amenity": "restaurant", "cuisine": "pizza;coffee_shop", "name": "Pizzeria L'Incontro", "phone": "0961741875"}}, {"type": "node", "id": 10721596112, "lat": 38.9148081, "lon": 16.5846968, "tags": {"amenity": "restaurant", "cuisine": "pizza"}}, {"type": "node", "id": 10721596135, "lat": 38.9156135, "lon": 16.5859783, "tags": {"amenity": "restaurant", "cuisine": "pizza", "name": "Pizzi Cotto"}}, {"type": "node", "id": 10878198924, "lat": 38.7469745, "lon": 16.558374}, {"type": "node", "id": 10878198939, "lat": 38.7483681, "lon": 16.5595425}, {"type": "node", "id": 11119064993, "lat": 38.9137767, "lon": 16.5138489, "tags": {"amenity": "cafe"}}, {"type": "node", "id": 11169836906, "lat": 38.6883132, "lon": 16.5533264}, {"type": "node", "id": 11169836907, "lat": 38.6882794, "lon": 16.5532661}, {"type": "node", "id": 11169836908, "lat": 38.688134, "lon": 16.5534204}, {"type": "node", "id": 11169925747, "lat": 38.7199116, "lon": 16.5302206, "tags": {"amenity": "restaurant"}}, {"type": "node", "id": 11208060414, "lat": 38.7232584, "lon": 16.4949905, "tags": {"addr:city": "Montepaone", "addr:postcode": "88060", "addr:street": "Via Roma", "amenity": "restaurant", "cuisine": "pizza;italian", "diet:gourmet": "yes", "name": "Pizzeria e birreria", "opening_hours": "19:30-24:30"}}, {"type": "node", "id": 11419837163, "lat": 38.9344889, "lon": 16.8529463, "tags": {"amenity": "cafe"}}, {"type": "node", "id": 11419841490, "lat": 38.931581, "lon": 16.8403404, "tags": {"amenity": "restaurant", "name": "La Rotonda"}}, {"type": "node", "id": 11419848330, "lat": 38.9177487, "lon": 16.7910671, "tags": {"amenity": "cafe"}}, {"type": "node", "id": 11419903432, "lat": 38.9115277, "lon": 16.7748368, "tags": {"amenity": "cafe"}}, {"type": "node", "id": 11419914840, "lat": 38.8985119, "lon": 16.7398558, "tags": {"amenity": "restaurant"}}, {"type": "node", "id": 11420121009, "lat": 38.8103041, "lon": 16.6000665, "tags": {"amenity": "restaurant"}}, {"type": "node", "id": 11420173331, "lat": 38.7995879, "lon": 16.5885402, "tags": {"amenity": "restaurant", "cuisine": "japanese", "indoor_seating": "yes", "name": "Oriental Wok", "outdoor_seating": "yes"}}, {"type": "node", "id": 11420185854, "lat": 38.7964203, "lon": 16.5857315, "tags": {"amenity": "restaurant"}}, {"type": "node", "id": 11420231109, "lat": 38.7825469, "lon": 16.5712135, "tags": {"amenity": "restaurant", "cuisine": "sushi"}}, {"type": "node", "id": 11420402311, "lat": 38.7297609, "lon": 16.5424858, "tags": {"amenity": "restaurant"}}, {"type": "node", "id": 11420408031, "lat": 38.7274513, "lon": 16.5404333, "tags": {"amenity": "cafe", "indoor_seating": "yes", "outdoor_seating": "yes"}}, {"type": "node", "id": 11443262175, "lat": 38.7813181, "lon": 16.5188109, "tags": {"amenity": "restaurant", "name": "Convivium"}}, {"type": "node", "id": 11443262179, "lat": 38.7805849, "lon": 16.5183951, "tags": {"amenity": "restaurant", "name": "La Taverna di Pepe"}}, {"type": "node", "id": 11443262187, "lat": 38.7808174, "lon": 16.5148307, "tags": {"amenity": "cafe", "name": "Chiosco Bar Il Buon Caff\u00e8"}}, {"type": "node", "id": 11443262194, "lat": 38.7812963, "lon": 16.5212758, "tags": {"amenity": "restaurant", "name": "Wanderlust Caf\u00e8"}}, {"type": "node", "id": 11479231566, "lat": 38.7015638, "lon": 16.473669, "tags": {"amenity": "cafe", "name": "Matis bar"}}, {"type": "node", "id": 11479265074, "lat": 38.7013667, "lon": 16.4733873, "tags": {"amenity": "cafe", "name": "Caff\u00e8 del Corso"}}, {"type": "node", "id": 11718103950, "lat": 39.1038053, "lon": 16.7683213, "tags": {"amenity": "cafe"}}, {"type": "node", "id": 11737271992, "lat": 38.9078374, "lon": 16.5909339}, {"type": "node", "id": 11737271993, "lat": 38.9079573, "lon": 16.5906608}, {"type": "node", "id": 11737271994, "lat": 38.9079917, "lon": 16.5906838}, {"type": "node", "id": 11746009993, "lat": 38.9019856, "lon": 16.5964905, "tags": {"amenity": "cafe"}}, {"type": "node", "id": 11755905527, "lat": 38.9041244, "lon": 16.5799489, "tags": {"amenity": "restaurant", "cuisine": "pizza", "name": "Alice Pizzeria Tavola Calda", "not:brand:wikidata": "Q113973272"}}, {"type": "node", "id": 11809083295, "lat": 39.0746436, "lon": 16.5137017}, {"type": "node", "id": 11809083296, "lat": 39.0748294, "lon": 16.513662}, {"type": "node", "id": 11809083297, "lat": 39.0748675, "lon": 16.5140578}, {"type": "node", "id": 11809083298, "lat": 39.0747651, "lon": 16.5140835}, {"type": "node", "id": 11809083299, "lat": 39.0747605, "lon": 16.5140122}, {"type": "node", "id": 11809083300, "lat": 39.0746699, "lon": 16.5140321}, {"type": "node", "id": 11809083303, "lat": 39.0747225, "lon": 16.5136848}, {"type": "node", "id": 11849739063, "lat": 39.0735607, "lon": 16.6367426}, {"type": "node", "id": 11849739064, "lat": 39.0735996, "lon": 16.6369346}, {"type": "node", "id": 11849739065, "lat": 39.0734839, "lon": 16.6369735}, {"type": "node", "id": 11849739066, "lat": 39.073445, "lon": 16.6367816}, {"type": "node", "id": 11987440069, "lat": 38.8276347, "lon": 16.4277303, "tags": {"amenity": "restaurant", "name:en": "Cuore & Sapore", "name:nl": "Cuore & Sapore"}}, {"type": "node", "id": 12155629562, "lat": 38.8995705, "lon": 16.7850997}, {"type": "node", "id": 12155629563, "lat": 38.8995088, "lon": 16.7851404}, {"type": "node", "id": 12155629564, "lat": 38.899585, "lon": 16.7853465}, {"type": "node", "id": 12155629565, "lat": 38.8996375, "lon": 16.7853242}, {"type": "node", "id": 12207135301, "lat": 38.9085849, "lon": 16.5901658, "tags": {"amenity": "cafe"}}, {"type": "node", "id": 12207152159, "lat": 38.9040584, "lon": 16.5944383, "tags": {"amenity": "cafe"}}, {"type": "node", "id": 12218439375, "lat": 38.9118605, "lon": 16.5869279, "tags": {"addr:city": "Catanzaro", "addr:housenumber": "47", "addr:postcode": "88100", "addr:street": "Via Indipendenza", "amenity": "cafe", "name": "Casa mastroianni", "phone": "+39 0961 177 0008", "shop": "pastry", "website": "https://www.casamastroianni.com/"}}, {"type": "node", "id": 12218439378, "lat": 38.9119911, "lon": 16.5868752, "tags": {"amenity": "restaurant", "cuisine": "pizza", "level": "1", "name": "Ra\u00fa"}}, {"type": "node", "id": 12221830088, "lat": 38.9171459, "lon": 16.569291, "tags": {"amenity": "cafe", "name": "Bar Relax"}}, {"type": "node", "id": 12334264850, "lat": 38.7812968, "lon": 16.5230572, "tags": {"amenity": "restaurant", "name": "Le ricchezze del mare"}}, {"type": "node", "id": 12334275038, "lat": 38.9176304, "lon": 16.655459, "tags": {"amenity": "restaurant", "name": "Agriturismo Petrara"}}, {"type": "node", "id": 12455723720, "lat": 39.021017, "lon": 16.581229, "tags": {"addr:city": "Taverna", "addr:housenumber": "43", "addr:postcode": "88055", "addr:street": "Corso Mattia Preti", "amenity": "restaurant", "contact:whatsapp": "+39 338 898 12 99", "cuisine": "pizza", "description": "Pizzeria, bar, pasticceria, gelateria", "email": "gajaspizzeria@gmail.com", "name": "GaJa's", "phone": "+39 336 185 04 75", "website": "https://gratis-4585502.webadorsite.com/", "website:menu": "https://gratis-4585502.webadorsite.com/menu"}}, {"type": "node", "id": 12480486653, "lat": 39.1106917, "lon": 16.4226496}, {"type": "node", "id": 12480486654, "lat": 39.1107655, "lon": 16.4224991}, {"type": "node", "id": 12480486655, "lat": 39.1108676, "lon": 16.4225956}, {"type": "node", "id": 12480486656, "lat": 39.110878, "lon": 16.422589}, {"type": "node", "id": 12480486657, "lat": 39.1108909, "lon": 16.4225884}, {"type": "node", "id": 12480486658, "lat": 39.1109026, "lon": 16.4225929}, {"type": "node", "id": 12480486659, "lat": 39.1109068, "lon": 16.4226078}, {"type": "node", "id": 12480486660, "lat": 39.1109045, "lon": 16.4226232}, {"type": "node", "id": 12480486661, "lat": 39.1108963, "lon": 16.4226302}, {"type": "node", "id": 12480486662, "lat": 39.1109067, "lon": 16.4226423}, {"type": "node", "id": 12480486663, "lat": 39.1109167, "lon": 16.4226356}, {"type": "node", "id": 12480486664, "lat": 39.1110362, "lon": 16.4228313}, {"type": "node", "id": 12480486665, "lat": 39.1110474, "lon": 16.4228286}, {"type": "node", "id": 12480486666, "lat": 39.1110585, "lon": 16.4228351}, {"type": "node", "id": 12480486667, "lat": 39.1110613, "lon": 16.4228485}, {"type": "node", "id": 12480486668, "lat": 39.1110596, "lon": 16.4228628}, {"type": "node", "id": 12480486669, "lat": 39.1110282, "lon": 16.4228959}, {"type": "node", "id": 12480486670, "lat": 39.1110975, "lon": 16.4230081}, {"type": "node", "id": 12480486671, "lat": 39.1110263, "lon": 16.4230934}, {"type": "node", "id": 12480486672, "lat": 39.1107946, "lon": 16.4227749}, {"type": "node", "id": 12480486673, "lat": 39.1109204, "lon": 16.422957}, {"type": "node", "id": 12483504412, "lat": 39.1108483, "lon": 16.4225774}, {"type": "node", "id": 12782509971, "lat": 38.6891845, "lon": 16.5476931, "tags": {"addr:housenumber": "91", "addr:street": "Corso Umberto I", "amenity": "restaurant", "cuisine": "mediterranean;fish", "level": "0", "name": "da Paolino", "outdoor_seating": "yes", "toilets": "yes", "toilets:access": "customers", "toilets:wheelchair": "designated", "wheelchair": "yes"}}, {"type": "way", "id": 166656297, "nodes": [1781024728, 1781024809, 2276142028, 1781024752, 1781024677, 2898361767, 1781024728], "tags": {"amenity": "restaurant", "building": "amenity", "building:levels": "2", "cuisine": "pizza", "name": "Arcipelago del gusto"}}, {"type": "way", "id": 170262663, "nodes": [1814126227, 1814126075, 1814126141, 1814126039, 1814126081, 1814126077, 1814126169, 1814126227], "tags": {"amenity": "restaurant", "building": "yes", "name": "Costa degli Aranci"}}, {"type": "way", "id": 170265231, "nodes": [1814162135, 1814162017, 1814161865, 1814161912, 1814162135], "tags": {"amenity": "restaurant", "building": "yes", "cuisine": "sushi", "name": "Wasabi"}}, {"type": "way", "id": 170265235, "nodes": [1814162051, 1814162143, 1814161860, 1814162072, 1814162051], "tags": {"amenity": "restaurant", "building": "yes", "check_date": "2025-06-08", "name": "Marechiaro"}}, {"type": "way", "id": 170265245, "nodes": [1814161956, 1814162166, 1814162013, 1814162062, 1814161990, 1814161874, 1814162102, 1814161898, 1814162045, 1814162059, 1814161956], "tags": {"amenity": "restaurant", "building": "yes", "name": "Il Pirata"}}, {"type": "way", "id": 170265247, "nodes": [1814161944, 1814162155, 1814161914, 1814162104, 1814161880, 1814161858, 1814161894, 1814161944], "tags": {"amenity": "restaurant", "building": "yes", "check_date": "2025-06-08", "name": "Salapad\u00f9"}}, {"type": "way", "id": 170265252, "nodes": [1814162023, 1814161852, 1814161910, 1814161897, 1814162023], "tags": {"amenity": "restaurant", "building": "yes", "check_date": "2025-06-08", "name": "Ottagono"}}, {"type": "way", "id": 170265253, "nodes": [1814162250, 1814162070, 1814162252, 1814161971, 1814162148, 1814162246, 1814162154, 6089770094, 6089770095, 1814162243, 1814162150, 1814161936, 1814162231, 6089770096, 1672691235, 1814161877, 6089770097, 6089770098, 1814162141, 6089770093, 6089770092, 6089770091, 6089770090, 6089770089, 1814162167, 1814162025, 1814161861, 1814162250], "tags": {"amenity": "restaurant", "building": "yes", "name": "Miramare"}}, {"type": "way", "id": 170265256, "nodes": [1814162160, 1814162188, 1814162107, 1814161889, 1814162063, 1814162043, 1814162239, 1814162030, 1814162182, 1814161952, 1814161869, 1814162203, 1814162160], "tags": {"amenity": "restaurant", "building": "yes"}}, {"type": "way", "id": 170265257, "nodes": [1814162026, 1814162173, 1814161976, 1814162019, 1814162060, 1814162172, 1814162026], "tags": {"amenity": "restaurant", "building": "yes", "name": "Lo Squalo"}}, {"type": "way", "id": 218389276, "nodes": [2276229023, 2276229014, 2276229021, 2276229022, 2276229017, 2276229012, 2276229019, 2276229023], "tags": {"amenity": "restaurant", "brand": "Autogrill", "brand:wikidata": "Q786790", "building": "yes", "cuisine": "italian;regional", "name": "Autogrill"}}, {"type": "way", "id": 218397032, "nodes": [2276342324, 2276342323, 2276342322, 2276342326, 2276342335, 2276342321, 2276342324], "tags": {"amenity": "restaurant", "brand": "Autogrill", "brand:wikidata": "Q786790", "building": "amenity", "cuisine": "italian;regional", "name": "Autogrill"}}, {"type": "way", "id": 275866746, "nodes": [2805301714, 2805301712, 2805301713, 2805301716, 2805301714], "tags": {"amenity": "cafe", "building": "retail", "indoor_seating": "yes", "name": "Festival", "outdoor_seating": "yes"}}, {"type": "way", "id": 277935987, "nodes": [2823725002, 2823725003, 2823725005, 2823725009, 2823705473, 2823725007, 2823725011, 2823725012, 2823725006, 2823725013, 2823725002], "tags": {"addr:housename": "Ristorante-pizzeria", "addr:housenumber": "102", "addr:postcode": "88100", "addr:street": "Viale Lucrezia della Valle", "amenity": "restaurant", "building": "retail", "contact:phone": "+39 0961 753953", "cuisine": "italian", "name": "Ristorante-pizzeria \"Girasole\"", "phone": "+39 0961 753 953", "website": "http://www.girasolebed.it/home/ristorante/"}}, {"type": "way", "id": 319254366, "nodes": [3256661792, 3256661767, 3256661773, 3256661766, 3256661777, 3256661780, 3256661807, 3256661812, 3256661816, 3256661820, 3256661825, 3256661833, 3256661828, 3256661834, 3256661823, 3256661836, 3256661792], "tags": {"amenity": "restaurant", "cuisine": "italian"}}, {"type": "way", "id": 396279898, "nodes": [3990909690, 3990909694, 3990909691, 3990909688, 3990909690], "tags": {"addr:city": "Maida", "addr:housenumber": "SS280 Km14e237", "addr:postcode": "88025", "addr:street": "Contrada Quote Barile", "amenity": "cafe", "contact:phone": "+39 0968 727826", "name": "BarBerio caf\u00e8", "operator": "EMMEBI SRL", "phone": "+39 0968 727826"}}, {"type": "way", "id": 457048928, "nodes": [4532569690, 1672691173, 1672691261, 6090159737, 6090159736, 6090159731, 4532569690], "tags": {"amenity": "restaurant", "building": "yes", "name": "Don Pedro"}}, {"type": "way", "id": 474345817, "nodes": [4683237466, 4683237425, 4683237456, 4683237919, 4683237487, 4683237896, 4683237960, 4683237466], "tags": {"addr:city": "Catanzaro", "addr:housenumber": "141", "addr:postcode": "88100", "addr:street": "Via dei Tulipani", "amenity": "cafe", "contact:phone": "+39 0961 799974", "name": "BAR SP17", "operator": "Sinopoli Food srl"}}, {"type": "way", "id": 488331043, "nodes": [4806437288, 4806437289, 4806437290, 4806437291, 4806437288], "tags": {"amenity": "cafe", "building": "yes", "cuisine": "ice_cream", "name": "bar Bioittica della Sorgente", "outdoor_seating": "yes"}}, {"type": "way", "id": 510265616, "nodes": [4993034572, 4993034597, 4993034592, 10878198924, 4993034602, 4993034572], "tags": {"amenity": "restaurant", "building": "yes", "name": "La Cabana"}}, {"type": "way", "id": 510265625, "nodes": [4993034555, 4993034563, 4993034579, 4993034606, 4993034555], "tags": {"amenity": "cafe", "building": "yes"}}, {"type": "way", "id": 510265883, "nodes": [4993036590, 4993036589, 4993036591, 4993036592, 4993036593, 4993036588, 10878198939, 4993036590], "tags": {"amenity": "restaurant", "building": "yes"}}, {"type": "way", "id": 520550085, "nodes": [5073437022, 5073437023, 5073437024, 5073437025, 5073437022], "tags": {"amenity": "restaurant", "building": "yes", "name": "Lido Mediterraneo"}}, {"type": "way", "id": 562015519, "nodes": [5418456668, 5418456667, 5418456662, 5418456673, 5418456676, 5418456680, 5418456666, 5418456663, 5418456668], "tags": {"amenity": "restaurant", "building": "yes", "cuisine": "italian;regional", "delivery": "no", "internet_access": "no", "internet_access:fee": "no", "level": "0", "microbrewery": "no", "outdoor_seating": "yes", "self_service": "yes", "smoking": "no", "takeaway": "no", "toilets": "yes", "toilets:access": "customers", "wheelchair": "yes"}}, {"type": "way", "id": 647032618, "nodes": [6077510750, 6077510751, 6077510752, 6077510753, 6077510754, 6077510755, 6077510756, 6077510757, 6077510758, 6077510759, 6077510750], "tags": {"amenity": "restaurant", "building": "yes", "delivery": "no", "outdoor_seating": "yes", "smoking": "outside", "takeaway": "yes"}}, {"type": "way", "id": 648265152, "nodes": [6086460901, 6086460902, 6086460903, 6086460904, 6086460901], "tags": {"amenity": "restaurant", "building": "yes"}}, {"type": "way", "id": 648705800, "nodes": [6089770099, 6089770100, 6089770101, 6089770102, 6089770103, 6089770104, 6089770105, 6089770106, 6089770107, 6089770108, 6089770109, 6089770110, 6089770099], "tags": {"amenity": "restaurant", "building": "yes", "capacity": "150", "check_date": "2025-06-07", "cuisine": "seafood;italian;italian_pizza", "delivery": "no", "name": "Lido San Domenico dal 1882", "outdoor_seating": "yes", "smoking": "outside", "takeaway": "yes"}}, {"type": "way", "id": 722677366, "nodes": [6779003208, 6779003209, 6779003210, 6779003211, 6779003208], "tags": {"addr:city": "Satriano", "addr:housenumber": "25", "addr:postcode": "88060", "addr:street": "Via Torino", "air_conditioning": "yes", "amenity": "restaurant", "building": "yes", "cuisine": "italian;regional", "description": "Degustazione di ottimi vini di produzione propria e piatti tipici della cucina Calabrese.La Masseria dispone inoltre di 12 posti letto in camere singole e matrimoniali.", "internet_access": "wlan", "name": "Masseria Petrella", "phone": "+39 329 606 8774", "reservation": "yes"}}, {"type": "way", "id": 831214100, "nodes": [7761189177, 7761189178, 7761189179, 7761189180, 7761189177], "tags": {"amenity": "restaurant", "building": "yes", "name": "Baia delle Sirene"}}, {"type": "way", "id": 831214101, "nodes": [7761189181, 7761189182, 7761189183, 7761189184, 7761189181], "tags": {"amenity": "restaurant", "building": "yes", "name": "Costa Pagoda"}}, {"type": "way", "id": 831214102, "nodes": [7761212485, 7761212486, 7761212487, 7761212488, 7761212485], "tags": {"amenity": "restaurant", "building": "yes", "name": "Percival Beach"}}, {"type": "way", "id": 831214103, "nodes": [7761212489, 7761212490, 7761212491, 7761212492, 7761212489], "tags": {"amenity": "restaurant", "building": "yes", "name": "Lido San Felice"}}, {"type": "way", "id": 831214108, "nodes": [7761212509, 7761212510, 7761212511, 7761212512, 7761212509], "tags": {"amenity": "restaurant", "building": "yes"}}, {"type": "way", "id": 831214109, "nodes": [7761212513, 7761212514, 7761212515, 7761212516, 7761212513], "tags": {"amenity": "restaurant", "building": "yes"}}, {"type": "way", "id": 831214110, "nodes": [7761212517, 7761212518, 7761212519, 7761212520, 7761212517], "tags": {"amenity": "restaurant", "building": "yes"}}, {"type": "way", "id": 1030402056, "nodes": [9498176212, 9498176213, 9498176214, 9498176215, 9498176216, 9498176212], "tags": {"amenity": "restaurant", "building": "yes", "cuisine": "asian", "name": "Tensei"}}, {"type": "way", "id": 1044163994, "nodes": [9608357858, 9608357859, 9608357860, 9608357861, 9608357858], "tags": {"amenity": "cafe", "building": "yes"}}, {"type": "way", "id": 1044166086, "nodes": [9608374602, 9608374603, 9608374604, 9608374605, 9608374602], "tags": {"amenity": "cafe", "building": "yes"}}, {"type": "way", "id": 1088154814, "nodes": [9969904110, 9969904111, 9969904112, 9969904113, 9969904110], "tags": {"addr:street": "Strada Provinciale 158/1 ex SS180 di Cropani", "amenity": "cafe", "building": "commercial", "name": "Bar Ruffo"}}, {"type": "way", "id": 1150488606, "nodes": [10702298673, 10702298674, 10702298675, 10702298676, 10702298677, 10702298678, 10702298679, 10702298680, 10702298681, 10702298682, 10702298673], "tags": {"amenity": "restaurant", "building": "yes"}}, {"type": "way", "id": 1205246107, "nodes": [11169836906, 11169836907, 11169836908, 6093247486, 11169836906], "tags": {"amenity": "restaurant", "building": "yes", "name": "Dal Maestro"}}, {"type": "way", "id": 1263277615, "nodes": [2083084557, 5101079722, 11737271992, 11737271993, 11737271994, 2083084563, 2083084557], "tags": {"amenity": "restaurant", "building": "yes", "name": "Ristorantino Da Zia Antonietta"}}, {"type": "way", "id": 1271670235, "nodes": [11809083295, 11809083303, 11809083296, 11809083297, 11809083298, 11809083299, 11809083300, 11809083295], "tags": {"amenity": "restaurant", "building": "yes", "name": "Granaro"}}, {"type": "way", "id": 1276341275, "nodes": [11849739063, 11849739064, 11849739065, 11849739066, 11849739063], "tags": {"amenity": "restaurant", "building": "yes", "name": "La Pecora Nera"}}, {"type": "way", "id": 1313272133, "nodes": [12155629562, 12155629563, 12155629564, 12155629565, 12155629562], "tags": {"amenity": "cafe", "building": "yes", "name": "Chiosco"}}, {"type": "way", "id": 1349213982, "nodes": [12480486653, 12480486654, 12483504412, 12480486655, 12480486656, 12480486657, 12480486658, 12480486659, 12480486660, 12480486661, 12480486662, 12480486663, 12480486664, 12480486665, 12480486666, 12480486667, 12480486668, 12480486669, 12480486670, 12480486671, 12480486673, 12480486672, 12480486653], "tags": {"addr:city": "Bianchi", "addr:street": "Staglio", "amenity": "restaurant", "building": "yes", "name": "Agriturismo Tenuta Elia"}}]}