{"version": 0.6, "generator": "Overpass API 0.7.62.7 375dc00a", "osm3s": {"timestamp_osm_base": "2025-06-14T15:11:57Z", "copyright": "The data included in this document is from www.openstreetmap.org. The data is made available under ODbL."}, "elements": [{"type": "node", "id": 1925977201, "lat": 36.4483805, "lon": 34.1058315, "tags": {"amenity": "restaurant", "cuisine": "turkish", "name": "\u00c7ak\u0131l Restaurant"}}, {"type": "node", "id": 2000555637, "lat": 36.4440312, "lon": 34.1139227, "tags": {"amenity": "restaurant", "cuisine": "fish", "name": "narl\u0131kuyu lagos restorant y\u00f6r\u00fck aponun yeri"}}, {"type": "node", "id": 3448768191, "lat": 36.3178304, "lon": 33.8790629, "tags": {"amenity": "cafe", "cuisine": "regional", "internet_access": "yes", "name": "Eyl\u00fcl"}}, {"type": "node", "id": 3726654583, "lat": 36.4335011, "lon": 34.1109848, "tags": {"amenity": "cafe"}}, {"type": "node", "id": 4254125555, "lat": 36.4492938, "lon": 34.1035314, "tags": {"amenity": "restaurant", "name": "Astim magarasi tesisleri "}}, {"type": "node", "id": 4524938169, "lat": 36.3180551, "lon": 33.8785387, "tags": {"amenity": "cafe", "name": "Dorer"}}, {"type": "node", "id": 4524939896, "lat": 36.3179763, "lon": 33.8784823, "tags": {"amenity": "restaurant", "name": "Alo Dorum"}}, {"type": "node", "id": 4524939897, "lat": 36.3181817, "lon": 33.878693, "tags": {"amenity": "restaurant", "name": "Petek"}}, {"type": "node", "id": 4524939904, "lat": 36.3194008, "lon": 33.8801383, "tags": {"amenity": "restaurant", "name": "\u015eafak Lokantas\u0131"}}, {"type": "node", "id": 4524939921, "lat": 36.3177187, "lon": 33.8770789, "tags": {"amenity": "restaurant", "name": "\u0130skele", "phone": "+90 324 741 4444"}}, {"type": "node", "id": 4524940804, "lat": 36.3175689, "lon": 33.8765398, "tags": {"amenity": "cafe", "name": "Cafe M.Ali-bu", "sport": "billiards"}}, {"type": "node", "id": 4526787295, "lat": 36.3757503, "lon": 33.9331738, "tags": {"amenity": "restaurant", "name": "Kokore\u00e7ci Y\u00fcksel"}}, {"type": "node", "id": 4867688123, "lat": 36.3812059, "lon": 33.9392703, "tags": {"addr:street": "Mersin - Silifke Yolu", "amenity": "restaurant", "cuisine": "fish;grill;chicken;kebab;barbecue;friture", "internet_access": "wlan", "name": "Kadir A\u011fan\u0131n Sofras\u0131"}}, {"type": "node", "id": 5027390723, "lat": 36.6583384, "lon": 34.0043467, "tags": {"amenity": "restaurant", "cuisine": "fish_and_chips;fish;mediterranean", "internet_access": "wlan", "name": "Ada Restaurant", "name:en": "Ada Restaurant", "name:tr": "Ada Restaurant"}}, {"type": "node", "id": 5071537921, "lat": 36.6584368, "lon": 33.9990273, "tags": {"addr:housenumber": "0 506 941 3442", "addr:postcode": "33940", "addr:street": "K\u0131z\u0131lge\u00e7it Mahallesi", "amenity": "restaurant", "cuisine": "fish", "name": "Alaattin'in Yeri - \u0130\u00e7kisiz Alabal\u0131k Restoran\u0131", "name:en": "Alaattin'in Yeri - Non-Alcoholic Trout Restaurant", "name:tr": "Alaattin'in Yeri - \u0130\u00e7kisiz Alabal\u0131k Restoran\u0131", "phone": "+90 506 941 3442"}}, {"type": "node", "id": 5115511822, "lat": 36.4514867, "lon": 34.1067681, "tags": {"amenity": "cafe"}}, {"type": "node", "id": 5313792332, "lat": 36.3811, "lon": 33.9377412, "tags": {"addr:street": "Silifke - Mersin Yolu", "amenity": "restaurant", "cuisine": "steak_house;kebab", "internet_access": "wlan", "name": "Yaprak Lahmacun", "opening_hours": "Mo-Su 08:00-20:00"}}, {"type": "node", "id": 5313815124, "lat": 36.3340835, "lon": 33.9013519, "tags": {"addr:street": "Kum Mahallesi", "amenity": "restaurant", "cuisine": "fish_and_chips;fish;seafood", "name": "Bal\u0131k\u00e7\u0131 Kerim", "opening_hours": "Mo-Su 08:00-00:00"}}, {"type": "node", "id": 5313815428, "lat": 36.3757683, "lon": 33.9333696, "tags": {"addr:street": "\u0130n\u00f6n\u00fc Bulvar\u0131", "amenity": "cafe", "cuisine": "cake;turkish;ice_cream;local", "internet_access": "wlan", "name": "Petek Pastanesi", "opening_hours": "Mo-Su 08:00-19:00"}}, {"type": "node", "id": 5313815430, "lat": 36.358177, "lon": 34.0790317, "tags": {"addr:street": "Arkum K\u00f6y\u00fc - Alt\u0131nkum Tatil Sitesi", "amenity": "restaurant", "cuisine": "fish;regional;breakfast;grill;seafood;friture;steak_house;deli;chicken;fish_and_chips;kebab;turkish;barbecue", "internet_access": "wlan", "name": "Cengiz'in Yeri", "opening_hours": "Mo-Su 08:00-23:00", "operator": "Cengiz Sapmaz"}}, {"type": "node", "id": 5313815439, "lat": 36.3802895, "lon": 33.9273686, "tags": {"addr:street": "G\u00f6ksu Mahallesi", "amenity": "cafe", "cuisine": "bagel;cake;coffee_shop;ice_cream", "internet_access": "wlan", "name": "\u00d6zkaymak Pastanesi", "opening_hours": "Mo-Su 07:00-22:00"}}, {"type": "node", "id": 5313815451, "lat": 36.3803321, "lon": 33.932177, "tags": {"addr:street": "G\u00f6ksu Mahallesi", "amenity": "cafe", "cuisine": "bagel;cake;ice_cream", "internet_access": "wlan", "name": "De\u011firmencio\u011flu Pastanesi", "opening_hours": "Mo-Su 08:00-21:00"}}, {"type": "node", "id": 5342911322, "lat": 36.3783893, "lon": 33.9253591, "tags": {"addr:street": "Ta\u015fk\u00f6pr\u00fc", "amenity": "restaurant", "cuisine": "steak_house;kebab", "name": "Ta\u015fk\u00f6pr\u00fc Tantuni", "opening_hours": "Mo-Su 08:00-18:00"}}, {"type": "node", "id": 5378380921, "lat": 36.3782915, "lon": 33.931323, "tags": {"addr:street": "Orta k\u00f6rp\u00fc", "amenity": "cafe", "cuisine": "bagel;tea;ice_cream;coffee_shop", "internet_access": "wlan", "name": "Kafeterya", "opening_hours": "Mo-Su 08:00-18:00"}}, {"type": "node", "id": 5378380927, "lat": 36.3801071, "lon": 33.9320389, "tags": {"addr:street": "\u0130n\u00f6n\u00fc Bulvar\u0131", "amenity": "restaurant", "cuisine": "grill;fish_and_chips;chicken;kebab;barbecue", "internet_access": "wlan", "name": "G\u00f6ksu Tantuni", "opening_hours": "Mo-Su 09:00-21:00"}}, {"type": "node", "id": 5378381022, "lat": 36.3802221, "lon": 33.934022, "tags": {"addr:street": "G\u00f6ksu Mahallesi", "amenity": "restaurant", "cuisine": "kebab;barbecue;grill", "internet_access": "wlan", "name": "Mbr Tantuni", "opening_hours": "Mo-Su 08:00-22:00", "operator": "Sivil \u0130\u015fletmeci"}}, {"type": "node", "id": 5378381121, "lat": 36.3800069, "lon": 33.9321627, "tags": {"addr:street": "\u0130n\u00f6n\u00fc Bulvar\u0131", "amenity": "restaurant", "cuisine": "steak_house;kebab;grill", "internet_access": "wlan", "name": "Yaprak Lahmacun", "opening_hours": "Mo-Su 08:00-21:00", "operator": "Yaprak Lahmacun"}}, {"type": "node", "id": 5383794125, "lat": 36.3775504, "lon": 33.9259035, "tags": {"addr:street": "Ta\u015fk\u00f6pr\u00fc", "amenity": "cafe", "cuisine": "tea;cake;donut;coffee_shop", "name": "Nisa Patiseri", "opening_hours": "Mo-Su 08:00-18:00", "operator": "N\u0130SA PAT\u0130SER\u0130"}}, {"type": "node", "id": 5383806723, "lat": 36.3796991, "lon": 33.9300408, "tags": {"addr:street": "\u0130n\u00f6n\u00fc Bulvar\u0131", "amenity": "restaurant", "check_date": "2024-06-23", "cuisine": "steak_house;grill;chicken;kebab;barbecue", "name": "Mersin \u015eef Tantuni", "opening_hours": "24/7"}}, {"type": "node", "id": 5383806724, "lat": 36.379723, "lon": 33.9302204, "tags": {"addr:street": "\u0130n\u00f6n\u00fc Bulvar\u0131", "amenity": "restaurant", "cuisine": "chicken;kebab;barbecue;grill", "name": "R\u00fczgar Tantuni", "opening_hours": "Mo-Su 08:00-22:00"}}, {"type": "node", "id": 5516412629, "lat": 36.3814454, "lon": 33.9300076, "tags": {"addr:street": "\u0130n\u00f6n\u00fc Bulvar\u0131", "amenity": "restaurant", "cuisine": "steak_house;grill;chicken;kebab;barbecue", "name": "Tekin Ali Usta", "opening_hours": "Mo-Su,PH 00:00-23:59", "operator": "Lokanta"}}, {"type": "node", "id": 5516412644, "lat": 36.3803496, "lon": 33.9302354, "tags": {"addr:city": "Mersin", "addr:district": "Silifke", "addr:housenumber": "4", "addr:street": "\u00d6zhan Seyhan Caddesi", "amenity": "restaurant", "cuisine": "chicken;steak_house;kebab", "name": "Tekin Ali Usta", "opening_hours": "Mo-Su 09:00-18:00", "phone": "+90 324 714 3370"}}, {"type": "node", "id": 5516430623, "lat": 36.37985, "lon": 33.92615, "tags": {"addr:street": "Ta\u015fk\u00f6pr\u00fc", "amenity": "cafe", "cuisine": "tea;coffee_shop", "name": "G\u00f6ksu \u00c7ay Bah\u00e7esi", "opening_hours": "Mo-Su 09:00-18:00", "operator": "Silifke Belediyesi"}}, {"type": "node", "id": 5516430626, "lat": 36.379378, "lon": 33.929895, "tags": {"addr:city": "Mersin", "addr:district": "Silifke", "addr:housenumber": "27", "addr:street": "Abdi \u0130pek\u00e7i Caddesi", "amenity": "cafe", "cuisine": "tea;coffee_shop", "internet_access": "wlan", "name": "Kahve Rengi Cafe", "opening_hours": "Mo-Su 08:00-21:00", "phone": "+90 324 714 2246"}}, {"type": "node", "id": 5516430627, "lat": 36.375851, "lon": 33.917333, "tags": {"addr:street": "Silifke", "amenity": "restaurant", "cuisine": "steak_house;fish;chicken;kebab;barbecue;local", "name": "Kale Restaurant", "opening_hours": "Mo-Su 09:00-18:00", "phone": "03247148292"}}, {"type": "node", "id": 5516430730, "lat": 36.317203, "lon": 33.876917, "tags": {"addr:street": "Ta\u015fucu", "amenity": "cafe", "cuisine": "tea;breakfast;coffee_shop", "internet_access": "wlan", "name": "Deniz K\u0131z\u0131 Cafe", "opening_hours": "Mo-Su 09:00-18:00"}}, {"type": "node", "id": 5516430731, "lat": 36.381636, "lon": 33.92631, "tags": {"addr:street": "Akg\u00fcn Cad, No: 16, Silifke, Mersin", "amenity": "restaurant", "cuisine": "steak_house;kebab;barbecue", "name": "Zorkun Et Lokantas\u0131", "opening_hours": "Mo-Su 09:00-18:00", "phone": "03247149900"}}, {"type": "node", "id": 5747648089, "lat": 36.4519079, "lon": 34.1061691, "tags": {"amenity": "cafe"}}, {"type": "node", "id": 6448669390, "lat": 36.3782167, "lon": 33.931911, "tags": {"addr:street": "Orta k\u00f6rp\u00fc", "amenity": "restaurant", "cuisine": "chicken;kebab", "name": "Ustam Tantuni", "opening_hours": "Mo-Su 08:00-22:00", "operator": "Abd\u00fcrrahim Sezer"}}, {"type": "node", "id": 6448670790, "lat": 36.3793405, "lon": 33.9315755, "tags": {"addr:street": "Orta k\u00f6rp\u00fc", "amenity": "cafe", "cuisine": "tea;coffee_shop", "internet_access": "wlan", "name": "Cafe Bell", "opening_hours": "Mo-Su 08:00-22:00", "operator": "S\u0130L\u0130FKE BELED\u0130YES\u0130"}}, {"type": "node", "id": 6510941692, "lat": 36.3782608, "lon": 33.9262745, "tags": {"addr:street": "G\u00f6ksu Cd.", "amenity": "restaurant", "cuisine": "fish;seafood", "name": "Pavurya bal\u0131k restoran t\u00fcrk\u00fc evi"}}, {"type": "node", "id": 6515236685, "lat": 36.3785811, "lon": 33.9247813, "tags": {"addr:street": "Ta\u015fk\u00f6pr\u00fc", "amenity": "restaurant", "cuisine": "steak_house;kebab;grill", "name": "Birtat Tantuni", "opening_hours": "Mo-Su 08:00-22:00", "operator": "TANTUN\u0130"}}, {"type": "node", "id": 6569705989, "lat": 36.3184867, "lon": 33.8789272, "tags": {"amenity": "restaurant", "name": "D\u00f6rt Mevsim Restoran"}}, {"type": "node", "id": 6786215492, "lat": 36.3770988, "lon": 33.9312499, "tags": {"amenity": "cafe", "name": "K\u00fcnefeci Cemal Usta"}}, {"type": "node", "id": 6786219988, "lat": 36.3814013, "lon": 34.0298011, "tags": {"amenity": "cafe", "name": "Pastane"}}, {"type": "node", "id": 6786220089, "lat": 36.3428557, "lon": 33.9187158, "tags": {"addr:street": "Burunucu", "amenity": "restaurant", "cuisine": "turkish"}}, {"type": "node", "id": 6786220189, "lat": 36.3775685, "lon": 33.9319761, "tags": {"addr:street": "Orta k\u00f6rp\u00fc", "amenity": "cafe", "cuisine": "tea;coffee_shop", "internet_access": "wlan", "name": "Yemen Kahvesi", "opening_hours": "Mo-Su 09:00-22:00", "operator": "YEMEN KAHVES\u0130 A.\u015e"}}, {"type": "node", "id": 7840537386, "lat": 36.3784427, "lon": 33.9274382, "tags": {"addr:postcode": "33940", "addr:street": "Ta\u015fk\u00f6pr\u00fc", "amenity": "cafe", "cuisine": "bagel;breakfast;coffee_shop;regional;tea", "internet_access": "wlan", "name": "Maki Cafe", "opening_hours": "Mo-Su 08:00-22:00", "operator": "\u00d6ZEL"}}, {"type": "node", "id": 7846968585, "lat": 36.4169024, "lon": 34.0878397, "tags": {"amenity": "cafe", "name:en": "Islim"}}, {"type": "node", "id": 7846968685, "lat": 36.416843, "lon": 34.0879166, "tags": {"amenity": "cafe", "name:en": "Kaya"}}, {"type": "node", "id": 7997468985, "lat": 36.319625, "lon": 33.828572, "tags": {"amenity": "restaurant", "name": "\u00dcmitin Yeri"}}, {"type": "node", "id": 8382112619, "lat": 36.4521977, "lon": 34.1006704, "tags": {"amenity": "restaurant", "cuisine": "turkish", "name": "Botanik Kahvalte Salonu ve Et Mangal", "name:en": "Botanik Breakfast and Restaurant with beautiful garden"}}, {"type": "node", "id": 8625588716, "lat": 36.3183915, "lon": 33.8874018, "tags": {"addr:housenumber": "7/B", "addr:street": "Abdi \u0130pek\u00e7i Cad.", "amenity": "cafe", "name": "Caffeine Coffee", "phone": "(0324)7140666", "website": "https://caffeineroaster.com/"}}, {"type": "node", "id": 8626605178, "lat": 36.3174281, "lon": 33.8768647, "tags": {"addr:housenumber": "72/1", "addr:street": "Ta\u015fucu, \u0130smet \u0130n\u00f6n\u00fc Cd.", "amenity": "cafe", "name": "Ji\u0113B\u00fa Coffee", "opening_hours": "Mo-Fr 09:00-21:00; Sa, Su 09:30-17:00"}}, {"type": "node", "id": 9242602653, "lat": 36.3798364, "lon": 34.0717826}, {"type": "node", "id": 9242602654, "lat": 36.3799276, "lon": 34.071857}, {"type": "node", "id": 9242602655, "lat": 36.379929, "lon": 34.0719985}, {"type": "node", "id": 9242602656, "lat": 36.3798606, "lon": 34.0720958}, {"type": "node", "id": 9242602657, "lat": 36.3797452, "lon": 34.0720888}, {"type": "node", "id": 9242602658, "lat": 36.3796911, "lon": 34.0720198}, {"type": "node", "id": 9242602659, "lat": 36.3796954, "lon": 34.0718605}, {"type": "node", "id": 9242602660, "lat": 36.3797609, "lon": 34.0717809}, {"type": "node", "id": 9311797182, "lat": 36.4436783, "lon": 34.1138521, "tags": {"amenity": "restaurant"}}, {"type": "node", "id": 9311797183, "lat": 36.4435208, "lon": 34.1140318, "tags": {"amenity": "restaurant"}}, {"type": "node", "id": 9311797184, "lat": 36.4438207, "lon": 34.1137126, "tags": {"amenity": "restaurant"}}, {"type": "node", "id": 9311797185, "lat": 36.4436264, "lon": 34.1146326, "tags": {"amenity": "restaurant"}}, {"type": "node", "id": 9314486734, "lat": 36.461122, "lon": 34.1450477, "tags": {"amenity": "cafe", "name": "Berlin"}}, {"type": "node", "id": 9961089030, "lat": 36.3773291, "lon": 33.9057573, "tags": {"amenity": "restaurant", "name": "Keklik  RESTAURENT"}}, {"type": "node", "id": 10006917317, "lat": 36.3190515, "lon": 33.8799552, "tags": {"amenity": "restaurant", "name": "Blue Chief"}}, {"type": "node", "id": 10012089717, "lat": 36.3186822, "lon": 33.8795705, "tags": {"amenity": "restaurant", "name": "Liman restaurant"}}, {"type": "node", "id": 11069212705, "lat": 36.5800833, "lon": 33.6432326, "tags": {"amenity": "cafe", "name": "Sar\u0131kavak Kahvehanesi"}}, {"type": "node", "id": 11972128702, "lat": 36.3821785, "lon": 33.9412443, "tags": {"amenity": "restaurant", "cuisine": "tantuni;\u00e7orba", "name": "Bedir Usta Tantuni", "opening_hours": "Mo-Su 09:00-21:00", "phone": "+905337176096"}}, {"type": "node", "id": 12151378318, "lat": 36.3500051, "lon": 34.0566808, "tags": {"addr:city": "Mersin", "addr:district": "Silifke", "addr:neighbourhood": "Arkum", "amenity": "cafe", "cuisine": "coffee_shop", "internet_access": "no", "name": "Kahvehane", "opening_hours": "Mo-Su 08:00-22:00", "outdoor_seating": "yes"}}, {"type": "node", "id": 12151595433, "lat": 36.3592062, "lon": 34.0783931, "tags": {"addr:neighbourhood": "Arkum", "addr:street": "60.Sokak", "amenity": "restaurant", "bar": "yes", "cuisine": "turkish;fish;salad;seafood", "internet_access": "wlan", "name": "Bo\u011faz Bal\u0131k Restroran", "opening_hours": "Mo-Su 08:00-23:30", "outdoor_seating": "yes", "phone": "05464091116"}}, {"type": "node", "id": 12151595526, "lat": 36.3508045, "lon": 34.0568724, "tags": {"addr:city": "Mersin", "addr:district": "Silifke", "addr:neighbourhood": "Arkum", "addr:street": "Atat\u00fcrk Caddesi", "amenity": "cafe", "cuisine": "coffee_shop", "internet_access": "no", "name": "Arkum Silifke Belediyesi Kahvehanesi", "opening_hours": "Mo-Sa 08:00-18:00", "outdoor_seating": "no"}}, {"type": "node", "id": 12234901911, "lat": 36.3796748, "lon": 33.9276491, "tags": {"addr:street": "G\u00f6ksu, Abdi \u0130pek\u00e7i Cd. No:7 D:B, 33960 Silifke/Mersin", "amenity": "cafe", "cuisine": "coffee_shop", "internet_access": "wlan", "internet_access:fee": "customers", "name": "Caffeine Coffee Roaster", "opening_hours": "Mo-Su 09:00-00:00", "outdoor_seating": "yes", "phone": "03247140666", "website": "https://www.caffeineroaster.com/"}}, {"type": "node", "id": 12234901912, "lat": 36.3796558, "lon": 33.92816, "tags": {"addr:street": "G\u00f6ksu, Abdi \u0130pek\u00e7i Cd. 17-b, 33940 Silifke/Mersin", "amenity": "cafe", "cuisine": "coffee_shop", "name": "cassette coffee", "opening_hours": "Mo-Su 08:00-23:00", "phone": "05365027808"}}, {"type": "node", "id": 12234901913, "lat": 36.37967, "lon": 33.927817, "tags": {"addr:street": "G\u00f6ksu, Hac\u0131 \u0130lyas Evcil Apartman, Abdi \u0130pek\u00e7i Cd. B Blok No:7/1, 33870 Silifke/Mersin", "amenity": "cafe", "brand": "Caribou Coffee", "brand:wikidata": "Q5039494", "cuisine": "coffee_shop", "name": "Caribou Coffee", "opening_hours": "Mo-Su 09:00-23:30", "phone": "05310811169", "takeaway": "yes", "website": "https://www.cariboucoffee.com.tr/"}}, {"type": "node", "id": 12234901914, "lat": 36.3796511, "lon": 33.9283275, "tags": {"addr:street": "G\u00f6ksu Mahallesi. Abdi \u0130pek\u00e7i caddesi. Feride Evcil Apt.A-2 Giri\u015f. No:13/B, 33960 Silifke/Mersin", "amenity": "cafe", "cuisine": "coffee_shop", "name": "1983 Beyo\u011flu \u00c7ikolata & Kahve", "opening_hours": "Mo-Su 10:00-00:00", "phone": "03247150070"}}, {"type": "node", "id": 12234901917, "lat": 36.3793834, "lon": 33.931036, "tags": {"addr:street": "G\u00f6ksu, 33940 Silifke/Mersin", "amenity": "cafe", "cuisine": "coffee_shop", "name": "MADO DONDURMA CAFE S\u0130L\u0130FKE", "not:brand:wikidata": "Q17116336", "phone": "03245041000"}}, {"type": "node", "id": 12234901922, "lat": 36.3778122, "lon": 33.9295676, "tags": {"addr:street": "Saray, 111_2 sokak no:9, 33950 Silifke/Mersin", "amenity": "cafe", "cuisine": "coffee_shop", "name": "Boho Selefkia", "opening_hours": "Mo-Su 10:00-00:00", "phone": "05069662640", "website": "https://instagram.com/bohoselefkia?igshid=NTc4MTIwNjQ2YQ=="}}, {"type": "node", "id": 12658239143, "lat": 36.3797096, "lon": 33.930087, "tags": {"addr:city": "Mersin", "addr:district": "Silifke", "addr:housenumber": "8c", "addr:neighbourhood": "G\u00f6ksu Mahallesi", "addr:street": "65 Sokak", "amenity": "cafe", "cuisine": "waffle", "internet_access": "yes", "name": "Rabono Art Coffee"}}, {"type": "node", "id": 12714643989, "lat": 36.3179557, "lon": 33.8789826, "tags": {"amenity": "cafe", "name": "Pa\u015faf\u0131r\u0131n\u0131 Ta\u015fucu"}}, {"type": "node", "id": 12714643990, "lat": 36.3178852, "lon": 33.8789258, "tags": {"addr:neighbourhood": "Ta\u015fucu", "amenity": "cafe", "name": "Pa\u015faf\u0131r\u0131n\u0131 Ta\u015fucu"}}, {"type": "node", "id": 12871266249, "lat": 36.4575887, "lon": 34.1413001, "tags": {"addr:city": "MERS\u0130N", "addr:district": "ERDEML\u0130", "addr:housenumber": "70A", "addr:neighbourhood": "k\u0131zkalesi", "addr:postcode": "33790", "addr:street": "sahilyolu caddesi", "amenity": "restaurant", "cuisine": "pizza;coffee_shop;burger;fish;tea;kebab;breakfast", "name": "Chaplin Cafe & Restoran", "outdoor_seating": "no", "phone": "05013040533", "website": "https://www.instagram.com/chaplin_cafe_restoran?igsh=MXFnZnlhYXlzeHVlNA%3D%3D&utm_source=qr"}}, {"type": "way", "id": 1001336243, "nodes": [9242602653, 9242602654, 9242602655, 9242602656, 9242602657, 9242602658, 9242602659, 9242602660, 9242602653], "tags": {"amenity": "cafe", "building": "yes"}}]}