{"version": 0.6, "generator": "Overpass API 0.7.62.7 375dc00a", "osm3s": {"timestamp_osm_base": "2025-06-14T14:56:39Z", "copyright": "The data included in this document is from www.openstreetmap.org. The data is made available under ODbL."}, "elements": [{"type": "node", "id": 29524044, "lat": 40.2959008, "lon": 29.058922, "tags": {"amenity": "restaurant", "created_by": "JOSM"}}, {"type": "node", "id": 470356937, "lat": 40.2811813, "lon": 28.933985, "tags": {"amenity": "restaurant", "name": "Tike Restaurant"}}, {"type": "node", "id": 2819121705, "lat": 40.284023, "lon": 28.9391734}, {"type": "node", "id": 2819121706, "lat": 40.2839698, "lon": 28.9395865}, {"type": "node", "id": 2819121707, "lat": 40.2837038, "lon": 28.9395221}, {"type": "node", "id": 2819121708, "lat": 40.2837488, "lon": 28.9391305}, {"type": "node", "id": 4471390213, "lat": 40.4744011, "lon": 29.0923138, "tags": {"amenity": "cafe", "name": "\u015eelale \u00c7ay Bah\u00e7esi"}}, {"type": "node", "id": 4631029389, "lat": 40.3225403, "lon": 28.9324284, "tags": {"amenity": "restaurant", "name": "Kahvebeyaz Restaurant & Cafe", "name:tr": "Kahvebeyaz Restaurant & Cafe"}}, {"type": "node", "id": 4889958522, "lat": 40.3794698, "lon": 28.8792599, "tags": {"amenity": "cafe"}}, {"type": "node", "id": 4890366222, "lat": 40.391202, "lon": 28.8029322, "tags": {"amenity": "restaurant", "name": "Tasmahal", "name:tr": "Tasmahal"}}, {"type": "node", "id": 4890392522, "lat": 40.3934105, "lon": 28.7925167, "tags": {"amenity": "cafe", "name": "\u00c7aml\u0131 Kahve", "name:tr": "Camli Kahve"}}, {"type": "node", "id": 5015915323, "lat": 40.3930622, "lon": 28.7976973, "tags": {"amenity": "restaurant", "name": "Tirilye Bal\u0131k Restorant", "name:tr": "Tirilye Bal\u0131k Restorant"}}, {"type": "node", "id": 5069379225, "lat": 40.3804712, "lon": 28.8805871, "tags": {"amenity": "cafe", "name": "Sima Cafe", "name:tr": "Sima Cafe"}}, {"type": "node", "id": 5069666821, "lat": 40.3736471, "lon": 28.889268, "tags": {"amenity": "restaurant", "indoor_seating": "yes", "name": "Bal\u0131k\u00e7\u0131l", "name:tr": "Bal\u0131k\u00e7\u0131l", "outdoor_seating": "yes"}}, {"type": "node", "id": 5103375830, "lat": 40.3548027, "lon": 28.928064, "tags": {"amenity": "restaurant", "name": "\u00d6zer'in Yeri Bal\u0131k Lokantas\u0131"}}, {"type": "node", "id": 5103375831, "lat": 40.3733171, "lon": 28.8894983, "tags": {"amenity": "restaurant", "name": "Mudanya \u0130stasyonu Sosyal Tesisleri"}}, {"type": "node", "id": 5103375832, "lat": 40.376451, "lon": 28.8739675, "tags": {"amenity": "restaurant", "name": "Trilye Bal\u0131k"}}, {"type": "node", "id": 5103390524, "lat": 40.3822131, "lon": 28.8726381, "tags": {"amenity": "cafe", "name": "David People"}}, {"type": "node", "id": 5103391426, "lat": 40.2877472, "lon": 28.9256902, "tags": {"amenity": "restaurant", "name": "Agapios Meyhanesi"}}, {"type": "node", "id": 5103414321, "lat": 40.3806748, "lon": 28.8805014, "tags": {"amenity": "restaurant", "name": "K\u0131y\u0131 Bal\u0131k"}}, {"type": "node", "id": 5103414322, "lat": 40.3824446, "lon": 28.8717102, "tags": {"amenity": "restaurant", "name": "Erol Bal\u0131k"}}, {"type": "node", "id": 5103414323, "lat": 40.3823345, "lon": 28.8722071, "tags": {"amenity": "cafe", "name": "Uzay Pastanesi"}}, {"type": "node", "id": 5103429221, "lat": 40.391227, "lon": 28.8024857, "tags": {"amenity": "cafe", "name": "Tirilye Yelken Kul\u00fcb\u00fc"}}, {"type": "node", "id": 5180750118, "lat": 40.3807773, "lon": 28.8475268}, {"type": "node", "id": 5180750119, "lat": 40.3806651, "lon": 28.8476264}, {"type": "node", "id": 5180750120, "lat": 40.3806965, "lon": 28.8477627}, {"type": "node", "id": 5180750121, "lat": 40.3807316, "lon": 28.8477689}, {"type": "node", "id": 5180750122, "lat": 40.3807949, "lon": 28.8477813}, {"type": "node", "id": 5180750123, "lat": 40.3807969, "lon": 28.8476851}, {"type": "node", "id": 5180750124, "lat": 40.3808285, "lon": 28.8475958}, {"type": "node", "id": 5181350135, "lat": 40.3807246, "lon": 28.8475852}, {"type": "node", "id": 5181350136, "lat": 40.3807501, "lon": 28.8475675}, {"type": "node", "id": 5339566922, "lat": 40.3929569, "lon": 28.7978574, "tags": {"amenity": "restaurant", "name:en": "Savarona Restaurant"}}, {"type": "node", "id": 5352066121, "lat": 40.3816263, "lon": 28.8782202, "tags": {"amenity": "restaurant", "name": "Kalami Bal\u0131k Restaurant"}}, {"type": "node", "id": 5363442322, "lat": 40.3015716, "lon": 28.9393367, "tags": {"amenity": "restaurant", "name": "\u00c7a\u011fr\u0131\u015fan Et Mangal"}}, {"type": "node", "id": 5628041323, "lat": 40.3796717, "lon": 28.8813467, "tags": {"amenity": "cafe", "name:en": "Coffee Shot"}}, {"type": "node", "id": 5641018222, "lat": 40.378792, "lon": 28.8825371, "tags": {"amenity": "restaurant", "name": "Giritli Bal\u0131k Restaurant"}}, {"type": "node", "id": 5807931554, "lat": 40.3934993, "lon": 28.7912332, "tags": {"amenity": "restaurant", "name": "Ba\u011f Evi"}}, {"type": "node", "id": 6642219019, "lat": 40.282597, "lon": 28.9944166, "tags": {"amenity": "restaurant", "cuisine": "turkish", "name": "K\u00f6fteci Ramiz"}}, {"type": "node", "id": 6779123785, "lat": 40.3703477, "lon": 28.8950925, "tags": {"amenity": "restaurant", "brand": "K\u00f6fteci Yusuf", "brand:wikidata": "Q126125081", "cuisine": "turkish", "name": "K\u00f6fteci Yusuf"}}, {"type": "node", "id": 8592329790, "lat": 40.3772172, "lon": 28.8836628, "tags": {"amenity": "cafe", "name": "Muadanya Polis Lokali"}}, {"type": "node", "id": 8592349374, "lat": 40.377474, "lon": 28.8836767, "tags": {"amenity": "restaurant", "name": "Barla'm Bal\u0131k"}}, {"type": "node", "id": 9764695876, "lat": 40.3554893, "lon": 28.9261587, "tags": {"amenity": "cafe"}}, {"type": "node", "id": 9764704714, "lat": 40.3550272, "lon": 28.9287847, "tags": {"amenity": "cafe"}}, {"type": "node", "id": 9764712300, "lat": 40.356024, "lon": 28.928637, "tags": {"amenity": "restaurant", "name": "K\u00f6fteci Yusuf"}}, {"type": "node", "id": 9846282317, "lat": 40.35606, "lon": 28.9213051, "tags": {"amenity": "cafe", "name": "D&M", "name:tr": "D&M coffe ps house"}}, {"type": "node", "id": 10775638328, "lat": 40.2871251, "lon": 28.9274332}, {"type": "node", "id": 10775638329, "lat": 40.2870261, "lon": 28.9273575}, {"type": "node", "id": 10775638330, "lat": 40.286866, "lon": 28.927717}, {"type": "node", "id": 10775638331, "lat": 40.2869651, "lon": 28.9277927}, {"type": "node", "id": 10787084188, "lat": 40.2884672, "lon": 29.0549866}, {"type": "node", "id": 10787084189, "lat": 40.2882016, "lon": 29.0548994}, {"type": "node", "id": 10787084190, "lat": 40.2882452, "lon": 29.0546707}, {"type": "node", "id": 10787084191, "lat": 40.2885109, "lon": 29.0547578}, {"type": "node", "id": 10840565284, "lat": 40.3635028, "lon": 29.0301741}, {"type": "node", "id": 10840565285, "lat": 40.3636108, "lon": 29.0303609}, {"type": "node", "id": 10840565286, "lat": 40.3634598, "lon": 29.0305112}, {"type": "node", "id": 10840565287, "lat": 40.3634349, "lon": 29.030468}, {"type": "node", "id": 10840565288, "lat": 40.3635076, "lon": 29.0303956}, {"type": "node", "id": 10840565289, "lat": 40.3634246, "lon": 29.0302519}, {"type": "node", "id": 11173681237, "lat": 40.3764211, "lon": 28.8857555, "tags": {"amenity": "restaurant", "cuisine": "fish;turkish", "name": "Ablanin Yeri"}}, {"type": "node", "id": 12034830967, "lat": 40.4799264, "lon": 29.0314069, "tags": {"addr:city": "Bursa", "addr:district": "Gemlik", "addr:housenumber": "520 A", "addr:neighbourhood": "Armutlu yolu cad.", "addr:place": "Narl\u0131", "addr:postcode": "16600", "amenity": "cafe", "cuisine": "ice_cream;burger;coffee_shop;dessert", "name": "Mar-in Lounge", "opening_hours": "10:00-01:30", "outdoor_seating": "yes", "payment:cash": "yes", "payment:credit_cards": "yes", "payment:mastercard": "yes", "payment:visa": "yes", "phone": "+905382455820", "toilets": "yes"}}, {"type": "node", "id": 12069754858, "lat": 40.3807425, "lon": 28.848005, "tags": {"amenity": "restaurant", "cuisine": "seafood", "name": "Bal\u0131k\u00e7\u0131 Cavit"}}, {"type": "node", "id": 12085364079, "lat": 40.6301796, "lon": 29.0299405}, {"type": "node", "id": 12085364080, "lat": 40.6301789, "lon": 29.0300462}, {"type": "node", "id": 12085364081, "lat": 40.6300677, "lon": 29.0300414}, {"type": "node", "id": 12085364082, "lat": 40.6300662, "lon": 29.0299337}, {"type": "node", "id": 12085364083, "lat": 40.6301795, "lon": 29.030083}, {"type": "node", "id": 12085364084, "lat": 40.6301795, "lon": 29.0301927}, {"type": "node", "id": 12085364085, "lat": 40.630059, "lon": 29.0301834}, {"type": "node", "id": 12085364086, "lat": 40.630059, "lon": 29.0300771}, {"type": "node", "id": 12809325298, "lat": 40.4819983, "lon": 29.0847316, "tags": {"addr:city": "Bursa", "addr:district": "gemlik", "addr:housenumber": "220 A", "addr:neighbourhood": "B\u00fcy\u00fckkumla, ARMUTLU YOLU \u00dcZER\u0130 NO:220 A, 16600 Gemli\u0307k/Bursa", "addr:postcode": "16600", "addr:street": "Armutlu-Gemlik Yolu", "amenity": "restaurant", "cuisine": "kebab;breakfast;chicken;steak_house", "name": "Arn Et Mangal & Kahvalt\u0131", "phone": "05010995988"}}, {"type": "node", "id": 12885445604, "lat": 40.5092089, "lon": 28.8376411}, {"type": "node", "id": 12885445605, "lat": 40.5092714, "lon": 28.837622}, {"type": "node", "id": 12885445606, "lat": 40.5093203, "lon": 28.837789}, {"type": "node", "id": 12885445607, "lat": 40.5093429, "lon": 28.8378711}, {"type": "node", "id": 12885445608, "lat": 40.5092579, "lon": 28.8379122}, {"type": "node", "id": 12885445609, "lat": 40.509189, "lon": 28.8378343}, {"type": "node", "id": 12885445610, "lat": 40.5091497, "lon": 28.8376545}, {"type": "node", "id": 12890482892, "lat": 40.3929445, "lon": 28.7982623, "tags": {"amenity": "restaurant", "name": "Mahur balik restoran"}}, {"type": "node", "id": 12891340397, "lat": 40.3848487, "lon": 28.8269279, "tags": {"amenity": "cafe"}}, {"type": "node", "id": 12911225676, "lat": 40.5212538, "lon": 28.8312782}, {"type": "node", "id": 12911225677, "lat": 40.5212913, "lon": 28.8311387}, {"type": "node", "id": 12911225678, "lat": 40.5212807, "lon": 28.8311119}, {"type": "node", "id": 12911225679, "lat": 40.521266, "lon": 28.8310942}, {"type": "node", "id": 12911225680, "lat": 40.5212469, "lon": 28.831077}, {"type": "node", "id": 12911225681, "lat": 40.5212171, "lon": 28.8310701}, {"type": "node", "id": 12911225682, "lat": 40.521189, "lon": 28.8310642}, {"type": "node", "id": 12911225683, "lat": 40.5211498, "lon": 28.8310867}, {"type": "node", "id": 12911225684, "lat": 40.5211205, "lon": 28.8311151}, {"type": "node", "id": 12911225685, "lat": 40.5211021, "lon": 28.8311688}, {"type": "node", "id": 12911225686, "lat": 40.5210956, "lon": 28.8312208}, {"type": "node", "id": 12911225687, "lat": 40.5211135, "lon": 28.831275}, {"type": "node", "id": 12911225688, "lat": 40.5211286, "lon": 28.8312938}, {"type": "node", "id": 12911225689, "lat": 40.5211731, "lon": 28.8312948}, {"type": "node", "id": 12911225690, "lat": 40.5211804, "lon": 28.831261}, {"type": "way", "id": 277412396, "nodes": [2819121705, 2819121706, 2819121707, 2819121708, 2819121705], "tags": {"amenity": "restaurant", "building": "yes", "name": "Kl\u00fcp Aslanlar"}}, {"type": "way", "id": 534133715, "nodes": [5180750118, 5181350136, 5181350135, 5180750119, 5180750120, 5180750121, 5180750122, 5180750123, 5180750124, 5180750118], "tags": {"amenity": "cafe", "building": "yes", "layer": "-1", "name": "Kafeman", "opening_hours": "PH,Mo-Su 10:00-24:00+"}}, {"type": "way", "id": 1158710690, "nodes": [10775638328, 10775638329, 10775638330, 10775638331, 10775638328], "tags": {"amenity": "restaurant", "building": "yes", "name": "Calypso"}}, {"type": "way", "id": 1159901894, "nodes": [10787084188, 10787084189, 10787084190, 10787084191, 10787084188], "tags": {"amenity": "restaurant", "brand": "K\u00f6fteci Yusuf", "brand:wikidata": "Q126125081", "building": "yes", "cuisine": "turkish", "name": "K\u00f6fteci Yusuf"}}, {"type": "way", "id": 1165498006, "nodes": [10840565284, 10840565285, 10840565286, 10840565287, 10840565288, 10840565289, 10840565284], "tags": {"amenity": "cafe", "building": "yes", "level": "1", "name": "One Tea Beach Kafe", "outdoor_seating": "yes"}}, {"type": "way", "id": 1304860882, "nodes": [12085364079, 12085364080, 12085364081, 12085364082, 12085364079], "tags": {"amenity": "cafe", "building": "commercial"}}, {"type": "way", "id": 1304860883, "nodes": [12085364083, 12085364084, 12085364085, 12085364086, 12085364083], "tags": {"amenity": "cafe", "building": "yes"}}, {"type": "way", "id": 1391978144, "nodes": [12885445604, 12885445605, 12885445606, 12885445607, 12885445608, 12885445609, 12885445610, 12885445604], "tags": {"amenity": "cafe", "building": "yes", "name": "By Vural Cafe"}}, {"type": "way", "id": 1394818510, "nodes": [12911225676, 12911225677, 12911225678, 12911225679, 12911225680, 12911225681, 12911225682, 12911225683, 12911225684, 12911225685, 12911225686, 12911225687, 12911225688, 12911225689, 12911225690, 12911225676], "tags": {"amenity": "restaurant", "building": "yes"}}]}