{"version": 0.6, "generator": "Overpass API 0.7.62.7 375dc00a", "osm3s": {"timestamp_osm_base": "2025-06-14T13:52:30Z", "copyright": "The data included in this document is from www.openstreetmap.org. The data is made available under ODbL."}, "elements": [{"type": "node", "id": 538027087, "lat": 37.9727737, "lon": 14.0850064, "tags": {"amenity": "restaurant", "website": "https://www.abbaziasantanastasia.com/it/ristoranti-vicino-castelbuono-cefalu.html"}}, {"type": "node", "id": 538077519, "lat": 37.9330188, "lon": 14.0881044, "tags": {"addr:city": "Castelbuono", "addr:housenumber": "42", "addr:postcode": "90013", "addr:street": "Via Sant'Anna", "amenity": "restaurant", "cuisine": "regional", "name": "Don Jon", "opening_hours": "06:00-00:30", "phone": "+39 0921 671154"}}, {"type": "node", "id": 690900092, "lat": 38.0399825, "lon": 14.022418, "tags": {"amenity": "cafe", "name": "Pasticceria La Martorana"}}, {"type": "node", "id": 1308191858, "lat": 37.9878414, "lon": 13.8843553, "tags": {"amenity": "restaurant", "cuisine": "pizza"}}, {"type": "node", "id": 1376510797, "lat": 37.965587, "lon": 13.727607, "tags": {"amenity": "restaurant", "brand": "Autogrill", "brand:wikidata": "Q786790", "brand:wikipedia": "en:Autogrill", "contact:phone": "+39 800 069069", "cuisine": "italian;regional", "name": "Autogrill", "operator": "Autogrill S.p.A.", "ref": "0621", "ref:it:vat": "01630730032"}}, {"type": "node", "id": 1376510932, "lat": 37.9670714, "lon": 13.7254579, "tags": {"amenity": "cafe"}}, {"type": "node", "id": 1510103056, "lat": 37.8166045, "lon": 13.9791543, "tags": {"addr:housename": "Il Baglio di Nonna Clelia", "addr:postcode": "90028", "addr:street": "Contrada Bistorno - Polizzi Generosa", "amenity": "restaurant", "cuisine": "regional", "description": "Azienda Agrituristica", "name": "Il Baglio di Nonna Clelia", "source": "www.ilbagliodinonnaclelia.it", "website": "www.ilbagliodinonnaclelia.it"}}, {"type": "node", "id": 1653381944, "lat": 37.8755902, "lon": 14.0232148}, {"type": "node", "id": 1653381948, "lat": 37.8756224, "lon": 14.0230924}, {"type": "node", "id": 1653381951, "lat": 37.8756655, "lon": 14.0232466}, {"type": "node", "id": 1653381954, "lat": 37.8756977, "lon": 14.0231242}, {"type": "node", "id": 1879329500, "lat": 37.9873184, "lon": 13.6962166, "tags": {"amenity": "cafe"}}, {"type": "node", "id": 1967284907, "lat": 38.0206332, "lon": 14.1624185, "tags": {"amenity": "restaurant", "cuisine": "italian;pizza", "name": "Il Casolare", "survey:date": "2024-01-23"}}, {"type": "node", "id": 1989620863, "lat": 38.0395902, "lon": 14.0314331, "tags": {"amenity": "cafe", "check_date": "2023-05-27", "name": "Eolo's Caf\u00e9", "phone": "+39 0921 925083"}}, {"type": "node", "id": 1992351169, "lat": 38.0185693, "lon": 14.0867501, "tags": {"addr:street": "Via Cefal\u00f9", "amenity": "restaurant", "cuisine": "italian", "name:en": "Pizzeria"}}, {"type": "node", "id": 2055056523, "lat": 37.816666, "lon": 13.9789154, "tags": {"amenity": "cafe"}}, {"type": "node", "id": 2265854499, "lat": 38.0211793, "lon": 14.1607479, "tags": {"amenity": "restaurant", "indoor_seating": "yes", "name": "Arrhais", "outdoor_seating": "yes"}}, {"type": "node", "id": 2458618790, "lat": 37.7520374, "lon": 14.0770466, "tags": {"addr:city": "Blufi", "addr:postcode": "90020", "addr:street": "Corso Italia", "amenity": "cafe", "name": "Bar Tabacchi Giacomarra"}}, {"type": "node", "id": 2458618802, "lat": 37.7523273, "lon": 14.0768686, "tags": {"addr:city": "Blufi", "addr:postcode": "90020", "addr:street": "Via Risorgimento", "amenity": "cafe", "name": "American Bar"}}, {"type": "node", "id": 2458621470, "lat": 37.7520258, "lon": 14.0726271, "tags": {"addr:city": "Blufi", "addr:housenumber": "2", "addr:street": "Via Sant'Andrea", "amenity": "cafe", "name": "Holiday Bar"}}, {"type": "node", "id": 2460985667, "lat": 37.9426492, "lon": 14.0080399, "tags": {"addr:city": "Isnello", "addr:housenumber": "16", "addr:postcode": "90010", "addr:street": "Via Monsignor Oscar Romero", "amenity": "restaurant", "cuisine": "regional", "name": "La Brace", "opening_hours": "Tu 10:00-23:00; We-Th 10:00-22:30; Fr-Sa 10:30-00:00; Su 10:30-23:00", "website": "https://www.la-brace.it/"}}, {"type": "node", "id": 2460985708, "lat": 37.9387666, "lon": 14.0019101, "tags": {"amenity": "restaurant", "name": "Smeraldo"}}, {"type": "node", "id": 2460986959, "lat": 37.9864538, "lon": 14.0174912, "tags": {"amenity": "restaurant"}}, {"type": "node", "id": 2461680491, "lat": 38.0366926, "lon": 14.0221215, "tags": {"amenity": "restaurant", "name": "Porta Terra Ristotante"}}, {"type": "node", "id": 2461680955, "lat": 38.0353409, "lon": 14.0214631, "tags": {"addr:city": "Cefal\u00f9", "addr:country": "IT", "addr:housenumber": "43", "addr:postcode": "90015", "addr:street": "Via Giacomo Matteotti", "amenity": "restaurant", "cuisine": "italian", "name": "Man in Pasta", "phone": "+39 0921 421197", "wheelchair": "limited"}}, {"type": "node", "id": 2461683780, "lat": 38.0325744, "lon": 14.023363, "tags": {"amenity": "restaurant", "name": "Villa dei Melograni"}}, {"type": "node", "id": 2463264799, "lat": 38.0349318, "lon": 14.0307409, "tags": {"addr:postcode": "90015", "amenity": "cafe", "cuisine": "regional", "food": "yes", "indoor_seating": "yes", "name": "Al Solito Posto", "note": "Bistr\u00f2 e Caf\u00e9", "outdoor_seating": "yes", "parking": "yes", "website": "https://alpescatorecefalu.it/"}}, {"type": "node", "id": 2464589493, "lat": 38.0327337, "lon": 14.0255116, "tags": {"addr:city": "Cefal\u00f9", "addr:country": "IT", "addr:housenumber": "46", "addr:postcode": "90015", "addr:street": "Via Gibilmanna", "amenity": "restaurant", "cuisine": "pizza", "name": "Al Girotondo", "phone": "+39 0921 421312", "website": "https://www.pizzeriaalgirotondo.com/"}}, {"type": "node", "id": 2515431158, "lat": 38.0365682, "lon": 14.0305789}, {"type": "node", "id": 2515431169, "lat": 38.0366808, "lon": 14.0307388}, {"type": "node", "id": 2515431172, "lat": 38.0367315, "lon": 14.0303672}, {"type": "node", "id": 2515431175, "lat": 38.0367636, "lon": 14.0306293}, {"type": "node", "id": 2515431191, "lat": 38.0368804, "lon": 14.03076}, {"type": "node", "id": 2515431200, "lat": 38.0369965, "lon": 14.0306353}, {"type": "node", "id": 2538724576, "lat": 37.9866117, "lon": 14.0174283}, {"type": "node", "id": 2538724578, "lat": 37.9865208, "lon": 14.0174873}, {"type": "node", "id": 2538724580, "lat": 37.9864764, "lon": 14.0174256}, {"type": "node", "id": 2538724581, "lat": 37.986246, "lon": 14.0176589}, {"type": "node", "id": 2538724583, "lat": 37.9861826, "lon": 14.017608}, {"type": "node", "id": 2538724585, "lat": 37.9864405, "lon": 14.0173585}, {"type": "node", "id": 2538724587, "lat": 37.9864172, "lon": 14.0172834}, {"type": "node", "id": 2538724588, "lat": 37.9865673, "lon": 14.0172003}, {"type": "node", "id": 2538724590, "lat": 37.9865842, "lon": 14.0172754}, {"type": "node", "id": 2538724592, "lat": 37.9866075, "lon": 14.01727}, {"type": "node", "id": 2571498712, "lat": 38.003837, "lon": 14.0245782}, {"type": "node", "id": 2571498714, "lat": 38.0038247, "lon": 14.0247594}, {"type": "node", "id": 2571498716, "lat": 38.0036431, "lon": 14.024745}, {"type": "node", "id": 2571498718, "lat": 38.0036563, "lon": 14.0245518}, {"type": "node", "id": 2874299928, "lat": 37.9319725, "lon": 14.0874419, "tags": {"addr:housenumber": "5", "addr:street": "Cortile Ventimiglia", "amenity": "restaurant", "cuisine": "regional", "name": "Trattoria Nangalarruni"}}, {"type": "node", "id": 2874368219, "lat": 37.8857553, "lon": 14.0809741}, {"type": "node", "id": 2874368220, "lat": 37.8857557, "lon": 14.0810027}, {"type": "node", "id": 2874368221, "lat": 37.8858541, "lon": 14.081149}, {"type": "node", "id": 2874368222, "lat": 37.8854236, "lon": 14.0809947}, {"type": "node", "id": 2942539335, "lat": 37.9899919, "lon": 13.8848116, "tags": {"addr:city": "Campofelice di Roccella", "addr:postcode": "90010", "addr:street": "Piazza Vittorio Emanuele Orlando", "amenity": "restaurant", "cuisine": "pizza", "name": "Rewind"}}, {"type": "node", "id": 2942539336, "lat": 37.9900384, "lon": 13.8848331, "tags": {"addr:city": "Campofelice di Roccella", "addr:postcode": "90010", "addr:street": "Piazza Vittorio Emanuele Orlando", "amenity": "restaurant", "capacity": "50", "cuisine": "italian", "name": "Pizzeria Punto Ghiotto"}}, {"type": "node", "id": 2947206983, "lat": 37.987223, "lon": 13.6917796, "tags": {"amenity": "restaurant", "capacity": "12", "name": "Panineria Bacco", "smoking": "outside"}}, {"type": "node", "id": 2947207256, "lat": 37.990134, "lon": 13.7014917, "tags": {"amenity": "restaurant", "name": "Pizzeria \"La Lanterna\""}}, {"type": "node", "id": 2947425147, "lat": 37.9732493, "lon": 13.8239179, "tags": {"addr:street": "Contrada Buonfornello SS113", "amenity": "restaurant", "cuisine": "regional", "email": "baglioimera@alice.it", "name": "Baglio Himera", "phone": "+39 091 8140005", "website": "bagliohimera.it"}}, {"type": "node", "id": 3213933661, "lat": 38.0411003, "lon": 14.0222352, "tags": {"addr:city": "Cefal\u00f9", "addr:housenumber": "2/4", "addr:postcode": "90015", "addr:street": "Via Carlo Ortolani di Bordonaro", "amenity": "restaurant", "cuisine": "seafood", "name": "Lo scoglio ubriaco", "note": "Terrazza sugli scogli", "phone": "+39 0921 423370", "website": "http://www.facebook.com/pages/category/Italian-Restaurant/Ristorante-Lo-Scoglio-Ubriaco-Cefalu-231857376834405/"}}, {"type": "node", "id": 3444751203, "lat": 37.8202134, "lon": 14.1580829, "tags": {"amenity": "restaurant", "cuisine": "regional", "name": "I Quacinara - Cucina Madonita"}}, {"type": "node", "id": 3455172567, "lat": 37.9927889, "lon": 14.143784, "tags": {"amenity": "restaurant", "cuisine": "italian", "name": "Ristorante Pizzeria Alla Torre"}}, {"type": "node", "id": 3455201267, "lat": 37.902394, "lon": 14.0689057, "tags": {"amenity": "restaurant", "cuisine": "regional"}}, {"type": "node", "id": 3729660410, "lat": 38.0402046, "lon": 14.019936, "tags": {"amenity": "cafe", "check_date": "2023-05-27", "name": "Molo 19"}}, {"type": "node", "id": 3730206480, "lat": 38.0221525, "lon": 13.9491398, "tags": {"amenity": "cafe"}}, {"type": "node", "id": 3870543533, "lat": 37.6491113, "lon": 13.849359, "tags": {"addr:city": "Villalba", "addr:postcode": "93010", "addr:street": "Contrada San Nicola", "amenity": "restaurant", "capacity": "300", "cuisine": "pizza", "name": "Pizzeria Le Chalet", "phone": "+39 0934 811717", "smoking": "outside", "takeaway": "yes", "website": "https://www.facebook.com/le.chalet.77?fref=ts", "wheelchair": "yes"}}, {"type": "node", "id": 4003392475, "lat": 37.8553174, "lon": 13.7430356, "tags": {"amenity": "restaurant"}}, {"type": "node", "id": 4144290890, "lat": 38.0407718, "lon": 14.0209392, "tags": {"addr:housenumber": "66", "addr:street": "Via Carlo Ortolani di Bordonaro", "amenity": "restaurant", "cuisine": "italian", "email": "info@alporticciolo.it", "name": "Al Porticciolo", "phone": "+39 0921 423151", "website": "https://alporticciolo.it/"}}, {"type": "node", "id": 4148869320, "lat": 38.0405914, "lon": 14.0203736, "tags": {"amenity": "restaurant", "name": "Kentia al Trappitu", "website": "http://www.kentiaaltrappitu.it"}}, {"type": "node", "id": 4149671792, "lat": 38.0371076, "lon": 14.0189686, "tags": {"addr:city": "Cefal\u00f9", "addr:housenumber": "7", "addr:postcode": "90015", "addr:street": "Lungomare Giuseppe Giardina", "amenity": "cafe", "cuisine": "pizza", "indoor_seating": "yes", "name": "Bottega Tivitti Food & Wine", "outdoor_seating": "yes"}}, {"type": "node", "id": 4149678690, "lat": 38.0374475, "lon": 14.0195336, "tags": {"addr:street": "Piazza Cristoforo Colombo", "amenity": "cafe", "indoor_seating": "no", "name": "Kioskito bistrot", "outdoor_seating": "yes", "wheelchair": "yes"}}, {"type": "node", "id": 4149678691, "lat": 38.0371841, "lon": 14.0190738, "tags": {"addr:street": "Lungomare Giuseppe Giardina", "amenity": "restaurant", "cuisine": "italian_pizza", "name": "Ragno d'oro"}}, {"type": "node", "id": 4304307502, "lat": 37.7218725, "lon": 13.9345396, "tags": {"amenity": "restaurant", "cuisine": "regional", "name": "Il Granaio", "name:it": "hotel"}}, {"type": "node", "id": 4328873847, "lat": 37.813435, "lon": 13.9969506, "tags": {"amenity": "restaurant", "name": "Ristorante pizzeria Itria"}}, {"type": "node", "id": 4374066622, "lat": 37.7829955, "lon": 14.0441061, "tags": {"amenity": "restaurant", "capacity": "30", "cuisine": "pizza", "name": "Dal Polito", "smoking": "no"}}, {"type": "node", "id": 4479051756, "lat": 37.9344982, "lon": 14.0898572, "tags": {"addr:city": "Castelbuono", "addr:postcode": "90013", "addr:street": "Via San Paolo", "amenity": "restaurant", "cuisine": "pizza", "name": "Pizzeria S. Paolo"}}, {"type": "node", "id": 4709481093, "lat": 37.9913845, "lon": 13.8837524, "tags": {"amenity": "restaurant"}}, {"type": "node", "id": 4783283721, "lat": 38.0383778, "lon": 14.0200773, "tags": {"amenity": "restaurant", "check_date": "2023-05-27", "name": "lilie's caf\u00e9", "name:en": "lilie's caf\u00e9"}}, {"type": "node", "id": 4836983374, "lat": 38.0407431, "lon": 14.0223508, "tags": {"addr:city": "Cefal\u00f9", "addr:housenumber": "192", "addr:postcode": "90015", "addr:street": "Corso Ruggero", "amenity": "restaurant", "check_date": "2024-02-05", "name": "trattoria-pizzeria 'Na Principi"}}, {"type": "node", "id": 4994237785, "lat": 37.9322228, "lon": 14.0884671, "tags": {"addr:city": "Castelbuono", "addr:housenumber": "2", "addr:postcode": "90013", "addr:street": "Via Failla", "amenity": "restaurant", "cuisine": "pizza;regional", "name": "Ristorante Vecchio Palmento", "website": "https://www.facebook.com/ristorantevecchiopalmento/"}}, {"type": "node", "id": 5009740798, "lat": 37.9311615, "lon": 14.0879489}, {"type": "node", "id": 5009740799, "lat": 37.9312477, "lon": 14.0879114}, {"type": "node", "id": 5009740800, "lat": 37.9312701, "lon": 14.0880001}, {"type": "node", "id": 5009740801, "lat": 37.9312531, "lon": 14.0880068}, {"type": "node", "id": 5009740802, "lat": 37.9312624, "lon": 14.0880522}, {"type": "node", "id": 5009740803, "lat": 37.9312865, "lon": 14.0881722}, {"type": "node", "id": 5009740804, "lat": 37.9312379, "lon": 14.0881343}, {"type": "node", "id": 5009740805, "lat": 37.931191, "lon": 14.0880649}, {"type": "node", "id": 5063654077, "lat": 38.0198082, "lon": 14.163514, "tags": {"amenity": "restaurant", "name": "Trattoria Le Lanterne"}}, {"type": "node", "id": 5076280013, "lat": 37.8236036, "lon": 13.8561099, "tags": {"amenity": "restaurant", "name": "Ristorante Il Giglio"}}, {"type": "node", "id": 5111068402, "lat": 37.9395783, "lon": 14.08818, "tags": {"amenity": "restaurant", "cuisine": "regional", "name": "A Rametto"}}, {"type": "node", "id": 5133660721, "lat": 37.8119358, "lon": 14.0028172, "tags": {"amenity": "restaurant", "cuisine": "italian;local", "internet_access": "wlan", "name": "U Bagghiu", "name:en": "U Bagghiu", "name:it": "U Bagghiu"}}, {"type": "node", "id": 5133660821, "lat": 37.8122503, "lon": 14.0026446, "tags": {"amenity": "restaurant", "cuisine": "italian", "name": "Al templari", "name:en": "Al templari", "name:it": "Al templari"}}, {"type": "node", "id": 5137114726, "lat": 38.018514, "lon": 14.0858777, "tags": {"addr:postcode": "90015", "addr:street": "Via Vallone di Marzo", "amenity": "restaurant", "cuisine": "italian", "internet_access": "wlan", "name": "Osteria Bacchus", "name:en": "Restaurant Bacchus", "opening_hours": "Mo-Su 11:00-00:00", "website": "https://m.facebook.com/pages/Osteria-Bacchus/800844259949950?fref=ts"}}, {"type": "node", "id": 5137796323, "lat": 38.0186361, "lon": 14.08022, "tags": {"addr:street": "Strada Statale 113 Settentrionale Sicula", "amenity": "restaurant", "name": "La Volpe in Bikini", "phone": "+39 347 691 5710"}}, {"type": "node", "id": 5171651722, "lat": 38.036806, "lon": 14.0186027, "tags": {"amenity": "restaurant", "cuisine": "pizza", "name": "Al gabbiano"}}, {"type": "node", "id": 5171651723, "lat": 38.0364458, "lon": 14.018263, "tags": {"amenity": "restaurant", "indoor_seating": "yes", "name": "Lunico", "outdoor_seating": "yes"}}, {"type": "node", "id": 5171658221, "lat": 38.0369585, "lon": 14.0187848, "tags": {"amenity": "restaurant", "cuisine": "pizza", "name": "Antares"}}, {"type": "node", "id": 5351143369, "lat": 37.8090269, "lon": 14.0084284, "tags": {"amenity": "cafe"}}, {"type": "node", "id": 5471758321, "lat": 38.0367844, "lon": 14.0216758, "tags": {"addr:housenumber": "2", "addr:postcode": "90015", "addr:street": "Via discesa Paramuro", "amenity": "restaurant", "cuisine": "japanese;oriental;sushi;chinese", "name": "Naka Lounge Sushi and drink", "opening_hours": "Tu-Sa 19:00-01:00; Su 19:00-00:00", "phone": "+39 380 748 0052", "website": "http://www.nakarestaurant.it"}}, {"type": "node", "id": 5476723035, "lat": 37.6937787, "lon": 14.1144931, "tags": {"amenity": "cafe"}}, {"type": "node", "id": 5628574335, "lat": 38.0395453, "lon": 14.022273, "tags": {"addr:city": "Cefal\u00f9", "addr:housenumber": "14", "addr:postcode": "90015", "addr:street": "Piazza Duomo", "amenity": "cafe", "check_date": "2024-02-05", "cuisine": "coffee_shop;donut;breakfast;italian;pancake;savory_pancakes;sandwich;tea;cake;american", "email": "info@nonnange.it", "internet_access": "wlan", "name": "Duomo", "opening_hours": "Mo-Su 08:00-23:00", "outdoor_seating": "yes", "smoking": "outside", "website": "https://www.nonnange.it/"}}, {"type": "node", "id": 5650999121, "lat": 38.0393712, "lon": 14.0223827, "tags": {"amenity": "restaurant", "name": "Al Vicoletto"}}, {"type": "node", "id": 5650999521, "lat": 38.0390228, "lon": 14.0216781, "tags": {"amenity": "restaurant", "name": "La Siciliana"}}, {"type": "node", "id": 5699850825, "lat": 37.8858457, "lon": 14.0809989}, {"type": "node", "id": 5699850826, "lat": 37.8854314, "lon": 14.081277}, {"type": "node", "id": 5699850827, "lat": 37.8856155, "lon": 14.0812638}, {"type": "node", "id": 5699850828, "lat": 37.8857633, "lon": 14.0811576}, {"type": "node", "id": 5699850829, "lat": 37.8857646, "lon": 14.0813309}, {"type": "node", "id": 5699850830, "lat": 37.8856169, "lon": 14.0813384}, {"type": "node", "id": 5922554889, "lat": 37.9756778, "lon": 13.8336772}, {"type": "node", "id": 5922554890, "lat": 37.9753395, "lon": 13.833991}, {"type": "node", "id": 5922554891, "lat": 37.9750519, "lon": 13.8334089}, {"type": "node", "id": 5922554892, "lat": 37.9753881, "lon": 13.8331005}, {"type": "node", "id": 5931020827, "lat": 38.0198086, "lon": 14.1633485, "tags": {"amenity": "cafe", "name": "Bar delle Palme"}}, {"type": "node", "id": 5931020830, "lat": 38.019873, "lon": 14.1628201, "tags": {"amenity": "restaurant", "name": "Le Lanterne"}}, {"type": "node", "id": 5931020834, "lat": 38.0201176, "lon": 14.1600416, "tags": {"amenity": "cafe", "name": "Bar Libert\u00e0 24"}}, {"type": "node", "id": 5956338904, "lat": 37.8593125, "lon": 13.8986023, "tags": {"amenity": "restaurant", "brand": "Autogrill", "brand:wikidata": "Q786790", "cuisine": "italian;regional", "name": "Autogrill"}}, {"type": "node", "id": 5996268853, "lat": 37.9883174, "lon": 13.6951894, "tags": {"amenity": "cafe", "name": "'A Cuccagna"}}, {"type": "node", "id": 6038795555, "lat": 38.0368775, "lon": 14.0304865}, {"type": "node", "id": 6044863647, "lat": 38.0394827, "lon": 14.02121, "tags": {"amenity": "restaurant", "check_date": "2022-11-12", "name": "La Brace", "website": "https://ristorantelabrace.com/"}}, {"type": "node", "id": 6283499700, "lat": 38.0329993, "lon": 14.0196524, "tags": {"amenity": "cafe", "name": "Bar Stazione Vincitore"}}, {"type": "node", "id": 6433786678, "lat": 37.7676827, "lon": 13.7010711}, {"type": "node", "id": 6433786679, "lat": 37.7676485, "lon": 13.7011494}, {"type": "node", "id": 6433786680, "lat": 37.7675536, "lon": 13.7010831}, {"type": "node", "id": 6433786681, "lat": 37.7675894, "lon": 13.7010012}, {"type": "node", "id": 6433786682, "lat": 37.7675024, "lon": 13.7009405}, {"type": "node", "id": 6433786683, "lat": 37.767584, "lon": 13.7007538}, {"type": "node", "id": 6433786684, "lat": 37.7676771, "lon": 13.7008189}, {"type": "node", "id": 6433787585, "lat": 37.7676462, "lon": 13.7008896}, {"type": "node", "id": 6433787586, "lat": 37.7676661, "lon": 13.7009035}, {"type": "node", "id": 6433787587, "lat": 37.767698, "lon": 13.7008305}, {"type": "node", "id": 6433787588, "lat": 37.7677444, "lon": 13.7008629}, {"type": "node", "id": 6433787589, "lat": 37.7677162, "lon": 13.7009277}, {"type": "node", "id": 6433787590, "lat": 37.7677339, "lon": 13.70094}, {"type": "node", "id": 6433787625, "lat": 37.7677118, "lon": 13.7031391}, {"type": "node", "id": 6433787626, "lat": 37.767668, "lon": 13.7030234}, {"type": "node", "id": 6433787627, "lat": 37.7675611, "lon": 13.7030881}, {"type": "node", "id": 6433787628, "lat": 37.7676876, "lon": 13.7034224}, {"type": "node", "id": 6433787629, "lat": 37.7678599, "lon": 13.7033182}, {"type": "node", "id": 6433787630, "lat": 37.7677772, "lon": 13.7030995}, {"type": "node", "id": 6433787655, "lat": 37.7677632, "lon": 13.7008728}, {"type": "node", "id": 6433787656, "lat": 37.7678755, "lon": 13.7009513}, {"type": "node", "id": 6433787657, "lat": 37.7677903, "lon": 13.7011464}, {"type": "node", "id": 6754249486, "lat": 38.0402779, "lon": 14.0220976, "tags": {"amenity": "restaurant", "name": "Mom"}}, {"type": "node", "id": 6754249489, "lat": 38.0396144, "lon": 14.0225159, "tags": {"amenity": "restaurant", "indoor_seating": "yes", "name": "Duomo", "outdoor_seating": "yes", "wheelchair": "no"}}, {"type": "node", "id": 6754249585, "lat": 38.0396274, "lon": 14.0227611, "tags": {"amenity": "restaurant", "indoor_seating": "yes", "name": "Naka", "outdoor_seating": "yes", "wheelchair": "no"}}, {"type": "node", "id": 6820985585, "lat": 38.0363725, "lon": 14.0220592, "tags": {"amenity": "cafe", "name": "Goldenbar"}}, {"type": "node", "id": 6866714886, "lat": 37.9320793, "lon": 14.0898688, "tags": {"amenity": "restaurant"}}, {"type": "node", "id": 6959699985, "lat": 37.9315723, "lon": 14.0865786, "tags": {"amenity": "restaurant", "name": "A rua fera"}}, {"type": "node", "id": 7328509841, "lat": 37.7813077, "lon": 13.7139772, "tags": {"addr:housenumber": "6", "addr:street": "Via Garibaldi", "amenity": "cafe", "name": "Bar Perrone", "opening_hours": "08:00-22:00", "operator": "Perrone Giuseppe", "outdoor_seating": "yes", "phone": "+390918214009"}}, {"type": "node", "id": 7592690627, "lat": 37.8010966, "lon": 14.0386002, "tags": {"addr:city": "Castellana Sicula", "amenity": "restaurant", "delivery": "shipment", "description": "B&B: 60\u20ac , Mezza pensione: 96\u20ac , Pensione completa: 132\u20ac per due persone", "email": "agriturismo.gelso@gmail.com", "name": "Agriturismo Gelso", "opening_hours": "Mo-Su 12:00-14:00,19:00-23:00; PH off", "organic": "yes", "phone": "+39 3343899201", "shop": "farm", "sport": "paintball", "tourism": "guest_house", "vending": "oil;spice;pastry;antipasti;jam", "website": "https://agriturismogelsoit.wordpress.com", "website:orders": "https://agriturismogelsoit.wordpress.com/online-shop"}}, {"type": "node", "id": 7770003930, "lat": 37.928366, "lon": 14.0898542, "tags": {"addr:city": "Castelbuono", "addr:housenumber": "132", "addr:postcode": "90013", "addr:street": "Via Vittorio Emanuele", "amenity": "restaurant", "cuisine": "italian;pizza", "name": "A chiazzetta"}}, {"type": "node", "id": 7782897785, "lat": 38.0402494, "lon": 14.0278252, "tags": {"addr:street": "Via Giudecca", "amenity": "restaurant", "cuisine": "italian_pizza", "name": "Da Sas\u00e0"}}, {"type": "node", "id": 7785627798, "lat": 38.037134, "lon": 14.0217363, "tags": {"amenity": "restaurant", "name": "La Pergola"}}, {"type": "node", "id": 7945808030, "lat": 38.0312104, "lon": 14.0006375, "tags": {"addr:housenumber": "113", "addr:street": "Contrada Santa Lucia Strada Statale", "amenity": "cafe", "check_date": "2024-02-27", "diet:vegan": "yes", "email": "info@lesabbiedoro.it", "name": "Gran Caff\u00e8 Santa Lucia", "opening_hours": "07:00-23:30", "phone": "+39 0921 421565", "website": "https://www.grancaffesantalucia.com/"}}, {"type": "node", "id": 8039735285, "lat": 38.0410215, "lon": 14.0226185, "tags": {"addr:housenumber": "5", "addr:postcode": "90015", "addr:street": "Via Porpora", "amenity": "restaurant", "name": "Locanda del Marinaio", "opening_hours": "Mo-Su 12:00-14:30,19:00-23:00; Tu off"}}, {"type": "node", "id": 8283555860, "lat": 37.8120565, "lon": 14.004014, "tags": {"amenity": "restaurant", "cuisine": "pizza", "name": "Arte Bianca"}}, {"type": "node", "id": 8283848943, "lat": 37.7896642, "lon": 14.1086545, "tags": {"amenity": "cafe"}}, {"type": "node", "id": 8283848944, "lat": 37.7896821, "lon": 14.1085864, "tags": {"amenity": "restaurant"}}, {"type": "node", "id": 8283848962, "lat": 37.8068293, "lon": 14.0930863, "tags": {"addr:city": "Petralia Sottana", "addr:housenumber": "3", "addr:postcode": "90027", "addr:street": "Via Felice Gangi", "amenity": "restaurant", "cuisine": "pizza", "name": "Saxsum Pub", "opening_hours": "Tu-Su 18:00-02:00", "phone": "+390921680444"}}, {"type": "node", "id": 8284419991, "lat": 37.9206374, "lon": 13.9389578, "tags": {"amenity": "restaurant", "name": "La Fontana"}}, {"type": "node", "id": 8543845518, "lat": 38.0343734, "lon": 14.0195562, "tags": {"addr:housenumber": "17", "addr:street": "Via Roma", "amenity": "restaurant", "check_date": "2025-04-20", "check_date:opening_hours": "2025-04-20", "cuisine": "pasta", "diet:vegan": "yes", "email": "pastaepasti2015@libero.it", "name": "Pasta e Pasti", "opening_hours": "Tu-Su 09:00-16:00", "phone": "+39 921 424786", "stars": "5", "takeaway": "yes", "toilets": "yes", "website": "https://www.pastaepasti.it/", "wheelchair": "no"}}, {"type": "node", "id": 8543845519, "lat": 38.0363999, "lon": 14.0219838, "tags": {"addr:housenumber": "22", "addr:street": "Via Umberto I", "amenity": "restaurant", "diet:vegan": "yes", "diet:vegetarian": "yes", "name": "Capriccio Siciliano", "opening_hours": "Mo-Sa 09:00-23:30; Su 09:00-23:00"}}, {"type": "node", "id": 8543845520, "lat": 38.0362906, "lon": 14.0220534, "tags": {"addr:housenumber": "34", "addr:street": "Via Umberto I", "amenity": "restaurant", "name": "Triscele"}}, {"type": "node", "id": 8543863117, "lat": 38.0334107, "lon": 14.016218, "tags": {"addr:housenumber": "106", "addr:street": "Via Roma", "amenity": "restaurant", "check_date": "2024-04-28", "cuisine": "pizza", "name:en": "White Horse", "source": "survey"}}, {"type": "node", "id": 8551557717, "lat": 38.039895, "lon": 14.0218115, "tags": {"addr:housenumber": "16", "addr:street": "Via Mandralisca", "amenity": "restaurant", "name": "Mandralisca 16"}}, {"type": "node", "id": 9042509753, "lat": 37.9189121, "lon": 14.0782411}, {"type": "node", "id": 9042509754, "lat": 37.9190328, "lon": 14.0783763}, {"type": "node", "id": 9042509755, "lat": 37.9190959, "lon": 14.0782857}, {"type": "node", "id": 9042509756, "lat": 37.9191984, "lon": 14.0784005}, {"type": "node", "id": 9042509757, "lat": 37.9191038, "lon": 14.0785361}, {"type": "node", "id": 9042509758, "lat": 37.9188806, "lon": 14.0782862}, {"type": "node", "id": 9270705517, "lat": 38.0392988, "lon": 14.0223828, "tags": {"amenity": "restaurant", "name": "bif"}}, {"type": "node", "id": 9410284731, "lat": 37.987154, "lon": 13.6956954, "tags": {"addr:housenumber": "7b", "amenity": "cafe", "name": "Caffetteria 28", "outdoor_seating": "yes"}}, {"type": "node", "id": 9410951662, "lat": 37.9925696, "lon": 13.8859466, "tags": {"amenity": "restaurant", "cuisine": "pizza", "diet:vegan": "no", "diet:vegetarian": "yes", "name": "New Pizza"}}, {"type": "node", "id": 9720464532, "lat": 37.9838513, "lon": 13.6933389, "tags": {"amenity": "cafe", "name": "Bar Cristal", "opening_hours": "11:30-20:00"}}, {"type": "node", "id": 9720464533, "lat": 37.9785126, "lon": 13.6867447, "tags": {"amenity": "cafe", "name": "Gatto Bar Gelateria Pasticceria"}}, {"type": "node", "id": 9781286143, "lat": 38.0348972, "lon": 14.0359484, "tags": {"addr:city": "Cefal\u00f9", "addr:postcode": "90015", "addr:street": "Via di, Porto di Presidiana", "addr:unit": "Hotel Le Calette", "amenity": "restaurant", "cuisine": "italian;mediterranean;fine_dining", "name": "Cala Luna Restaurant", "phone": "+39 0921 424144", "website": "https://lecalette.it/ristoranti/cala-luna/"}}, {"type": "node", "id": 9812080620, "lat": 38.0357412, "lon": 14.0214525, "tags": {"amenity": "cafe", "indoor_seating": "yes", "name": "spinno", "opening_hours": "Mo-We,Fr,Sa 06:00-14:00,18:00-02:00, Su 18:00-02:00", "outdoor_seating": "yes"}}, {"type": "node", "id": 9812080717, "lat": 38.0382128, "lon": 14.0214249, "tags": {"amenity": "restaurant", "indoor_seating": "yes", "name": "Qualia", "outdoor_seating": "no", "wheelchair": "limited"}}, {"type": "node", "id": 9887413765, "lat": 37.7965479, "lon": 14.1085108, "tags": {"addr:city": "Petralia Soprana", "addr:housenumber": "12", "addr:postcode": "90026", "addr:province": "Palermo", "addr:street": "Via Pergola", "amenity": "restaurant", "cuisine": "italian", "name": "Ristorante Lu Carm\u00e8", "phone": "+390921641135"}}, {"type": "node", "id": 9887413766, "lat": 37.7955176, "lon": 14.1088581, "tags": {"addr:city": "Petralia Soprana", "addr:housenumber": "3", "addr:postcode": "90026", "addr:province": "Palermo", "addr:street": "Piazza San Michele", "amenity": "restaurant", "contact:email": "trattoriatipicadasalvatore@gmail.com", "cuisine": "local", "name": "Trattoria Da Salvatore", "payment:cash": "yes", "payment:credit_cards": "yes", "payment:debit_cards": "yes", "phone": "+39 0921 680169", "website": "www.trattoriatipicadasalvatore.com", "wheelchair": "no"}}, {"type": "node", "id": 9914142002, "lat": 37.931043, "lon": 14.087631, "tags": {"addr:housenumber": "11", "addr:street": "Via Francesco Cipolla", "amenity": "restaurant", "name": "Trattoria la lanterna", "outdoor_seating": "yes", "phone": "+390921993700"}}, {"type": "node", "id": 9919530370, "lat": 37.9219221, "lon": 14.0867255, "tags": {"addr:city": "Castelbuono", "addr:postcode": "90013", "addr:street": "Contrada Mandrazze", "amenity": "restaurant", "contact:facebook": "@chiaramitaristorante", "contact:instagram": "https://www.instagram.com/chiaramitaristorante/", "email": "chiaramitaristorante@gmail.com", "facebook": "https://www.facebook.com/chiaramitaristorante/", "name": "Chiaramita", "phone": "+390921639952"}}, {"type": "node", "id": 9927263917, "lat": 37.9815848, "lon": 13.8445859, "tags": {"addr:housenumber": "2", "addr:postcode": "90010", "addr:street": "Via Tempio Della Vittoria", "amenity": "cafe", "name": "Caffe' Solaire S.R.L.", "opening_hours": "Mo-Su 08:00-00:00"}}, {"type": "node", "id": 9962103898, "lat": 38.0337604, "lon": 14.0154593, "tags": {"amenity": "restaurant", "cuisine": "regional", "name": "Lievita"}}, {"type": "node", "id": 10051797220, "lat": 37.8061822, "lon": 14.0369888, "tags": {"addr:floor": "0", "addr:housenumber": "42", "addr:street": "Via Arno", "amenity": "restaurant", "check_date": "2022-09-25", "cuisine": "pizza;italian", "email": "la fontana.nociazzi@gmail.com", "name": "La fontana", "opening_hours": "Mo,We-Sa 19:30-24:00; Su 12:00-15:00,19:30-24:00", "payment:mastercard": "yes", "payment:visa": "yes", "phone": "+39 0921 642518", "wheelchair": "yes"}}, {"type": "node", "id": 10179081594, "lat": 38.0394262, "lon": 14.021723, "tags": {"amenity": "restaurant", "cuisine": "regional", "name": "Le Chat Noir", "outdoor_seating": "yes"}}, {"type": "node", "id": 10197806718, "lat": 37.9757323, "lon": 13.7162975, "tags": {"amenity": "restaurant", "name": "Ameterra"}}, {"type": "node", "id": 10800026880, "lat": 37.9321715, "lon": 13.660689, "tags": {"addr:housenumber": "1", "addr:street": "Corso Umberto Primo", "amenity": "cafe", "cuisine": "cake;coffee_shop;ice_cream;italian", "name": "Caff\u00e8 Royal", "website": "https://pasticceriacafferoyal.it/"}}, {"type": "node", "id": 10800026881, "lat": 37.9320668, "lon": 13.6603953, "tags": {"addr:city": "Caccamo", "addr:housenumber": "4", "addr:postcode": "90012", "addr:street": "Piazza dei Caduti", "amenity": "restaurant", "bar": "yes", "capacity": "300", "changing_table": "yes", "contact:website": "https://www.castellana.it/prenota/", "cuisine": "regional;pizza;italian", "delivery": "yes", "diet:gluten_free": "yes", "diet:lactose_free": "yes", "diet:meat": "yes", "diet:vegetarian": "yes", "ele": "520", "email": "info@castellana.it", "highchair": "yes", "image": "https://www.castellana.it/sale/sala-antica", "internet_access": "wlan", "name": "A' Castellana", "opening_hours": "Mo-Su 12:30-14:30 19:15-23:00", "outdoor_seating": "yes", "payment:american_express": "yes", "payment:bancomat": "yes", "payment:cash": "yes", "payment:contactless": "yes", "payment:credit_cards": "yes", "payment:debit_cards": "yes", "phone": "+390918148667", "reservation": "recommended", "start_date": "1976-12-19", "takeaway": "yes", "toilets": "yes", "toilets:wheelchair": "yes", "website": "https://www.castellana.it", "website:menu": "https://www.castellana.it/menu/"}}, {"type": "node", "id": 10994301310, "lat": 37.7900933, "lon": 14.1097607, "tags": {"amenity": "cafe"}}, {"type": "node", "id": 11028576701, "lat": 38.0387331, "lon": 14.0216357, "tags": {"addr:housenumber": "13", "addr:street": "Via Nicola Botta", "amenity": "restaurant", "description": "Sicilian Cuisine", "name": "Brama", "phone": "+390921820987"}}, {"type": "node", "id": 11028605516, "lat": 38.040024, "lon": 14.0208287, "tags": {"amenity": "restaurant", "name": "22 Cucina Isolana"}}, {"type": "node", "id": 11031888172, "lat": 38.0361836, "lon": 14.0183483, "tags": {"addr:housenumber": "3", "addr:street": "Via Archimede", "amenity": "restaurant", "name": "Foodda", "website": "https://www.foodda.it/"}}, {"type": "node", "id": 11054364810, "lat": 37.9312597, "lon": 14.0880309}, {"type": "node", "id": 11054364811, "lat": 37.9312518, "lon": 14.0881486}, {"type": "node", "id": 11054364812, "lat": 37.9312665, "lon": 14.0881582}, {"type": "node", "id": 11054364817, "lat": 37.932931, "lon": 14.0877449, "tags": {"addr:city": "Castelbuono", "addr:housenumber": "25", "addr:postcode": "90013", "addr:street": "Via Sant'Anna", "amenity": "restaurant", "capacity": "100", "cuisine": "regional;pizza;italian", "delivery": "no", "name": "U' Trappitu", "opening_hours": "09:00-16:00,18:30-03:00", "outdoor_seating": "yes", "phone": "+39 0921 671764", "smoking": "no", "takeaway": "yes", "website": "https://www.facebook.com/UTrappitu/", "wheelchair": "yes"}}, {"type": "node", "id": 11085675150, "lat": 37.9322281, "lon": 14.0875831, "tags": {"addr:city": "Castelbuono", "addr:housenumber": "10", "addr:place": "Piazza Margherita", "addr:postcode": "90013", "amenity": "cafe", "cuisine": "ice_cream;dessert;coffee_shop", "name": "Fiasconaro", "outdoor_seating": "yes", "phone": "+39 0921671231", "website": "https://www.fiasconaro.com/"}}, {"type": "node", "id": 11085689864, "lat": 37.9319599, "lon": 14.0898702, "tags": {"addr:city": "Castelbuono", "addr:housenumber": "3", "addr:postcode": "90013", "addr:street": "Piazza Tenente Schicchi", "amenity": "restaurant", "cuisine": "regional;italian;pizza;fish", "name": "Ristorante Umberto I", "outdoor_seating": "yes", "phone": "+390921672843", "takeaway": "yes", "wheelchair": "yes"}}, {"type": "node", "id": 11085727096, "lat": 37.8547832, "lon": 14.1503071, "tags": {"addr:city": "Geraci Siculo", "addr:postcode": "90010", "addr:street": "Via Nazionale", "air_conditioning": "yes", "amenity": "restaurant", "cuisine": "regional;pizza;italian;pasta", "name": "Rifugio dell'Aquila", "outdoor_seating": "yes", "phone": "+393335228312", "toilets": "yes", "wheelchair": "yes"}}, {"type": "node", "id": 11182574370, "lat": 38.0403347, "lon": 14.0284316, "tags": {"amenity": "restaurant", "name": "Al Faro"}}, {"type": "node", "id": 11539755715, "lat": 38.0400709, "lon": 14.0224562, "tags": {"amenity": "restaurant", "name": "Osteria del Duomo"}}, {"type": "node", "id": 11539909506, "lat": 38.0363784, "lon": 14.0181648, "tags": {"amenity": "restaurant", "indoor_seating": "yes", "name": "Tentazioni", "outdoor_seating": "yes"}}, {"type": "node", "id": 11539910495, "lat": 38.0348859, "lon": 14.0152615, "tags": {"amenity": "restaurant", "indoor_seating": "yes", "outdoor_seating": "no"}}, {"type": "node", "id": 11539939789, "lat": 38.0364746, "lon": 14.017625, "tags": {"amenity": "restaurant", "fee": "yes", "indoor_seating": "no", "leisure": "beach_resort", "name": "Poseidon", "opening_hours": "Mo-Su 12:30-19:30", "outdoor_seating": "yes", "wheelchair": "no"}}, {"type": "node", "id": 11540060350, "lat": 38.0340514, "lon": 14.0182828, "tags": {"amenity": "cafe", "indoor_seating": "yes", "outdoor_seating": "yes"}}, {"type": "node", "id": 11542815725, "lat": 37.9947284, "lon": 13.8854276, "tags": {"amenity": "restaurant"}}, {"type": "node", "id": 11542824133, "lat": 37.9949659, "lon": 13.8857004, "tags": {"amenity": "cafe", "indoor_seating": "yes", "outdoor_seating": "yes"}}, {"type": "node", "id": 11543080435, "lat": 37.983642, "lon": 13.7013588, "tags": {"amenity": "cafe", "indoor_seating": "yes", "outdoor_seating": "yes"}}, {"type": "node", "id": 11543725418, "lat": 37.9777701, "lon": 13.8369366, "tags": {"amenity": "cafe"}}, {"type": "node", "id": 11591761679, "lat": 37.6616405, "lon": 13.6687067, "tags": {"amenity": "cafe", "indoor_seating": "yes", "outdoor_seating": "yes"}}, {"type": "node", "id": 11750621573, "lat": 38.0263574, "lon": 13.9777694}, {"type": "node", "id": 11750621574, "lat": 38.026271, "lon": 13.9776632}, {"type": "node", "id": 11750621575, "lat": 38.0261981, "lon": 13.9777609}, {"type": "node", "id": 11750621576, "lat": 38.0261873, "lon": 13.9777643}, {"type": "node", "id": 11750621577, "lat": 38.0261536, "lon": 13.9778054}, {"type": "node", "id": 11750621578, "lat": 38.0262386, "lon": 13.9779185}, {"type": "node", "id": 11809384053, "lat": 38.0411846, "lon": 14.0219875, "tags": {"addr:housenumber": "13", "addr:street": "Piazza Francesco Crispi", "amenity": "restaurant", "bar": "yes", "check_date": "2024-04-11", "cuisine": "italian", "diet:gluten_free": "yes", "diet:vegan": "yes", "diet:vegetarian": "yes", "level": "0", "name": "Bastione & Costanza", "opening_hours": "We-Su 12:00-15:00,19:00-24:00", "outdoor_seating": "yes", "payment:cash": "yes", "payment:mastercard": "yes", "payment:visa": "yes", "reservation": "yes", "toilets": "yes", "toilets:wheelchair": "yes", "website": "https://www.bastionecefalu.com/", "wheelchair": "yes"}}, {"type": "node", "id": 11956499530, "lat": 37.8068385, "lon": 14.0928664, "tags": {"amenity": "cafe", "name": "Bar Tabacchi di Macaluso Marisa", "opening_hours": "Mo-SU 07:00-13:00, 15:30-20:30", "outdoor_seating": "no"}}, {"type": "node", "id": 11956499536, "lat": 37.8044585, "lon": 14.0917109, "tags": {"amenity": "restaurant", "cuisine": "regional", "name": "Nicuzza - Piccola Osteria Contemporanea", "opening_hours": "Mo,Tu,Th,Fr 19:30-22:30; Sa,Su 12:30-14:30,19:30-22:30", "website": "https://osterianicuzza.wordpress.com/2022/07/27/menu/"}}, {"type": "node", "id": 12001243405, "lat": 38.0370219, "lon": 14.0193481, "tags": {"addr:housenumber": "5/6/7", "addr:street": "Piazza Cristoforo Colombo", "amenity": "restaurant", "name": "Sutt'a R\u00e0via", "website": "https://www.suttaraviamenu.it/"}}, {"type": "node", "id": 12025610510, "lat": 38.0406599, "lon": 14.022, "tags": {"addr:city": "Cefal\u00f9", "addr:housenumber": "20", "addr:postcode": "90015", "addr:street": "Via Veterani", "amenity": "restaurant", "cuisine": "italian;fish", "name": "La Botte"}}, {"type": "node", "id": 12025717188, "lat": 38.0406546, "lon": 14.0206589, "tags": {"addr:city": "Cefal\u00f9", "addr:housenumber": "76", "addr:postcode": "90015", "addr:street": "Via Carlo Ortolani di Bordonaro", "amenity": "restaurant", "cuisine": "fish", "name": "Via Roma Vecchia"}}, {"type": "node", "id": 12296073901, "lat": 37.9357189, "lon": 13.6725828, "tags": {"amenity": "cafe"}}, {"type": "node", "id": 12567661282, "lat": 37.8640681, "lon": 13.7818565, "tags": {"amenity": "cafe"}}, {"type": "node", "id": 12657223602, "lat": 37.7914188, "lon": 14.1058275, "tags": {"amenity": "restaurant", "cuisine": "pizza", "name": "Clorophilla"}}, {"type": "node", "id": 12681168150, "lat": 38.0378519, "lon": 14.0218077, "tags": {"addr:housenumber": "53", "addr:street": "Corso Ruggero", "amenity": "restaurant", "check_date": "2025-03-19", "cuisine": "italian", "name": "Sfrigola", "opening_hours": "Mo-Su 11:00-21:00", "outdoor_seating": "no", "payment:cash": "yes", "payment:credit_cards": "yes", "payment:debit_cards": "yes", "phone": "+390921994481", "takeaway": "yes", "toilets": "no", "website": "https://www.sfrigola.it"}}, {"type": "node", "id": 12774643981, "lat": 38.0368077, "lon": 14.0217785, "tags": {"amenity": "restaurant", "name": "Porta Terra Gourmet"}}, {"type": "node", "id": 12783406276, "lat": 37.9249527, "lon": 14.1548661, "tags": {"amenity": "restaurant", "name": "La Posada"}}, {"type": "node", "id": 12802956134, "lat": 38.0393337, "lon": 14.0213915, "tags": {"addr:housenumber": "37/39", "addr:street": "Via 25 Novembre 1856", "amenity": "restaurant", "check_date": "2025-05-01", "cuisine": "regional", "name": "Tinchit\u00e8", "payment:cash": "yes", "payment:credit_cards": "yes", "payment:debit_cards": "yes", "phone": "+39 0921 421164", "website": "https://www.tavernatinchite.com/", "wheelchair": "yes"}}, {"type": "node", "id": 12837348101, "lat": 38.0384653, "lon": 14.0217993, "tags": {"addr:housenumber": "9", "addr:street": "Via Vanni", "amenity": "restaurant", "cuisine": "italian", "name:en": "Il Normanno"}}, {"type": "node", "id": 12862185439, "lat": 38.0335775, "lon": 14.0193521, "tags": {"amenity": "restaurant", "check_date": "2025-05-25", "cuisine": "italian;pizza", "name": "Pizza Bakery"}}, {"type": "node", "id": 12862516605, "lat": 38.0387328, "lon": 14.0221087, "tags": {"amenity": "restaurant", "check_date": "2025-05-25", "cuisine": "italian", "name": "Karma"}}, {"type": "node", "id": 12905145502, "lat": 38.0408446, "lon": 14.0212524, "tags": {"amenity": "restaurant", "name": "Bordomari Sea Lounge Bar"}}, {"type": "node", "id": 12905982401, "lat": 38.0405122, "lon": 14.020693, "tags": {"amenity": "restaurant", "name": "Deja vu"}}, {"type": "node", "id": 12908454575, "lat": 37.9847601, "lon": 13.7031454}, {"type": "node", "id": 12908454576, "lat": 37.9846719, "lon": 13.7031766}, {"type": "node", "id": 12908454577, "lat": 37.9846039, "lon": 13.7028397}, {"type": "node", "id": 12908454578, "lat": 37.9846887, "lon": 13.7028099}, {"type": "node", "id": 12909158523, "lat": 37.9843757, "lon": 13.7020652}, {"type": "node", "id": 12909158524, "lat": 37.9843149, "lon": 13.7020887}, {"type": "node", "id": 12909158525, "lat": 37.9843283, "lon": 13.7020146}, {"type": "node", "id": 12909158526, "lat": 37.984352, "lon": 13.7019664}, {"type": "node", "id": 12909158527, "lat": 37.9842998, "lon": 13.7020256}, {"type": "node", "id": 12909158528, "lat": 37.9843198, "lon": 13.7019788}, {"type": "way", "id": 152522286, "nodes": [1653381954, 1653381951, 1653381944, 1653381948, 1653381954], "tags": {"amenity": "restaurant", "building": "yes", "name": "Ristoro dello Scoiattolo"}}, {"type": "way", "id": 244196142, "nodes": [2515431200, 6038795555, 2515431172, 2515431158, 2515431169, 2515431175, 2515431191, 2515431200], "tags": {"amenity": "restaurant", "cuisine": "italian", "name": "La Tavernetta", "wheelchair": "no"}}, {"type": "way", "id": 246904511, "nodes": [2538724576, 2538724578, 2538724580, 2538724581, 2538724583, 2538724585, 2538724587, 2538724588, 2538724590, 2538724592, 2538724576], "tags": {"amenity": "restaurant", "building": "yes", "name": "Ristorante Mogavero"}}, {"type": "way", "id": 250777614, "nodes": [2571498712, 2571498714, 2571498716, 2571498718, 2571498712], "tags": {"amenity": "restaurant", "building": "yes", "name": "Spaccio Colombo"}}, {"type": "way", "id": 283592994, "nodes": [2874368219, 2874368220, 5699850825, 2874368221, 5699850828, 5699850829, 5699850830, 5699850827, 5699850826, 2874368222, 2874368219], "tags": {"amenity": "restaurant", "building": "farm", "name": "Masseria Rocca di Gonato", "tourism": "guest_house", "website": "http://roccadigonato.cmsvisuale.it/"}}, {"type": "way", "id": 512350265, "nodes": [5009740798, 5009740799, 5009740800, 5009740801, 11054364810, 5009740802, 5009740803, 11054364812, 11054364811, 5009740804, 5009740805, 5009740798], "tags": {"addr:city": "Castelbuono", "addr:housenumber": "42", "addr:postcode": "90013", "addr:street": "Via Umberto Primo", "amenity": "restaurant", "building": "yes", "building:levels": "2", "cuisine": "regional;pizza", "delivery": "no", "name": "Giardino di Venere", "outdoor_seating": "yes", "takeaway": "yes"}}, {"type": "way", "id": 627391266, "nodes": [5922554889, 5922554890, 5922554891, 5922554892, 5922554889], "tags": {"amenity": "restaurant", "building": "yes", "name": "Nasca"}}, {"type": "way", "id": 686408429, "nodes": [6433787625, 6433787630, 6433787629, 6433787628, 6433787627, 6433787626, 6433787625], "tags": {"amenity": "restaurant", "building": "yes", "name": "Villa Dafne"}}, {"type": "way", "id": 686408435, "nodes": [6433787657, 6433787656, 6433787655, 6433787590, 6433787589, 6433787588, 6433787587, 6433787586, 6433787585, 6433786684, 6433786683, 6433786682, 6433786681, 6433786680, 6433786679, 6433786678, 6433787657], "tags": {"amenity": "restaurant", "building": "hotel", "internet_access": "yes", "internet_access:fee": "no", "name": "Villa Dafne Azienda Agrituristica", "smoking": "no", "tourism": "hotel"}}, {"type": "way", "id": 977158903, "nodes": [9042509758, 9042509757, 9042509756, 9042509755, 9042509754, 9042509753, 9042509758], "tags": {"amenity": "restaurant", "cuisine": "pizza;regional", "name": "Ranch San Guglielmo", "phone": "+390921671150"}}, {"type": "way", "id": 1264831878, "nodes": [11750621573, 11750621574, 11750621575, 11750621576, 11750621577, 11750621578, 11750621573], "tags": {"amenity": "restaurant", "building": "yes", "cuisine": "italian", "name": "Trattoria Zagara", "phone": "+390921929100"}}, {"type": "way", "id": 1394434822, "nodes": [12908454575, 12908454576, 12908454577, 12908454578, 12908454575], "tags": {"amenity": "restaurant", "building": "yes", "name": "MeNeFod"}}, {"type": "way", "id": 1394505335, "nodes": [12909158523, 12909158524, 12909158527, 12909158525, 12909158528, 12909158526, 12909158523], "tags": {"amenity": "cafe", "building": "yes"}}]}