{"version": 0.6, "generator": "Overpass API 0.7.62.7 375dc00a", "osm3s": {"timestamp_osm_base": "2025-06-14T13:52:30Z", "copyright": "The data included in this document is from www.openstreetmap.org. The data is made available under ODbL."}, "elements": [{"type": "node", "id": 4693248091, "lat": 29.9890883, "lon": 14.2549262, "tags": {"amenity": "restaurant", "cuisine": "barbecue;breakfast;chicken;coffee_shop;fine_dining;grill;ice_cream", "email": "alnkee@gmail.com", "internet_access": "wlan", "name": "\u0645\u0637\u0639\u0645 \u0627\u0644\u0642\u0644\u0639\u0629 \u0627\u0644\u0633\u064a\u0627\u062d\u064a", "name:ar": "\u0645\u0637\u0639\u0645 \u0627\u0644\u0642\u0644\u0639\u0629 \u0627\u0644\u0633\u064a\u0627\u062d\u064a", "name:en": "Restaurant", "opening_hours": "24/7", "operator": "Ok", "phone": "0917293014", "website": "http://alnke@yahoo.com"}}, {"type": "node", "id": 5901245785, "lat": 29.9890525, "lon": 14.2543728, "tags": {"amenity": "restaurant", "name": "\u0627\u0633\u062a\u062f\u064a\u0648 \u0627\u0644\u0648\u0627\u062d\u0629", "name:ar": "\u0627\u0633\u062a\u062f\u064a\u0648 \u0627\u0644\u0643\u0644\u0627\u0628", "name:en": "Studio alwaha"}}, {"type": "node", "id": 6798886085, "lat": 29.9797866, "lon": 14.2598283, "tags": {"amenity": "cafe", "name": "\u0643\u0627\u0641\u064a \u0627\u0628\u0648 \u062d\u062f\u064a\u0641\u0629", "name:ar": "\u0643\u0627\u0641\u064a \u0627\u0628\u0648 \u062d\u062f\u064a\u0641\u0629", "name:en": "Cafe"}}, {"type": "node", "id": 7716980153, "lat": 29.9886916, "lon": 14.2546767, "tags": {"amenity": "restaurant"}}]}