{"version": 0.6, "generator": "Overpass API 0.7.62.7 375dc00a", "osm3s": {"timestamp_osm_base": "2025-06-14T15:26:15Z", "copyright": "The data included in this document is from www.openstreetmap.org. The data is made available under ODbL."}, "elements": [{"type": "node", "id": 2013818148, "lat": 37.1478032, "lon": 38.7920107, "tags": {"amenity": "restaurant", "name": "Ci\u011ferci Aziz Usta", "name:en": "Cigerci Aziz Usta"}}, {"type": "node", "id": 2523229695, "lat": 37.2584467, "lon": 38.8169466, "tags": {"amenity": "restaurant"}}, {"type": "node", "id": 2567537646, "lat": 37.1486068, "lon": 39.1037542, "tags": {"amenity": "restaurant"}}, {"type": "node", "id": 4348443389, "lat": 37.1863149, "lon": 38.8049393, "tags": {"amenity": "restaurant", "name": "G\u00f6rkem Resturant"}}, {"type": "node", "id": 4453489491, "lat": 37.1796721, "lon": 38.8039363, "tags": {"amenity": "restaurant", "name": "Dedecan Ocakba\u015f\u0131", "name:tr": "Dedecan Ocakba\u015f\u0131", "opening_hours": "Mo-Su 08:00-00:00", "phone": "+90 414 315 2525"}}, {"type": "node", "id": 4453533291, "lat": 37.162561, "lon": 38.7929553, "tags": {"amenity": "restaurant", "name": "G\u00fclhan Restoran", "name:tr": "G\u00fclhan Restoran", "opening_hours": "Mo-Su 08:30-22:30", "phone": "+90 414 313 3318"}}, {"type": "node", "id": 4453544093, "lat": 37.1735127, "lon": 38.8067735, "tags": {"amenity": "restaurant", "name": "\u00c7a\u011fda\u015f Ocakba\u015f\u0131", "name:tr": "\u00c7a\u011fda\u015f Ocakba\u015f\u0131", "opening_hours": "Mo-Su 10:00-00:00", "phone": "+90 414 313 3800"}}, {"type": "node", "id": 4684445033, "lat": 37.149906, "lon": 38.7821469, "tags": {"amenity": "cafe", "name": "Sak\u0131p'\u0131n K\u00f6\u015fk\u00fc"}}, {"type": "node", "id": 4704961790, "lat": 37.1587026, "lon": 38.7914087, "tags": {"amenity": "restaurant", "name": "Gulhan Restaurant", "name:tr": "Gulhan Restaurant"}}, {"type": "node", "id": 4706151789, "lat": 37.1556224, "lon": 38.7881738, "tags": {"amenity": "restaurant", "name": "Cevahir Konukevi Sira Gecesi", "name:tr": "Cevahir Konukevi Sira Gecesi"}}, {"type": "node", "id": 4884924160, "lat": 37.3699871, "lon": 38.8377437, "tags": {"amenity": "restaurant", "name": "Lokanta"}}, {"type": "node", "id": 4889905044, "lat": 37.1465723, "lon": 38.7847624, "tags": {"amenity": "cafe", "name": "\u00c7ay Bah\u00e7esi", "name:en": "\u00c7ay Bah\u00e7esi", "name:tr": "\u00c7ay Bah\u00e7esi"}}, {"type": "node", "id": 4889959139, "lat": 37.1572932, "lon": 38.7919908, "tags": {"amenity": "restaurant", "name": "Zahter", "name:en": "Zahter", "name:tr": "Zahter"}}, {"type": "node", "id": 4889959140, "lat": 37.1460423, "lon": 38.7863998, "tags": {"amenity": "restaurant", "name": "\u00c7ift Magara", "name:tr": "\u00c7ift Magara"}}, {"type": "node", "id": 4889959825, "lat": 37.1468391, "lon": 38.7847822, "tags": {"amenity": "cafe", "name": "\u00c7ay Bah\u00e7esi", "name:en": "\u00c7ay Bah\u00e7esi", "name:tr": "\u00c7ay Bah\u00e7esi"}}, {"type": "node", "id": 4889959827, "lat": 37.1490385, "lon": 38.790381, "tags": {"amenity": "restaurant", "name": "Ikiler Ciger Salonu", "name:en": "Ikiler Ciger Salonu", "name:tr": "Ikiler Ciger Salonu"}}, {"type": "node", "id": 5021425623, "lat": 37.181142, "lon": 38.8004061, "tags": {"addr:city": "\u015eanl\u0131urfa", "amenity": "cafe", "brand": "Mado", "brand:wikidata": "Q17116336", "brand:wikipedia": "en:Mado (food company)", "cuisine": "coffee_shop", "name": "Mado", "opening_hours": "Mo-Su 08:00-01:00", "takeaway": "yes"}}, {"type": "node", "id": 5021634822, "lat": 37.1488621, "lon": 38.7886095, "tags": {"amenity": "cafe", "name": "G\u00fcmr\u00fck Han", "name:tr": "G\u00fcmr\u00fck Han"}}, {"type": "node", "id": 5238119721, "lat": 37.1658248, "lon": 38.7938621, "tags": {"amenity": "restaurant", "name": "Destan D\u00f6ner", "name:en": "Restaurant Destan", "name:ru": "\u0420\u0435\u0441\u0442\u0430\u0440\u0430\u043d \u0414\u0435\u0441\u0442\u0430\u043d"}}, {"type": "node", "id": 5341366278, "lat": 37.1697143, "lon": 38.8469493, "tags": {"amenity": "restaurant", "name": "Cafe Sukay"}}, {"type": "node", "id": 5582249521, "lat": 37.2729739, "lon": 38.7962438, "tags": {"amenity": "restaurant", "name": "\u00c7ift\u00e7i Lokantas\u0131"}}, {"type": "node", "id": 5582273722, "lat": 37.2132145, "lon": 38.797524, "tags": {"amenity": "restaurant", "name": "Kilim Et Lokantas\u0131"}}, {"type": "node", "id": 5598130427, "lat": 37.1943339, "lon": 38.7973157, "tags": {"amenity": "restaurant", "name": "Beyaz Saray Ocakba\u015f\u0131"}}, {"type": "node", "id": 5598146621, "lat": 37.1589374, "lon": 38.7913822, "tags": {"addr:housenumber": "32", "addr:street": "Atat\u00fcrk Bulvar\u0131", "amenity": "restaurant", "name": "G\u00fclhan Restaurant", "opening_hours": "Mo-Su 08:30-22:30", "phone": "+90 414 313 3318"}}, {"type": "node", "id": 5598146622, "lat": 37.157401, "lon": 38.813223, "tags": {"amenity": "restaurant", "name": "Alt\u0131n Lokantas\u0131", "phone": "+90 414 315 3443"}}, {"type": "node", "id": 5598146623, "lat": 37.1789111, "lon": 38.8027285, "tags": {"amenity": "restaurant", "name": "Sporyum Ocakba\u015f\u0131", "opening_hours": "Mo-Su 08:00-00:00", "phone": "+90 414 316 4747"}}, {"type": "node", "id": 5598152321, "lat": 37.1674509, "lon": 38.7986126, "tags": {"amenity": "restaurant", "name": "\u00c7olcuo\u011flu Restaurant"}}, {"type": "node", "id": 5598176021, "lat": 37.2218401, "lon": 38.805383, "tags": {"amenity": "restaurant", "name": "\u00c7avu\u015fo\u011flu Restaurant", "opening_hours": "Mo-Su 08:00-00:00", "phone": "+90 414 347 0303"}}, {"type": "node", "id": 5598180522, "lat": 37.166596, "lon": 38.8003799, "tags": {"addr:street": "Recep Tayyip Erdo\u011fan Bulvar\u0131", "amenity": "restaurant", "name": "Urfa Acem Sofras\u0131", "phone": "+90 414 313 6060"}}, {"type": "node", "id": 5613868025, "lat": 37.1714857, "lon": 38.8090765, "tags": {"addr:city": "\u015eanl\u0131urfa", "addr:district": "Haliliye", "addr:housenumber": "41", "addr:street": "Emniyet Caddesi", "amenity": "restaurant", "name": "Hac\u0131baba Ocakba\u015f\u0131", "phone": "0414 315 14 13"}}, {"type": "node", "id": 5736103724, "lat": 37.1769759, "lon": 38.8026962, "tags": {"amenity": "restaurant"}}, {"type": "node", "id": 5782694095, "lat": 37.1477795, "lon": 38.7879994, "tags": {"amenity": "restaurant"}}, {"type": "node", "id": 6076075692, "lat": 37.2857295, "lon": 38.7957463, "tags": {"amenity": "restaurant", "name": "Ada"}}, {"type": "node", "id": 6343412888, "lat": 37.1570822, "lon": 38.7816838, "tags": {"amenity": "cafe", "name": "\u00d6zs\u00fct"}}, {"type": "node", "id": 6372444085, "lat": 37.1631612, "lon": 38.7950937, "tags": {"amenity": "cafe", "cuisine": "turkish;breakfast;coffee_shop", "internet_access": "wlan", "name": "Kahve Diyari"}}, {"type": "node", "id": 6566395985, "lat": 37.1461314, "lon": 38.7859614, "tags": {"amenity": "cafe", "name": "B\u00fcy\u00fck Ma\u011fara Cafe"}}, {"type": "node", "id": 6566516102, "lat": 37.1478266, "lon": 38.7881929, "tags": {"amenity": "restaurant", "name": "Beyaz K\u00f6\u015fk"}}, {"type": "node", "id": 7061110785, "lat": 37.2242675, "lon": 38.8122544, "tags": {"addr:housenumber": "16", "addr:street": "6180 Sokak", "amenity": "restaurant", "cuisine": "pizza;turkish", "name": "Pi El Ruha", "opening_hours": "Mo-Su 09:00-18:00"}}, {"type": "node", "id": 8285629017, "lat": 37.1790372, "lon": 38.8123028, "tags": {"addr:housenumber": "121", "addr:street": "Yunus Emre Caddesi", "amenity": "cafe", "internet_access": "wlan", "name": "Mavera Pasta Cafe", "opening_hours": "Mo-Su 08:00-22:00"}}, {"type": "node", "id": 8913937315, "lat": 37.171154, "lon": 38.8090829, "tags": {"addr:city": "\u015eanl\u0131urfa", "addr:district": "Haliliye", "addr:housenumber": "66", "addr:neighbourhood": "Yeni\u015fehir Mahallesi", "addr:street": "Emniyet Caddesi", "amenity": "restaurant", "contact:mobile": "+90 546 422 63 63", "cuisine": "kebab", "fixme": "Is this restaurant closed?", "name": "MELEVAN - \u00d6zel Soslu Hatay D\u00f6neri", "name:en": "Melevan - Hatay Doner with Special Sauce", "opening_hours": "Mo-Su 09:00-21:00"}}, {"type": "node", "id": 9087473617, "lat": 37.1571963, "lon": 38.7919546, "tags": {"amenity": "restaurant", "name": "Faruk Usta Ocakbasi"}}, {"type": "node", "id": 9469511514, "lat": 37.218877, "lon": 38.7680816, "tags": {"amenity": "restaurant", "cuisine": "turkish", "name": "Komagene"}}, {"type": "node", "id": 9575555223, "lat": 37.1548072, "lon": 38.8264569, "tags": {"addr:city": "\u015eanl\u0131urfa", "amenity": "restaurant", "name": "HUBBE Restaurant - Kahvalt\u0131- Cafe"}}, {"type": "node", "id": 9961088744, "lat": 37.1591053, "lon": 38.800337, "tags": {"amenity": "restaurant", "name": "Tas Saray Restran", "name:en": "TASH SARAY RESTAURANT"}}, {"type": "node", "id": 10105393317, "lat": 37.1514905, "lon": 38.7904481, "tags": {"amenity": "restaurant", "name": "Konak"}}, {"type": "node", "id": 10238945609, "lat": 37.1573022, "lon": 38.7917362, "tags": {"addr:housenumber": "75", "addr:street": "Atat\u00fcrk Bulvar\u0131", "amenity": "restaurant", "cuisine": "kebab", "name": "G\u00fclizar d", "name:en": "G\u00fclizar d\u00f6ner", "name:fr": "G\u00fclizar d\u00f6ner", "name:tr": "G\u00fclizar d\u00f6ner", "phone": "+90 414 215 32 59"}}, {"type": "node", "id": 10243901109, "lat": 37.1573001, "lon": 38.7918425, "tags": {"amenity": "restaurant", "cuisine": "breakfast;turkish", "name": "Dilim pastanesi", "phone": "+90 414 312 80 22"}}, {"type": "node", "id": 10750720299, "lat": 37.1594447, "lon": 38.796044, "tags": {"addr:city": "\u015eanl\u0131urfa", "amenity": "cafe", "name": "F\u0131r\u0131n Cafe"}}, {"type": "node", "id": 10763374634, "lat": 37.1546995, "lon": 38.7912402, "tags": {"addr:city": "\u015eanl\u0131urfa", "amenity": "restaurant", "name": "Sembol Ocakba\u015f\u0131"}}, {"type": "node", "id": 10983038867, "lat": 37.1489578, "lon": 38.7889129, "tags": {"amenity": "cafe"}}, {"type": "node", "id": 10983042905, "lat": 37.1494534, "lon": 38.7904576, "tags": {"amenity": "restaurant", "cuisine": "regional"}}, {"type": "node", "id": 12722820201, "lat": 37.1469034, "lon": 38.7849082, "tags": {"addr:street": "Bal\u0131kl\u0131g\u00f6l Caddesi", "amenity": "cafe", "name": "\u00c7ay Bah\u00e7esi", "name:en": "Tea Garden"}}, {"type": "node", "id": 12816672201, "lat": 37.1662255, "lon": 38.808335, "tags": {"amenity": "restaurant", "name": "Dar\u0131ks Steak"}}, {"type": "node", "id": 12833326701, "lat": 37.1620383, "lon": 38.7962514, "tags": {"amenity": "restaurant", "name": "Okyanus Balikcisi (Fish)"}}]}