{"version": 0.6, "generator": "Overpass API 0.7.62.7 375dc00a", "osm3s": {"timestamp_osm_base": "2025-06-14T15:16:01Z", "copyright": "The data included in this document is from www.openstreetmap.org. The data is made available under ODbL."}, "elements": [{"type": "node", "id": 628077506, "lat": 37.0549944, "lon": 35.3585544, "tags": {"amenity": "restaurant", "name": "Spor cafe", "name:en": "Spor cafe"}}, {"type": "node", "id": 628953363, "lat": 37.0555204, "lon": 35.3593066, "tags": {"amenity": "restaurant", "name": "Balcal\u0131 restaurant", "name:en": "Balcal\u0131 restaurant"}}, {"type": "node", "id": 638216692, "lat": 37.0584277, "lon": 35.3612747, "tags": {"amenity": "restaurant", "name": "Vivaldi", "name:en": "Vivaldi cafe"}}, {"type": "node", "id": 638318516, "lat": 37.0498529, "lon": 35.3558599}, {"type": "node", "id": 638318517, "lat": 37.0499524, "lon": 35.3556001}, {"type": "node", "id": 638318526, "lat": 37.0501829, "lon": 35.3557387}, {"type": "node", "id": 638318527, "lat": 37.0500834, "lon": 35.3559985}, {"type": "node", "id": 642354647, "lat": 37.0586536, "lon": 35.360242, "tags": {"amenity": "cafe", "name": "Target Cafe", "name:en": "Target Cafe"}}, {"type": "node", "id": 642354651, "lat": 37.0577324, "lon": 35.3624686, "tags": {"amenity": "cafe", "name": "Starbucks cafe", "name:en": "Starbucks coffee"}}, {"type": "node", "id": 642354657, "lat": 37.0594379, "lon": 35.3643824, "tags": {"amenity": "cafe", "name:en": "Outdoor Student Cafe of the Faculty of Medicine"}}, {"type": "node", "id": 675370780, "lat": 37.0584568, "lon": 35.357175, "tags": {"amenity": "restaurant", "name": "Tarmak kantin"}}, {"type": "node", "id": 764558046, "lat": 37.0585318, "lon": 35.3610147, "tags": {"amenity": "cafe", "name": "Tunne's cafe", "name:en": "Tunne's cafe"}}, {"type": "node", "id": 764558053, "lat": 37.0563274, "lon": 35.3615688, "tags": {"amenity": "cafe", "name": "Viyaduk kafeteria", "name:en": "Viyaduk cafeteria"}}, {"type": "node", "id": 764558057, "lat": 37.0561245, "lon": 35.3613199, "tags": {"amenity": "restaurant", "name": "Balcal\u0131 kafeteria", "name:en": "Balcal\u0131 cafeteria"}}, {"type": "node", "id": 764572011, "lat": 37.0545414, "lon": 35.3617388, "tags": {"amenity": "cafe"}}, {"type": "node", "id": 3347407377, "lat": 37.0051459, "lon": 35.7042738, "tags": {"amenity": "restaurant", "indoor_seating": "yes", "name": "M\u0131st\u0131k Usta Tesisleri", "outdoor_seating": "yes"}}, {"type": "node", "id": 3347407384, "lat": 37.0030353, "lon": 35.7030588, "tags": {"amenity": "restaurant", "name": "M\u0131st\u0131k Usta Tesisleri"}}, {"type": "node", "id": 4348797391, "lat": 37.03043, "lon": 35.3963154, "tags": {"amenity": "restaurant", "name": "Pozant\u0131 Dinlenme Tesisleri"}}, {"type": "node", "id": 4348797490, "lat": 37.0225662, "lon": 35.4750607, "tags": {"amenity": "restaurant", "name": "\u0130ncirlik Park Restaurant"}}, {"type": "node", "id": 4386747414, "lat": 37.0110416, "lon": 35.7481592, "tags": {"amenity": "cafe"}}, {"type": "node", "id": 4984774421, "lat": 36.9950554, "lon": 35.3455663, "tags": {"amenity": "restaurant", "name": "kaburgaci yasar usta", "name:tr": "kaburgaci yasar usta"}}, {"type": "node", "id": 5900038412, "lat": 36.9995455, "lon": 35.4395731}, {"type": "node", "id": 5900038413, "lat": 36.9995497, "lon": 35.4395943}, {"type": "node", "id": 5900038414, "lat": 36.9995469, "lon": 35.4396155}, {"type": "node", "id": 5900038415, "lat": 36.9994324, "lon": 35.4397465}, {"type": "node", "id": 5900038416, "lat": 36.9994041, "lon": 35.43975}, {"type": "node", "id": 5900038417, "lat": 36.9993815, "lon": 35.4397288}, {"type": "node", "id": 5900038418, "lat": 36.9992769, "lon": 35.4398456}, {"type": "node", "id": 5900038419, "lat": 36.9992444, "lon": 35.4398456}, {"type": "node", "id": 5900038420, "lat": 36.9991596, "lon": 35.4396987}, {"type": "node", "id": 5900038421, "lat": 36.9991611, "lon": 35.4396615}, {"type": "node", "id": 5900038422, "lat": 36.9991738, "lon": 35.4396385}, {"type": "node", "id": 5900038423, "lat": 36.9991907, "lon": 35.4396067}, {"type": "node", "id": 5900038424, "lat": 36.9991752, "lon": 35.4395872}, {"type": "node", "id": 5900038425, "lat": 36.9991724, "lon": 35.4395447}, {"type": "node", "id": 5900038426, "lat": 36.9991823, "lon": 35.4394987}, {"type": "node", "id": 5900038427, "lat": 36.9992091, "lon": 35.4394899}, {"type": "node", "id": 5900038428, "lat": 36.9991921, "lon": 35.4394315}, {"type": "node", "id": 5900038429, "lat": 36.9991992, "lon": 35.4393749}, {"type": "node", "id": 5900038430, "lat": 36.9993363, "lon": 35.4392563}, {"type": "node", "id": 5900038431, "lat": 36.9993702, "lon": 35.4392598}, {"type": "node", "id": 5900038432, "lat": 36.9993928, "lon": 35.4392705}, {"type": "node", "id": 5900038433, "lat": 36.9993985, "lon": 35.439297}, {"type": "node", "id": 5900038434, "lat": 36.9993999, "lon": 35.4393271}, {"type": "node", "id": 5900038435, "lat": 36.9993829, "lon": 35.4393625}, {"type": "node", "id": 5900038436, "lat": 36.9994084, "lon": 35.4394156}, {"type": "node", "id": 5900038437, "lat": 36.9994437, "lon": 35.4394173}, {"type": "node", "id": 5900038438, "lat": 36.9994649, "lon": 35.4394315}, {"type": "node", "id": 7907455789, "lat": 37.0114356, "lon": 35.3784039, "tags": {"amenity": "restaurant", "name": "Kebap\u00e7\u0131 Mehmet Usta", "opening_hours": "Mo-Su 09:00-00:00", "phone": "+90 322 327 20 10"}}, {"type": "node", "id": 7911881559, "lat": 37.0423265, "lon": 35.4299104, "tags": {"amenity": "restaurant", "name": "Dostlar Sofras\u0131"}}, {"type": "node", "id": 7916867849, "lat": 37.0327982, "lon": 35.8167575, "tags": {"amenity": "restaurant", "name": "K\u00f6\u015fem Lokanta"}}, {"type": "node", "id": 9565673051, "lat": 37.0393762, "lon": 35.3838431, "tags": {"amenity": "cafe", "name": "Kafeterya"}}, {"type": "node", "id": 10119249200, "lat": 36.95525, "lon": 35.6079821, "tags": {"amenity": "restaurant", "name": "\u00c7ak\u0131r Restaurant"}}, {"type": "node", "id": 11241019251, "lat": 36.9820666, "lon": 35.859223, "tags": {"amenity": "restaurant"}}, {"type": "node", "id": 11241019252, "lat": 36.9834217, "lon": 35.8614553, "tags": {"amenity": "restaurant"}}, {"type": "node", "id": 11691115269, "lat": 37.0317579, "lon": 35.400042, "tags": {"amenity": "restaurant", "name": "5 Karde\u015fler Kebap & Izgara"}}, {"type": "node", "id": 11966369398, "lat": 37.0600578, "lon": 35.3562647, "tags": {"amenity": "restaurant", "cuisine": "seafood", "name": "Bal\u0131k\u00e7\u0131 1 ESSU"}}, {"type": "node", "id": 12112337990, "lat": 37.1866607, "lon": 35.8123859}, {"type": "node", "id": 12112337991, "lat": 37.1866431, "lon": 35.8124377}, {"type": "node", "id": 12112337992, "lat": 37.1867675, "lon": 35.8125143}, {"type": "node", "id": 12112337993, "lat": 37.1867857, "lon": 35.8124632}, {"type": "node", "id": 12401824302, "lat": 37.0208381, "lon": 35.476306, "tags": {"amenity": "restaurant"}}, {"type": "way", "id": 50215116, "nodes": [638318526, 638318527, 638318516, 638318517, 638318526], "tags": {"amenity": "restaurant", "building": "yes", "name": "Friends", "name:en": "Friends"}}, {"type": "way", "id": 624800650, "nodes": [5900038412, 5900038413, 5900038414, 5900038415, 5900038416, 5900038417, 5900038418, 5900038419, 5900038420, 5900038421, 5900038422, 5900038423, 5900038424, 5900038425, 5900038426, 5900038427, 5900038428, 5900038429, 5900038430, 5900038431, 5900038432, 5900038433, 5900038434, 5900038435, 5900038436, 5900038437, 5900038438, 5900038412], "tags": {"amenity": "restaurant", "building": "yes", "name": "The Sultan's Inn"}}, {"type": "way", "id": 1307931028, "nodes": [12112337990, 12112337991, 12112337992, 12112337993, 12112337990], "tags": {"amenity": "restaurant", "building": "yes", "cuisine": "kebab", "name": "Muhtar\u0131n Yeri"}}]}