{"version": 0.6, "generator": "Overpass API 0.7.62.7 375dc00a", "osm3s": {"timestamp_osm_base": "2025-06-14T14:53:30Z", "copyright": "The data included in this document is from www.openstreetmap.org. The data is made available under ODbL."}, "elements": [{"type": "node", "id": 5061911422, "lat": 35.4493806, "lon": 27.1615788, "tags": {"amenity": "restaurant", "cuisine": "greek", "name": "C", "name:en": "Christou Pigadi"}}, {"type": "node", "id": 5779147947, "lat": 35.4460041, "lon": 27.0817908, "tags": {"amenity": "restaurant", "name": "Taverna Agios Theodoros"}}, {"type": "node", "id": 11096755606, "lat": 35.4162911, "lon": 26.9253661, "tags": {"addr:postcode": "85800", "amenity": "cafe", "name": "Free", "phone": "2245042089"}}, {"type": "node", "id": 11121548305, "lat": 35.4161895, "lon": 26.9312034, "tags": {"amenity": "restaurant", "cuisine": "greek", "name": "\u0395\u03a3\u03a4\u0399\u0391\u03a4\u039f\u03a1\u0399\u039f", "name:el": "\u0395\u03a3\u03a4\u0399\u0391\u03a4\u039f\u03a1\u0399\u039f", "name:en": "Mira-Mare", "phone": "2245041716"}}, {"type": "node", "id": 11121579705, "lat": 35.4168866, "lon": 26.930532, "tags": {"amenity": "restaurant", "name": "\u0395\u039c\u03a0\u039f\u03a1\u0395\u0399\u039f\u03a3"}}, {"type": "node", "id": 11121605305, "lat": 35.4162472, "lon": 26.9253872, "tags": {"amenity": "restaurant", "cuisine": "breakfast;coffee_shop;international;pancake", "internet_access": "wlan", "name:en": "Free", "opening_hours": "Mo-Su 09:00-12:00", "phone": "+30 2245042089"}}, {"type": "node", "id": 11121678306, "lat": 35.416715, "lon": 26.9231365, "tags": {"amenity": "restaurant", "cuisine": "pizza", "name:en": "Pizza di Kasos", "phone": "+30 6984093880"}}, {"type": "node", "id": 11121694105, "lat": 35.4172257, "lon": 26.923252, "tags": {"amenity": "restaurant", "name": "\u039c\u03c5\u03bb\u03bf\u03c2", "name:el": "\u039c\u03c5\u03bb\u03bf\u03c2", "name:en": "Mylos", "phone": "+30 28450 41825"}}, {"type": "node", "id": 11123367305, "lat": 35.4166209, "lon": 26.9245573, "tags": {"amenity": "cafe", "name:en": "Blue Mar\u00e9", "phone": "+30 22450 41697"}}, {"type": "node", "id": 11132422007, "lat": 35.4161128, "lon": 26.9256939, "tags": {"amenity": "restaurant"}}, {"type": "node", "id": 11134412905, "lat": 35.4171703, "lon": 26.922728, "tags": {"amenity": "restaurant", "name": "Rice", "opening_hours": "Mo-Sa 08:00-15:00, 17:00-23:30; Su 08:00-15:00", "phone": "+30 22450 42780"}}, {"type": "node", "id": 11134412906, "lat": 35.4165666, "lon": 26.9226965, "tags": {"amenity": "cafe"}}, {"type": "node", "id": 11134566549, "lat": 35.4169167, "lon": 26.923037, "tags": {"amenity": "cafe", "cuisine": "cake"}}, {"type": "node", "id": 11146586406, "lat": 35.4161814, "lon": 26.9244171, "tags": {"amenity": "restaurant", "cuisine": "seafood", "internet_access": "wlan", "name": "\u03a4\u03bf \u039c\u03b5\u03bb\u03c4\u03b5\u03bc\u03b9", "opening_hours": "Mo-Su 20:00-00:00", "phone": "+30 6976102424"}}, {"type": "node", "id": 11210011237, "lat": 35.4300901, "lon": 27.1108901, "tags": {"amenity": "restaurant", "name:de": "Greatdayz Taverne"}}, {"type": "node", "id": 12154312609, "lat": 35.4272634, "lon": 27.1527046, "tags": {"amenity": "restaurant", "cuisine": "greek", "indoor_seating": "yes", "name": "Barba Minas", "outdoor_seating": "yes"}}, {"type": "node", "id": 12154312610, "lat": 35.4277442, "lon": 27.1499339, "tags": {"amenity": "restaurant", "cuisine": "greek"}}, {"type": "node", "id": 12154312612, "lat": 35.449276, "lon": 27.1556899, "tags": {"amenity": "restaurant", "cuisine": "greek", "name": "Rina's Taverna", "opening_hours": "08:00-22:00", "outdoor_seating": "yes"}}]}