{"version": 0.6, "generator": "Overpass API 0.7.62.7 375dc00a", "osm3s": {"timestamp_osm_base": "2025-06-14T13:18:00Z", "copyright": "The data included in this document is from www.openstreetmap.org. The data is made available under ODbL."}, "elements": [{"type": "node", "id": 4237307434, "lat": 34.7507521, "lon": 5.9027973, "tags": {"addr:country": "DZ", "amenity": "cafe", "name": "Caf\u00e9 Ladjdel"}}, {"type": "node", "id": 4631976600, "lat": 34.9501278, "lon": 6.0066717, "tags": {"addr:country": "DZ", "amenity": "cafe"}}, {"type": "node", "id": 4867454822, "lat": 34.7531123, "lon": 5.9030085, "tags": {"addr:country": "DZ", "amenity": "cafe", "name": "\u0645\u0642\u0647\u0649 \u0645\u0631\u0632\u0648\u0642\u064a", "name:ar": "\u0645\u0642\u0647\u0649 \u0645\u0631\u0632\u0648\u0642\u064a", "name:en": "Caf\u00e9t\u00e9ria merzougi", "name:fr": "Caf\u00e9t\u00e9ria merzougi"}}, {"type": "node", "id": 7499527468, "lat": 34.7996481, "lon": 5.9507921, "tags": {"addr:city": "\u0633\u064a\u062f\u064a \u0639\u0642\u0628\u0629", "addr:city:ar": "\u0633\u064a\u062f\u064a \u0639\u0642\u0628\u0629", "addr:place": "\u0642\u0631\u062a\u0629", "addr:place:ar": "\u0642\u0631\u062a\u0629", "amenity": "cafe", "name": "\u0645\u0642\u0647\u0649 \u0635\u0627\u0644\u062d \u063a\u0627\u0648\u064a", "name:ar": "\u0645\u0642\u0647\u0649 \u0635\u0627\u0644\u062d \u063a\u0627\u0648\u064a", "name:fr": "Caf\u00e9 Saleh Ghawi"}}]}