{"version": 0.6, "generator": "Overpass API 0.7.62.7 375dc00a", "osm3s": {"timestamp_osm_base": "2025-06-14T14:38:18Z", "copyright": "The data included in this document is from www.openstreetmap.org. The data is made available under ODbL."}, "elements": [{"type": "node", "id": 330374423, "lat": 39.6931705, "lon": 21.6435}, {"type": "node", "id": 1395879393, "lat": 39.7387199, "lon": 21.554189, "tags": {"amenity": "restaurant", "name": "Oasis"}}, {"type": "node", "id": 1395879399, "lat": 39.7385294, "lon": 21.5452678, "tags": {"amenity": "restaurant"}}, {"type": "node", "id": 1395879413, "lat": 39.94755, "lon": 21.65671, "tags": {"amenity": "restaurant"}}, {"type": "node", "id": 1845067956, "lat": 39.7802861, "lon": 21.9770018, "tags": {"amenity": "restaurant"}}, {"type": "node", "id": 1845067957, "lat": 39.780587, "lon": 21.9772757, "tags": {"amenity": "restaurant"}}, {"type": "node", "id": 1845067958, "lat": 39.7804859, "lon": 21.9773265, "tags": {"amenity": "restaurant"}}, {"type": "node", "id": 1845068096, "lat": 39.7804384, "lon": 21.9769106, "tags": {"amenity": "restaurant"}}, {"type": "node", "id": 1845068100, "lat": 39.7806447, "lon": 21.97727, "tags": {"amenity": "cafe"}}, {"type": "node", "id": 1845068267, "lat": 39.7813247, "lon": 21.9785307, "tags": {"amenity": "cafe"}}, {"type": "node", "id": 1845068268, "lat": 39.7815929, "lon": 21.9796467, "tags": {"amenity": "cafe"}}, {"type": "node", "id": 2135333504, "lat": 39.6627928, "lon": 21.636998, "tags": {"amenity": "cafe"}}, {"type": "node", "id": 2527564173, "lat": 39.7067046, "lon": 21.6234827, "tags": {"addr:city": "\u039a\u03b1\u03bb\u03b1\u03bc\u03c0\u03ac\u03ba\u03b1", "addr:housenumber": "2", "addr:street": "\u03a4\u03c1\u03b9\u03ba\u03ac\u03bb\u03c9\u03bd", "amenity": "restaurant", "cuisine": "regional;greek;salad", "indoor_seating": "yes", "name": "Meteora", "outdoor_seating": "yes"}}, {"type": "node", "id": 3073947799, "lat": 39.713147, "lon": 21.6151334, "tags": {"amenity": "restaurant", "outdoor_seating": "yes"}}, {"type": "node", "id": 3073947806, "lat": 39.7148888, "lon": 21.6171289, "tags": {"amenity": "restaurant", "name": "Taverna Paradisos", "wheelchair": "no"}}, {"type": "node", "id": 3073947811, "lat": 39.7151306, "lon": 21.6167221, "tags": {"amenity": "restaurant", "internet_access": "terminal", "outdoor_seating": "yes"}}, {"type": "node", "id": 3218527691, "lat": 39.6929442, "lon": 21.6437193}, {"type": "node", "id": 3218527718, "lat": 39.6931124, "lon": 21.6440126}, {"type": "node", "id": 3218527755, "lat": 39.6933387, "lon": 21.6437934}, {"type": "node", "id": 3617265104, "lat": 39.6609424, "lon": 21.7692138}, {"type": "node", "id": 3617265105, "lat": 39.6611509, "lon": 21.769466}, {"type": "node", "id": 3617265106, "lat": 39.6612191, "lon": 21.7694123}, {"type": "node", "id": 3617265107, "lat": 39.6611241, "lon": 21.7690234}, {"type": "node", "id": 3617265108, "lat": 39.6611344, "lon": 21.7689765}, {"type": "node", "id": 3617265109, "lat": 39.6610332, "lon": 21.7689778}, {"type": "node", "id": 3617265110, "lat": 39.6609857, "lon": 21.7690207}, {"type": "node", "id": 3617265111, "lat": 39.6609568, "lon": 21.7691146}, {"type": "node", "id": 3785029183, "lat": 39.7192485, "lon": 21.6180877, "tags": {"amenity": "restaurant", "cuisine": "greek", "name": "\u0392\u03b1\u03b2\u03af\u03c4\u03c3\u03b1\u03c2 \u039c\u03b5\u03c4\u03ad\u03c9\u03c1\u03b1", "name:el": "\u0392\u03b1\u03b2\u03af\u03c4\u03c3\u03b1\u03c2 \u039c\u03b5\u03c4\u03ad\u03c9\u03c1\u03b1", "name:en": "Taverna Meteora", "phone": "2432022285"}}, {"type": "node", "id": 3833804774, "lat": 39.6992407, "lon": 21.6404501, "tags": {"amenity": "restaurant"}}, {"type": "node", "id": 3833804775, "lat": 39.6995953, "lon": 21.6387102, "tags": {"addr:housenumber": "149", "addr:street": "\u03a4\u03c1\u03b9\u03ba\u03ac\u03bb\u03c9\u03bd", "amenity": "restaurant", "name": "Elia's Garden Taverna", "phone": "+30 2432 023218 ", "website": "http://www.gardenrestaurant.gr"}}, {"type": "node", "id": 4165907889, "lat": 39.7067735, "lon": 21.6232395, "tags": {"amenity": "cafe", "name": "\u0399\u03b8\u03ce\u03bc\u03b7", "name:el": "\u0399\u03b8\u03ce\u03bc\u03b7", "name:en": "Caf\u00e9 Ithomi", "outdoor_seating": "yes"}}, {"type": "node", "id": 4165907895, "lat": 39.7078483, "lon": 21.6175784}, {"type": "node", "id": 4165907896, "lat": 39.7078504, "lon": 21.6173746}, {"type": "node", "id": 4165907897, "lat": 39.7079351, "lon": 21.6175799}, {"type": "node", "id": 4165907898, "lat": 39.7079371, "lon": 21.6173761}, {"type": "node", "id": 4256612748, "lat": 39.716823, "lon": 21.6202304}, {"type": "node", "id": 4256612749, "lat": 39.7169033, "lon": 21.6202865}, {"type": "node", "id": 4256612750, "lat": 39.7169876, "lon": 21.6200823}, {"type": "node", "id": 4256612751, "lat": 39.7169074, "lon": 21.6200262}, {"type": "node", "id": 4263117101, "lat": 39.702509, "lon": 22.0180477, "tags": {"addr:street": "\u0391\u03c7\u03bb\u03b1\u03b4\u03bf\u03c7\u03c9\u03c1\u03af\u03bf\u03c5", "amenity": "restaurant", "cuisine": "greek;grill", "internet_access": "wlan", "name": "\u039c\u03b1\u03c1\u03af\u03bd\u03b1", "opening_hours": "Mo-Su 10:00-14:30, 17:15-00:30"}}, {"type": "node", "id": 4263117102, "lat": 39.7027123, "lon": 22.0178153, "tags": {"addr:street": "\u0391\u03c7\u03bb\u03b1\u03b4\u03bf\u03c7\u03c9\u03c1\u03af\u03bf\u03c5", "amenity": "cafe", "cuisine": "tea;sandwich;greek;ice_cream", "internet_access": "wlan", "name": "\u03a0\u03ad\u03c4\u03c3\u03b1\u03c2", "opening_hours": "Mo-Su 09:00-13:00, 16:30-02:00"}}, {"type": "node", "id": 4263117103, "lat": 39.7030651, "lon": 22.0177534, "tags": {"amenity": "restaurant", "cuisine": "greek;grill", "internet_access": "wlan", "name": "\u0393\u03bb\u03ac\u03c1\u03bf\u03c2", "opening_hours": "Mo-Su 10:00-14:00, 17:30-01:00"}}, {"type": "node", "id": 4263117104, "lat": 39.7028082, "lon": 22.0176093, "tags": {"addr:street": "\u0391\u03c7\u03bb\u03b1\u03b4\u03bf\u03c7\u03c9\u03c1\u03af\u03bf\u03c5", "amenity": "cafe", "cuisine": "greek;grill", "name": "\u039c\u03b1\u03ba\u03c1\u03ae\u03c2", "opening_hours": "Mo-Su 10:00-14:00, 17:30-01:00"}}, {"type": "node", "id": 4332534862, "lat": 39.7051681, "lon": 21.6248451, "tags": {"amenity": "cafe"}}, {"type": "node", "id": 4406554861, "lat": 39.7072045, "lon": 21.6234934, "tags": {"amenity": "restaurant", "cuisine": "greek", "name": "\u03a0\u03b1\u03bd\u03b5\u03bb\u03bb\u03b7\u03bd\u03b9\u03bf", "name:de": "Panellinio", "name:el": "\u03a0\u03b1\u03bd\u03b5\u03bb\u03bb\u03b7\u03bd\u03b9\u03bf", "name:en": "Panellinio", "outdoor_seating": "yes"}}, {"type": "node", "id": 4449633402, "lat": 39.7041143, "lon": 21.6242469, "tags": {"amenity": "cafe", "name": "\u03a3\u03c4\u03b1\u03b8\u03bc\u03bf\u03c2\u2026 \u03a4\u03b5\u03c5\u03c3\u03b5\u03c9\u03bd"}}, {"type": "node", "id": 4925625821, "lat": 39.7141084, "lon": 21.6159668, "tags": {"amenity": "restaurant", "cuisine": "greek", "name": "\u03a4\u03b1\u03b2\u03ad\u03c1\u03bd\u03b1 \u03a3\u03c4\u03ad\u03c6\u03b1\u03bd\u03bf\u03c2", "name:el": "\u03a4\u03b1\u03b2\u03ad\u03c1\u03bd\u03b1 \u03a3\u03c4\u03ad\u03c6\u03b1\u03bd\u03bf\u03c2", "name:en": "Stefanos Tavern", "phone": "+302432023017", "website": "http://stefanostavern.gr/"}}, {"type": "node", "id": 4932261348, "lat": 39.7088603, "lon": 21.6175992, "tags": {"amenity": "restaurant", "int_name": "Restaurant Bakxos", "name": "\u03a4\u03b1\u03b2\u03b5\u03c1\u03bd\u03b1 \u0392\u1f00\u03ba\u03c7\u03bf\u03c2"}}, {"type": "node", "id": 4950668123, "lat": 39.707583, "lon": 21.6216652, "tags": {"amenity": "restaurant", "int_name": "To Paramithi", "name": "\u03a4\u03bf \u03a0\u03b1\u03c1\u03b1\u03bc\u03cd\u03b8\u03b9", "outdoor_seating": "yes"}}, {"type": "node", "id": 4982461323, "lat": 39.7044975, "lon": 21.6284188, "tags": {"amenity": "cafe", "brand": "Mikel", "brand:wikidata": "Q16952021", "cuisine": "coffee_shop", "name": "Mikel", "name:en": "Mikel", "takeaway": "yes"}}, {"type": "node", "id": 5117667421, "lat": 39.7020087, "lon": 21.5982016, "tags": {"amenity": "restaurant", "cuisine": "coffee_shop", "internet_access": "wlan"}}, {"type": "node", "id": 5172870322, "lat": 39.7045996, "lon": 21.628522, "tags": {"amenity": "restaurant", "cuisine": "greek", "name": "Syrtaki", "name:en": "SYRTAKI"}}, {"type": "node", "id": 5578976021, "lat": 39.7162637, "lon": 21.6199696, "tags": {"amenity": "restaurant", "cuisine": "greek", "name": "Batalogianni Taverna", "opening_hours": "Mo-Su 09:00-24:00"}}, {"type": "node", "id": 5666182825, "lat": 39.9206903, "lon": 21.8058072, "tags": {"amenity": "cafe"}}, {"type": "node", "id": 5666182826, "lat": 39.9108984, "lon": 21.7701197, "tags": {"amenity": "cafe"}}, {"type": "node", "id": 5667319122, "lat": 39.9247155, "lon": 21.8100935, "tags": {"amenity": "cafe"}}, {"type": "node", "id": 5810662653, "lat": 39.7039237, "lon": 21.6291767, "tags": {"amenity": "restaurant", "name:en": "Dionysos"}}, {"type": "node", "id": 5904444710, "lat": 39.7048032, "lon": 21.6273088, "tags": {"amenity": "cafe", "int_name": "Erofili", "internet_access": "wlan", "name": "\u0395\u03c1\u03c9\u03c6\u03b9\u03bb\u03b7", "opening_hours": "Mo-Su 10:00-23:00", "outdoor_seating": "yes"}}, {"type": "node", "id": 5944074494, "lat": 39.7078456, "lon": 21.6253221, "tags": {"addr:housenumber": "21", "addr:postcode": "42200", "addr:street": "\u0395. \u0392\u03bb\u03b1\u03c7\u03ac\u03b2\u03b1", "amenity": "restaurant", "cuisine": "greek", "name:en": "Fortounis Tsipouradiko", "phone": "+30 2432 022555"}}, {"type": "node", "id": 5944074496, "lat": 39.7079126, "lon": 21.6258149, "tags": {"amenity": "restaurant", "cuisine": "greek", "name": "\u039c\u0397\u039a\u0391\u03a3 \u0391\u03a0\u039f\u03a3\u03a4\u039f\u039b\u039f\u03a3"}}, {"type": "node", "id": 5945585350, "lat": 39.7095563, "lon": 21.6184427}, {"type": "node", "id": 5945585351, "lat": 39.7094343, "lon": 21.6180118}, {"type": "node", "id": 5945585352, "lat": 39.7093843, "lon": 21.6180118}, {"type": "node", "id": 5945585353, "lat": 39.7093624, "lon": 21.6181338}, {"type": "node", "id": 5945585354, "lat": 39.7094593, "lon": 21.6184915}, {"type": "node", "id": 5976966921, "lat": 39.7164806, "lon": 21.6198928, "tags": {"addr:city": "\u039a\u03b1\u03c3\u03c4\u03c1\u03ac\u03ba\u03b9", "addr:postcode": "42200", "amenity": "restaurant", "bar": "yes", "cuisine": "local", "indoor_seating": "yes", "name": "\u03a4\u03b1\u03b2\u03b5\u03c1\u03bd\u03b1 \u0397 \u0393\u03b1\u03c1\u03b4\u03b5\u03bd\u03b9\u03b1", "name:el": "\u03a4\u03b1\u03b2\u03b5\u03c1\u03bd\u03b1 \u0397 \u0393\u03b1\u03c1\u03b4\u03b5\u03bd\u03b9\u03b1", "name:en": "Taverna Gardenia Plakias", "opening_hours": "13:00-22:00", "outdoor_seating": "yes", "phone": "+306972700698", "toilets": "yes", "wheelchair": "yes"}}, {"type": "node", "id": 6368073748, "lat": 39.7035697, "lon": 21.6303068, "tags": {"amenity": "restaurant", "name": "Valia Calda"}}, {"type": "node", "id": 6432738917, "lat": 39.9522987, "lon": 21.9690899}, {"type": "node", "id": 6432738918, "lat": 39.9522321, "lon": 21.9691636}, {"type": "node", "id": 6432738919, "lat": 39.9522958, "lon": 21.9692562}, {"type": "node", "id": 6432738920, "lat": 39.952361, "lon": 21.9691881}, {"type": "node", "id": 6535588385, "lat": 39.7156514, "lon": 21.6180696, "tags": {"amenity": "restaurant", "internet_access": "yes", "name": "Efrosino", "name:el": "\u0395\u03c5\u03c6\u03c1\u03cc\u03c3\u03c5\u03bd\u03bf", "name:en": "Efrosino", "toilets": "yes"}}, {"type": "node", "id": 6555310585, "lat": 39.7014917, "lon": 21.6247404, "tags": {"amenity": "restaurant", "name": "palazzo", "name:en": "Palazzo"}}, {"type": "node", "id": 6577383477, "lat": 39.7172537, "lon": 21.6205752, "tags": {"amenity": "cafe"}}, {"type": "node", "id": 6632098385, "lat": 39.7058853, "lon": 21.6254532, "tags": {"amenity": "restaurant", "diet:vegetarian": "yes", "indoor_seating": "yes", "int_name": "Arghontariki", "internet_access": "wlan", "name": "\u0391\u03c1\u03c7\u03bf\u03bd\u03c4\u03b1\u03c1\u03b9\u03ba\u03b9", "outdoor_seating": "yes"}}, {"type": "node", "id": 6644525716, "lat": 39.6613629, "lon": 21.6415779, "tags": {"amenity": "restaurant", "name": "Ydragogio"}}, {"type": "node", "id": 6677525786, "lat": 39.7040393, "lon": 21.6288934, "tags": {"amenity": "restaurant", "name:en": "Pakapio"}}, {"type": "node", "id": 6677622485, "lat": 39.7043563, "lon": 21.6281572, "tags": {"amenity": "cafe", "indoor_seating": "yes", "name": "Cloud Coffee Place", "name:en": "Cloud Coffee Place", "outdoor_seating": "yes"}}, {"type": "node", "id": 6679530785, "lat": 39.7041349, "lon": 21.6286531, "tags": {"amenity": "cafe", "name": "\u0392\u03b1\u03b2\u03af\u03c4\u03c3\u03b1\u03c2", "name:el": "\u0392\u03b1\u03b2\u03af\u03c4\u03c3\u03b1\u03c2", "name:en": "Babiroas"}}, {"type": "node", "id": 6679917885, "lat": 39.7054584, "lon": 21.6256446, "tags": {"amenity": "cafe", "indoor_seating": "yes", "name": "Qahuww", "outdoor_seating": "yes", "wheelchair": "no"}}, {"type": "node", "id": 6682066385, "lat": 39.7161362, "lon": 21.6194284, "tags": {"amenity": "restaurant", "name:en": "Taverna Ouzeri", "name:fr": "Taverne Ouzeri", "outdoor_seating": "yes"}}, {"type": "node", "id": 6710993785, "lat": 39.7074665, "lon": 21.6210807, "tags": {"addr:housenumber": "1", "addr:street": "Diogenous", "amenity": "restaurant", "cuisine": "greek", "indoor_seating": "yes", "name": "Yamas", "name:en": "Yamas", "outdoor_seating": "yes", "wheelchair": "yes"}}, {"type": "node", "id": 7253722308, "lat": 39.771394, "lon": 21.6626094}, {"type": "node", "id": 7253722309, "lat": 39.7712748, "lon": 21.6626171}, {"type": "node", "id": 7253722310, "lat": 39.7712827, "lon": 21.662826}, {"type": "node", "id": 7253722311, "lat": 39.771402, "lon": 21.6628183}, {"type": "node", "id": 7253722312, "lat": 39.7712447, "lon": 21.6618883}, {"type": "node", "id": 7253722313, "lat": 39.7711537, "lon": 21.662044}, {"type": "node", "id": 7253722314, "lat": 39.7710584, "lon": 21.6619498}, {"type": "node", "id": 7253722315, "lat": 39.7711494, "lon": 21.661794}, {"type": "node", "id": 8957033117, "lat": 39.7164181, "lon": 21.6208034, "tags": {"amenity": "restaurant", "name": "\u03a4\u03b1\u03b2\u03ad\u03c1\u03bd\u03b1 \u039c\u03c0\u03b1\u03ba\u03b1\u03bb\u03b9\u03b1\u03c1\u03ac\u03ba\u03b9\u03b1", "name:el": "\u03a4\u03b1\u03b2\u03ad\u03c1\u03bd\u03b1 \u039c\u03c0\u03b1\u03ba\u03b1\u03bb\u03b9\u03b1\u03c1\u03ac\u03ba\u03b9\u03b1", "name:en": "Taverna Bakaliarakia", "outdoor_seating": "yes", "toilets": "yes"}}, {"type": "node", "id": 9061617136, "lat": 39.7974265, "lon": 21.5297756, "tags": {"amenity": "cafe"}}, {"type": "node", "id": 9142544317, "lat": 39.718684, "lon": 21.6176028, "tags": {"amenity": "restaurant", "name:en": "Zioga"}}, {"type": "node", "id": 9523896217, "lat": 39.7044591, "lon": 21.6242782, "tags": {"addr:housenumber": "18", "addr:street": "\u03a3\u03b9\u03b4\u03b7\u03c1\u03bf\u03b4\u03c1\u03cc\u03bc\u03c9\u03bd", "amenity": "restaurant", "name:en": "Psitopoleio Vakis", "opening_hours": "Mo-Su 10:00-23:30"}}, {"type": "node", "id": 9610177617, "lat": 39.7037552, "lon": 21.6298252, "tags": {"amenity": "restaurant", "name": "Santa Lucia"}}, {"type": "node", "id": 9661443016, "lat": 39.9261847, "lon": 21.8082849, "tags": {"amenity": "cafe", "name": "\u0395\u1f56 \u039a\u03b1\u03c6\u03ad"}}, {"type": "node", "id": 9661468817, "lat": 39.9261016, "lon": 21.8086897, "tags": {"amenity": "restaurant", "name": "The Foodbox"}}, {"type": "node", "id": 9661468818, "lat": 39.9262035, "lon": 21.8093982, "tags": {"amenity": "restaurant", "cuisine": "pizza", "name": "Pizza \u039d\u03ac\u03c0\u03bf\u03bb\u03b7"}}, {"type": "node", "id": 9661514245, "lat": 39.9224569, "lon": 21.8119541, "tags": {"amenity": "restaurant", "name": "\u03a8\u03b7\u03c4\u03bf\u03c0\u03c9\u03bb\u03b5\u03af\u03bf \"\u039f \u0398\u03cd\u03bc\u03b9\u03bf\u03c2\""}}, {"type": "node", "id": 9661514246, "lat": 39.9216206, "lon": 21.8123377, "tags": {"amenity": "restaurant", "name": "\u039f \u0393\u03cd\u03c1\u03bf\u03c2 \u03c4\u03bf\u03c5 \u039a\u03cc\u03c3\u03bc\u03bf\u03c5"}}, {"type": "node", "id": 9661514247, "lat": 39.9215321, "lon": 21.812359, "tags": {"amenity": "restaurant", "name": "\u039d\u03b1\u03bf\u03cd\u03bc"}}, {"type": "node", "id": 9661514248, "lat": 39.9208598, "lon": 21.8128375, "tags": {"amenity": "restaurant", "name": "\u0395\u03be\u03bf\u03c7\u03b9\u03ba\u03cc"}}, {"type": "node", "id": 9675519617, "lat": 39.7166442, "lon": 21.6201576, "tags": {"addr:postcode": "42200", "addr:street": "\u0391\u03b3\u03af\u03c9\u03bd \u0391\u03c0\u03bf\u03c3\u03c4\u03cc\u03bb\u03c9\u03bd", "amenity": "restaurant", "name:en": "Taverna Gardenia", "opening_hours": "Mo-Su 12:00-23:00"}}, {"type": "node", "id": 9776821733, "lat": 39.7169961, "lon": 21.6213155, "tags": {"amenity": "cafe", "name": "Caf\u00e9 Mikio"}}, {"type": "node", "id": 9805626365, "lat": 40.0590819, "lon": 21.8660665, "tags": {"amenity": "cafe"}}, {"type": "node", "id": 9805626366, "lat": 40.0589838, "lon": 21.8664707, "tags": {"amenity": "cafe"}}, {"type": "node", "id": 9805626367, "lat": 40.0587729, "lon": 21.8663625, "tags": {"amenity": "cafe", "name": "Tithorabar", "outdoor_seating": "yes", "wheelchair": "no"}}, {"type": "node", "id": 9805784587, "lat": 39.9798652, "lon": 21.8220062, "tags": {"amenity": "cafe"}}, {"type": "node", "id": 9805784588, "lat": 39.9799233, "lon": 21.8222161, "tags": {"amenity": "cafe"}}, {"type": "node", "id": 10001078904, "lat": 39.7168534, "lon": 21.6194898, "tags": {"amenity": "restaurant", "name": "Guesthouse Lithos", "outdoor_seating": "yes"}}, {"type": "node", "id": 10001134517, "lat": 39.7161207, "lon": 21.6183229, "tags": {"amenity": "restaurant", "outdoor_seating": "yes"}}, {"type": "node", "id": 10031793118, "lat": 39.7046198, "lon": 21.6288077, "tags": {"addr:housenumber": "2", "addr:street": "\u039f\u03b9\u03ba\u03bf\u03bd\u03cc\u03bc\u03bf\u03c5 \u0398.", "amenity": "restaurant", "cuisine": "american;burger", "name:en": "The Dinner"}}, {"type": "node", "id": 10031793119, "lat": 39.7042764, "lon": 21.6281887, "tags": {"addr:housenumber": "100", "addr:street": "\u03a4\u03c1\u03b9\u03ba\u03ac\u03bb\u03c9\u03bd", "amenity": "restaurant", "cuisine": "american;greek;italian", "internet_access": "wlan", "name:en": "Feel The Rocks"}}, {"type": "node", "id": 10049534317, "lat": 39.7043284, "lon": 21.6286688, "tags": {"amenity": "cafe", "name:en": "Rapsody"}}, {"type": "node", "id": 10049567417, "lat": 39.7043267, "lon": 21.6286243, "tags": {"amenity": "restaurant", "name": "Ambrosia"}}, {"type": "node", "id": 10095370419, "lat": 39.7077858, "lon": 21.62525, "tags": {"amenity": "restaurant", "name:en": "21 Olive"}}, {"type": "node", "id": 11169799486, "lat": 39.7958405, "lon": 21.5302414, "tags": {"amenity": "restaurant", "name": "\u03a0\u03bb\u03ac\u03c4\u03b1\u03bd\u03bf\u03c2"}}, {"type": "node", "id": 11228594162, "lat": 39.8519576, "lon": 21.6640929, "tags": {"amenity": "cafe", "name": "\u039a\u03b1\u03c6\u03b5\u03bd\u03b5\u03af\u03bf-\u03a8\u03b7\u03c3\u03c4\u03b1\u03c1\u03b9\u03ac-\u03a0\u03b1\u03bd\u03c4\u03bf\u03c0\u03c9\u03b5\u03af\u03bf-\u039a\u03c1\u03b5\u03bf\u03c0\u03c9\u03bb\u03ad\u03b9\u03bf \u03a3\u0399\u039f\u03a5\u03a4\u0391\u03a3"}}, {"type": "node", "id": 11694909969, "lat": 39.7036344, "lon": 21.628469, "tags": {"addr:housenumber": "3", "addr:street": "\u0394\u03b5\u03bb\u03b7\u03b3\u03b9\u03ac\u03bd\u03bd\u03b7", "amenity": "restaurant", "contact:facebook": "\u03a4\u03b1\u03be\u03af\u03bc\u03b9", "contact:instagram": "taksimi19", "cuisine": "greek", "internet_access": "wlan", "name": "\u03a4\u03b1\u03be\u03b9\u03bc\u03b9", "name:de": "Taksimi", "name:el": "\u03a4\u03b1\u03be\u03b9\u03bc\u03b9", "name:en": "Taksimi", "phone": "2432076246"}}, {"type": "node", "id": 11939428144, "lat": 39.7162048, "lon": 21.6195701, "tags": {"air_conditioning": "yes", "amenity": "restaurant", "diet:halal": "no", "diet:kosher": "no", "diet:vegan": "no", "diet:vegetarian": "yes", "name:en": "Taverna Pappas", "smoking": "outside"}}, {"type": "node", "id": 11977748982, "lat": 39.7108886, "lon": 21.6298371, "tags": {"amenity": "cafe", "name": "Taverna Koka Roka"}}, {"type": "node", "id": 11987123964, "lat": 39.9571935, "lon": 21.7300362, "tags": {"amenity": "restaurant", "cuisine": "greek", "name": "\u03a4\u03bf \u039a\u03bf\u03c5\u03c4\u03bf\u03cd\u03ba\u03b9 \u03c4\u03bf\u03c5 \u0399\u03bf\u03c1\u03b4\u03ac\u03bd\u03b7"}}, {"type": "node", "id": 12113175305, "lat": 39.7037692, "lon": 21.6285073, "tags": {"addr:postcode": "42200", "addr:street": "\u0394\u03b7\u03bc\u03bf\u03c5\u03bb\u03ac", "amenity": "cafe", "internet_access": "wlan", "name": "Tetris", "opening_hours": "Mo-Su 09:00-02:00"}}, {"type": "node", "id": 12113196301, "lat": 39.7034634, "lon": 21.6283706, "tags": {"addr:housenumber": "2", "addr:postcode": "42200", "addr:street": "\u0394\u03b5\u03bb\u03b7\u03b3\u03b9\u03ac\u03bd\u03bd\u03b7", "amenity": "cafe", "name": "R1"}}, {"type": "node", "id": 12136343583, "lat": 39.9022298, "lon": 21.6859632, "tags": {"addr:city": "\u039a\u03b1\u03c4\u03ac\u03ba\u03b1\u03bb\u03b7", "amenity": "cafe"}}, {"type": "node", "id": 12579063502, "lat": 39.7072185, "lon": 21.6236274, "tags": {"amenity": "restaurant", "cuisine": "greek", "name:en": "Eisodos"}}, {"type": "node", "id": 12875578616, "lat": 39.7053456, "lon": 21.6265903, "tags": {"amenity": "cafe", "name": "\u039d\u03b5\u03af\u03c9\u03bd", "outdoor_seating": "yes"}}, {"type": "node", "id": 12877774359, "lat": 39.7053555, "lon": 21.6258847, "tags": {"amenity": "restaurant", "cuisine": "kebab", "name": "\u03a4\u03b1 \u0392\u03bb\u03b1\u03c7\u03b1\u03ba\u03ba\u03b9\u03b1"}}, {"type": "node", "id": 12877774360, "lat": 39.7053044, "lon": 21.6260186, "tags": {"amenity": "cafe", "bar": "yes", "name": "\u0394\u03b9\u03b4\u03cd\u03bc\u03bf\u03b9", "outdoor_seating": "yes"}}, {"type": "node", "id": 12879226157, "lat": 39.7995344, "lon": 21.5969838, "tags": {"amenity": "cafe", "outdoor_seating": "yes"}}, {"type": "node", "id": 12880553615, "lat": 39.9479503, "lon": 21.620333, "tags": {"amenity": "cafe", "internet_access": "wlan", "name": "VIP Espresso Bar", "outdoor_seating": "yes"}}, {"type": "node", "id": 12880553625, "lat": 39.9478499, "lon": 21.6200656, "tags": {"amenity": "cafe", "name": "Saccaria", "outdoor_seating": "yes"}}, {"type": "node", "id": 12880553627, "lat": 39.9481038, "lon": 21.6206438, "tags": {"amenity": "cafe", "name": "Utopia", "outdoor_seating": "yes"}}, {"type": "node", "id": 12880553630, "lat": 39.9486072, "lon": 21.6211319, "tags": {"amenity": "cafe", "outdoor_seating": "yes"}}, {"type": "node", "id": 12880553631, "lat": 39.9479084, "lon": 21.6202019, "tags": {"amenity": "cafe", "name": "Hollywood Coffee Bar", "outdoor_seating": "yes"}}, {"type": "way", "id": 315720675, "nodes": [330374423, 3218527755, 3218527718, 3218527691, 330374423], "tags": {"amenity": "restaurant", "building": "yes", "name": "Theoxenia", "phone": "+30 2432024270", "url": "https://youtu.be/F2IGZL2L83M", "website": "https://theoxeniarestaurant.gr/"}}, {"type": "way", "id": 356256045, "nodes": [3617265104, 3617265105, 3617265106, 3617265107, 3617265108, 3617265109, 3617265110, 3617265111, 3617265104], "tags": {"amenity": "cafe", "building": "yes", "cuisine": "coffee_shop", "name": "\u039a\u03b5\u03bd\u03c4\u03c1\u03b9\u03ba\u03ae \u03a0\u03bb\u03b1\u03c4\u03b5\u03af\u03b1 \u03a0\u03bb\u03ac\u03c4\u03b1\u03bd\u03bf\u03c5/\u0392\u03ac\u03bd\u03b9\u03b1\u03c2", "smoking": "outside"}}, {"type": "way", "id": 415534158, "nodes": [4165907896, 4165907898, 4165907897, 4165907895, 4165907896], "tags": {"amenity": "cafe", "amenity_1": "bar", "building": "yes", "internet_access": "wlan", "internet_access:fee": "no", "name": "\u0391\u03ad\u03c1\u03b9\u03bd\u03bf", "name:el": "\u0391\u03ad\u03c1\u03b9\u03bd\u03bf", "name:en": "Aerino", "outdoor_seating": "yes"}}, {"type": "way", "id": 426351452, "nodes": [4256612750, 4256612751, 4256612748, 4256612749, 4256612750], "tags": {"amenity": "restaurant", "building": "yes", "cuisine": "international", "name": "The Centre"}}, {"type": "way", "id": 629649124, "nodes": [5945585350, 5945585351, 5945585352, 5945585353, 5945585354, 5945585350], "tags": {"air_conditioning": "yes", "amenity": "restaurant", "building": "yes", "diet:halal": "no", "diet:kosher": "no", "diet:vegan": "yes", "diet:vegetarian": "yes", "indoor_seating": "yes", "name": "Meteoron Panorama", "opening_hours": "Mo-Su 11:00-23:00", "outdoor_seating": "yes", "payment:credit_cards": "yes", "payment:debit_cards": "yes", "smoking": "outside", "wheelchair": "yes"}}, {"type": "way", "id": 686303835, "nodes": [6432738917, 6432738918, 6432738919, 6432738920, 6432738917], "tags": {"amenity": "restaurant", "building": "yes", "cuisine": "greek"}}, {"type": "way", "id": 777354544, "nodes": [7253722308, 7253722309, 7253722310, 7253722311, 7253722308], "tags": {"addr:postcode": "42200", "addr:street": "\u039c\u03b5\u03c4\u03ad\u03c9\u03c1\u03b1 - \u0392\u03bb\u03b1\u03c7\u03ac\u03b2\u03b1", "amenity": "restaurant", "building": "yes", "cuisine": "greek", "internet_access": "wlan", "name": "Eagle's nest", "phone": "2432077104"}}, {"type": "way", "id": 777354545, "nodes": [7253722312, 7253722313, 7253722314, 7253722315, 7253722312], "tags": {"amenity": "restaurant", "brewery": "\u03ac\u03bb\u03c6\u03b1;\u03c6\u03b9\u03be;\u03bc\u03cd\u03b8\u03bf\u03c2", "building": "yes", "cuisine": "greek", "name": "\u0397 \u039c\u03bf\u03bd\u03b1\u03be\u03b9\u03ac", "outdoor_seating": "yes"}}]}