{"version": 0.6, "generator": "Overpass API 0.7.62.7 375dc00a", "osm3s": {"timestamp_osm_base": "2025-06-14T14:50:30Z", "copyright": "The data included in this document is from www.openstreetmap.org. The data is made available under ODbL."}, "elements": [{"type": "node", "id": 347287022, "lat": 39.1288673, "lon": 26.2049327, "tags": {"amenity": "restaurant", "name": "\u039b\u03b9\u03bc\u03b1\u03bd\u03b1\u03ba\u03b9"}}, {"type": "node", "id": 347287076, "lat": 39.1259523, "lon": 26.2041254, "tags": {"amenity": "restaurant", "name": "Nea Pyra"}}, {"type": "node", "id": 347287142, "lat": 39.1279758, "lon": 26.2030603, "tags": {"amenity": "restaurant", "name": "\u039c\u03b5\u03bb\u03c4\u03ad\u03bc\u03b9"}}, {"type": "node", "id": 347293102, "lat": 39.1010836, "lon": 26.1692342, "tags": {"amenity": "cafe", "name": "Toula"}}, {"type": "node", "id": 364706322, "lat": 39.1056862, "lon": 26.2182279, "tags": {"amenity": "cafe", "created_by": "Potlatch 0.10f"}}, {"type": "node", "id": 364706450, "lat": 39.1056595, "lon": 26.2180219, "tags": {"amenity": "cafe", "created_by": "Potlatch 0.10f"}}, {"type": "node", "id": 364706516, "lat": 39.1052399, "lon": 26.2174983, "tags": {"amenity": "cafe", "created_by": "Potlatch 0.10f"}}, {"type": "node", "id": 492461330, "lat": 39.1405594, "lon": 26.2399015, "tags": {"amenity": "cafe"}}, {"type": "node", "id": 492461738, "lat": 39.1404522, "lon": 26.2403868, "tags": {"amenity": "restaurant", "cuisine": "greek;fish", "name": "Fregata", "outdoor_seating": "yes"}}, {"type": "node", "id": 493347021, "lat": 39.1538763, "lon": 26.2795295, "tags": {"amenity": "restaurant", "check_date": "2024-08-29", "cuisine": "greek", "diet:fish": "yes", "name": "\u039f \u039d\u03cc\u03bd\u03c4\u03b1\u03c2"}}, {"type": "node", "id": 493480701, "lat": 39.1006924, "lon": 26.3542932, "tags": {"amenity": "cafe"}}, {"type": "node", "id": 493580351, "lat": 39.1004593, "lon": 26.3536924, "tags": {"amenity": "cafe"}}, {"type": "node", "id": 506395165, "lat": 39.3781881, "lon": 26.2135188, "tags": {"amenity": "restaurant", "cuisine": "regional", "name": "Eftalou", "name:el": "\u0395\u03c6\u03c4\u03b1\u03bb\u03bf\u03cd"}}, {"type": "node", "id": 529475687, "lat": 39.1056973, "lon": 26.2184472, "tags": {"amenity": "cafe"}}, {"type": "node", "id": 599397595, "lat": 39.1191486, "lon": 26.3888536, "tags": {"amenity": "cafe", "name": "Karini"}}, {"type": "node", "id": 886725835, "lat": 39.3316725, "lon": 26.6580204, "tags": {"addr:housenumber": "No: 20", "addr:postcode": "10405", "addr:street": "Sahil Boyu Sokak", "amenity": "cafe", "contact:instagram": "taskahve_official", "cuisine": "coffee_shop;turkish", "name": "Ta\u015f Kahve", "opening_hours": "Mo-Su 08:00-02:00", "outdoor_seating": "yes", "phone": "02663271166", "website": "https://taskahve.com.tr"}}, {"type": "node", "id": 886726312, "lat": 39.3317033, "lon": 26.6593639, "tags": {"addr:housenumber": "No: 4", "addr:postcode": "10400", "addr:street": "Mithatpa\u015fa Mahallesi, Meydan Caddesi", "amenity": "restaurant", "contact:instagram": "cundaadabmutfak", "cuisine": "turkish", "name": "Cunda Adab Mutfak", "opening_hours": "We-Mo 12:00-22:00", "outdoor_seating": "yes", "phone": "05343138281"}}, {"type": "node", "id": 886726548, "lat": 39.3314906, "lon": 26.6585438, "tags": {"amenity": "restaurant", "cuisine": "regional", "name": "Bay Nihat Lale Restaurant"}}, {"type": "node", "id": 886726564, "lat": 39.3320924, "lon": 26.6585555, "tags": {"amenity": "restaurant", "cuisine": "regional", "name": "Cunda Fasil"}}, {"type": "node", "id": 886726702, "lat": 39.3315341, "lon": 26.6593847, "tags": {"addr:housenumber": "No: 1", "addr:postcode": "10400", "addr:street": "Mithatpa\u015fa Mahallesi, \u00c7ar\u015f\u0131 Caddesi", "amenity": "restaurant", "contact:instagram": "cundauno", "cuisine": "italian_pizza", "name": "Cunda Uno Restaurant", "opening_hours": "Mo-Su 13:00-23:00", "outdoor_seating": "yes", "phone": "02663271828", "website": "https://cundauno.com"}}, {"type": "node", "id": 886726945, "lat": 39.3312213, "lon": 26.6591994, "tags": {"amenity": "restaurant", "cuisine": "turkish", "name": "Ada Restaurant"}}, {"type": "node", "id": 886727088, "lat": 39.3311557, "lon": 26.6593621, "tags": {"amenity": "restaurant", "cuisine": "turkish", "name": "Cunda Meze D\u00fcnyas\u0131"}}, {"type": "node", "id": 886727250, "lat": 39.3317987, "lon": 26.6573882, "tags": {"amenity": "cafe", "name": "\u00d6zt\u00fcrk Aile Cay Bah\u00e7esi"}}, {"type": "node", "id": 886727335, "lat": 39.3314133, "lon": 26.6586954, "tags": {"amenity": "restaurant", "cuisine": "regional", "name": "G\u00fcnay Restaurant"}}, {"type": "node", "id": 886727642, "lat": 39.3316336, "lon": 26.6582634, "tags": {"amenity": "restaurant", "cuisine": "regional", "name": "Deniz Restaurant"}}, {"type": "node", "id": 886727965, "lat": 39.3320128, "lon": 26.658155, "tags": {"amenity": "restaurant", "name": "Ayna"}}, {"type": "node", "id": 886728029, "lat": 39.331602, "lon": 26.6583365, "tags": {"amenity": "restaurant", "cuisine": "regional", "name": "Nesos Restaurant"}}, {"type": "node", "id": 886728113, "lat": 39.3317345, "lon": 26.6576225, "tags": {"amenity": "restaurant", "cuisine": "regional", "name": "Cunda Daylan Restaurant"}}, {"type": "node", "id": 886728317, "lat": 39.3316823, "lon": 26.657883, "tags": {"amenity": "restaurant", "cuisine": "regional", "name": "Club Cunda Arthur"}}, {"type": "node", "id": 886728350, "lat": 39.3303858, "lon": 26.6636842, "tags": {"amenity": "cafe", "name": "Nargileci Veysel Mustafa"}}, {"type": "node", "id": 886728603, "lat": 39.3329809, "lon": 26.6574494, "tags": {"amenity": "restaurant", "cuisine": "turkish", "name": "Hayat Bah\u00e7esi"}}, {"type": "node", "id": 886728732, "lat": 39.3315709, "lon": 26.6584105, "tags": {"amenity": "restaurant", "cuisine": "regional", "name": "Cunda Sahil Restaurant"}}, {"type": "node", "id": 886728804, "lat": 39.3317055, "lon": 26.6577311, "tags": {"amenity": "restaurant", "cuisine": "regional", "name": "Beyo\u011flu Gurme Boncuk Cunda Restaurant"}}, {"type": "node", "id": 1320255952, "lat": 39.3671342, "lon": 26.1742853, "tags": {"amenity": "restaurant", "name": "Orizontas"}}, {"type": "node", "id": 1343821762, "lat": 39.1798148, "lon": 26.4993539}, {"type": "node", "id": 1343821766, "lat": 39.1798403, "lon": 26.4995505}, {"type": "node", "id": 1343821769, "lat": 39.1798836, "lon": 26.4995208}, {"type": "node", "id": 1343821774, "lat": 39.1798921, "lon": 26.4996761}, {"type": "node", "id": 1343821777, "lat": 39.1799076, "lon": 26.4992903}, {"type": "node", "id": 1343821778, "lat": 39.1799235, "lon": 26.49954}, {"type": "node", "id": 1343821783, "lat": 39.1799603, "lon": 26.4996293}, {"type": "node", "id": 1343821786, "lat": 39.1799913, "lon": 26.4994935}, {"type": "node", "id": 1343821796, "lat": 39.1805371, "lon": 26.4994664}, {"type": "node", "id": 1343821797, "lat": 39.1805822, "lon": 26.4996167}, {"type": "node", "id": 1343821798, "lat": 39.1806096, "lon": 26.4994302}, {"type": "node", "id": 1343821819, "lat": 39.1811636, "lon": 26.4981241}, {"type": "node", "id": 1343821821, "lat": 39.1812473, "lon": 26.4982899}, {"type": "node", "id": 1343821822, "lat": 39.1813152, "lon": 26.4979967}, {"type": "node", "id": 1343821828, "lat": 39.1813986, "lon": 26.4981697}, {"type": "node", "id": 1343821837, "lat": 39.1814601, "lon": 26.4985766, "tags": {"amenity": "cafe", "name": "\u03a6\u03bf\u03c1\u03c4\u03b1\u03bb\u03ad\u03b6\u03b1", "outdoor_seating": "yes"}}, {"type": "node", "id": 1346244012, "lat": 39.0753856, "lon": 26.4597387, "tags": {"amenity": "restaurant"}}, {"type": "node", "id": 1427202923, "lat": 39.1440385, "lon": 26.5289928, "tags": {"amenity": "restaurant", "name": "\u039a\u03c9\u03c3\u03c4\u03ac\u03c1\u03b1\u03c2"}}, {"type": "node", "id": 1495079529, "lat": 39.107224, "lon": 26.5577368}, {"type": "node", "id": 2365419956, "lat": 39.1448137, "lon": 26.529686, "tags": {"amenity": "restaurant", "check_date": "2025-05-07", "name": "\u0395\u03c5\u03ba\u03ac\u03bb\u03c5\u03c0\u03c4\u03bf\u03c2"}}, {"type": "node", "id": 2365450067, "lat": 39.0771557, "lon": 26.5801618, "tags": {"amenity": "restaurant", "name": "\u039c\u03a0\u0391\u039b\u039a\u039f\u039d\u0391\u039a\u0399", "name:de": "BALKONAKI", "name:el": "\u039c\u03a0\u0391\u039b\u039a\u039f\u039d\u0391\u039a\u0399"}}, {"type": "node", "id": 2365459524, "lat": 39.0719046, "lon": 26.5731714, "tags": {"amenity": "restaurant", "name": "\u0392\u0391\u0393\u0399\u0395\u03a3", "outdoor_seating": "yes"}}, {"type": "node", "id": 2365482183, "lat": 39.1094795, "lon": 26.5527385, "tags": {"amenity": "restaurant", "cuisine": "greek", "indoor_seating": "yes", "name": "\u039a\u03bf\u03c5\u03c4\u03c3\u03bf\u03bc\u03cd\u03c4\u03b7", "name:el": "\u039a\u03bf\u03c5\u03c4\u03c3\u03bf\u03bc\u03cd\u03c4\u03b7", "name:en": "Koutsomiti", "outdoor_seating": "yes"}}, {"type": "node", "id": 2365807786, "lat": 39.1738781, "lon": 26.5078975, "tags": {"amenity": "restaurant", "cuisine": "greek", "name": "\u0391\u03bd\u03b5\u03bc\u03bf\u03ba\u03ac\u03bc\u03c0\u03b9", "name:de": "Anemokampi", "name:el": "\u0391\u03bd\u03b5\u03bc\u03bf\u03ba\u03ac\u03bc\u03c0\u03b9", "name:en": "Anemokampi"}}, {"type": "node", "id": 2367690494, "lat": 39.0979832, "lon": 26.5531175, "tags": {"amenity": "restaurant", "name": "\u039c\u0391\u03a1\u03a4\u0391\u039d\u039f"}}, {"type": "node", "id": 2367691064, "lat": 39.0976096, "lon": 26.5522657, "tags": {"amenity": "cafe", "name": "\u03a3\u03a4\u0391\u0394\u0399\u039f"}}, {"type": "node", "id": 2367704833, "lat": 39.1122644, "lon": 26.5582071, "tags": {"amenity": "restaurant", "name": "\u03a1\u03b5\u03c6\u03b5\u03bd\u03ad\u03c2", "note": "\u03a1\u03b5\u03c6\u03b5\u03bd\u03ad\u03c2 (\u03c0\u03c1\u03ce\u03b7\u03bd \u039c\u03cd\u03b8\u03bf\u03c2)"}}, {"type": "node", "id": 2368324796, "lat": 39.106329, "lon": 26.5478657, "tags": {"amenity": "cafe", "name": "\u03a4\u0391\u03a0\u0391 \u039a\u0391\u03a6"}}, {"type": "node", "id": 2368324909, "lat": 39.1064081, "lon": 26.546141, "tags": {"amenity": "cafe", "name": "\u039b\u03a5\u03a1\u0397 \u039a\u0391\u03a6"}}, {"type": "node", "id": 2368329748, "lat": 39.1049428, "lon": 26.550682, "tags": {"amenity": "cafe", "name": "\u039b\u0399\u039d\u0391\u03a1\u0394\u039f\u03a5"}}, {"type": "node", "id": 2368374416, "lat": 39.1074425, "lon": 26.5584738, "tags": {"amenity": "restaurant", "name": "\u0396\u039f\u03a5\u039c\u03a0\u039f\u03a5\u039b\u0399"}}, {"type": "node", "id": 2368380757, "lat": 39.1007418, "lon": 26.5554011, "tags": {"amenity": "cafe", "name": "\u039c\u03a0\u039b\u039f\u039a"}}, {"type": "node", "id": 2368380928, "lat": 39.1009538, "lon": 26.5555203, "tags": {"amenity": "restaurant", "check_date": "2024-05-03", "cuisine": "greek;mediterranean", "diet:mediterranean": "yes", "name": "\u0391\u03c0\u03ac\u03b3\u03ba\u03b9\u03bf"}}, {"type": "node", "id": 2368395125, "lat": 39.105032, "lon": 26.5524015, "tags": {"addr:housenumber": "76", "addr:street": "\u0398\u03b5\u03bf\u03ba\u03c1\u03af\u03c4\u03bf\u03c5", "amenity": "cafe", "name": "\u039c\u03b9\u03ba\u03c1\u03bf Coffee Concept Kiosk"}}, {"type": "node", "id": 2370309029, "lat": 39.1116492, "lon": 26.5573728, "tags": {"addr:city": "\u039c\u03c5\u03c4\u03b9\u03bb\u03ae\u03bd\u03b7", "addr:housenumber": "2", "addr:postcode": "81100", "addr:street": "\u039a\u039f\u03a1\u039d\u0391\u03a1\u039f\u03a5", "amenity": "restaurant", "cuisine": "greek", "description": "\u03ba\u03b1\u03c6\u03b5\u03bd\u03b5\u03af\u03bf/\u03c4\u03b1\u03b2\u03ad\u03c1\u03bd\u03b1 \u03b1\u03c0\u03cc \u03c4\u03bf 1800", "internet_access:fee": "wlan", "name": "\u0395\u03a1\u039c\u0397\u03a3", "outdoor_seating": "yes", "phone": "+30 2251 026232"}}, {"type": "node", "id": 2372325393, "lat": 39.474069, "lon": 26.2316782, "tags": {"amenity": "restaurant", "internet_access": "wlan", "internet_access:fee": "no", "name": "Sali\u00e7 Hotel", "source:amenity": "survey", "source:phone": "survey", "source:website": "survey", "tourism": "hotel"}}, {"type": "node", "id": 2407606555, "lat": 39.0958001, "lon": 26.5498331}, {"type": "node", "id": 2407606556, "lat": 39.0957456, "lon": 26.5498147}, {"type": "node", "id": 2407606557, "lat": 39.0957798, "lon": 26.5499329}, {"type": "node", "id": 2407606558, "lat": 39.0957254, "lon": 26.5499145}, {"type": "node", "id": 2425646646, "lat": 39.1042498, "lon": 26.5553784, "tags": {"amenity": "cafe", "name": "\u039a\u0397\u03a0\u039f\u03a3", "name:el": "\u039a\u03ae\u03c0\u03bf\u03c2", "name:en": "K\u00edpos", "source": "survey"}}, {"type": "node", "id": 2425949391, "lat": 39.1101482, "lon": 26.5577124, "tags": {"amenity": "restaurant", "name": "Ristorante Italiano"}}, {"type": "node", "id": 2600505818, "lat": 39.2046937, "lon": 26.4849695, "tags": {"amenity": "cafe"}}, {"type": "node", "id": 2612160887, "lat": 39.1028501, "lon": 26.5566872}, {"type": "node", "id": 2612160889, "lat": 39.1029515, "lon": 26.5567035}, {"type": "node", "id": 2637797060, "lat": 39.1101731, "lon": 26.0953121, "tags": {"amenity": "restaurant", "check_date": "2025-05-05", "cuisine": "greek", "name": "\u03a4\u03bf\u03c5 \u03a7\u03bf\u03bd\u03c4\u03c1\u03bf\u03cd"}}, {"type": "node", "id": 2637797068, "lat": 39.1065362, "lon": 26.0910406, "tags": {"amenity": "restaurant", "cuisine": "greek", "name": "\u039a\u03b1\u03c1\u03b3\u03b9\u03b1\u03bd\u03ae"}}, {"type": "node", "id": 2639071657, "lat": 39.1693977, "lon": 26.1402388, "tags": {"amenity": "cafe", "name": "\u039d\u03ad\u03bf\u03bd"}}, {"type": "node", "id": 2639071658, "lat": 39.1694851, "lon": 26.1401373, "tags": {"amenity": "restaurant"}}, {"type": "node", "id": 2639071660, "lat": 39.1717748, "lon": 26.1415503, "tags": {"amenity": "restaurant", "name": "\u03a4\u03c3\u03b1\u03bd\u03c4\u03af\u03c1\u03b1"}}, {"type": "node", "id": 2639071661, "lat": 39.1716184, "lon": 26.1416511, "tags": {"amenity": "cafe", "name": "\u0396\u03b1\u03bd\u03b1\u03bd\u03c4\u03bf\u03cd"}}, {"type": "node", "id": 2687023455, "lat": 39.1448361, "lon": 26.5305525}, {"type": "node", "id": 2687023461, "lat": 39.1447429, "lon": 26.53053}, {"type": "node", "id": 2687023483, "lat": 39.1448454, "lon": 26.5304278}, {"type": "node", "id": 2687038387, "lat": 39.1447519, "lon": 26.5304154}, {"type": "node", "id": 2730700971, "lat": 39.1945148, "lon": 26.4897133}, {"type": "node", "id": 2730700972, "lat": 39.194456, "lon": 26.4897079}, {"type": "node", "id": 2730700974, "lat": 39.194456, "lon": 26.4897648}, {"type": "node", "id": 2730700975, "lat": 39.1943489, "lon": 26.4897729}, {"type": "node", "id": 2730700977, "lat": 39.1944077, "lon": 26.4899897}, {"type": "node", "id": 2730700978, "lat": 39.1944581, "lon": 26.4899599}, {"type": "node", "id": 2730700980, "lat": 39.1945232, "lon": 26.4899002}, {"type": "node", "id": 2730700981, "lat": 39.1945253, "lon": 26.4898406}, {"type": "node", "id": 2730700982, "lat": 39.1945526, "lon": 26.4898433}, {"type": "node", "id": 2730700984, "lat": 39.1945652, "lon": 26.4897973}, {"type": "node", "id": 2730700985, "lat": 39.1945295, "lon": 26.4897837}, {"type": "node", "id": 2735808921, "lat": 39.0722207, "lon": 26.5894899}, {"type": "node", "id": 2735808922, "lat": 39.072259, "lon": 26.5895218}, {"type": "node", "id": 2735808923, "lat": 39.0722136, "lon": 26.5896122}, {"type": "node", "id": 2735808924, "lat": 39.0721754, "lon": 26.5895803}, {"type": "node", "id": 2749396005, "lat": 39.1067248, "lon": 26.5583473}, {"type": "node", "id": 2749396006, "lat": 39.106831, "lon": 26.558626}, {"type": "node", "id": 2749396007, "lat": 39.1067468, "lon": 26.5586766}, {"type": "node", "id": 2749396008, "lat": 39.1066418, "lon": 26.5583913}, {"type": "node", "id": 2749396009, "lat": 39.106972, "lon": 26.5577442}, {"type": "node", "id": 2749410651, "lat": 39.106344, "lon": 26.5585729}, {"type": "node", "id": 2749410652, "lat": 39.1062868, "lon": 26.5586012}, {"type": "node", "id": 2749410654, "lat": 39.1064276, "lon": 26.5588925}, {"type": "node", "id": 2749410656, "lat": 39.1061741, "lon": 26.5586398}, {"type": "node", "id": 2749410657, "lat": 39.106231, "lon": 26.558953}, {"type": "node", "id": 2749410658, "lat": 39.1063637, "lon": 26.5589231}, {"type": "node", "id": 2749460713, "lat": 39.1043891, "lon": 26.5599553, "tags": {"amenity": "cafe", "check_date": "2024-08-26", "name": "Hacienda", "name:el": "\u03a7\u03b1\u03c3\u03b9\u03ad\u03bd\u03c4\u03b1"}}, {"type": "node", "id": 2769981205, "lat": 39.1445448, "lon": 26.5292914, "tags": {"amenity": "cafe", "changing_table": "no", "check_date": "2025-05-07", "internet_access": "yes", "internet_access:fee": "no", "name": "Porto", "smoking": "yes", "takeaway": "yes", "toilets:access": "permissive", "toilets:wheelchair": "no", "wheelchair": "limited"}}, {"type": "node", "id": 2769981206, "lat": 39.1443645, "lon": 26.5291717, "tags": {"amenity": "cafe", "check_date": "2022-05-17", "name": "\u03a3\u03ba\u03b7\u03bd\u03b9\u03ba\u03cc", "phone": "00306972210606"}}, {"type": "node", "id": 2770032436, "lat": 39.1452108, "lon": 26.5285224}, {"type": "node", "id": 2770032439, "lat": 39.1451638, "lon": 26.5285547}, {"type": "node", "id": 2770032440, "lat": 39.1452078, "lon": 26.5286611}, {"type": "node", "id": 2770032441, "lat": 39.1452548, "lon": 26.5286287}, {"type": "node", "id": 2770049316, "lat": 39.1451192, "lon": 26.5283881, "tags": {"amenity": "cafe", "name": "\u0391\u03b9\u03bf\u03bb\u03b9\u03ba\u03cc\u03bd"}}, {"type": "node", "id": 2870037456, "lat": 39.1123551, "lon": 26.5583186}, {"type": "node", "id": 2870037457, "lat": 39.1123008, "lon": 26.5583674}, {"type": "node", "id": 2870037458, "lat": 39.1123586, "lon": 26.558477}, {"type": "node", "id": 2870037459, "lat": 39.1124048, "lon": 26.5584329}, {"type": "node", "id": 2870037462, "lat": 39.1123634, "lon": 26.5586698}, {"type": "node", "id": 2870037466, "lat": 39.1124293, "lon": 26.558727}, {"type": "node", "id": 2870037468, "lat": 39.1122748, "lon": 26.5581652}, {"type": "node", "id": 2870042283, "lat": 39.1121414, "lon": 26.5578521}, {"type": "node", "id": 2870042284, "lat": 39.1120724, "lon": 26.5579112}, {"type": "node", "id": 2870042287, "lat": 39.1121003, "lon": 26.5577557}, {"type": "node", "id": 2870042288, "lat": 39.112026, "lon": 26.5578186}, {"type": "node", "id": 2872213513, "lat": 39.283059, "lon": 26.3802342}, {"type": "node", "id": 2872213514, "lat": 39.2829891, "lon": 26.3802924}, {"type": "node", "id": 2872213515, "lat": 39.2830769, "lon": 26.3804683}, {"type": "node", "id": 2872213516, "lat": 39.2831468, "lon": 26.3804101}, {"type": "node", "id": 2901764474, "lat": 39.1554833, "lon": 26.5201796, "tags": {"amenity": "cafe", "name": "\u0399\u03c9\u03ac\u03bd\u03bd\u03b7\u03c2 \u0391\u03c3\u03b7\u03bc\u03af\u03bd\u03bf\u03c2"}}, {"type": "node", "id": 2909702471, "lat": 39.1567865, "lon": 26.5217377}, {"type": "node", "id": 2909702472, "lat": 39.1567596, "lon": 26.5218348}, {"type": "node", "id": 2909702473, "lat": 39.1568388, "lon": 26.5218653}, {"type": "node", "id": 2909702474, "lat": 39.1568646, "lon": 26.5217639}, {"type": "node", "id": 3017577167, "lat": 39.1448216, "lon": 26.5307004}, {"type": "node", "id": 3017577168, "lat": 39.144725, "lon": 26.5306915}, {"type": "node", "id": 3017577169, "lat": 39.1447179, "lon": 26.5307806}, {"type": "node", "id": 3017577170, "lat": 39.1448163, "lon": 26.5307936}, {"type": "node", "id": 3024258332, "lat": 39.1023075, "lon": 26.1695576, "tags": {"amenity": "cafe", "cuisine": "burger", "internet_access": "yes", "name": "\u0391\u03b3\u03ba\u03c5\u03c1\u03bf\u03b2\u03cc\u03bb\u03b9 Caf\u00e9", "phone": "2252 043111", "website": "https://www.facebook.com/AgurovoliCafeSkalaPolichnitou"}}, {"type": "node", "id": 3026760470, "lat": 39.3290565, "lon": 26.1775906}, {"type": "node", "id": 3026760471, "lat": 39.3291243, "lon": 26.1776592}, {"type": "node", "id": 3026760472, "lat": 39.3292244, "lon": 26.1774944}, {"type": "node", "id": 3026760473, "lat": 39.32915, "lon": 26.1774193}, {"type": "node", "id": 3026760474, "lat": 39.3292806, "lon": 26.1773938}, {"type": "node", "id": 3026760475, "lat": 39.3292062, "lon": 26.1773187}, {"type": "node", "id": 3026764817, "lat": 39.3295794, "lon": 26.1777432}, {"type": "node", "id": 3026764818, "lat": 39.329517, "lon": 26.1778336}, {"type": "node", "id": 3026764819, "lat": 39.3295489, "lon": 26.1778704}, {"type": "node", "id": 3026764820, "lat": 39.3296113, "lon": 26.17778}, {"type": "node", "id": 3028444168, "lat": 39.1025165, "lon": 26.1696389, "tags": {"amenity": "restaurant", "cuisine": "pizza", "name": "akrogiali"}}, {"type": "node", "id": 3029264781, "lat": 39.3277262, "lon": 26.1752064, "tags": {"addr:city": "\u03a0\u03ad\u03c4\u03c1\u03b1", "addr:postcode": "81109", "amenity": "restaurant", "balcony": "yes", "check_date": "2025-04-19", "cuisine": "greek", "level": "1", "name": "The Women's Co-Operative", "opening_hours": "Mo-Su 10:00-23:00", "outdoor_seating": "yes", "toilets": "yes", "toilets:wheelchair": "no", "website": "http://www.lesvos-travel.com/womens-cooperative/", "wheelchair": "no"}}, {"type": "node", "id": 3029283145, "lat": 39.2440077, "lon": 26.2682121, "tags": {"amenity": "cafe"}}, {"type": "node", "id": 3030758347, "lat": 39.0848585, "lon": 26.3711204, "tags": {"amenity": "cafe"}}, {"type": "node", "id": 3046814305, "lat": 39.100914, "lon": 26.5555075, "tags": {"amenity": "restaurant"}}, {"type": "node", "id": 3081586737, "lat": 39.0797829, "lon": 26.5786795}, {"type": "node", "id": 3081586738, "lat": 39.0795696, "lon": 26.5788449}, {"type": "node", "id": 3081586739, "lat": 39.0796187, "lon": 26.5789586}, {"type": "node", "id": 3081586740, "lat": 39.0798341, "lon": 26.5787843}, {"type": "node", "id": 3114331091, "lat": 39.4905482, "lon": 26.3693319, "tags": {"amenity": "restaurant", "name": "Assos Albena Restaurant"}}, {"type": "node", "id": 3114350213, "lat": 39.4908717, "lon": 26.3701228, "tags": {"amenity": "restaurant", "name": "Y\u0131ld\u0131zsaray Bal\u0131k Restaurant"}}, {"type": "node", "id": 3114350840, "lat": 39.4925773, "lon": 26.3713541, "tags": {"amenity": "restaurant", "name": "Assos Club Beyaz"}}, {"type": "node", "id": 3165321805, "lat": 39.206177, "lon": 26.2111781, "tags": {"amenity": "restaurant", "cuisine": "greek", "name": "\u039c\u0395\u0396\u0395\u039d", "name:el": "\u039c\u0395\u0396\u0395\u039d", "name:en": "\u039c\u0395\u0396\u0395\u039d", "note": "\u03c0\u03c1\u03ce\u03b7\u03bd \u0391\u03bc\u03b2\u03c1\u03bf\u03c3\u03af\u03b1"}}, {"type": "node", "id": 3165321807, "lat": 39.3681869, "lon": 26.1739151, "tags": {"addr:city": "\u039c\u03cc\u03bb\u03c5\u03b2\u03bf\u03c2", "addr:postcode": "81108", "amenity": "restaurant", "cuisine": "greek", "mobile": "+30 697 6004947", "name": "Martin's", "opening_hours": "09:30-23:00", "outdoor_seating": "yes", "website:menu": "https://citystroll.gr/orders/catalog?url=martins-restaurant-jkxyq3gs&catalog=NMTMrG74BYs"}}, {"type": "node", "id": 3165321854, "lat": 39.3432889, "lon": 26.1726175}, {"type": "node", "id": 3165321860, "lat": 39.3433914, "lon": 26.1728646}, {"type": "node", "id": 3165322361, "lat": 39.3434451, "lon": 26.1725091}, {"type": "node", "id": 3165322366, "lat": 39.3435477, "lon": 26.1727562}, {"type": "node", "id": 3165322385, "lat": 39.3666599, "lon": 26.1763171, "tags": {"amenity": "cafe"}}, {"type": "node", "id": 3165322390, "lat": 39.3673154, "lon": 26.1755594, "tags": {"amenity": "restaurant", "name": "\u03a4\u03bf \u03c7\u03ac\u03bd\u03b9"}}, {"type": "node", "id": 3165322399, "lat": 39.3681864, "lon": 26.1734876, "tags": {"amenity": "restaurant", "name:tr": "Sansibal Restaurant", "shop": "gift"}}, {"type": "node", "id": 3229321520, "lat": 39.369047, "lon": 26.1892124}, {"type": "node", "id": 3229321521, "lat": 39.3689267, "lon": 26.1893823}, {"type": "node", "id": 3229321522, "lat": 39.3688418, "lon": 26.1892867}, {"type": "node", "id": 3229321523, "lat": 39.368954, "lon": 26.1891027}, {"type": "node", "id": 3316139196, "lat": 39.3735445, "lon": 26.3031999, "tags": {"amenity": "cafe", "cuisine": "coffee_shop;crepe;pizza;pasta;sandwich;ice_cream;breakfast", "internet_access": "wlan", "name": "Goji", "opening_hours": "Mo-Su 08:00-22:00"}}, {"type": "node", "id": 3426715642, "lat": 39.1010943, "lon": 26.5553334, "tags": {"addr:city": "\u039c\u03c5\u03c4\u03b9\u03bb\u03b7\u03bd\u03b7", "addr:housenumber": "21", "addr:postcode": "81100", "addr:street": "\u0395\u03bb\u03b5\u03c5\u03b8\u03b5\u03c1\u03af\u03bf\u03c5 \u0392\u03b5\u03bd\u03b9\u03b6\u03ad\u03bb\u03bf\u03c5", "amenity": "cafe", "cuisine": "sandwich,_coffee,_rolls,_juices", "internet_access": "yes", "name": "Vena's", "phone": "+302251042722", "smoking": "outside"}}, {"type": "node", "id": 3433478208, "lat": 39.1050603, "lon": 26.553295, "tags": {"amenity": "restaurant", "name": "\u0393\u03b9\u03ac\u03bd\u03bd\u03b7\u03c2", "name:el": "\u0393\u03b9\u03ac\u03bd\u03bd\u03b7\u03c2", "name:en": "John"}}, {"type": "node", "id": 3440767355, "lat": 39.3739075, "lon": 26.3028696}, {"type": "node", "id": 3440767356, "lat": 39.3738289, "lon": 26.3028255}, {"type": "node", "id": 3440767357, "lat": 39.3737929, "lon": 26.3029401}, {"type": "node", "id": 3440767358, "lat": 39.3738705, "lon": 26.302981}, {"type": "node", "id": 3550714824, "lat": 39.174055, "lon": 26.5027872}, {"type": "node", "id": 3550714826, "lat": 39.174094, "lon": 26.5029109}, {"type": "node", "id": 3550714827, "lat": 39.1741264, "lon": 26.5027498}, {"type": "node", "id": 3550714828, "lat": 39.1741654, "lon": 26.5028735}, {"type": "node", "id": 3556865115, "lat": 39.132133, "lon": 26.5174015, "tags": {"amenity": "cafe", "name": "GIOTA"}}, {"type": "node", "id": 3556865127, "lat": 39.1322926, "lon": 26.5174778, "tags": {"amenity": "cafe"}}, {"type": "node", "id": 3581160301, "lat": 39.1806886, "lon": 26.4996132}, {"type": "node", "id": 3585865493, "lat": 39.341021, "lon": 26.2215471, "tags": {"amenity": "cafe", "opening_hours": "Mo-Su 15:00-20:00"}}, {"type": "node", "id": 3633323815, "lat": 39.1068661, "lon": 26.5572584, "tags": {"addr:city": "\u039c\u03c5\u03c4\u03b9\u03bb\u03ae\u03bd\u03b7", "addr:housenumber": "23", "addr:postcode": "81100", "addr:street": "\u0391\u03a1\u03a7\u0399\u03a0\u0395\u039b\u0391\u0393\u039f\u03a5\u03a3", "amenity": "cafe", "check_date": "2025-04-30", "name": "Soho"}}, {"type": "node", "id": 3639596377, "lat": 39.3693475, "lon": 26.1676642, "tags": {"addr:city": "\u039c\u03cc\u03bb\u03c5\u03b2\u03bf\u03c2", "addr:postcode": "81108", "amenity": "restaurant", "name": "\u03a4\u03bf \u03c4\u03c1\u03b1\u03c0\u03ad\u03b6\u03b9 \u03c4\u03bf\u03c5 \u03ba\u03b1\u03c0\u03b5\u03c4\u03ac\u03bd\u03b9\u03bf\u03c5", "name:de": "The Captain's Table", "name:el": "\u03a4\u03bf \u03c4\u03c1\u03b1\u03c0\u03ad\u03b6\u03b9 \u03c4\u03bf\u03c5 \u03ba\u03b1\u03c0\u03b5\u03c4\u03ac\u03bd\u03b9\u03bf\u03c5", "name:en": "The Captain's Table", "opening_hours": "Mo-Sa 17:30-23:59"}}, {"type": "node", "id": 3639596379, "lat": 39.36938, "lon": 26.1677855, "tags": {"amenity": "restaurant", "check_date": "2025-04-20", "name": "Kismet", "name:de": "Kismet"}}, {"type": "node", "id": 3639596380, "lat": 39.3690719, "lon": 26.1683758, "tags": {"amenity": "restaurant", "name": "\u03a4\u03bf \u03c7\u03c4\u03b1\u03c0\u03cc\u03b4\u03b9", "name:el": "\u03a4\u03bf \u03c7\u03c4\u03b1\u03c0\u03cc\u03b4\u03b9", "name:en": "The Octopus Restaurant", "website": "http://www.octapus-restaurant.com"}}, {"type": "node", "id": 3642954187, "lat": 39.321168, "lon": 26.1498167, "tags": {"addr:city": "\u0386\u03bd\u03b1\u03be\u03bf\u03c2", "amenity": "restaurant", "name": "\u039a\u03bb\u03b7\u03bc\u03b1\u03c4\u03b1\u03c1\u03b9\u03ac", "name:de": "Klimataria", "name:el": "\u039a\u03bb\u03b7\u03bc\u03b1\u03c4\u03b1\u03c1\u03b9\u03ac", "name:en": "Klimataria"}}, {"type": "node", "id": 3642970913, "lat": 39.3191437, "lon": 26.148329, "tags": {"addr:city": "\u0386\u03bd\u03b1\u03be\u03bf\u03c2", "amenity": "restaurant", "check_date": "2025-05-13", "internet_access": "wlan", "internet_access:fee": "customers", "name": "Acapulco", "opening_hours": "10:00-23:00", "payment:cash": "yes", "payment:cash:EUR": "yes", "payment:credit_cards": "yes", "payment:debit_cards": "yes", "phone": "+30 2253 042683", "wheelchair": "yes"}}, {"type": "node", "id": 3642975038, "lat": 39.3190603, "lon": 26.148121, "tags": {"addr:city": "\u0386\u03bd\u03b1\u03be\u03bf\u03c2", "addr:postcode": "81109", "amenity": "restaurant", "capacity": "50", "check_date": "2025-05-13", "name": "\u0395\u03af\u03bd\u03b1\u03b9", "name:el": "\u0395\u03af\u03bd\u03b1\u03b9", "name:en": "Einai", "opening_hours": "Mo-Su 09:00-21:00", "outdoor_seating": "yes", "website": "https://www.tripadvisor.com/ShowUserReviews-g1191735-d2485279-r217103061-Einai-Anaxos_Lesbos_Northeast_Aegean_Islands.html"}}, {"type": "node", "id": 3643006725, "lat": 39.3278381, "lon": 26.1751673, "tags": {"addr:city": "\u03a0\u03ad\u03c4\u03c1\u03b1", "amenity": "cafe", "bar": "yes", "check_date": "2024-09-15", "indoor_seating": "yes", "internet_access": "wlan", "internet_access:fee": "customers", "name": "\u039a\u03b1\u03bd\u03c4\u03af\u03bd\u03b1", "name:de": "Kantina", "name:el": "\u039a\u03b1\u03bd\u03c4\u03af\u03bd\u03b1", "name:en": "Kantina", "outdoor_seating": "yes", "phone": "+30 2253 041896", "toilets:access": "customers"}}, {"type": "node", "id": 3643007681, "lat": 39.3277822, "lon": 26.1753395, "tags": {"addr:city": "\u03a0\u03ad\u03c4\u03c1\u03b1", "amenity": "cafe", "check_date": "2022-05-13", "name": "Beba's Corner", "phone": "+30 2253112260"}}, {"type": "node", "id": 3643008734, "lat": 39.3278157, "lon": 26.1754555, "tags": {"addr:city": "\u03a0\u03ad\u03c4\u03c1\u03b1", "addr:postcode": "81109", "amenity": "cafe", "check_date": "2025-05-10", "name": "\u03a0\u03bb\u03b1\u03c4\u03b5\u03af\u03b1", "outdoor_seating": "yes", "phone": "00306941640781"}}, {"type": "node", "id": 3654055168, "lat": 39.2165114, "lon": 26.4743383}, {"type": "node", "id": 3654055169, "lat": 39.2164475, "lon": 26.4744055}, {"type": "node", "id": 3654055170, "lat": 39.2165432, "lon": 26.4745575}, {"type": "node", "id": 3654055171, "lat": 39.2166042, "lon": 26.4745033}, {"type": "node", "id": 3654055189, "lat": 39.2164646, "lon": 26.4743822}, {"type": "node", "id": 3673276104, "lat": 39.2121537, "lon": 26.4761797}, {"type": "node", "id": 3673276105, "lat": 39.2120399, "lon": 26.4760304}, {"type": "node", "id": 3673276106, "lat": 39.2119752, "lon": 26.4761124}, {"type": "node", "id": 3673276107, "lat": 39.212089, "lon": 26.4762618}, {"type": "node", "id": 3674576353, "lat": 39.2156082, "lon": 26.4741336, "tags": {"amenity": "cafe", "name": "Rabbit hole"}}, {"type": "node", "id": 3674601985, "lat": 39.1734656, "lon": 26.5087308, "tags": {"amenity": "cafe", "name": "\"Akti\" beach bar (Abandoned)"}}, {"type": "node", "id": 3674619499, "lat": 39.1741682, "lon": 26.5073653, "tags": {"amenity": "restaurant", "cuisine": "coffee_shop", "name": "Balloni"}}, {"type": "node", "id": 3687739715, "lat": 39.318596, "lon": 26.1477557, "tags": {"amenity": "cafe", "name": "\u039a\u03bf\u03c5\u03c1\u03c3\u03ac\u03c1\u03bf\u03c2"}}, {"type": "node", "id": 3687740713, "lat": 39.3183412, "lon": 26.1474333, "tags": {"addr:city": "\u0386\u03bd\u03b1\u03be\u03bf\u03c2", "addr:postcode": "81109", "amenity": "cafe", "cuisine": "regional;pizza;burger;coffee_shop;sandwich;ice_cream;greek", "internet_access": "yes", "internet_access:fee": "no", "name": "Palatino", "opening_hours": "24/7", "outdoor_seating": "yes", "smoking": "separated"}}, {"type": "node", "id": 3696864505, "lat": 39.1088402, "lon": 26.5575533, "tags": {"amenity": "cafe", "name": "\u0397 \u03c0\u03b1\u03bb\u03b9\u03ac \u03b1\u03b3\u03bf\u03c1\u03ac"}}, {"type": "node", "id": 3696887368, "lat": 39.105842, "lon": 26.5548895, "tags": {"amenity": "cafe"}}, {"type": "node", "id": 3696921632, "lat": 39.3682011, "lon": 26.1763196, "tags": {"amenity": "restaurant", "name": "Panorama"}}, {"type": "node", "id": 3696928825, "lat": 39.3686212, "lon": 26.1727099, "tags": {"amenity": "restaurant", "cuisine": "pizza", "name": "Meltemi Ristorante Pizzeria", "opening_hours": "18:00-23:45", "phone": "+30 22530 71689"}}, {"type": "node", "id": 3696928826, "lat": 39.3687654, "lon": 26.1716066, "tags": {"amenity": "restaurant", "name": "Dilino"}}, {"type": "node", "id": 3696946792, "lat": 39.3691249, "lon": 26.169877, "tags": {"amenity": "restaurant", "name": "Galiano"}}, {"type": "node", "id": 3696951327, "lat": 39.2983355, "lon": 26.1930455, "tags": {"amenity": "restaurant", "name": "\u0393\u03b1\u03b2\u03c1\u03af\u03bb\u03bf\u03c2", "outdoor_seating": "yes"}}, {"type": "node", "id": 3710970440, "lat": 39.1043697, "lon": 26.5525296, "tags": {"amenity": "cafe", "check_date": "2023-01-24", "name": "Square"}}, {"type": "node", "id": 3724555640, "lat": 39.1056442, "lon": 26.5556897, "tags": {"amenity": "cafe", "outdoor_seating": "sidewalk"}}, {"type": "node", "id": 3777958231, "lat": 39.3691139, "lon": 26.1687256, "tags": {"amenity": "cafe", "name": "\u0391\u03b9\u03b3\u03b1\u03af\u03bf\u03bd", "name:de": "Cafe Aiga\u00edon", "name:el": "\u0391\u03b9\u03b3\u03b1\u03af\u03bf\u03bd"}}, {"type": "node", "id": 3777958232, "lat": 39.3691051, "lon": 26.1686414, "tags": {"amenity": "restaurant", "name": "\u039c\u03b1\u03ca\u03c3\u03c4\u03c1\u03ac\u03bb\u03b9", "name:de": "Maystrali", "name:el": "\u039c\u03b1\u03ca\u03c3\u03c4\u03c1\u03ac\u03bb\u03b9"}}, {"type": "node", "id": 3778038075, "lat": 39.3691014, "lon": 26.1693291, "tags": {"amenity": "restaurant", "name": "Misirlou"}}, {"type": "node", "id": 3818566346, "lat": 39.370898, "lon": 26.1838578}, {"type": "node", "id": 3818566347, "lat": 39.3708575, "lon": 26.1837231}, {"type": "node", "id": 3818566348, "lat": 39.3708035, "lon": 26.1837503}, {"type": "node", "id": 3818566349, "lat": 39.3707914, "lon": 26.18371}, {"type": "node", "id": 3818566350, "lat": 39.3707285, "lon": 26.1837417}, {"type": "node", "id": 3818566351, "lat": 39.3707566, "lon": 26.183835}, {"type": "node", "id": 3818566352, "lat": 39.3708055, "lon": 26.1838103}, {"type": "node", "id": 3818566353, "lat": 39.3708301, "lon": 26.183892}, {"type": "node", "id": 3820292828, "lat": 39.1067038, "lon": 26.5583597}, {"type": "node", "id": 3824005699, "lat": 39.3643386, "lon": 26.1778053}, {"type": "node", "id": 3824005700, "lat": 39.3643233, "lon": 26.1776854}, {"type": "node", "id": 3824005701, "lat": 39.364302, "lon": 26.17769}, {"type": "node", "id": 3824005702, "lat": 39.3642945, "lon": 26.1776315}, {"type": "node", "id": 3824005703, "lat": 39.3642067, "lon": 26.1776503}, {"type": "node", "id": 3824005704, "lat": 39.3642145, "lon": 26.1777115}, {"type": "node", "id": 3824005705, "lat": 39.3642445, "lon": 26.1777051}, {"type": "node", "id": 3824005706, "lat": 39.3642503, "lon": 26.1777509}, {"type": "node", "id": 3824005707, "lat": 39.364213, "lon": 26.1777589}, {"type": "node", "id": 3824005708, "lat": 39.3642221, "lon": 26.1778302}, {"type": "node", "id": 3824231379, "lat": 39.3656191, "lon": 26.177057}, {"type": "node", "id": 3824231380, "lat": 39.3655845, "lon": 26.1770111}, {"type": "node", "id": 3824231381, "lat": 39.3655143, "lon": 26.1771087}, {"type": "node", "id": 3824231382, "lat": 39.3655491, "lon": 26.1771528}, {"type": "node", "id": 3824234674, "lat": 39.3662761, "lon": 26.1805064}, {"type": "node", "id": 3824234675, "lat": 39.366215, "lon": 26.1805037}, {"type": "node", "id": 3824234676, "lat": 39.3662114, "lon": 26.1806397}, {"type": "node", "id": 3824234677, "lat": 39.3662725, "lon": 26.1806424}, {"type": "node", "id": 3829751239, "lat": 39.3775131, "lon": 26.2588869}, {"type": "node", "id": 3829751240, "lat": 39.3774369, "lon": 26.2588653}, {"type": "node", "id": 3829751241, "lat": 39.3774148, "lon": 26.258996}, {"type": "node", "id": 3829751242, "lat": 39.3774909, "lon": 26.2590176}, {"type": "node", "id": 3851830438, "lat": 39.3413006, "lon": 26.2195324}, {"type": "node", "id": 3851830439, "lat": 39.3414484, "lon": 26.2195645}, {"type": "node", "id": 3854296476, "lat": 39.1068561, "lon": 26.5575955}, {"type": "node", "id": 3854296477, "lat": 39.1069602, "lon": 26.5575948}, {"type": "node", "id": 3854296481, "lat": 39.1069617, "lon": 26.5577023}, {"type": "node", "id": 3854296482, "lat": 39.1068551, "lon": 26.5577042}, {"type": "node", "id": 3864805669, "lat": 39.0999216, "lon": 26.5551726, "tags": {"amenity": "cafe", "indoor_seating": "yes", "name": "Corner", "name:en": "Coffee&Snacks Corner", "outdoor_seating": "no"}}, {"type": "node", "id": 3864806482, "lat": 39.0967447, "lon": 26.5533404, "tags": {"amenity": "cafe", "name": "\u039c\u03b9\u03ba\u03c1\u03cc"}}, {"type": "node", "id": 3864807011, "lat": 39.3095003, "lon": 26.3353782, "tags": {"amenity": "restaurant", "name": "\u039f \u03a3\u03c4\u03c1\u03ac\u03c4\u03bf\u03c2"}}, {"type": "node", "id": 3864807373, "lat": 39.2311184, "lon": 26.4507342, "tags": {"amenity": "restaurant", "name": "\u03a4\u03bf \u03a0\u03b1\u03bd\u03cc\u03c1\u03b1\u03bc\u03b1"}}, {"type": "node", "id": 3864807573, "lat": 39.1101711, "lon": 26.5524638, "tags": {"amenity": "cafe", "name": "Privado"}}, {"type": "node", "id": 3864808157, "lat": 39.1172715, "lon": 26.45254, "tags": {"amenity": "restaurant", "check_date": "2024-08-25", "name": "\u03a0\u03b1\u03bd\u03cc\u03c1\u03b1\u03bc\u03b1"}}, {"type": "node", "id": 3864810168, "lat": 39.1017478, "lon": 26.5558458, "tags": {"addr:city": "\u039c\u03c5\u03c4\u03b9\u03bb\u03b7\u03bd\u03b7", "addr:housenumber": "13", "addr:postcode": "81100", "addr:street": "\u039f\u03b4\u03c5\u03c3\u03c3\u03ad\u03b1 \u0395\u03bb\u03cd\u03c4\u03b7", "amenity": "cafe", "check_date": "2023-01-08", "name": "Daily Dose", "note": "\u03a0\u03c1\u03ce\u03b7\u03bd Ristretto"}}, {"type": "node", "id": 3894331183, "lat": 39.3736878, "lon": 26.303449}, {"type": "node", "id": 3894331186, "lat": 39.3736671, "lon": 26.3036211}, {"type": "node", "id": 3895845108, "lat": 39.3467172, "lon": 26.3585096}, {"type": "node", "id": 3895845110, "lat": 39.3466798, "lon": 26.3586168}, {"type": "node", "id": 3897141165, "lat": 39.3799008, "lon": 26.2176616}, {"type": "node", "id": 3897141166, "lat": 39.3798315, "lon": 26.2178726}, {"type": "node", "id": 3897141167, "lat": 39.3797777, "lon": 26.217843}, {"type": "node", "id": 3897141168, "lat": 39.379847, "lon": 26.217632}, {"type": "node", "id": 3903669656, "lat": 39.3737546, "lon": 26.3034643}, {"type": "node", "id": 3903671057, "lat": 39.3737353, "lon": 26.3036347}, {"type": "node", "id": 3903671058, "lat": 39.3738356, "lon": 26.303477}, {"type": "node", "id": 3903671059, "lat": 39.3737987, "lon": 26.3036475}, {"type": "node", "id": 3905973388, "lat": 39.2811673, "lon": 26.6612904, "tags": {"addr:city": "Bal\u0131kesir", "addr:housenumber": "1", "addr:postcode": "10410", "addr:street": "Pa\u015fa Koyu \u015eeytan Sofras\u0131 Yolu", "amenity": "restaurant", "cuisine": "international", "name": "The Breeze"}}, {"type": "node", "id": 3908054453, "lat": 39.1197266, "lon": 26.4864499}, {"type": "node", "id": 3908054454, "lat": 39.1196784, "lon": 26.4865846}, {"type": "node", "id": 3908054455, "lat": 39.119606, "lon": 26.4865384}, {"type": "node", "id": 3908054456, "lat": 39.1196538, "lon": 26.4864043}, {"type": "node", "id": 4097466250, "lat": 39.3690689, "lon": 26.1684591, "tags": {"amenity": "restaurant", "name": "\u039f\u03c5\u03b6\u03ac\u03b4\u03b9\u03ba\u03bf \u03c4\u03bf\u03c5 \u039c\u03c0\u03b1\u03bc\u03c0\u03bf\u03cd\u03ba\u03bf\u03c5", "name:el": "\u039f\u03c5\u03b6\u03ac\u03b4\u03b9\u03ba\u03bf \u03c4\u03bf\u03c5 \u039c\u03c0\u03b1\u03bc\u03c0\u03bf\u03cd\u03ba\u03bf\u03c5", "name:en": "Mpampoukou"}}, {"type": "node", "id": 4161777493, "lat": 39.2056647, "lon": 26.2112755, "tags": {"amenity": "restaurant", "name": "Sampo", "name:en": "Sampo", "outdoor_seating": "yes"}}, {"type": "node", "id": 4161777494, "lat": 39.2060801, "lon": 26.2104431, "tags": {"amenity": "restaurant", "check_date": "2023-02-18", "cuisine": "greek", "internet_access": "wlan", "internet_access:fee": "customers", "name": "\u039c\u03af\u03bc\u03b7\u03c2", "name:el": "\u039c\u03af\u03bc\u03b7\u03c2", "name:en": "Mimis", "outdoor_seating": "pedestrian_zone", "payment:mastercard": "yes", "payment:visa": "yes"}}, {"type": "node", "id": 4161777495, "lat": 39.2056254, "lon": 26.2115515, "tags": {"amenity": "restaurant", "name": "Caprice", "name:en": "Caprice", "outdoor_seating": "yes"}}, {"type": "node", "id": 4161777499, "lat": 39.2056856, "lon": 26.2110526, "tags": {"amenity": "restaurant", "name": "Dionysos", "name:en": "Dionysos"}}, {"type": "node", "id": 4191414764, "lat": 39.0752091, "lon": 26.5826775}, {"type": "node", "id": 4191414765, "lat": 39.0751218, "lon": 26.582835}, {"type": "node", "id": 4191414766, "lat": 39.0752149, "lon": 26.5829207}, {"type": "node", "id": 4191414767, "lat": 39.0753023, "lon": 26.5827632}, {"type": "node", "id": 4241895881, "lat": 39.3467367, "lon": 26.3586627}, {"type": "node", "id": 4241895886, "lat": 39.3467704, "lon": 26.3585557}, {"type": "node", "id": 4241900889, "lat": 39.3467941, "lon": 26.3586334}, {"type": "node", "id": 4243043376, "lat": 39.1602344, "lon": 26.5308002}, {"type": "node", "id": 4243043377, "lat": 39.1601381, "lon": 26.5307768}, {"type": "node", "id": 4243043378, "lat": 39.1601179, "lon": 26.5308664}, {"type": "node", "id": 4243043379, "lat": 39.1602134, "lon": 26.5308978}, {"type": "node", "id": 4244940712, "lat": 39.246861, "lon": 26.2717008}, {"type": "node", "id": 4244940783, "lat": 39.2469144, "lon": 26.2717993}, {"type": "node", "id": 4244940923, "lat": 39.246937, "lon": 26.2717817}, {"type": "node", "id": 4244940943, "lat": 39.2469508, "lon": 26.2716176}, {"type": "node", "id": 4244940984, "lat": 39.246971, "lon": 26.2718402}, {"type": "node", "id": 4244941089, "lat": 39.2469733, "lon": 26.2717462}, {"type": "node", "id": 4244941132, "lat": 39.2470038, "lon": 26.271808}, {"type": "node", "id": 4244941134, "lat": 39.2470048, "lon": 26.2717041}, {"type": "node", "id": 4256130501, "lat": 39.1810601, "lon": 26.4978017, "tags": {"amenity": "cafe", "internet_access": "wlan", "name": "\u03a0\u03b1\u03bb\u03b1\u03c4\u03ac\u03ba\u03b9", "name:el": "\u03a0\u03b1\u03bb\u03b1\u03c4\u03ac\u03ba\u03b9", "name:en": "Palataki", "phone": "2251071300"}}, {"type": "node", "id": 4258290753, "lat": 39.1808663, "lon": 26.4990545}, {"type": "node", "id": 4258290754, "lat": 39.1807285, "lon": 26.4991511}, {"type": "node", "id": 4258290755, "lat": 39.1807648, "lon": 26.4992371}, {"type": "node", "id": 4258290756, "lat": 39.1809025, "lon": 26.4991405}, {"type": "node", "id": 4258307213, "lat": 39.1807536, "lon": 26.4997188}, {"type": "node", "id": 4258307215, "lat": 39.1806547, "lon": 26.4995805}, {"type": "node", "id": 4271357799, "lat": 39.1807484, "lon": 26.4996677}, {"type": "node", "id": 4271357800, "lat": 39.1806942, "lon": 26.4996759}, {"type": "node", "id": 4305754946, "lat": 39.119907, "lon": 26.4828448}, {"type": "node", "id": 4305754961, "lat": 39.1199728, "lon": 26.4832184}, {"type": "node", "id": 4305755104, "lat": 39.1198326, "lon": 26.4828593}, {"type": "node", "id": 4305755105, "lat": 39.1198817, "lon": 26.4832263}, {"type": "node", "id": 4305755128, "lat": 39.1199166, "lon": 26.4829268}, {"type": "node", "id": 4305755132, "lat": 39.1198857, "lon": 26.4833602}, {"type": "node", "id": 4305755175, "lat": 39.1199002, "lon": 26.48293}, {"type": "node", "id": 4305755304, "lat": 39.1198518, "lon": 26.4830236}, {"type": "node", "id": 4305755337, "lat": 39.1199098, "lon": 26.4830123}, {"type": "node", "id": 4305755392, "lat": 39.1199796, "lon": 26.4833572}, {"type": "node", "id": 4308811848, "lat": 39.2059751, "lon": 26.2100454}, {"type": "node", "id": 4308811849, "lat": 39.2059689, "lon": 26.2101942}, {"type": "node", "id": 4308811850, "lat": 39.2058503, "lon": 26.2101845}, {"type": "node", "id": 4308811851, "lat": 39.2058551, "lon": 26.2100404}, {"type": "node", "id": 4326979848, "lat": 39.1259832, "lon": 26.2041795}, {"type": "node", "id": 4326979849, "lat": 39.1258916, "lon": 26.204207}, {"type": "node", "id": 4326979850, "lat": 39.1258498, "lon": 26.2039756}, {"type": "node", "id": 4326979851, "lat": 39.1259414, "lon": 26.2039481}, {"type": "node", "id": 4327883793, "lat": 39.1439523, "lon": 26.4043822}, {"type": "node", "id": 4327883794, "lat": 39.1438109, "lon": 26.404411}, {"type": "node", "id": 4327883795, "lat": 39.1438294, "lon": 26.4045631}, {"type": "node", "id": 4327883796, "lat": 39.1439708, "lon": 26.4045344}, {"type": "node", "id": 4351211910, "lat": 39.1291353, "lon": 26.2194902}, {"type": "node", "id": 4351211911, "lat": 39.1291613, "lon": 26.2195929}, {"type": "node", "id": 4351211912, "lat": 39.129059, "lon": 26.2196359}, {"type": "node", "id": 4351211913, "lat": 39.129026, "lon": 26.2195055}, {"type": "node", "id": 4351211966, "lat": 39.1282069, "lon": 26.2156516}, {"type": "node", "id": 4351211967, "lat": 39.1282648, "lon": 26.2156324}, {"type": "node", "id": 4351211968, "lat": 39.1282759, "lon": 26.2156878}, {"type": "node", "id": 4351211969, "lat": 39.128218, "lon": 26.215707}, {"type": "node", "id": 4351213495, "lat": 39.1278567, "lon": 26.2030309}, {"type": "node", "id": 4351213496, "lat": 39.127982, "lon": 26.2029181}, {"type": "node", "id": 4351213497, "lat": 39.1280024, "lon": 26.2029558}, {"type": "node", "id": 4351213498, "lat": 39.1279741, "lon": 26.2029812}, {"type": "node", "id": 4351213499, "lat": 39.1280231, "lon": 26.2030715}, {"type": "node", "id": 4351213500, "lat": 39.1279748, "lon": 26.203115}, {"type": "node", "id": 4351213501, "lat": 39.1279381, "lon": 26.2030473}, {"type": "node", "id": 4351213502, "lat": 39.1278894, "lon": 26.2030912}, {"type": "node", "id": 4380744389, "lat": 39.3737704, "lon": 26.3122059, "tags": {"amenity": "restaurant", "name": "\u03a0\u03bf\u03c3\u03b5\u03b9\u03b4\u03ce\u03bd", "name:el": "\u03a0\u03bf\u03c3\u03b5\u03b9\u03b4\u03ce\u03bd", "name:en": "Poseidon", "name:tr": "Taverna Kagia"}}, {"type": "node", "id": 4528236145, "lat": 39.1111969, "lon": 26.5574361}, {"type": "node", "id": 4528236146, "lat": 39.1112105, "lon": 26.5575734}, {"type": "node", "id": 4528236147, "lat": 39.1112672, "lon": 26.5575162}, {"type": "node", "id": 4528236148, "lat": 39.1112582, "lon": 26.557426}, {"type": "node", "id": 4570763147, "lat": 39.0990853, "lon": 26.5535605, "tags": {"amenity": "cafe", "name": "Street cafe"}}, {"type": "node", "id": 4579807739, "lat": 39.1103957, "lon": 26.5575304, "tags": {"addr:housenumber": "301", "addr:street": "\u0395\u03c1\u03bc\u03bf\u03cd", "amenity": "cafe", "name": "Half time", "outdoor_seating": "sidewalk"}}, {"type": "node", "id": 4579809645, "lat": 39.2806182, "lon": 26.3779488}, {"type": "node", "id": 4579809646, "lat": 39.2805477, "lon": 26.3778665}, {"type": "node", "id": 4579809647, "lat": 39.2804932, "lon": 26.3779467}, {"type": "node", "id": 4579809648, "lat": 39.2805431, "lon": 26.3779982}, {"type": "node", "id": 4579809649, "lat": 39.2805555, "lon": 26.3779793}, {"type": "node", "id": 4579809650, "lat": 39.2805803, "lon": 26.3780065}, {"type": "node", "id": 4683366561, "lat": 39.1069365, "lon": 26.5564793, "tags": {"amenity": "restaurant", "name": "\u039a\u03b1\u03bb\u03bd\u03c4\u03b5\u03c1\u03af\u03bc\u03b9", "name:el": "\u039a\u03b1\u03bb\u03bd\u03c4\u03b5\u03c1\u03af\u03bc\u03b9", "name:en": "Kalderimi"}}, {"type": "node", "id": 4710353090, "lat": 39.3317888, "lon": 26.1801806, "tags": {"amenity": "cafe"}}, {"type": "node", "id": 4723744897, "lat": 39.1015221, "lon": 26.1695087}, {"type": "node", "id": 4723744898, "lat": 39.1014976, "lon": 26.1696688}, {"type": "node", "id": 4723744899, "lat": 39.1014355, "lon": 26.1696555}, {"type": "node", "id": 4723744900, "lat": 39.1014571, "lon": 26.1694929}, {"type": "node", "id": 4723744912, "lat": 39.1009866, "lon": 26.1692952}, {"type": "node", "id": 4723744916, "lat": 39.1009978, "lon": 26.1691428}, {"type": "node", "id": 4723744918, "lat": 39.1009356, "lon": 26.1692852}, {"type": "node", "id": 4723744919, "lat": 39.100946, "lon": 26.169137}, {"type": "node", "id": 4756670525, "lat": 39.1808068, "lon": 26.4995951}, {"type": "node", "id": 4756670526, "lat": 39.1808203, "lon": 26.4997043}, {"type": "node", "id": 4762505115, "lat": 39.1029364, "lon": 26.5568599}, {"type": "node", "id": 4762505116, "lat": 39.102835, "lon": 26.5568436}, {"type": "node", "id": 4785944595, "lat": 39.1122313, "lon": 26.5580631}, {"type": "node", "id": 4785944599, "lat": 39.1121857, "lon": 26.5582224}, {"type": "node", "id": 4785944600, "lat": 39.1121441, "lon": 26.5581248}, {"type": "node", "id": 4785956605, "lat": 39.106739, "lon": 26.5583795}, {"type": "node", "id": 4796614302, "lat": 39.0999425, "lon": 26.5550418, "tags": {"amenity": "cafe", "name": "Metropolis"}}, {"type": "node", "id": 4796615812, "lat": 39.1073821, "lon": 26.5581563, "tags": {"amenity": "cafe", "name": "Valhalla"}}, {"type": "node", "id": 4796615824, "lat": 39.1064763, "lon": 26.558738, "tags": {"amenity": "restaurant", "cuisine": "pizza", "name": "\u03a0\u03af\u03c4\u03c3\u03b1 \u03a7\u03bf\u03c5\u03c3\u03bf\u03c2", "outdoor_seating": "yes"}}, {"type": "node", "id": 4796631708, "lat": 39.1071573, "lon": 26.5585149}, {"type": "node", "id": 4797011929, "lat": 39.1078759, "lon": 26.5578795, "tags": {"amenity": "restaurant", "name": "Umami"}}, {"type": "node", "id": 4810180073, "lat": 39.1196844, "lon": 26.4865717}, {"type": "node", "id": 4830131989, "lat": 39.3302141, "lon": 26.1784807}, {"type": "node", "id": 4830131990, "lat": 39.3301162, "lon": 26.178651}, {"type": "node", "id": 4830131991, "lat": 39.3300496, "lon": 26.1785872}, {"type": "node", "id": 4830131992, "lat": 39.330146, "lon": 26.1784191}, {"type": "node", "id": 4890057494, "lat": 39.1127285, "lon": 26.5540935, "tags": {"amenity": "cafe", "name": "\u039c\u03b9\u03ba\u03c1\u03cc"}}, {"type": "node", "id": 4897046741, "lat": 39.1568892, "lon": 26.5218848}, {"type": "node", "id": 4897046742, "lat": 39.1569169, "lon": 26.5217833}, {"type": "node", "id": 4897046743, "lat": 39.1570045, "lon": 26.5218217}, {"type": "node", "id": 4897046744, "lat": 39.1569748, "lon": 26.5219188}, {"type": "node", "id": 4911342474, "lat": 39.366853, "lon": 26.3567231}, {"type": "node", "id": 4911342475, "lat": 39.366829, "lon": 26.3565997}, {"type": "node", "id": 4911342476, "lat": 39.366906, "lon": 26.3565748}, {"type": "node", "id": 4911342477, "lat": 39.36693, "lon": 26.3566981}, {"type": "node", "id": 4911342562, "lat": 39.3693446, "lon": 26.356567}, {"type": "node", "id": 4911342563, "lat": 39.3692285, "lon": 26.3565589}, {"type": "node", "id": 4911342564, "lat": 39.3692205, "lon": 26.356751}, {"type": "node", "id": 4911342565, "lat": 39.3693367, "lon": 26.3567591}, {"type": "node", "id": 4954399958, "lat": 39.319383, "lon": 26.1485167, "tags": {"addr:city": "\u0386\u03bd\u03b1\u03be\u03bf\u03c2", "addr:postcode": "81109", "amenity": "cafe", "check_date": "2025-05-13", "cuisine": "coffee_shop;sandwich;ice_cream", "internet_access": "yes", "internet_access:fee": "no", "name": "Malibu", "opening_hours": "09:00-24:00", "outdoor_seating": "yes", "payment:cash": "yes", "payment:cash:EUR": "yes", "payment:credit_cards": "yes", "payment:debit_cards": "yes", "smoking": "separated", "wheelchair": "limited"}}, {"type": "node", "id": 4954699826, "lat": 39.3186305, "lon": 26.1491861, "tags": {"addr:city": "\u0386\u03bd\u03b1\u03be\u03bf\u03c2", "addr:postcode": "81109", "amenity": "cafe", "cuisine": "burger;coffee_shop;sandwich", "internet_access": "yes", "internet_access:fee": "no", "name": "The taste", "opening_hours": "Mo-Su 09:00-21:00", "outdoor_seating": "yes"}}, {"type": "node", "id": 4955574694, "lat": 39.3168643, "lon": 26.1522367, "tags": {"addr:city": "Anaxos", "addr:postcode": "81109", "amenity": "restaurant", "capacity": "60", "cuisine": "coffee_shop;kebab;chicken;greek;steak_house;sandwich;grill", "delivery": "yes", "name": "Ariston", "opening_hours": "24/7", "outdoor_seating": "yes", "smoking": "separated", "takeaway": "yes", "website": "https://www.tripadvisor.com/ShowUserReviews-g1191735-d3242837-r234178602-Ariston-Anaxos_Lesbos_Northeast_Aegean_Islands.html"}}, {"type": "node", "id": 4955576236, "lat": 39.3164796, "lon": 26.1500463, "tags": {"amenity": "restaurant", "cuisine": "coffee_shop;steak_house;greek;grill", "name": "Omega"}}, {"type": "node", "id": 4962244722, "lat": 39.3735635, "lon": 26.3034797, "tags": {"amenity": "restaurant", "cuisine": "greek", "name": "\u0397 \u03bc\u03bf\u03c5\u03c1\u03b9\u03ac \u03c4\u03bf\u03c5 \u039c\u03c5\u03c1\u03b9\u03b2\u03ae\u03bb\u03b7", "name:el": "\u0397 \u03bc\u03bf\u03c5\u03c1\u03b9\u03ac \u03c4\u03bf\u03c5 \u039c\u03c5\u03c1\u03b9\u03b2\u03ae\u03bb\u03b7", "name:en": "I mouria tou myrivili", "name:tr": "I mouria tou myrivili"}}, {"type": "node", "id": 4979764456, "lat": 39.3077718, "lon": 26.1278576}, {"type": "node", "id": 4979764457, "lat": 39.3077114, "lon": 26.1279121}, {"type": "node", "id": 4979764458, "lat": 39.3077627, "lon": 26.1279951}, {"type": "node", "id": 4979764459, "lat": 39.3078153, "lon": 26.127935}, {"type": "node", "id": 4979764460, "lat": 39.3082421, "lon": 26.1286456}, {"type": "node", "id": 4979764461, "lat": 39.3083074, "lon": 26.1287721}, {"type": "node", "id": 4979764462, "lat": 39.3083598, "lon": 26.128727}, {"type": "node", "id": 4979764463, "lat": 39.3082946, "lon": 26.1286004}, {"type": "node", "id": 5018719310, "lat": 39.200693, "lon": 26.1805486, "tags": {"amenity": "restaurant", "name": "Hard Rock Cafe"}}, {"type": "node", "id": 5040383353, "lat": 39.2889916, "lon": 26.6433587}, {"type": "node", "id": 5040383354, "lat": 39.2889666, "lon": 26.6432709}, {"type": "node", "id": 5040383355, "lat": 39.288901, "lon": 26.6432494}, {"type": "node", "id": 5040383356, "lat": 39.2888197, "lon": 26.6433004}, {"type": "node", "id": 5040383357, "lat": 39.2888027, "lon": 26.6434115}, {"type": "node", "id": 5040383358, "lat": 39.2888607, "lon": 26.6435043}, {"type": "node", "id": 5040383359, "lat": 39.2889337, "lon": 26.6434999}, {"type": "node", "id": 5040383360, "lat": 39.2889773, "lon": 26.6434666}, {"type": "node", "id": 5092065106, "lat": 39.3692792, "lon": 26.1671324, "tags": {"amenity": "cafe", "check_date": "2025-04-20", "name": "Bazaar"}}, {"type": "node", "id": 5103119782, "lat": 39.3665679, "lon": 26.1757292, "tags": {"amenity": "restaurant", "name": "\u03a1\u03cc\u03b4\u03b9 \u03ba\u03b1\u03b9 \u03a3\u03c4\u03ac\u03c7\u03c5 (\u03a3\u03c5\u03bd\u03b5\u03c4\u03b1\u03b9\u03c1\u03b9\u03c3\u03bc\u03cc\u03c2 \u0393\u03c5\u03bd\u03b1\u03b9\u03ba\u03ce\u03bd \u039c\u03ae\u03b8\u03c5\u03bc\u03bd\u03b1\u03c2)"}}, {"type": "node", "id": 5144017641, "lat": 39.3734566, "lon": 26.3139381, "tags": {"amenity": "restaurant", "name": "\u0397 \u039a\u03b1\u03b3\u03b9\u03b1"}}, {"type": "node", "id": 5205135521, "lat": 39.3319804, "lon": 26.6558278, "tags": {"addr:postcode": "10400", "amenity": "cafe", "internet_access": "wlan", "name": "Cunda Su \u00dcr\u00fcnleri Kooperatifi", "name:en": "Cunda Aquatic Products Cafeteria", "opening_hours": "Mo-Su 09:00-22:00"}}, {"type": "node", "id": 5426880691, "lat": 39.3149851, "lon": 26.2444116, "tags": {"amenity": "restaurant", "check_date": "2023-08-21", "cuisine": "greek", "name": "\u03a4\u03bf \u03a3\u03c4\u03ad\u03ba\u03b9 \u03a4\u03c9\u03bd \u03a6\u03af\u03bb\u03c9\u03bd"}}, {"type": "node", "id": 5426880706, "lat": 39.3265007, "lon": 26.2811809, "tags": {"amenity": "restaurant"}}, {"type": "node", "id": 5426881823, "lat": 39.3333161, "lon": 26.3111267, "tags": {"amenity": "restaurant"}}, {"type": "node", "id": 5426881828, "lat": 39.3335379, "lon": 26.3110939, "tags": {"amenity": "restaurant", "cuisine": "\u03a8\u03b7\u03c4\u03bf\u03c0\u03c9\u03bb\u03b5\u03af\u03bf", "name": "\u0397 \u0391\u03c0\u03cc\u03bb\u03b1\u03c5\u03c3\u03b7"}}, {"type": "node", "id": 5426881829, "lat": 39.3335784, "lon": 26.3112882, "tags": {"amenity": "cafe", "name": "\u039f\u03b9 \u03a6\u03af\u03bb\u03bf\u03b9"}}, {"type": "node", "id": 5426933018, "lat": 39.3096556, "lon": 26.3356638, "tags": {"amenity": "restaurant", "name": "\u03a4\u03bf \u03a0\u03b1\u03c1\u03b1\u03b4\u03bf\u03c3\u03b9\u03b1\u03ba\u03cc"}}, {"type": "node", "id": 5426933020, "lat": 39.3106592, "lon": 26.334837, "tags": {"amenity": "cafe"}}, {"type": "node", "id": 5426933924, "lat": 39.3107586, "lon": 26.3350035, "tags": {"amenity": "restaurant"}}, {"type": "node", "id": 5428798250, "lat": 39.2423216, "lon": 26.4298992, "tags": {"amenity": "restaurant", "name": "\u039e\u03b1\u03bc\u03c0\u03ad\u03bb\u03b9\u03b1"}}, {"type": "node", "id": 5428819505, "lat": 39.2339855, "lon": 26.4517169, "tags": {"amenity": "restaurant", "name": "\u03a4\u03bf\u03c5 \u039a\u03bf\u03cd\u03c4\u03c1\u03b7"}}, {"type": "node", "id": 5428998815, "lat": 39.1161813, "lon": 26.4146073, "tags": {"amenity": "restaurant", "name": "\u03a3\u03c5\u03bd\u03ac\u03bd\u03c4\u03b7\u03c3\u03b7"}}, {"type": "node", "id": 5428998817, "lat": 39.1165544, "lon": 26.4137732, "tags": {"amenity": "cafe"}}, {"type": "node", "id": 5428999722, "lat": 39.1167435, "lon": 26.413389, "tags": {"amenity": "cafe"}}, {"type": "node", "id": 5428999723, "lat": 39.1169051, "lon": 26.4130446, "tags": {"amenity": "cafe"}}, {"type": "node", "id": 5428999724, "lat": 39.1169553, "lon": 26.412871, "tags": {"amenity": "restaurant"}}, {"type": "node", "id": 5428999725, "lat": 39.1168366, "lon": 26.412768, "tags": {"amenity": "restaurant"}}, {"type": "node", "id": 5429068503, "lat": 39.0849664, "lon": 26.3710343, "tags": {"amenity": "restaurant", "cuisine": "\u03a8\u03b7\u03c4\u03bf\u03c0\u03c9\u03bb\u03b5\u03af\u03bf", "name": "\u0391\u03c0\u03cc\u03bb\u03b1\u03c5\u03c3\u03b7"}}, {"type": "node", "id": 5429068504, "lat": 39.0852185, "lon": 26.3708334, "tags": {"amenity": "cafe", "name": "Red"}}, {"type": "node", "id": 5431576192, "lat": 39.1091546, "lon": 26.4110491, "tags": {"amenity": "cafe"}}, {"type": "node", "id": 5518421322, "lat": 39.3361198, "lon": 26.6592944, "tags": {"amenity": "cafe", "name": "Yel De\u011firmeni", "name:tr": "Yel De\u011firmeni"}}, {"type": "node", "id": 5711807340, "lat": 39.1071611, "lon": 26.5576076, "tags": {"amenity": "cafe", "check_date": "2023-04-10", "name": "\u0397 \u0394\u03af\u03b1\u03c5\u03bb\u03bf\u03c2"}}, {"type": "node", "id": 5739189221, "lat": 39.091177, "lon": 26.5499815, "tags": {"amenity": "cafe"}}, {"type": "node", "id": 5745561622, "lat": 39.0969281, "lon": 26.5570123, "tags": {"amenity": "restaurant", "check_date": "2024-08-04", "internet_access": "wlan", "internet_access:fee": "customers", "name:en": "Marina Yacht Club", "payment:cash": "yes", "payment:credit_cards": "yes", "payment:debit_cards": "yes", "wheelchair": "yes"}}, {"type": "node", "id": 5778323664, "lat": 39.4926712, "lon": 26.335298, "tags": {"amenity": "cafe", "name": "Kelfarash", "opening_hours": "Mo-Su 08:00-14:00, 19:00-23:30"}}, {"type": "node", "id": 5778323665, "lat": 39.4927113, "lon": 26.3355194, "tags": {"amenity": "cafe", "name": "Assos panorama cafe"}}, {"type": "node", "id": 5778324174, "lat": 39.4932104, "lon": 26.3354974, "tags": {"amenity": "restaurant", "name": "Assos koyum restaurant"}}, {"type": "node", "id": 5827909778, "lat": 39.0891362, "lon": 26.4470968, "tags": {"amenity": "restaurant"}}, {"type": "node", "id": 5827916271, "lat": 39.0973825, "lon": 26.4434106, "tags": {"amenity": "restaurant", "outdoor_seating": "yes"}}, {"type": "node", "id": 5830846324, "lat": 39.1005337, "lon": 26.3533882, "tags": {"amenity": "cafe", "name": "Enigma"}}, {"type": "node", "id": 5830926838, "lat": 39.0821036, "lon": 26.3726619, "tags": {"amenity": "cafe", "outdoor_seating": "pedestrian"}}, {"type": "node", "id": 5907073495, "lat": 39.1072215, "lon": 26.557078}, {"type": "node", "id": 6255312585, "lat": 39.0848281, "lon": 26.3742621, "tags": {"addr:city": "\u0391\u03b3\u03b9\u03ac\u03c3\u03bf\u03c2", "addr:postcode": "81101", "amenity": "restaurant", "cuisine": "regional;greek;coffee_shop", "name": "\u03a4\u03bf \u03a3\u03c4\u03b1\u03c5\u03c1\u03af", "name:el": "\u03a4\u03bf \u03a3\u03c4\u03b1\u03c5\u03c1\u03af", "name:en": "To Stabeisen", "opening_hours": "Mo-Su 07:00-23:00", "phone": "2252 022936"}}, {"type": "node", "id": 6451982385, "lat": 39.3673439, "lon": 26.174036, "tags": {"amenity": "cafe", "name:de": "Sunset Coffee-Bar"}}, {"type": "node", "id": 6469759216, "lat": 39.205653, "lon": 26.2111091, "tags": {"amenity": "cafe", "name": "Vista", "outdoor_seating": "yes"}}, {"type": "node", "id": 6469759217, "lat": 39.1074997, "lon": 26.5570884, "tags": {"amenity": "cafe", "check_date": "2024-09-14", "delivery": "yes", "name": "Peacock", "website": "https://peacockmjt.business.site/"}}, {"type": "node", "id": 6469760560, "lat": 39.3598896, "lon": 26.2927991, "tags": {"amenity": "restaurant", "name": "\u03a1\u03b5\u03bc\u03b1\u03c4\u03b9\u03ac", "outdoor_seating": "terrace"}}, {"type": "node", "id": 6469760563, "lat": 39.2059007, "lon": 26.2102412, "tags": {"amenity": "restaurant", "name": "Sugar cook bar"}}, {"type": "node", "id": 6469760564, "lat": 39.2061802, "lon": 26.2097449, "tags": {"amenity": "restaurant"}}, {"type": "node", "id": 6469761040, "lat": 39.3437188, "lon": 26.221376, "tags": {"amenity": "restaurant", "name": "\u03a0\u03ad\u03c4\u03c1\u03b9\u03bd\u03bf"}}, {"type": "node", "id": 6469761183, "lat": 39.2304847, "lon": 26.2163447, "tags": {"amenity": "cafe", "description": "\u03ba\u03b1\u03c6\u03b5\u03bd\u03b5\u03af\u03bf"}}, {"type": "node", "id": 6469761184, "lat": 39.1068562, "lon": 26.5560326, "tags": {"amenity": "cafe", "description": "\u03ba\u03b1\u03c6\u03b5\u03bd\u03b5\u03af\u03bf"}}, {"type": "node", "id": 6469761188, "lat": 39.1072826, "lon": 26.557591, "tags": {"amenity": "cafe", "name": "Box"}}, {"type": "node", "id": 6484984021, "lat": 39.3224081, "lon": 26.162581}, {"type": "node", "id": 6484984022, "lat": 39.3223997, "lon": 26.1626817}, {"type": "node", "id": 6484984023, "lat": 39.3222947, "lon": 26.1626606}, {"type": "node", "id": 6484984024, "lat": 39.3223029, "lon": 26.1625667}, {"type": "node", "id": 6485662342, "lat": 39.1112749, "lon": 26.551917}, {"type": "node", "id": 6485662343, "lat": 39.1112072, "lon": 26.551918}, {"type": "node", "id": 6485662344, "lat": 39.1112066, "lon": 26.5518481}, {"type": "node", "id": 6485662345, "lat": 39.111274, "lon": 26.5518147}, {"type": "node", "id": 6485662346, "lat": 39.104191, "lon": 26.5523555}, {"type": "node", "id": 6485662347, "lat": 39.1042398, "lon": 26.5523772}, {"type": "node", "id": 6485662348, "lat": 39.1041951, "lon": 26.552467}, {"type": "node", "id": 6485662349, "lat": 39.1041117, "lon": 26.552372}, {"type": "node", "id": 6522760985, "lat": 39.3309335, "lon": 26.6609292, "tags": {"amenity": "cafe", "name": "Fero Cafe"}}, {"type": "node", "id": 6545208536, "lat": 39.3164034, "lon": 26.1502939}, {"type": "node", "id": 6545208537, "lat": 39.316438, "lon": 26.1503855}, {"type": "node", "id": 6545208538, "lat": 39.3164196, "lon": 26.1504172}, {"type": "node", "id": 6545208539, "lat": 39.3164331, "lon": 26.1504528}, {"type": "node", "id": 6545208540, "lat": 39.3163687, "lon": 26.1504936}, {"type": "node", "id": 6545208541, "lat": 39.3163144, "lon": 26.1503502}, {"type": "node", "id": 6545208600, "lat": 39.317782, "lon": 26.1514952}, {"type": "node", "id": 6545208601, "lat": 39.3176975, "lon": 26.1514871}, {"type": "node", "id": 6545208602, "lat": 39.3176899, "lon": 26.1516199}, {"type": "node", "id": 6545208603, "lat": 39.3177744, "lon": 26.151628}, {"type": "node", "id": 6699878785, "lat": 39.3279381, "lon": 26.1754354, "tags": {"amenity": "restaurant", "name:en": "Oe Eatery"}}, {"type": "node", "id": 6717395401, "lat": 39.0865674, "lon": 26.5645221}, {"type": "node", "id": 6717395402, "lat": 39.0865666, "lon": 26.5646229}, {"type": "node", "id": 6717395403, "lat": 39.086494, "lon": 26.5646227}, {"type": "node", "id": 6717395404, "lat": 39.0864948, "lon": 26.5645205}, {"type": "node", "id": 6791466285, "lat": 39.0934739, "lon": 26.1191995, "tags": {"amenity": "cafe", "name:ru": "\u0422\u0430\u0432\u0435\u0440\u043d\u0430"}}, {"type": "node", "id": 6797292089, "lat": 39.513696, "lon": 26.2596905, "tags": {"amenity": "restaurant", "name": "BUTA TANDIR", "name:de": "Buta Tandir", "name:en": "Buta Tandir"}}, {"type": "node", "id": 6976424271, "lat": 39.1447923, "lon": 26.5305419}, {"type": "node", "id": 6976472348, "lat": 39.089011, "lon": 26.5610232}, {"type": "node", "id": 6976472349, "lat": 39.0888618, "lon": 26.561117}, {"type": "node", "id": 6976472350, "lat": 39.0888957, "lon": 26.5612064}, {"type": "node", "id": 6976472351, "lat": 39.0890449, "lon": 26.5611127}, {"type": "node", "id": 7223046729, "lat": 39.3676406, "lon": 26.1749666, "tags": {"amenity": "restaurant", "cuisine": "greek", "name": "\u039f \u0393\u0391\u03a4\u039f\u03a3", "name:el": "\u039f \u0393\u0391\u03a4\u039f\u03a3", "name:en": "O GATOS", "opening_hours": "Mo-Su 10:00-24:00", "outdoor_seating": "balcony; terrace", "phone": "+30 2253 071661", "website": "https://gatos-restaurant.gr"}}, {"type": "node", "id": 7281025804, "lat": 39.1025783, "lon": 26.5557074, "tags": {"amenity": "cafe", "description": "\u039a\u03b1\u03c6\u03b5\u03bd\u03b5\u03af\u03bf", "name": "\u039a\u03ac\u03ba\u03c4\u03bf\u03c2"}}, {"type": "node", "id": 7295675411, "lat": 39.1017395, "lon": 26.5555572, "tags": {"amenity": "cafe", "name": "Strada"}}, {"type": "node", "id": 7669679694, "lat": 39.3738838, "lon": 26.3029371}, {"type": "node", "id": 7754286760, "lat": 39.329928, "lon": 26.1781429, "tags": {"amenity": "cafe", "name": "Eden"}}, {"type": "node", "id": 7754311380, "lat": 39.3179662, "lon": 26.1468334, "tags": {"amenity": "cafe", "name": "Europa"}}, {"type": "node", "id": 7762438541, "lat": 39.233432, "lon": 26.2077959, "tags": {"amenity": "cafe", "name": "Gustoso"}}, {"type": "node", "id": 7769570199, "lat": 39.3413188, "lon": 26.2194088}, {"type": "node", "id": 7769570200, "lat": 39.3414636, "lon": 26.2194408}, {"type": "node", "id": 7775886691, "lat": 39.0817432, "lon": 26.3719854, "tags": {"amenity": "cafe", "check_date": "2024-09-10", "cuisine": "coffee_shop", "description": "\u039a\u03b1\u03c6\u03ad\u03c2 \u03c3\u03c4\u03b7 \u03c7\u03cc\u03b2\u03bf\u03bb\u03b7, \u03ba\u03b1\u03b9\u03bd\u03ac\u03c1\u03b9", "name": "\u039f \u0393\u03b9\u03b1\u03bd\u03bd\u03ac\u03ba\u03b7\u03c2", "outdoor_seating": "yes", "start_date": "1800"}}, {"type": "node", "id": 7775893159, "lat": 39.0964145, "lon": 26.4019533, "tags": {"amenity": "cafe", "name": "\u039a\u03b1\u03b6\u03b1\u03bd\u03c4\u03b6\u03ae \u0395\u03bb\u03ad\u03bd\u03b7"}}, {"type": "node", "id": 7790920887, "lat": 39.094521, "lon": 26.4444185, "tags": {"amenity": "cafe", "name": "Drosia", "outdoor_seating": "yes"}}, {"type": "node", "id": 7791493715, "lat": 39.3679536, "lon": 26.1742752}, {"type": "node", "id": 7791493716, "lat": 39.3678974, "lon": 26.174224}, {"type": "node", "id": 7791493717, "lat": 39.3678391, "lon": 26.1743231}, {"type": "node", "id": 7791493718, "lat": 39.3678964, "lon": 26.1743746}, {"type": "node", "id": 7948875834, "lat": 39.107223, "lon": 26.5570294}, {"type": "node", "id": 7948875835, "lat": 39.1073238, "lon": 26.5570715}, {"type": "node", "id": 7987675817, "lat": 39.1056199, "lon": 26.5588798, "tags": {"amenity": "cafe", "check_date": "2024-05-20", "name": "Obsessed"}}, {"type": "node", "id": 8016398560, "lat": 39.2169011, "lon": 26.4751978}, {"type": "node", "id": 8016398561, "lat": 39.2168531, "lon": 26.4752319}, {"type": "node", "id": 8016398562, "lat": 39.2169091, "lon": 26.4753736}, {"type": "node", "id": 8016398563, "lat": 39.2169551, "lon": 26.4753448}, {"type": "node", "id": 8082362070, "lat": 39.1070004, "lon": 26.5584252, "tags": {"amenity": "cafe", "check_date": "2023-01-12", "name": "Mezzo"}}, {"type": "node", "id": 8083348380, "lat": 39.330984, "lon": 26.6607396, "tags": {"amenity": "restaurant", "name": "Cook Point"}}, {"type": "node", "id": 8083367827, "lat": 39.3311276, "lon": 26.6600224, "tags": {"amenity": "restaurant", "cuisine": "seafood;alcohol", "name": "Sayfiye Sea Eat and Drink"}}, {"type": "node", "id": 8083382075, "lat": 39.331276, "lon": 26.6598045, "tags": {"amenity": "restaurant", "name": "Mehmetin Bal\u0131k Evi"}}, {"type": "node", "id": 8083463076, "lat": 39.3316538, "lon": 26.6587614, "tags": {"amenity": "restaurant", "cuisine": "turkish", "name": "\u0130lyosta Restaurant"}}, {"type": "node", "id": 8109319351, "lat": 39.1068549, "lon": 26.5575187}, {"type": "node", "id": 8310815888, "lat": 39.1069608, "lon": 26.5575168}, {"type": "node", "id": 8310837645, "lat": 39.1068836, "lon": 26.5569615}, {"type": "node", "id": 8310837646, "lat": 39.106896, "lon": 26.557034}, {"type": "node", "id": 8310837647, "lat": 39.1068299, "lon": 26.5570528}, {"type": "node", "id": 8310837648, "lat": 39.1068175, "lon": 26.5569804}, {"type": "node", "id": 8310965208, "lat": 39.105756, "lon": 26.5556851, "tags": {"amenity": "cafe", "brand": "Coffee Island", "brand:wikidata": "Q60867333", "brand:wikipedia": "en:Coffee Island", "cuisine": "coffee_shop", "name": "Coffee Island", "takeaway": "yes"}}, {"type": "node", "id": 8310976456, "lat": 39.1052461, "lon": 26.5554242, "tags": {"amenity": "cafe", "name": "Coffee factory"}}, {"type": "node", "id": 8312481193, "lat": 39.1070874, "lon": 26.5572531}, {"type": "node", "id": 8312481194, "lat": 39.1070154, "lon": 26.5572596}, {"type": "node", "id": 8312481195, "lat": 39.1070775, "lon": 26.5571976}, {"type": "node", "id": 8312481196, "lat": 39.1070146, "lon": 26.5572018}, {"type": "node", "id": 8312481197, "lat": 39.1070639, "lon": 26.5571076}, {"type": "node", "id": 8312481198, "lat": 39.1070121, "lon": 26.5571134}, {"type": "node", "id": 8312481206, "lat": 39.1070637, "lon": 26.5570346}, {"type": "node", "id": 8312481207, "lat": 39.1070089, "lon": 26.5570391}, {"type": "node", "id": 8312481210, "lat": 39.1071375, "lon": 26.557031}, {"type": "node", "id": 8312481211, "lat": 39.1071438, "lon": 26.5571935}, {"type": "node", "id": 8315609164, "lat": 39.1027604, "lon": 26.5555531}, {"type": "node", "id": 8315609165, "lat": 39.1028222, "lon": 26.5554345}, {"type": "node", "id": 8315609166, "lat": 39.1026219, "lon": 26.5552595}, {"type": "node", "id": 8315609167, "lat": 39.1025599, "lon": 26.5553766}, {"type": "node", "id": 8364700385, "lat": 39.1078663, "lon": 26.5573646}, {"type": "node", "id": 8364700389, "lat": 39.1078725, "lon": 26.5573037}, {"type": "node", "id": 8364700390, "lat": 39.10784, "lon": 26.5573042}, {"type": "node", "id": 8364700391, "lat": 39.1078377, "lon": 26.5573525}, {"type": "node", "id": 8399168485, "lat": 39.1115931, "lon": 26.5574732}, {"type": "node", "id": 8399168486, "lat": 39.1114999, "lon": 26.5574431}, {"type": "node", "id": 8399168487, "lat": 39.1114901, "lon": 26.5575291}, {"type": "node", "id": 8399168488, "lat": 39.1115712, "lon": 26.5575504}, {"type": "node", "id": 8399168503, "lat": 39.1112067, "lon": 26.5575352}, {"type": "node", "id": 8399168504, "lat": 39.1112453, "lon": 26.5575677}, {"type": "node", "id": 8399168505, "lat": 39.1112407, "lon": 26.5575205}, {"type": "node", "id": 8420374475, "lat": 39.2332297, "lon": 26.2072616, "tags": {"amenity": "cafe"}}, {"type": "node", "id": 8420379672, "lat": 39.2332549, "lon": 26.2075605, "tags": {"amenity": "cafe"}}, {"type": "node", "id": 8432345526, "lat": 39.1027839, "lon": 26.5554037}, {"type": "node", "id": 8454874970, "lat": 39.1008783, "lon": 26.5540412, "tags": {"amenity": "cafe"}}, {"type": "node", "id": 8465518030, "lat": 39.1032295, "lon": 26.5543474, "tags": {"addr:city": "\u039c\u03c5\u03c4\u03b9\u03bb\u03ae\u03bd\u03b7", "addr:housenumber": "12", "addr:postcode": "81100", "addr:street": "\u039a\u03b1\u03b2\u03ad\u03c4\u03c3\u03bf\u03c5", "amenity": "cafe", "brand": "Coffee Island", "brand:wikidata": "Q60867333", "brand:wikipedia": "en:Coffee Island", "cuisine": "coffee_shop", "internet_access": "yes", "internet_access:fee": "customers", "name": "Coffee Island", "outdoor_seating": "yes", "takeaway": "yes"}}, {"type": "node", "id": 8467964965, "lat": 39.1069705, "lon": 26.5578943}, {"type": "node", "id": 8467964971, "lat": 39.1070371, "lon": 26.5578931}, {"type": "node", "id": 8468043447, "lat": 39.1073835, "lon": 26.5575876}, {"type": "node", "id": 8468043448, "lat": 39.1075537, "lon": 26.5576276}, {"type": "node", "id": 8468043449, "lat": 39.1075288, "lon": 26.5575299}, {"type": "node", "id": 8468043450, "lat": 39.1074062, "lon": 26.5577296}, {"type": "node", "id": 8468043453, "lat": 39.1074801, "lon": 26.5576821}, {"type": "node", "id": 8497615676, "lat": 39.1070373, "lon": 26.5577405}, {"type": "node", "id": 8497615681, "lat": 39.1072248, "lon": 26.5577933}, {"type": "node", "id": 8497615682, "lat": 39.1071485, "lon": 26.5577381}, {"type": "node", "id": 8497615683, "lat": 39.1071507, "lon": 26.5577972}, {"type": "node", "id": 8497618363, "lat": 39.1070861, "lon": 26.5572323}, {"type": "node", "id": 8497680611, "lat": 39.1070689, "lon": 26.5571516}, {"type": "node", "id": 8499378615, "lat": 39.1049354, "lon": 26.5594532, "tags": {"amenity": "cafe", "brand": "Mikel", "brand:wikidata": "Q16952021", "brand:wikipedia": "el:Mikel", "cuisine": "coffee_shop", "name": "Mikel", "takeaway": "yes"}}, {"type": "node", "id": 8499378616, "lat": 39.1050161, "lon": 26.5593982, "tags": {"amenity": "restaurant", "cuisine": "pizza", "name": "Martano"}}, {"type": "node", "id": 8514141934, "lat": 39.1072808, "lon": 26.557028}, {"type": "node", "id": 8514465579, "lat": 39.1044722, "lon": 26.5602978, "tags": {"amenity": "cafe", "name": "Way Cup"}}, {"type": "node", "id": 8536984229, "lat": 39.247476, "lon": 26.272278, "tags": {"amenity": "cafe", "description:el": "\u03a4\u03bf \u03ba\u03b1\u03c6\u03b5\u03bd\u03b5\u03af\u03bf \u0391\u03bb\u03ac\u03bc\u03c0\u03c1\u03b1", "description:en": "The cafeteria Alabra", "name": "\u039a\u03b1\u03c6\u03b5\u03bd\u03b5\u03af\u03bf \u0391\u03bb\u03ac\u03bc\u03c0\u03c1\u03b1"}}, {"type": "node", "id": 8621532506, "lat": 39.3465967, "lon": 26.3581857}, {"type": "node", "id": 8621532507, "lat": 39.3464868, "lon": 26.3582557}, {"type": "node", "id": 8621532508, "lat": 39.3465188, "lon": 26.3583308}, {"type": "node", "id": 8621532509, "lat": 39.3466253, "lon": 26.3582664}, {"type": "node", "id": 8621532510, "lat": 39.3465702, "lon": 26.3582026}, {"type": "node", "id": 8727397868, "lat": 39.4699397, "lon": 26.2360238}, {"type": "node", "id": 8727397869, "lat": 39.4698062, "lon": 26.2361208}, {"type": "node", "id": 8727397870, "lat": 39.4698554, "lon": 26.2362343}, {"type": "node", "id": 8727397871, "lat": 39.4699888, "lon": 26.2361373}, {"type": "node", "id": 8765257508, "lat": 39.2340127, "lon": 26.2080512, "tags": {"amenity": "cafe", "outdoor_seating": "yes"}}, {"type": "node", "id": 8923653925, "lat": 39.2592407, "lon": 26.1377399, "tags": {"amenity": "restaurant", "name": "\u03a4\u03bf \u03c7\u03ac\u03bd\u03b9"}}, {"type": "node", "id": 8956957144, "lat": 39.1441367, "lon": 26.5289881, "tags": {"amenity": "restaurant", "name": "Kitchen bite"}}, {"type": "node", "id": 9018290041, "lat": 39.1035688, "lon": 26.1695462}, {"type": "node", "id": 9018290043, "lat": 39.1034751, "lon": 26.169551}, {"type": "node", "id": 9018290045, "lat": 39.1034766, "lon": 26.1693888}, {"type": "node", "id": 9018290047, "lat": 39.1035663, "lon": 26.169384}, {"type": "node", "id": 9049750070, "lat": 39.1073223, "lon": 26.5570251}, {"type": "node", "id": 9052614512, "lat": 39.1069989, "lon": 26.5577443}, {"type": "node", "id": 9123165672, "lat": 39.3693693, "lon": 26.168057, "tags": {"amenity": "restaurant", "name": "\u0391\u03c0\u03ad\u03c1\u03b1\u03bd\u03c4\u03bf \u03b3\u03b1\u03bb\u03ac\u03b6\u03b9\u03bf"}}, {"type": "node", "id": 9123171344, "lat": 39.3674159, "lon": 26.1754737, "tags": {"amenity": "cafe", "name": "\u03a4\u03bf \u03ba\u03bf\u03bc\u03c0\u03bf\u03bb\u03bf\u03b3\u03ac\u03b4\u03b9\u03ba\u03bf"}}, {"type": "node", "id": 9123171766, "lat": 39.3668035, "lon": 26.1756911, "tags": {"amenity": "cafe", "name": "\u03a4\u03bf \u03c0\u03b1\u03b3\u03ba\u03ac\u03ba\u03b9"}}, {"type": "node", "id": 9123172214, "lat": 39.3679776, "lon": 26.1741549, "tags": {"amenity": "cafe", "name": "\u039c\u03c0\u03b1\u03bb\u03ba\u03bf\u03bd\u03ac\u03ba\u03b9"}}, {"type": "node", "id": 9123172424, "lat": 39.3681746, "lon": 26.1739599, "tags": {"amenity": "cafe", "name": "\u03a4\u03bf \u03bc\u03b9\u03ba\u03c1\u03cc \u03ba\u03b1\u03c6\u03ad"}}, {"type": "node", "id": 9123173088, "lat": 39.3165787, "lon": 26.1451003, "tags": {"amenity": "restaurant", "name": "\u039f \u039c\u03bf\u03cd\u03c4\u03c3\u03bf\u03c2"}}, {"type": "node", "id": 9123173996, "lat": 39.3683631, "lon": 26.1765575}, {"type": "node", "id": 9123173997, "lat": 39.3683984, "lon": 26.1766233}, {"type": "node", "id": 9123173998, "lat": 39.3685295, "lon": 26.1765066}, {"type": "node", "id": 9123173999, "lat": 39.3685052, "lon": 26.1764449}, {"type": "node", "id": 9167336716, "lat": 39.2273354, "lon": 26.4406516}, {"type": "node", "id": 9167369517, "lat": 39.2272675, "lon": 26.4405912}, {"type": "node", "id": 9167369518, "lat": 39.2272201, "lon": 26.4406806}, {"type": "node", "id": 9167369519, "lat": 39.2272919, "lon": 26.4407394}, {"type": "node", "id": 9312422658, "lat": 39.1027015, "lon": 26.5563843, "tags": {"amenity": "cafe", "name": "\u0395\u03bd\u03c4\u03cc\u03c2"}}, {"type": "node", "id": 9348309378, "lat": 39.1070647, "lon": 26.5585782}, {"type": "node", "id": 9348309379, "lat": 39.107093, "lon": 26.5586584}, {"type": "node", "id": 9348309380, "lat": 39.1072008, "lon": 26.5586044}, {"type": "node", "id": 9376897428, "lat": 39.1039986, "lon": 26.553152}, {"type": "node", "id": 9376897429, "lat": 39.1039084, "lon": 26.5531141}, {"type": "node", "id": 9376897430, "lat": 39.1038855, "lon": 26.5531957}, {"type": "node", "id": 9376897431, "lat": 39.1039818, "lon": 26.5532095}, {"type": "node", "id": 9382629112, "lat": 39.1037888, "lon": 26.554292, "tags": {"amenity": "cafe", "name": "\u038c\u03b1\u03c3\u03b9\u03c2"}}, {"type": "node", "id": 9403692587, "lat": 39.1077708, "lon": 26.557225, "tags": {"amenity": "cafe", "name": "Loksa"}}, {"type": "node", "id": 9498758579, "lat": 39.1054106, "lon": 26.5555056, "tags": {"amenity": "cafe", "check_date": "2025-01-08", "name": "Non Stop", "note": "\u03c0\u03c1\u03ce\u03b7\u03bd Stand by", "outdoor_seating": "yes"}}, {"type": "node", "id": 9596679118, "lat": 39.1028348, "lon": 26.5562964, "tags": {"addr:housenumber": "5", "addr:street": "\u03a0\u03bb\u03b1\u03c4\u03b5\u03af\u03b1 \u039a\u03c9\u03bd\u03c3\u03c4\u03b1\u03bd\u03c4\u03b9\u03bd\u03bf\u03c5\u03c0\u03cc\u03bb\u03b5\u03c9\u03c2", "amenity": "cafe", "name": "\u0395\u03b4\u03ad\u03bc Coffee", "opening_hours": "Mo-Su 05:00-01:00", "phone": "00302251024977"}}, {"type": "node", "id": 9692782390, "lat": 39.1044962, "lon": 26.5525897, "tags": {"amenity": "restaurant", "check_date": "2023-01-24", "cuisine": "greek", "name": "\u0395\u03bb\u03bb\u03b7\u03bd\u03b9\u03ba\u03cc"}}, {"type": "node", "id": 9697373808, "lat": 39.1062289, "lon": 26.5585272, "tags": {"amenity": "cafe", "name": "Monkey"}}, {"type": "node", "id": 9707649797, "lat": 39.0927532, "lon": 26.5540931}, {"type": "node", "id": 9707649798, "lat": 39.0927807, "lon": 26.5540047}, {"type": "node", "id": 9707649799, "lat": 39.0927811, "lon": 26.5540916}, {"type": "node", "id": 9707649800, "lat": 39.0927117, "lon": 26.554091}, {"type": "node", "id": 9707649801, "lat": 39.0927119, "lon": 26.5540538}, {"type": "node", "id": 9707649802, "lat": 39.0927454, "lon": 26.5540541}, {"type": "node", "id": 9707649803, "lat": 39.0927457, "lon": 26.5540042}, {"type": "node", "id": 9708795986, "lat": 39.0889109, "lon": 26.5610861}, {"type": "node", "id": 9723512749, "lat": 39.1803569, "lon": 26.4845248, "tags": {"amenity": "cafe", "name": "\u0397 \u03a0\u03b1\u03c3\u03c7\u03b1\u03bb\u03b9\u03ac"}}, {"type": "node", "id": 9724692737, "lat": 39.2464288, "lon": 26.2699961}, {"type": "node", "id": 9724692738, "lat": 39.2464591, "lon": 26.2700857}, {"type": "node", "id": 9724692739, "lat": 39.2466166, "lon": 26.2700422}, {"type": "node", "id": 9724692740, "lat": 39.2466166, "lon": 26.2699807}, {"type": "node", "id": 9725206289, "lat": 39.0816657, "lon": 26.3720248, "tags": {"amenity": "cafe", "check_date": "2024-09-10", "name": "\u03a4\u03bf \u03ba\u03b1\u03c6\u03b5\u03bd\u03b5\u03af\u03bf \u03c4\u03c9\u03bd \u0398\u03c1\u03bf\u03c6\u03b9\u03bb\u03c9\u03bd", "outdoor_seating": "yes"}}, {"type": "node", "id": 9725255986, "lat": 39.0806477, "lon": 26.3714723, "tags": {"amenity": "cafe", "name": "KiSmet"}}, {"type": "node", "id": 9725255987, "lat": 39.0810584, "lon": 26.3723893, "tags": {"amenity": "cafe", "name": "\u039c\u03b9\u03ba\u03c1\u03cc"}}, {"type": "node", "id": 9725280449, "lat": 39.0816226, "lon": 26.3720474, "tags": {"amenity": "cafe", "check_date": "2024-09-10", "name": "\u03a4\u03bf \u03c3\u03bf\u03ba\u03ac\u03ba\u03b9", "outdoor_seating": "yes"}}, {"type": "node", "id": 9725282795, "lat": 39.0819694, "lon": 26.3728736, "tags": {"amenity": "restaurant"}}, {"type": "node", "id": 9725298550, "lat": 39.0806661, "lon": 26.3717974, "tags": {"amenity": "restaurant", "name": "\u03a3\u03c4\u03ad\u03bb\u03bb\u03b1 \u0394\u03b1\u03b3\u03b5\u03bb\u03b7", "outdoor_seating": "yes"}}, {"type": "node", "id": 9725299763, "lat": 39.0822103, "lon": 26.3729633, "tags": {"amenity": "restaurant", "name": "\u03a4\u03b1 \u0395\u03be\u03ac\u03c1\u03c7\u03b5\u03b9\u03b1"}}, {"type": "node", "id": 9738080950, "lat": 39.3275745, "lon": 26.1757065, "tags": {"amenity": "cafe", "building": "yes", "building:levels": "1", "indoor_seating": "yes", "internet_access": "wlan", "internet_access:fee": "no", "name": "Dak", "opening_hours": "Mo-Su 10:00-24:00", "outdoor_seating": "yes", "roof:shape": "flat", "takeaway": "yes", "toilets": "yes", "toilets:access": "customers", "toilets:wheelchair": "no", "wheelchair": "limited"}}, {"type": "node", "id": 9738084754, "lat": 39.2332274, "lon": 26.2081879, "tags": {"amenity": "cafe"}}, {"type": "node", "id": 9738098634, "lat": 39.327389, "lon": 26.1749769, "tags": {"amenity": "restaurant", "check_date": "2025-04-19", "name": "Zorbas"}}, {"type": "node", "id": 9741748754, "lat": 39.3683053, "lon": 26.1733212, "tags": {"amenity": "restaurant", "name": "Souvlak bar"}}, {"type": "node", "id": 9741758369, "lat": 39.369306, "lon": 26.1681849, "tags": {"amenity": "restaurant", "name": "Sea horse"}}, {"type": "node", "id": 9744992997, "lat": 39.2597076, "lon": 26.1420062, "tags": {"amenity": "restaurant", "name": "\u03a0\u03b1\u03c1\u03ac\u03b4\u03b5\u03b9\u03c3\u03bf\u03c2"}}, {"type": "node", "id": 9748113614, "lat": 39.1044234, "lon": 26.5525523, "tags": {"amenity": "restaurant", "cuisine": "italian", "name": "eataly"}}, {"type": "node", "id": 9772379315, "lat": 39.2683472, "lon": 26.3821424}, {"type": "node", "id": 9772379316, "lat": 39.2682966, "lon": 26.3822983}, {"type": "node", "id": 9772404217, "lat": 39.2682488, "lon": 26.3822725}, {"type": "node", "id": 9772404218, "lat": 39.2682994, "lon": 26.3821166}, {"type": "node", "id": 9784007427, "lat": 39.1941202, "lon": 26.163574}, {"type": "node", "id": 9784007428, "lat": 39.1936743, "lon": 26.1635659}, {"type": "node", "id": 9784007429, "lat": 39.1936681, "lon": 26.1635941}, {"type": "node", "id": 9784007430, "lat": 39.193665, "lon": 26.1636303}, {"type": "node", "id": 9784007431, "lat": 39.1936639, "lon": 26.1636826}, {"type": "node", "id": 9784007432, "lat": 39.19364, "lon": 26.1637067}, {"type": "node", "id": 9784007433, "lat": 39.1936099, "lon": 26.1637242}, {"type": "node", "id": 9784007434, "lat": 39.1935538, "lon": 26.1637228}, {"type": "node", "id": 9784007435, "lat": 39.1935475, "lon": 26.163816}, {"type": "node", "id": 9784007436, "lat": 39.19356, "lon": 26.1638154}, {"type": "node", "id": 9784007437, "lat": 39.1935501, "lon": 26.1639173}, {"type": "node", "id": 9784007438, "lat": 39.1939009, "lon": 26.1639602}, {"type": "node", "id": 9784007439, "lat": 39.1939862, "lon": 26.1639843}, {"type": "node", "id": 9784007440, "lat": 39.1940028, "lon": 26.1639307}, {"type": "node", "id": 9784007441, "lat": 39.1940672, "lon": 26.1638261}, {"type": "node", "id": 9784007442, "lat": 39.1941712, "lon": 26.1636732, "tags": {"barrier": "gate"}}, {"type": "node", "id": 9813936784, "lat": 39.1047525, "lon": 26.5454266, "tags": {"amenity": "cafe", "name": "Viral"}}, {"type": "node", "id": 9825243874, "lat": 39.3748062, "lon": 26.2924033, "tags": {"amenity": "restaurant", "check_date": "2025-05-09", "cuisine": "greek", "internet_access": "wlan", "internet_access:fee": "customers", "name": "\u03a4\u03bf \u039a\u03cd\u03bc\u03b1"}}, {"type": "node", "id": 9832497927, "lat": 39.3230261, "lon": 26.1579282}, {"type": "node", "id": 9832497928, "lat": 39.3230195, "lon": 26.1581607}, {"type": "node", "id": 9832497929, "lat": 39.3229478, "lon": 26.1581417}, {"type": "node", "id": 9832497930, "lat": 39.3229633, "lon": 26.157924}, {"type": "node", "id": 9832573874, "lat": 39.322461, "lon": 26.1629781}, {"type": "node", "id": 9832573875, "lat": 39.3224637, "lon": 26.1630977}, {"type": "node", "id": 9832573876, "lat": 39.3223213, "lon": 26.1631057}, {"type": "node", "id": 9832573877, "lat": 39.3223151, "lon": 26.1629919}, {"type": "node", "id": 9933662729, "lat": 39.3317407, "lon": 26.6588258, "tags": {"amenity": "restaurant", "name": "G\u00fcrkan'\u0131n Yeri"}}, {"type": "node", "id": 9936900336, "lat": 39.3310469, "lon": 26.6602077, "tags": {"amenity": "restaurant", "name": "Ta\u015f Kahve Gourmet Restaurant"}}, {"type": "node", "id": 9937675893, "lat": 39.0947757, "lon": 26.514235, "tags": {"amenity": "restaurant", "cuisine": "fish", "name": "\u03a0\u03c5\u03c1\u03b3\u03af"}}, {"type": "node", "id": 9955395517, "lat": 39.4925861, "lon": 26.3334595, "tags": {"amenity": "restaurant", "name": "Cengiz Lokantasi"}}, {"type": "node", "id": 10117220717, "lat": 39.3323557, "lon": 26.6587929, "tags": {"addr:housenumber": "12", "addr:street": "Halk Caddesi", "amenity": "restaurant", "name:en": "Moshos Taverna Cunda", "opening_hours": "Su-Sa 10:00-01:00", "website": "http://moshostaverna.com"}}, {"type": "node", "id": 10195533485, "lat": 39.3677898, "lon": 26.1744083}, {"type": "node", "id": 10195533486, "lat": 39.3678476, "lon": 26.1744681}, {"type": "node", "id": 10195766906, "lat": 39.0849733, "lon": 26.3743939, "tags": {"amenity": "cafe", "name": "Uptown"}}, {"type": "node", "id": 10238012087, "lat": 39.3167502, "lon": 26.1512232, "tags": {"amenity": "cafe", "name": "Michelle"}}, {"type": "node", "id": 10244509471, "lat": 39.3182534, "lon": 26.1974521}, {"type": "node", "id": 10244509472, "lat": 39.3182036, "lon": 26.1974802}, {"type": "node", "id": 10244509473, "lat": 39.3182333, "lon": 26.1975033}, {"type": "node", "id": 10244509474, "lat": 39.318289, "lon": 26.1975411}, {"type": "node", "id": 10244509475, "lat": 39.3183365, "lon": 26.197451}, {"type": "node", "id": 10244509476, "lat": 39.3183012, "lon": 26.1974162}, {"type": "node", "id": 10245462862, "lat": 39.3109037, "lon": 26.2201687}, {"type": "node", "id": 10245462863, "lat": 39.3108773, "lon": 26.2202457}, {"type": "node", "id": 10246468592, "lat": 39.3282261, "lon": 26.1759088, "tags": {"amenity": "cafe", "name": "Daily dose"}}, {"type": "node", "id": 10261046154, "lat": 39.2356271, "lon": 26.2085277}, {"type": "node", "id": 10261046155, "lat": 39.2355589, "lon": 26.2086707}, {"type": "node", "id": 10261046156, "lat": 39.2356116, "lon": 26.2087134}, {"type": "node", "id": 10261046157, "lat": 39.2356811, "lon": 26.2085682}, {"type": "node", "id": 10278401405, "lat": 39.1123231, "lon": 26.5584096}, {"type": "node", "id": 10278401408, "lat": 39.1124809, "lon": 26.5586885}, {"type": "node", "id": 10278473109, "lat": 39.1124456, "lon": 26.5585997}, {"type": "node", "id": 10313018501, "lat": 39.1068346, "lon": 26.5569755}, {"type": "node", "id": 10313018502, "lat": 39.1068466, "lon": 26.557048}, {"type": "node", "id": 10543093763, "lat": 39.106351, "lon": 26.5588693}, {"type": "node", "id": 10543093764, "lat": 39.1062223, "lon": 26.5589098}, {"type": "node", "id": 10577239275, "lat": 39.3309119, "lon": 26.1791677}, {"type": "node", "id": 10577239276, "lat": 39.3308384, "lon": 26.1792958}, {"type": "node", "id": 10577239277, "lat": 39.3308923, "lon": 26.1793483}, {"type": "node", "id": 10577239278, "lat": 39.3309664, "lon": 26.1792245}, {"type": "node", "id": 10577239279, "lat": 39.330951, "lon": 26.1792474}, {"type": "node", "id": 10577239280, "lat": 39.3310135, "lon": 26.1793153}, {"type": "node", "id": 10577239281, "lat": 39.3309525, "lon": 26.1794115}, {"type": "node", "id": 10577239282, "lat": 39.3310953, "lon": 26.179397}, {"type": "node", "id": 10577239283, "lat": 39.3310301, "lon": 26.1794937}, {"type": "node", "id": 10577298962, "lat": 39.3313131, "lon": 26.1796088}, {"type": "node", "id": 10577298963, "lat": 39.3313798, "lon": 26.1796833}, {"type": "node", "id": 10577298972, "lat": 39.3314301, "lon": 26.179742}, {"type": "node", "id": 10577298973, "lat": 39.3313891, "lon": 26.1798002}, {"type": "node", "id": 10577298974, "lat": 39.3313393, "lon": 26.1797439}, {"type": "node", "id": 10577298975, "lat": 39.3312726, "lon": 26.1796695}, {"type": "node", "id": 10579905154, "lat": 39.1044569, "lon": 26.5521718, "tags": {"amenity": "cafe", "check_date": "2023-01-24"}}, {"type": "node", "id": 10587105780, "lat": 39.367826, "lon": 26.1744575}, {"type": "node", "id": 10589134168, "lat": 39.0909716, "lon": 26.5572544, "tags": {"amenity": "cafe", "check_date": "2023-01-28", "name": "\u0391\u03c1\u03c4\u03bf\u03c0\u03bf\u03b9\u03ae\u03bc\u03b1\u03c4\u03b1 \u0393\u03b9\u03b1\u03bd\u03bd\u03af\u03ba\u03bf\u03c5"}}, {"type": "node", "id": 10591629570, "lat": 39.1082918, "lon": 26.5575693, "tags": {"amenity": "cafe", "name": "Kotsifi"}}, {"type": "node", "id": 10617571881, "lat": 39.3467726, "lon": 26.3585051}, {"type": "node", "id": 10617571882, "lat": 39.3467805, "lon": 26.3585502}, {"type": "node", "id": 10669712779, "lat": 39.2056365, "lon": 26.2122566}, {"type": "node", "id": 10669712780, "lat": 39.205794, "lon": 26.2122858}, {"type": "node", "id": 10669712781, "lat": 39.205781, "lon": 26.2124027}, {"type": "node", "id": 10669712782, "lat": 39.2056235, "lon": 26.2123735}, {"type": "node", "id": 10673017218, "lat": 39.1121707, "lon": 26.5580027, "tags": {"amenity": "restaurant", "check_date": "2024-12-16", "description": "\u03a0\u03c1\u03ce\u03b7\u03bd \u0391\u03b3\u03ad\u03c1\u03b9 \u0399\u0399", "name": "\u03a4\u03bf \u039c\u03c5\u03c4\u03b9\u03bb\u03b7\u03bd\u03ac\u03ba\u03b9"}}, {"type": "node", "id": 10677753546, "lat": 39.2063541, "lon": 26.2081445, "tags": {"amenity": "cafe", "name": "Paradise"}}, {"type": "node", "id": 10677753547, "lat": 39.206341, "lon": 26.208245, "tags": {"amenity": "restaurant", "cuisine": "greek", "name": "Sea Horse"}}, {"type": "node", "id": 10697946167, "lat": 39.0915786, "lon": 26.555089, "tags": {"amenity": "cafe", "name": "Mr Bean"}}, {"type": "node", "id": 10730448241, "lat": 39.3109088, "lon": 26.2202853}, {"type": "node", "id": 10730448244, "lat": 39.3109776, "lon": 26.2202215}, {"type": "node", "id": 10739449977, "lat": 39.4901819, "lon": 26.3698147}, {"type": "node", "id": 10739449978, "lat": 39.4905561, "lon": 26.3685899}, {"type": "node", "id": 10739449979, "lat": 39.4908908, "lon": 26.3688297}, {"type": "node", "id": 10739449980, "lat": 39.4904812, "lon": 26.3700597}, {"type": "node", "id": 10780215937, "lat": 39.1569787, "lon": 26.5218104}, {"type": "node", "id": 10782252087, "lat": 39.090573, "lon": 26.5530414, "tags": {"amenity": "cafe", "check_date": "2023-04-03", "name": "Global"}}, {"type": "node", "id": 10798809094, "lat": 39.1071789, "lon": 26.5576742, "tags": {"amenity": "restaurant", "check_date": "2023-04-10", "cuisine": "greek", "name": "\u03a0\u03ad\u03bb\u03b1\u03b3\u03bf"}}, {"type": "node", "id": 10812743137, "lat": 39.102897, "lon": 26.557262, "tags": {"amenity": "cafe"}}, {"type": "node", "id": 10812747209, "lat": 39.1028937, "lon": 26.5571091, "tags": {"amenity": "cafe", "name": "Breeze"}}, {"type": "node", "id": 10816985464, "lat": 39.2336798, "lon": 26.2080216, "tags": {"amenity": "restaurant", "check_date": "2023-04-17", "cuisine": "coffee_shop;burger;regional", "name": "Quest", "wheelchair": "yes"}}, {"type": "node", "id": 10822763713, "lat": 39.3667586, "lon": 26.1744958}, {"type": "node", "id": 10822763714, "lat": 39.3667783, "lon": 26.1746427}, {"type": "node", "id": 10822763715, "lat": 39.3669444, "lon": 26.1746055}, {"type": "node", "id": 10822763716, "lat": 39.3669369, "lon": 26.1745498}, {"type": "node", "id": 10822763717, "lat": 39.3669128, "lon": 26.1745552}, {"type": "node", "id": 10822763718, "lat": 39.3669006, "lon": 26.174464}, {"type": "node", "id": 10824103597, "lat": 39.3467145, "lon": 26.3585972}, {"type": "node", "id": 10824103598, "lat": 39.3466633, "lon": 26.3586006}, {"type": "node", "id": 10829575660, "lat": 39.3169417, "lon": 26.3378981}, {"type": "node", "id": 10829575661, "lat": 39.3170213, "lon": 26.337989}, {"type": "node", "id": 10829575662, "lat": 39.3170853, "lon": 26.3378954}, {"type": "node", "id": 10829575663, "lat": 39.3170057, "lon": 26.3378045}, {"type": "node", "id": 10830536719, "lat": 39.3112099, "lon": 26.2206734, "tags": {"amenity": "cafe", "check_date": "2024-04-27"}}, {"type": "node", "id": 10830536720, "lat": 39.3111041, "lon": 26.2207202, "tags": {"amenity": "cafe", "check_date": "2024-04-27", "name": "Miguel"}}, {"type": "node", "id": 10830536723, "lat": 39.3110858, "lon": 26.2210425, "tags": {"amenity": "cafe", "check_date": "2023-04-21"}}, {"type": "node", "id": 10865456257, "lat": 39.3612807, "lon": 26.2945046, "tags": {"amenity": "cafe"}}, {"type": "node", "id": 10865467095, "lat": 39.3613666, "lon": 26.2946266, "tags": {"amenity": "cafe", "name": "\u03a0\u03b1\u03c1\u03ad\u03b1"}}, {"type": "node", "id": 10865471970, "lat": 39.3599909, "lon": 26.2640675, "tags": {"amenity": "cafe"}}, {"type": "node", "id": 10865486147, "lat": 39.3600573, "lon": 26.2640677, "tags": {"amenity": "cafe", "name": "\u0394\u03c1\u03b1\u03ba\u03bf\u03cd\u03bb\u03b7"}}, {"type": "node", "id": 10884135765, "lat": 39.1324133, "lon": 26.5175754, "tags": {"amenity": "cafe", "name": "\u03a0\u03b1\u03bd\u03b1\u03b3\u03cc\u03c0\u03bf\u03c5\u03bb\u03bf\u03c2"}}, {"type": "node", "id": 10904781238, "lat": 39.1324642, "lon": 26.5175546, "tags": {"amenity": "cafe"}}, {"type": "node", "id": 10920228398, "lat": 39.1319384, "lon": 26.517249, "tags": {"amenity": "cafe", "name": "\u0393\u03b9\u03ce\u03c4\u03b1"}}, {"type": "node", "id": 10941594005, "lat": 39.3000198, "lon": 26.663562, "tags": {"amenity": "restaurant", "cuisine": "fish_and_chips;grill;local;regional;tea;turkish", "name": "Pa\u015faliman\u0131 Belediye Tesisleri", "opening_hours": "Su-Sa 09:00-23:00"}}, {"type": "node", "id": 11056235616, "lat": 39.1813305, "lon": 26.4982259}, {"type": "node", "id": 11134841084, "lat": 39.3152635, "lon": 26.2444143, "tags": {"amenity": "restaurant", "check_date": "2023-08-21", "cuisine": "greek"}}, {"type": "node", "id": 11279859169, "lat": 39.4963221, "lon": 26.1698919, "tags": {"addr:housenumber": "72", "addr:postcode": "17100", "addr:street": "kume evler", "amenity": "restaurant", "cuisine": "regional", "internet_access": "wlan", "name": "Pasa Konagi", "phone": "+905309290017"}}, {"type": "node", "id": 11330660739, "lat": 39.097888, "lon": 26.5486203, "tags": {"amenity": "cafe", "name": "Buongiorno"}}, {"type": "node", "id": 11371071225, "lat": 39.129075, "lon": 26.2194849}, {"type": "node", "id": 11371071226, "lat": 39.129082, "lon": 26.2195126}, {"type": "node", "id": 11486530114, "lat": 39.10775, "lon": 26.5574139, "tags": {"amenity": "restaurant", "cuisine": "greek", "name": "\u0395\u03b9\u03c1\u03ae\u03bd\u03b7"}}, {"type": "node", "id": 11530213565, "lat": 39.0898998, "lon": 26.4478423, "tags": {"amenity": "restaurant", "cuisine": "greek"}}, {"type": "node", "id": 11572541068, "lat": 39.1848528, "lon": 26.1575237}, {"type": "node", "id": 11572591869, "lat": 39.1847805, "lon": 26.1573577}, {"type": "node", "id": 11572591870, "lat": 39.184706, "lon": 26.1574116}, {"type": "node", "id": 11572591871, "lat": 39.1847783, "lon": 26.1575778}, {"type": "node", "id": 11750843457, "lat": 39.2339084, "lon": 26.4549163, "tags": {"amenity": "restaurant", "cuisine": "greek", "name": "\u03bf \u0392\u03c1\u03ac\u03c7\u03bf\u03c2"}}, {"type": "node", "id": 11799904930, "lat": 39.1080976, "lon": 26.5568314, "tags": {"amenity": "cafe", "check_date": "2024-03-25", "name": "\u03a6\u03c1\u03b9\u03c7\u03c4\u03cc\u03bd \u03bb\u03ac\u03b8\u03bf\u03c2"}}, {"type": "node", "id": 11900611555, "lat": 39.3202644, "lon": 26.1493267}, {"type": "node", "id": 11900611557, "lat": 39.3204784, "lon": 26.1493414}, {"type": "node", "id": 11900611558, "lat": 39.3204331, "lon": 26.1493441}, {"type": "node", "id": 11900611559, "lat": 39.320405, "lon": 26.149417}, {"type": "node", "id": 11900611560, "lat": 39.3204389, "lon": 26.1494438}, {"type": "node", "id": 11900611561, "lat": 39.3204192, "lon": 26.1496635}, {"type": "node", "id": 11900611562, "lat": 39.3203648, "lon": 26.1497675}, {"type": "node", "id": 11900611563, "lat": 39.3204387, "lon": 26.1498399}, {"type": "node", "id": 11900611564, "lat": 39.3204988, "lon": 26.1497377}, {"type": "node", "id": 11900611566, "lat": 39.3203992, "lon": 26.1493176}, {"type": "node", "id": 11900611567, "lat": 39.320367, "lon": 26.1493984}, {"type": "node", "id": 11900611568, "lat": 39.3204035, "lon": 26.149421}, {"type": "node", "id": 11900732171, "lat": 39.3203046, "lon": 26.149243}, {"type": "node", "id": 11906496742, "lat": 39.3296544, "lon": 26.1778664}, {"type": "node", "id": 11906496743, "lat": 39.3295697, "lon": 26.1779856}, {"type": "node", "id": 11906496744, "lat": 39.3296217, "lon": 26.1780474}, {"type": "node", "id": 11906496745, "lat": 39.3297064, "lon": 26.1779282}, {"type": "node", "id": 11906929673, "lat": 39.320443, "lon": 26.1493186}, {"type": "node", "id": 11910741568, "lat": 39.2426477, "lon": 26.2097652}, {"type": "node", "id": 11910748069, "lat": 39.2425744, "lon": 26.2098892}, {"type": "node", "id": 11910748070, "lat": 39.2426555, "lon": 26.2099692}, {"type": "node", "id": 11910748071, "lat": 39.2427288, "lon": 26.2098452}, {"type": "node", "id": 11918123903, "lat": 39.3182271, "lon": 26.1974284}, {"type": "node", "id": 11919450480, "lat": 39.3204915, "lon": 26.149633, "tags": {"amenity": "restaurant", "name": "Paradise"}}, {"type": "node", "id": 11919525989, "lat": 39.3171705, "lon": 26.1445426, "tags": {"amenity": "restaurant", "cuisine": "greek", "name": "\u0391\u03ba\u03c1\u03bf\u03b3\u03b9\u03ac\u03bb\u03b9"}}, {"type": "node", "id": 11919525997, "lat": 39.3171756, "lon": 26.1441857, "tags": {"amenity": "restaurant", "cuisine": "greek", "name": "\u0392\u03cc\u03c4\u03c3\u03b1\u03bb\u03bf"}}, {"type": "node", "id": 11959128555, "lat": 39.2691121, "lon": 26.3812457, "tags": {"amenity": "cafe"}}, {"type": "node", "id": 12014804332, "lat": 39.3314049, "lon": 26.1797794}, {"type": "node", "id": 12016470021, "lat": 39.3311342, "lon": 26.1794395}, {"type": "node", "id": 12016470022, "lat": 39.3310646, "lon": 26.1795383}, {"type": "node", "id": 12033456869, "lat": 39.5327068, "lon": 26.119081, "tags": {"amenity": "restaurant", "cuisine": "chicken;grill;turkish", "internet_access": "wlan", "name": "Manzara", "opening_hours": "Mo-Su 08:00-00:00", "phone": "+90 542 288 94 87"}}, {"type": "node", "id": 12041196131, "lat": 39.2059084, "lon": 26.2099858}, {"type": "node", "id": 12041196132, "lat": 39.2059104, "lon": 26.2099414}, {"type": "node", "id": 12041196139, "lat": 39.2060005, "lon": 26.2099481}, {"type": "node", "id": 12041196140, "lat": 39.205996, "lon": 26.2099925}, {"type": "node", "id": 12043655565, "lat": 39.3656001, "lon": 26.1770311}, {"type": "node", "id": 12047986625, "lat": 39.3686939, "lon": 26.3567886}, {"type": "node", "id": 12047986626, "lat": 39.3686865, "lon": 26.3568512}, {"type": "node", "id": 12047986627, "lat": 39.3687595, "lon": 26.3568656}, {"type": "node", "id": 12047986628, "lat": 39.368767, "lon": 26.3568031}, {"type": "node", "id": 12050957946, "lat": 39.1069335, "lon": 26.5574185, "tags": {"amenity": "cafe", "name": "\u03a0\u03b1\u03c0\u03b1\u03b3\u03ac\u03bb\u03bf\u03c2"}}, {"type": "node", "id": 12075112714, "lat": 39.2462735, "lon": 26.269635, "tags": {"amenity": "restaurant", "baby_feeding": "no", "bar": "yes", "changing_table": "no", "cuisine": "greek", "internet_access": "wlan", "name": "Oasis Cafe", "opening_hours": "Mo-Su 10:00-24:00", "outdoor_seating": "yes", "phone": "+30 2253 031200", "smoking": "outside", "takeaway": "yes", "toilets": "yes", "toilets:access": "customers", "toilets:wheelchair": "no", "wheelchair": "limited"}}, {"type": "node", "id": 12075334168, "lat": 39.3693909, "lon": 26.1735126}, {"type": "node", "id": 12075335169, "lat": 39.369419, "lon": 26.1736317}, {"type": "node", "id": 12075335170, "lat": 39.3694794, "lon": 26.1736079}, {"type": "node", "id": 12075335171, "lat": 39.3694514, "lon": 26.1734887}, {"type": "node", "id": 12075335172, "lat": 39.3693171, "lon": 26.1735409}, {"type": "node", "id": 12075335173, "lat": 39.3692551, "lon": 26.1735559}, {"type": "node", "id": 12075335174, "lat": 39.369264, "lon": 26.1736181}, {"type": "node", "id": 12075335175, "lat": 39.3693261, "lon": 26.1736032}, {"type": "node", "id": 12077209626, "lat": 39.370867, "lon": 26.1837491}, {"type": "node", "id": 12077209627, "lat": 39.3708878, "lon": 26.1838351}, {"type": "node", "id": 12088674299, "lat": 39.3669163, "lon": 26.3566304}, {"type": "node", "id": 12088674300, "lat": 39.3669077, "lon": 26.3565878}, {"type": "node", "id": 12093424678, "lat": 39.4928615, "lon": 26.335933, "tags": {"addr:housenumber": "No: 66", "addr:postcode": "17860", "addr:street": "Behramkale K\u00f6y\u00fc, K\u00f6yi\u00e7i mevkii", "amenity": "restaurant", "contact:instagram": "assosbohemian_caferestaurant", "cuisine": "italian_pizza;turkish", "name": "Assos Bohemian Cafe Restaurant", "opening_hours": "Fr-Su 13:30-21:00", "phone": "05309121653"}}, {"type": "node", "id": 12095047785, "lat": 39.4932629, "lon": 26.3352882, "tags": {"amenity": "cafe", "indoor_seating": "yes", "name": "Assos Agora Cafe", "outdoor_seating": "yes"}}, {"type": "node", "id": 12120387803, "lat": 39.3433089, "lon": 26.1726656}, {"type": "node", "id": 12120454378, "lat": 39.3414448, "lon": 26.2194369}, {"type": "node", "id": 12120454381, "lat": 39.3413786, "lon": 26.2194233}, {"type": "node", "id": 12144763669, "lat": 39.204656, "lon": 26.4848376, "tags": {"amenity": "restaurant"}}, {"type": "node", "id": 12148388431, "lat": 39.1029308, "lon": 26.5562959, "tags": {"amenity": "cafe", "check_date": "2024-08-31", "level": "1", "name": "Open View", "wheelchair": "no"}}, {"type": "node", "id": 12168454991, "lat": 39.0798058, "lon": 26.3718855, "tags": {"amenity": "cafe", "check_date": "2024-09-10"}}, {"type": "node", "id": 12202231436, "lat": 39.0988692, "lon": 26.5498149, "tags": {"amenity": "cafe", "check_date": "2025-01-01", "name": "Time for Coffee"}}, {"type": "node", "id": 12338114685, "lat": 39.087912, "lon": 26.4476863}, {"type": "node", "id": 12338114686, "lat": 39.0878255, "lon": 26.4477141}, {"type": "node", "id": 12338114687, "lat": 39.0878156, "lon": 26.4476632}, {"type": "node", "id": 12338114688, "lat": 39.0876968, "lon": 26.4477015}, {"type": "node", "id": 12338114689, "lat": 39.0877136, "lon": 26.4477878}, {"type": "node", "id": 12338114690, "lat": 39.0877335, "lon": 26.4477814}, {"type": "node", "id": 12338114691, "lat": 39.0877492, "lon": 26.4478625}, {"type": "node", "id": 12338114692, "lat": 39.0879346, "lon": 26.4478029}, {"type": "node", "id": 12426824616, "lat": 39.1009962, "lon": 26.1691956}, {"type": "node", "id": 12463895725, "lat": 39.1801737, "lon": 26.4847366, "tags": {"amenity": "cafe"}}, {"type": "node", "id": 12476426233, "lat": 39.1068354, "lon": 26.5570512}, {"type": "node", "id": 12476426242, "lat": 39.1068234, "lon": 26.5569786}, {"type": "node", "id": 12695975800, "lat": 39.3738105, "lon": 26.3035408}, {"type": "node", "id": 12695982801, "lat": 39.3738268, "lon": 26.3035448}, {"type": "node", "id": 12737219363, "lat": 39.3690987, "lon": 26.1685699, "tags": {"amenity": "restaurant", "name": "Porto Molivos"}}, {"type": "node", "id": 12740632257, "lat": 39.1112536, "lon": 26.551815}, {"type": "node", "id": 12740632258, "lat": 39.1112539, "lon": 26.5518474}, {"type": "node", "id": 12768936150, "lat": 39.3669425, "lon": 26.1751587, "tags": {"amenity": "cafe", "check_date": "2025-04-19", "name": "Utopia"}}, {"type": "node", "id": 12768936164, "lat": 39.368237, "lon": 26.1733474, "tags": {"amenity": "cafe", "check_date": "2025-04-19", "name": "Corner"}}, {"type": "node", "id": 12768983475, "lat": 39.3278706, "lon": 26.1755763, "tags": {"amenity": "restaurant", "check_date": "2025-04-19", "cuisine": "barbecue", "name": "Marina Grill House"}}, {"type": "node", "id": 12770524017, "lat": 39.3691542, "lon": 26.168817, "tags": {"amenity": "cafe", "check_date": "2025-04-20"}}, {"type": "node", "id": 12837051641, "lat": 39.3262515, "lon": 26.1768735, "tags": {"amenity": "cafe", "check_date": "2025-05-14", "cuisine": "pizza;greek", "internet_access": "wlan", "internet_access:fee": "customers", "name:el": "\u039f \u039c\u03b1\u03c7\u03b1\u03bb\u03b1\u03c3", "payment:cash": "yes", "payment:cash:EUR": "yes", "payment:credit_cards": "yes", "payment:debit_cards": "yes", "source": "survey", "wheelchair": "limited"}}, {"type": "node", "id": 12839679001, "lat": 39.3307308, "lon": 26.6616157, "tags": {"addr:housenumber": "No: 2", "addr:postcode": "10400", "addr:street": "Mithatpa\u015fa Mahallesi, Mektep Sokak", "amenity": "restaurant", "cuisine": "turkish", "internet_access": "wlan", "name": "K\u00f6\u015feba\u015f\u0131", "opening_hours": "Mo-Su 12:00-00:00", "outdoor_seating": "yes", "phone": "05333551010", "website": "https://kosebasi.com", "website:menu": "https://kosebasi.com/menu/cunda"}}, {"type": "way", "id": 119683935, "nodes": [4756670525, 3581160301, 4271357800, 4271357799, 4258307213, 4756670526, 4756670525], "tags": {"amenity": "restaurant", "building": "yes", "name": "\u03a4\u03bf \u039c\u03bf\u03c5\u03c1\u03ac\u03b3\u03b9\u03bf"}}, {"type": "way", "id": 119683941, "nodes": [1343821822, 1343821828, 11056235616, 1343821821, 1343821819, 1343821822], "tags": {"amenity": "cafe", "building": "yes", "building:levels": "1", "internet_access": "wlan", "name": "\u0391\u03c1\u03c4\u03ad\u03bc\u03b9\u03bf\u03bd", "name:el": "\u0391\u03c1\u03c4\u03ad\u03bc\u03b9\u03bf\u03bd", "name:en": "Artemion", "roof:shape": "flat"}}, {"type": "way", "id": 119683953, "nodes": [1343821797, 4258307215, 1343821798, 1343821796, 1343821797], "tags": {"amenity": "restaurant", "building": "yes", "name": "\u03a4\u03b1\u03b2\u03ad\u03c1\u03bd\u03b1 \u03a0\u03bb\u03ac\u03c4\u03b1\u03bd\u03bf\u03c2", "name:el": "\u03a4\u03b1\u03b2\u03ad\u03c1\u03bd\u03b1 \u03a0\u03bb\u03ac\u03c4\u03b1\u03bd\u03bf\u03c2", "name:en": "Taverna Platanos"}}, {"type": "way", "id": 119683963, "nodes": [1343821777, 1343821786, 1343821778, 1343821783, 1343821774, 1343821766, 1343821769, 1343821762, 1343821777], "tags": {"amenity": "restaurant", "building": "yes", "cuisine": "regional", "name": "\u038c\u03b1\u03c3\u03b9\u03c2"}}, {"type": "way", "id": 232407341, "nodes": [2407606555, 2407606556, 2407606558, 2407606557, 2407606555], "tags": {"addr:housenumber": "24", "addr:postcode": "81132", "addr:street": "\u0398\u0395\u039f\u03a6\u0399\u039b\u039f\u03a5 \u03a7\u0391\u03a4\u0396\u0397\u039c\u0399\u03a7\u0391\u0397\u039b", "amenity": "cafe", "building": "yes"}}, {"type": "way", "id": 263081336, "nodes": [2687023483, 2687038387, 2687023461, 6976424271, 2687023455, 2687023483], "tags": {"amenity": "cafe", "building": "yes", "building:levels": "1", "internet_access": "yes", "name": "Caprice"}}, {"type": "way", "id": 267627211, "nodes": [2730700971, 2730700972, 2730700974, 2730700975, 2730700977, 2730700978, 2730700980, 2730700981, 2730700982, 2730700984, 2730700985, 2730700971], "tags": {"amenity": "restaurant", "building": "yes"}}, {"type": "way", "id": 268228811, "nodes": [2735808921, 2735808922, 2735808923, 2735808924, 2735808921], "tags": {"amenity": "cafe", "building": "yes", "name": "\u0399\u03c3\u03c4\u03bf\u03c1\u03b9\u03ba\u03cc"}}, {"type": "way", "id": 269803273, "nodes": [2749396005, 4785956605, 2749396006, 2749396007, 2749396008, 3820292828, 2749396005], "tags": {"amenity": "restaurant", "building": "yes", "building:levels": "2", "name": "Meating", "roof:shape": "hipped", "wheelchair": "limited"}}, {"type": "way", "id": 269805339, "nodes": [2749410651, 2749410652, 10543093763, 2749410658, 2749410654, 2749410651], "tags": {"amenity": "cafe", "building": "yes", "building:levels": "2", "internet_access": "yes", "roof:material": "roof_tiles", "roof:shape": "hipped"}}, {"type": "way", "id": 272074086, "nodes": [2770032436, 2770032439, 2770032440, 2770032441, 2770032436], "tags": {"amenity": "restaurant", "building": "yes", "name": "\u03a0\u03ac\u03b5\u03b9 \u03ba\u03b1\u03b9\u03c1\u03cc\u03c2"}}, {"type": "way", "id": 283095911, "nodes": [2870037456, 2870037457, 10278401405, 2870037458, 2870037459, 2870037456], "tags": {"addr:city": "\u039c\u03c5\u03c4\u03b9\u03bb\u03ae\u03bd\u03b7", "addr:housenumber": "5", "addr:street": "\u039d\u03b1\u03c5\u03bc\u03b1\u03c7\u03af\u03b1\u03c2 \u0388\u03bb\u03bb\u03b7\u03c2", "amenity": "cafe", "building": "yes", "building:levels": "2", "name": "Fisheye", "roof:shape": "pyramidal"}}, {"type": "way", "id": 283096521, "nodes": [2870042287, 2870042288, 2870042284, 2870042283, 2870042287], "tags": {"addr:street": "\u039d\u03b1\u03c5\u03bc\u03b1\u03c7\u03af\u03b1\u03c2 \u0388\u03bb\u03bb\u03b7\u03c2", "amenity": "restaurant", "building": "yes", "building:levels": "2", "name": "\u039f\u03c5\u03c1\u03b1\u03bd\u03cc\u03c2"}}, {"type": "way", "id": 283347079, "nodes": [2872213513, 2872213514, 2872213515, 2872213516, 2872213513], "tags": {"amenity": "restaurant", "building": "yes", "cuisine": "greek", "name": "\u03a7\u03b1\u03bb\u03af\u03ba\u03b9\u03b1"}}, {"type": "way", "id": 287349778, "nodes": [2909702471, 2909702472, 2909702473, 2909702474, 2909702471], "tags": {"amenity": "restaurant", "building": "yes", "cuisine": "greek", "name": "\u0391\u03b3\u03af\u03b1 \u0392\u03b1\u03c1\u03b2\u03ac\u03c1\u03b1", "name:el": "\u0391\u03b3\u03af\u03b1 \u0392\u03b1\u03c1\u03b2\u03ac\u03c1\u03b1", "name:en": "Agia Varvara"}}, {"type": "way", "id": 297855368, "nodes": [3017577167, 3017577168, 3017577169, 3017577170, 3017577167], "tags": {"amenity": "restaurant", "building": "yes", "building:levels": "2", "name": "\u0391\u03ba\u03c1\u03bf\u03b3\u03b9\u03ac\u03bb\u03b9", "name:el": "\u0391\u03ba\u03c1\u03bf\u03b3\u03b9\u03ac\u03bb\u03b9", "name:en": "Akrogiali"}}, {"type": "way", "id": 298753794, "nodes": [3026760470, 3026760471, 3026760472, 3026760473, 3026760470]}, {"type": "way", "id": 298753795, "nodes": [3026760474, 3026760472, 3026760473, 3026760475, 3026760474]}, {"type": "way", "id": 298753843, "nodes": [3026764817, 3026764818, 3026764819, 3026764820, 3026764817], "tags": {"amenity": "restaurant", "building": "yes", "cuisine": "greek", "email": "ridjanhoxhal1981@gmail.com", "highchair": "yes", "internet_access": "wlan", "level": "1", "name": "\u03b3\u03b9\u03b1\u03bb\u03cc \u03b3\u03b9\u03b1\u03bb\u03cc", "name:el": "\u03b3\u03b9\u03b1\u03bb\u03cc \u03b3\u03b9\u03b1\u03bb\u03cc", "name:en": "Gialo Gialo", "opening_hours": "Mo-Su 10:00-23:00", "phone": "+30 2253 042596;+30 699 316 0258", "toilets": "yes", "toilets:access": "customers", "toilets:wheelchair": "no", "wheelchair": "no"}}, {"type": "way", "id": 303759960, "nodes": [3081586737, 3081586738, 3081586739, 3081586740, 3081586737], "tags": {"amenity": "cafe", "building": "yes", "building:levels": "2", "indoor_seating": "yes", "name": "Status", "outdoor_seating": "yes", "roof:shape": "flat"}}, {"type": "way", "id": 311006605, "nodes": [3165322366, 3165321860, 12120387803, 3165321854, 3165322361, 3165322366], "tags": {"amenity": "cafe", "building": "yes", "building:levels": "2", "check_date": "2025-04-21", "int_name": "Tsalikis", "name": "\u03a4\u03c3\u03b1\u03bb\u03af\u03ba\u03b7\u03c2", "name:el": "\u03a4\u03c3\u03b1\u03bb\u03af\u03ba\u03b7\u03c2", "website": "http://www.tsalikis.com.gr"}}, {"type": "way", "id": 316753757, "nodes": [3229321520, 3229321521, 3229321522, 3229321523, 3229321520], "tags": {"amenity": "restaurant", "building": "yes", "name": "Eryphilli Bar"}}, {"type": "way", "id": 336984985, "nodes": [3440767355, 3440767356, 3440767357, 3440767358, 7669679694, 3440767355], "tags": {"amenity": "restaurant", "building": "yes", "building:levels": "2", "cuisine": "seafood", "name": "\u0391\u03bd\u03b5\u03bc\u03cc\u03b5\u03c3\u03c3\u03b1"}}, {"type": "way", "id": 349152480, "nodes": [3550714828, 3550714826, 3550714824, 3550714827, 3550714828], "tags": {"amenity": "cafe", "building": "yes", "name": "\u0397 \u039a\u03b1\u03bb\u1f74 \u039a\u03b1\u03c1\u03b4\u03b9\u1f01"}}, {"type": "way", "id": 360848425, "nodes": [3654055168, 3654055189, 3654055169, 3654055170, 3654055171, 3654055168], "tags": {"amenity": "restaurant", "building": "yes", "name": "\u03a4\u03b1 \u0398\u03b1\u03bb\u03b1\u03c3\u03c3\u03cc\u03be\u03c5\u03bb\u03b1", "note": "\u03c0\u03c1\u03ce\u03b7\u03bd \u03a0\u03bf\u03c3\u03b5\u03b9\u03b4\u03ce\u03bd\u03b1\u03c2"}}, {"type": "way", "id": 363130820, "nodes": [3673276104, 3673276105, 3673276106, 3673276107, 3673276104], "tags": {"amenity": "restaurant", "building": "yes", "cuisine": "greek", "name": "\u0394\u03b7\u03bc\u03bf\u03c3\u03b8\u03ad\u03bd\u03b7\u03c2"}}, {"type": "way", "id": 378450234, "nodes": [3818566346, 12077209627, 12077209626, 3818566347, 3818566348, 3818566349, 3818566350, 3818566351, 3818566352, 3818566353, 3818566346], "tags": {"amenity": "restaurant", "building": "yes", "name": "Garden Taverne Perikles"}}, {"type": "way", "id": 379048722, "nodes": [3824005699, 3824005700, 3824005701, 3824005702, 3824005703, 3824005704, 3824005705, 3824005706, 3824005707, 3824005708, 3824005699], "tags": {"amenity": "restaurant", "building": "yes", "name": "Angelos Taverna", "phone": "+30 2253 071909"}}, {"type": "way", "id": 379067551, "nodes": [3824231379, 12043655565, 3824231380, 3824231381, 3824231382, 3824231379], "tags": {"amenity": "cafe", "building": "yes", "building:levels": "1", "name": "Perasma"}}, {"type": "way", "id": 379067641, "nodes": [3824234674, 3824234675, 3824234676, 3824234677, 3824234674], "tags": {"amenity": "restaurant", "building": "yes", "cuisine": "greek", "name": "Taverna Alonia"}}, {"type": "way", "id": 379649021, "nodes": [3829751239, 3829751240, 3829751241, 3829751242, 3829751239], "tags": {"amenity": "restaurant", "building": "yes", "cuisine": "greek", "name": "Ligaria Paradise"}}, {"type": "way", "id": 381974732, "nodes": [7769570200, 12120454378, 12120454381, 7769570199, 3851830438, 3851830439, 7769570200], "tags": {"addr:city": "\u0392\u03b1\u03c6\u03b5\u03b9\u03cc\u03c2", "addr:postcode": "81108", "addr:street": "\u039c\u03ae\u03b8\u03c5\u03bc\u03bd\u03b1-\u03a3\u03c5\u03ba\u03b1\u03bc\u03b9\u03ac-\u039c\u03b1\u03bd\u03c4\u03b1\u03bc\u03ac\u03b4\u03bf\u03c2", "amenity": "restaurant", "building": "yes", "building:levels": "2", "check_date": "2024-08-29", "cuisine": "greek;barbecue;ice_cream;coffee_shop", "name": "\u0392\u03b1\u03c6\u03b5\u03b9\u03cc\u03c2", "name:el": "\u0392\u03b1\u03c6\u03b5\u03b9\u03cc\u03c2", "name:en": "Vafios", "outdoor_seating": "yes", "phone": "+30 2253071752"}}, {"type": "way", "id": 382237286, "nodes": [3854296477, 3854296481, 3854296482, 3854296476, 3854296477], "tags": {"amenity": "cafe", "building": "yes", "building:levels": "3", "name": "\u0386\u03c1\u03c9\u03bc\u03b1 \u0392\u03cd\u03bd\u03b7\u03c2", "roof:material": "roof_tiles"}}, {"type": "way", "id": 386393929, "nodes": [3897141165, 3897141166, 3897141167, 3897141168, 3897141165], "tags": {"amenity": "restaurant", "building": "yes", "name": "\u03a7\u03c1\u03c5\u03c3\u03ae \u03b1\u03ba\u03c4\u03ae", "name:el": "\u03a7\u03c1\u03c5\u03c3\u03ae \u03b1\u03ba\u03c4\u03ae", "name:en": "Golden Beach"}}, {"type": "way", "id": 387024850, "nodes": [3894331183, 3903669656, 3903671057, 3894331186, 3894331183], "tags": {"amenity": "cafe", "building": "yes", "name": "\u039a\u03ac\u03b2\u03bf\u03c2"}}, {"type": "way", "id": 387024851, "nodes": [3903669656, 3903671058, 12695982801, 12695975800, 3903671059, 3903671057, 3903669656], "tags": {"amenity": "cafe", "building": "yes", "building:levels": "2", "check_date": "2025-05-09", "int_name": "Traverso", "internet_access": "wlan", "internet_access:fee": "customers", "name": "\u03a4\u03c1\u03b1\u03b2\u03ad\u03c1\u03c3\u03bf"}}, {"type": "way", "id": 387517753, "nodes": [3908054453, 4810180073, 3908054454, 3908054455, 3908054456, 3908054453], "tags": {"amenity": "cafe", "building": "yes", "name": "\u0398\u03ad\u03c1\u03bc\u03b1", "phone": "+30 2251041503", "roof:shape": "hipped"}}, {"type": "way", "id": 418927879, "nodes": [4191414764, 4191414765, 4191414766, 4191414767, 4191414764], "tags": {"amenity": "restaurant", "building": "yes", "name": "\u0391\u03a7\u0399\u0392\u0391\u0394\u0391"}}, {"type": "way", "id": 424814944, "nodes": [4241900889, 4241895881, 10824103597, 3895845110, 10824103598, 3895845108, 10617571881, 10617571882, 4241895886, 4241900889], "tags": {"amenity": "restaurant", "building": "yes", "cuisine": "greek", "name": "Antonakas"}}, {"type": "way", "id": 424949002, "nodes": [4243043376, 4243043377, 4243043378, 4243043379, 4243043376], "tags": {"amenity": "cafe", "building": "yes", "check_date": "2024-09-02", "cuisine": "pancake;coffee_shop", "internet_access": "wlan", "internet_access:fee": "customers", "name": "\u03a4\u03bf \u03bb\u03b9\u03bc\u03b1\u03bd\u03ac\u03ba\u03b9 \u03c4\u03c9\u03bd \u03a0\u03b1\u03bc\u03c6\u03af\u03bb\u03c9\u03bd", "outdoor_seating": "yes", "phone": "00302251106844"}}, {"type": "way", "id": 425190291, "nodes": [4244940943, 4244941134, 4244941089, 4244941132, 4244940984, 4244940923, 4244940783, 4244940712, 4244940943], "tags": {"amenity": "restaurant", "building": "yes", "cuisine": "greek", "name": "\u03a4\u03bf \u039a\u03cc\u03c4\u03b5\u03c1\u03bf", "outdoor_seating": "yes", "takeaway": "yes", "toilets:access": "customers", "toilets:wheelchair": "no", "wheelchair": "limited"}}, {"type": "way", "id": 426539228, "nodes": [4258290753, 4258290754, 4258290755, 4258290756, 4258290753], "tags": {"amenity": "cafe", "building": "yes", "name": "\u03a4\u03b6\u03b9\u03c4\u03b6\u03b9\u03c6\u03b9\u03ad\u03c2"}}, {"type": "way", "id": 431372894, "nodes": [4305755104, 4305754946, 4305755128, 4305755175, 4305755337, 4305755304, 4305755104], "tags": {"addr:street": "\u039c\u03c5\u03c4\u03b9\u03bb\u03ae\u03bd\u03b7\u03c2 - \u039a\u03b1\u03bb\u03bb\u03bf\u03bd\u03ae\u03c2", "amenity": "restaurant", "building": "yes", "building:levels": "2", "cuisine": "greek", "name": "\u0398\u03b1\u03bb\u03bb\u03cc\u03bd \u0395\u03bb\u03b1\u03af\u03b1\u03c2"}}, {"type": "way", "id": 431372912, "nodes": [4305754961, 4305755392, 4305755132, 4305755105, 4305754961], "tags": {"addr:street": "\u039c\u03c5\u03c4\u03b9\u03bb\u03ae\u03bd\u03b7\u03c2 - \u039a\u03b1\u03bb\u03bb\u03bf\u03bd\u03ae\u03c2", "amenity": "restaurant", "building": "yes", "building:levels": "2", "cuisine": "greek", "name": "\u03a4\u03bf \u03a0\u03b1\u03bd\u03cc\u03c1\u03b1\u03bc\u03b1", "name:el": "\u03a4\u03bf \u03a0\u03b1\u03bd\u03cc\u03c1\u03b1\u03bc\u03b1", "name:en": "Panorama"}}, {"type": "way", "id": 431653813, "nodes": [4308811848, 4308811849, 4308811850, 4308811851, 4308811848], "tags": {"amenity": "cafe", "building": "yes", "building:levels": "2", "name": "Sugar Bay"}}, {"type": "way", "id": 434761708, "nodes": [4326979848, 4326979849, 4326979850, 4326979851, 4326979848], "tags": {"amenity": "restaurant", "building": "yes"}}, {"type": "way", "id": 434870561, "nodes": [4327883793, 4327883794, 4327883795, 4327883796, 4327883793], "tags": {"amenity": "restaurant", "building": "yes", "cuisine": "Ouzeri", "name": "\u039e\u0391\u039d\u0391 \u039c\u0391\u039d\u0391", "name:el": "\u039e\u0391\u039d\u0391 \u039c\u0391\u039d\u0391", "name:en": "KSANA MANA"}}, {"type": "way", "id": 437302763, "nodes": [4351211910, 4351211911, 4351211912, 4351211913, 11371071225, 11371071226, 4351211910], "tags": {"amenity": "restaurant", "building": "yes"}}, {"type": "way", "id": 437302772, "nodes": [4351211966, 4351211967, 4351211968, 4351211969, 4351211966], "tags": {"amenity": "restaurant", "building": "yes"}}, {"type": "way", "id": 437302778, "nodes": [4351213495, 4351213496, 4351213497, 4351213498, 4351213499, 4351213500, 4351213501, 4351213502, 4351213495], "tags": {"amenity": "restaurant", "building": "yes"}}, {"type": "way", "id": 456575791, "nodes": [4528236145, 8399168503, 4528236146, 8399168504, 8399168505, 4528236147, 4528236148, 4528236145], "tags": {"addr:street": "\u0395\u03c1\u03bc\u03bf\u03cd", "amenity": "cafe", "building": "yes", "building:levels": "2", "name": "Fast & fresh"}}, {"type": "way", "id": 462602949, "nodes": [4579809645, 4579809646, 4579809647, 4579809648, 4579809649, 4579809650, 4579809645], "tags": {"amenity": "restaurant", "building": "yes", "name": "\u03a4\u03b5\u03bb\u03c9\u03bd\u03b5\u03af\u03bf", "name:de": "Telonio", "name:el": "\u03a4\u03b5\u03bb\u03c9\u03bd\u03b5\u03af\u03bf"}}, {"type": "way", "id": 479232828, "nodes": [4723744897, 4723744898, 4723744899, 4723744900, 4723744897], "tags": {"amenity": "restaurant", "building": "yes", "check_date": "2024-08-29", "name": "\u03bf \u03a3\u03c0\u03cd\u03c1\u03bf\u03c2 \u03a4\u03b6\u03b9\u03bc\u03ae\u03c2"}}, {"type": "way", "id": 479232833, "nodes": [4723744916, 12426824616, 4723744912, 4723744918, 4723744919, 4723744916], "tags": {"amenity": "restaurant", "building": "yes", "name": "\u03a4\u03bf \u039b\u03b9\u03bc\u03ac\u03bd\u03b9 (\u03c4\u03bf\u03c5 \u0391\u03c1\u03ac\u03c0\u03b7)"}}, {"type": "way", "id": 483503364, "nodes": [2612160889, 4762505115, 4762505116, 2612160887, 2612160889], "tags": {"amenity": "restaurant", "building": "yes", "building:levels": "1", "check_date": "2025-01-02", "name": "\u03a4\u03b6\u03af\u03bc\u03b7\u03c2 \u03bf \u03a7\u03bf\u03bd\u03c4\u03c1\u03cc\u03c2"}}, {"type": "way", "id": 485834119, "nodes": [4785944595, 2870037468, 4785944599, 4785944600, 4785944595], "tags": {"addr:street": "\u039d\u03b1\u03c5\u03bc\u03b1\u03c7\u03af\u03b1\u03c2 \u0388\u03bb\u03bb\u03b7\u03c2", "amenity": "restaurant", "building": "yes", "building:levels": "4", "check_date": "2024-12-16", "name": "Grecco", "note": "\u03c0\u03c1\u03ce\u03b7\u03bd \u039a\u03b1\u03c1\u03bd\u03ac\u03b3\u03b9\u03bf"}}, {"type": "way", "id": 490827392, "nodes": [4830131989, 4830131990, 4830131991, 4830131992, 4830131989], "tags": {"amenity": "cafe", "building": "yes", "building:levels": "2", "name": "Mojo Beach Bar"}}, {"type": "way", "id": 498246985, "nodes": [2909702474, 4897046742, 4897046741, 2909702473, 2909702474], "tags": {"amenity": "restaurant", "building": "yes", "cuisine": "greek"}}, {"type": "way", "id": 498246986, "nodes": [4897046742, 10780215937, 4897046743, 4897046744, 4897046741, 4897046742], "tags": {"amenity": "restaurant", "building": "yes", "cuisine": "greek"}}, {"type": "way", "id": 499960749, "nodes": [4911342477, 4911342474, 4911342475, 4911342476, 12088674300, 12088674299, 4911342477], "tags": {"amenity": "restaurant", "building": "yes", "name": "\u0397 \u03b1\u03c0\u03cc\u03bb\u03b1\u03c5\u03c3\u03b7"}}, {"type": "way", "id": 499960771, "nodes": [4911342565, 4911342564, 4911342563, 4911342562, 4911342565], "tags": {"amenity": "restaurant", "building": "yes", "cuisine": "greek", "name": "Blue Sea Taverna"}}, {"type": "way", "id": 508723929, "nodes": [4979764456, 4979764457, 4979764458, 4979764459, 4979764456], "tags": {"amenity": "cafe", "building": "yes", "cuisine": "regional;coffee_shop", "name": "\u0391\u039c\u03a0\u0395\u039b\u0399\u0391"}}, {"type": "way", "id": 508723930, "nodes": [4979764460, 4979764461, 4979764462, 4979764463, 4979764460], "tags": {"addr:city": "\u0391\u03bc\u03c0\u03ad\u03bb\u03b9\u03b1", "amenity": "restaurant", "building": "yes", "cuisine": "greek;coffee_shop", "name": "\u039a\u0391\u039c\u0399\u039d\u0399", "opening_hours": "Mo-Sa 08:00-20:00"}}, {"type": "way", "id": 516296754, "nodes": [5040383353, 5040383354, 5040383355, 5040383356, 5040383357, 5040383358, 5040383359, 5040383360, 5040383353], "tags": {"amenity": "cafe", "building": "yes", "name": "\u015eeytan Sofras\u0131 Restoran"}}, {"type": "way", "id": 691144977, "nodes": [6484984021, 6484984022, 6484984023, 6484984024, 6484984021], "tags": {"amenity": "restaurant", "building": "yes", "name": "Avlaki"}}, {"type": "way", "id": 691216091, "nodes": [6485662342, 6485662343, 6485662344, 12740632258, 12740632257, 6485662345, 6485662342], "tags": {"addr:city": "\u039c\u03a5\u03a4\u0399\u039b\u0397\u039d\u0397", "addr:housenumber": "15", "addr:street": "\u039a\u03c5\u03b4\u03c9\u03bd\u03af\u03c9\u03bd", "amenity": "restaurant", "building": "yes", "cuisine": "greek;burger", "delivery": "yes", "name": "38000 \u0393\u03b5\u03cd\u03c3\u03b5\u03b9\u03c2", "name:el": "38000 \u0393\u03b5\u03cd\u03c3\u03b5\u03b9\u03c2", "name:en": "38000 Flavours", "opening_hours": "Mo-Sa 12:00-12:00", "outdoor_seating": "yes"}}, {"type": "way", "id": 691216094, "nodes": [6485662346, 6485662347, 6485662348, 6485662349, 6485662346], "tags": {"addr:city": "\u039c\u03c5\u03c4\u03b9\u03bb\u03ae\u03bd\u03b7", "addr:street": "\u03a0\u03bb\u03b1\u03c4\u03b5\u03af\u03b1 \u0391\u03bb\u03c5\u03c3\u03af\u03b4\u03b1\u03c2", "amenity": "restaurant", "building": "yes", "cuisine": "greek;burger", "name": "\u03a0\u03af\u03c4\u03b1 \u039c\u03ac\u03ba\u03b7\u03c2", "name:el": "\u03a0\u03af\u03c4\u03b1 \u039c\u03ac\u03ba\u03b7\u03c2", "name:en": "Pita Makis", "opening_hours": "Mo-Su 12:50-02:00", "outdoor_seating": "yes"}}, {"type": "way", "id": 696942277, "nodes": [6545208536, 6545208537, 6545208538, 6545208539, 6545208540, 6545208541, 6545208536], "tags": {"amenity": "restaurant", "building": "yes", "building:levels": "2", "cuisine": "greek", "name": "SARANDOS"}}, {"type": "way", "id": 696942291, "nodes": [6545208600, 6545208601, 6545208602, 6545208603, 6545208600], "tags": {"amenity": "restaurant", "building": "yes", "cuisine": "greek", "name": "Ellis"}}, {"type": "way", "id": 714618144, "nodes": [6717395401, 6717395402, 6717395403, 6717395404, 6717395401], "tags": {"amenity": "restaurant", "building": "yes", "name": "Con vista"}}, {"type": "way", "id": 745289697, "nodes": [6976472351, 6976472350, 6976472349, 9708795986, 6976472348, 6976472351], "tags": {"amenity": "restaurant", "building": "yes", "name": "\u0397 \u0393\u03bf\u03c1\u03b3\u03cc\u03bd\u03b1"}}, {"type": "way", "id": 834659960, "nodes": [7791493715, 7791493716, 7791493717, 7791493718, 7791493715], "tags": {"addr:postcode": "81108", "amenity": "cafe", "building": "yes", "changing_table": "yes", "check_date": "2025-04-20", "cuisine": "ice_cream;pastry;coffee", "internet_access": "yes", "internet_access:fee": "customers", "name": "Blue Fox", "outdoor_seating": "yes", "phone": "+30 22530 72347", "website": "http://www.thebluefox.gr", "wheelchair": "no"}}, {"type": "way", "id": 852173996, "nodes": [9049750070, 8514141934, 7948875834, 5907073495, 7948875835, 9049750070], "tags": {"amenity": "cafe", "building": "yes", "building:levels": "2", "name": "Bar Code"}}, {"type": "way", "id": 860093597, "nodes": [8016398560, 8016398561, 8016398562, 8016398563, 8016398560], "tags": {"amenity": "restaurant", "building": "yes", "cuisine": "greek", "name": "\u039f \u039c\u03c0\u03ac\u03c4\u03b7\u03c2", "name:el": "\u039f \u039c\u03c0\u03ac\u03c4\u03b7\u03c2", "name:en": "Batis"}}, {"type": "way", "id": 894177174, "nodes": [8310815888, 3854296477, 3854296476, 8109319351, 8310815888], "tags": {"amenity": "cafe", "building": "yes", "building:levels": "2", "name": "Be happy", "roof:material": "roof_tiles", "roof:shape": "gabled"}}, {"type": "way", "id": 894177545, "nodes": [8310837645, 8310837646, 10313018502, 12476426233, 8310837647, 8310837648, 12476426242, 10313018501, 8310837645], "tags": {"amenity": "cafe", "building": "yes", "building:levels": "2", "name": "19 Espresso Gastro Bar", "roof:material": "roof_tiles", "roof:shape": "hipped"}}, {"type": "way", "id": 894331036, "nodes": [8312481193, 8497618363, 8312481195, 8312481196, 8312481194, 8312481193], "tags": {"amenity": "restaurant", "building": "yes", "building:levels": "2", "cuisine": "greek", "name": "\u03b7 \u03ba\u03bf\u03c5\u03b6\u03af\u03bd\u03b1 \u03c4\u03b7\u03c2 \u03bc\u03b1\u03bc\u03ac\u03c2", "service:vehicle:parts": "yes"}}, {"type": "way", "id": 894331041, "nodes": [8312481197, 8312481206, 8312481207, 8312481198, 8312481197], "tags": {"amenity": "restaurant", "building": "yes", "building:levels": "2", "cuisine": "greek", "name": "\u039a\u03cc\u03ba\u03bf\u03c5\u03c1\u03b1\u03c2"}}, {"type": "way", "id": 894331042, "nodes": [8312481210, 8312481211, 8312481195, 8497680611, 8312481197, 8312481206, 8312481210], "tags": {"amenity": "cafe", "building": "yes", "name": "\u039b\u03b1\u03ca\u03ba\u03cc"}}, {"type": "way", "id": 894629923, "nodes": [8315609164, 8315609165, 8432345526, 8315609166, 8315609167, 8315609164], "tags": {"amenity": "cafe", "building": "yes", "name": "\u03a3\u03bf\u03c5\u03c3\u03b1\u03bc\u03bb\u03ae"}}, {"type": "way", "id": 900425947, "nodes": [8364700385, 8364700389, 8364700390, 8364700391, 8364700385], "tags": {"amenity": "restaurant", "building": "yes", "name": "\u039b\u03cc\u03be\u03b1"}}, {"type": "way", "id": 904396282, "nodes": [8399168485, 8399168486, 8399168487, 8399168488, 8399168485], "tags": {"amenity": "restaurant", "building": "yes", "name": "\u039a\u0391\u03a3\u03a4\u03a1\u039f"}}, {"type": "way", "id": 911898756, "nodes": [8468043449, 8468043447, 8468043450, 8468043453, 8468043448, 8468043449], "tags": {"amenity": "restaurant", "building": "yes", "name": "\u03a0\u03b1\u03c1\u03ac\u03c4\u03b1\u03b9\u03c1\u03bf\u03bd"}}, {"type": "way", "id": 914774870, "nodes": [8497615681, 1495079529, 8497615682, 8497615683, 8497615681], "tags": {"amenity": "restaurant", "building": "yes", "building:levels": "1", "cuisine": "greek", "name": "\u0391\u03c0\u03c1\u03cc\u03bf\u03c0\u03c4\u03bf"}}, {"type": "way", "id": 914774873, "nodes": [8497615676, 9052614512, 2749396009, 8467964965]}, {"type": "way", "id": 929661637, "nodes": [8621532506, 8621532510, 8621532507, 8621532508, 8621532509, 8621532506], "tags": {"amenity": "restaurant", "building": "yes", "name": "\u03bf \u03a0\u03bb\u03ac\u03c4\u03b1\u03bd\u03bf\u03c2"}}, {"type": "way", "id": 942470895, "nodes": [8727397868, 8727397869, 8727397870, 8727397871, 8727397868], "tags": {"amenity": "restaurant", "building": "yes", "name": "Sivrice Faros Restaurant"}}, {"type": "way", "id": 974460236, "nodes": [9018290043, 9018290045, 9018290047, 9018290041, 9018290043], "tags": {"amenity": "restaurant", "building": "yes", "cuisine": "greek", "name": "\u0393\u03b9\u03ce\u03c4\u03b7\u03c2"}}, {"type": "way", "id": 987009576, "nodes": [9123173999, 9123173998, 9123173997, 9123173996, 9123173999], "tags": {"addr:postcode": "81108", "amenity": "cafe", "building": "yes", "check_date": "2025-04-19", "name": "\u0392\u03c5\u03b6\u03b1\u03bd\u03c4\u03b9\u03bd\u03cc", "outdoor_seating": "terrace", "phone": "2253110073"}}, {"type": "way", "id": 992207113, "nodes": [9167336716, 9167369517, 9167369518, 9167369519, 9167336716], "tags": {"amenity": "cafe", "building": "yes", "name": "\u0386\u03b3\u03b9\u03bf\u03c2 \u0393\u03b5\u03ce\u03c1\u03b3\u03b9\u03bf\u03c2"}}, {"type": "way", "id": 1013277960, "nodes": [9348309378, 9348309379, 9348309380, 4796631708, 9348309378], "tags": {"amenity": "restaurant", "building": "yes", "cuisine": "breakfast;brunch", "name": "Alley Dog"}}, {"type": "way", "id": 1016626234, "nodes": [9376897428, 9376897429, 9376897430, 9376897431, 9376897428], "tags": {"addr:housenumber": "25", "addr:street": "\u0392\u03bf\u03c5\u03c1\u03bd\u03ac\u03b6\u03c9\u03bd", "amenity": "restaurant", "building": "yes", "check_date": "2024-08-29", "name": "M\u0101o", "opening_hours": "Mo-Su 07:00-11:00", "phone": "00302251047000"}}, {"type": "way", "id": 1056482095, "nodes": [9707649798, 9707649799, 9707649797, 9707649800, 9707649801, 9707649802, 9707649803, 9707649798], "tags": {"amenity": "restaurant", "building": "yes", "name": "\u03a3\u03a0\u0399\u03a4\u0399\u039a\u039f \u03a6\u0391\u0393\u0397\u03a4\u039f"}}, {"type": "way", "id": 1058308103, "nodes": [9724692737, 9724692738, 9724692739, 9724692740, 9724692737], "tags": {"amenity": "cafe", "building": "yes", "name": "Bon bon"}}, {"type": "way", "id": 1063989569, "nodes": [9772379315, 9772379316, 9772404217, 9772404218, 9772379315], "tags": {"amenity": "restaurant", "building": "yes", "name": "\u03a4\u03bf \u039a\u03b1\u03bc\u03af\u03bd\u03b9"}}, {"type": "way", "id": 1065345255, "nodes": [9784007442, 9784007441, 9784007440, 9784007439, 9784007438, 9784007437, 9784007436, 9784007435, 9784007434, 9784007433, 9784007432, 9784007431, 9784007430, 9784007429, 9784007428, 9784007427, 9784007442], "tags": {"amenity": "restaurant", "name": "\u039c\u03ac\u03bb\u03b1\u03b8\u03c1\u03b1", "name:el": "\u039c\u03ac\u03bb\u03b1\u03b8\u03c1\u03b1", "name:en": "Malathra", "outdoor_seating": "terrace", "phone": "+30 2253094004"}}, {"type": "way", "id": 1071465091, "nodes": [9832497927, 9832497928, 9832497929, 9832497930, 9832497927], "tags": {"amenity": "restaurant", "building": "yes", "check_date": "2025-05-13", "cuisine": "greek", "internet_access": "wlan", "internet_access:fee": "customers", "name": "Caravan by the sea", "opening_hours": "10:00-23:00", "payment:cash": "yes", "payment:cash:EUR": "yes", "payment:credit_cards": "yes", "payment:debit_cards": "yes", "phone": "+30 693 812 8656", "wheelchair": "no"}}, {"type": "way", "id": 1071473839, "nodes": [9832573874, 9832573875, 9832573876, 9832573877, 9832573874], "tags": {"amenity": "restaurant", "building": "yes", "name": "O PANAGIOTIS"}}, {"type": "way", "id": 1081623084, "nodes": [8467964965, 8467964971, 8497615676]}, {"type": "way", "id": 1114732780, "nodes": [7791493718, 7791493717, 10195533485, 10587105780, 10195533486, 7791493718], "tags": {"addr:housenumber": "17", "amenity": "restaurant", "building": "yes", "cuisine": "greek;cafe", "name": "Volta by Lesvos", "opening_hours": "13:00-23:00", "phone": "+30 22530 72286"}}, {"type": "way", "id": 1120095620, "nodes": [10244509471, 11918123903, 10244509472, 10244509473, 10244509474, 10244509475, 10244509476, 10244509471], "tags": {"addr:city": "\u03a0\u03b5\u03c4\u03c1\u03af", "amenity": "restaurant", "building": "yes", "cuisine": "greek", "description": "\u03c4\u03b1\u03b2\u03ad\u03c1\u03bd\u03b1", "email": "cloud10tavern@gmail.com", "name": "Cloud 10", "name:en": "Cloud 10", "note:en": "former Petri View", "outdoor_seating": "terrace", "phone": "+306985775074"}}, {"type": "way", "id": 1121890940, "nodes": [10261046154, 10261046155, 10261046156, 10261046157, 10261046154], "tags": {"amenity": "cafe", "building": "yes", "name": "Passaggio"}}, {"type": "way", "id": 1123932457, "nodes": [10278401408, 10278473109, 2870037462, 2870037466, 10278401408], "tags": {"addr:street": "\u039d\u03b1\u03c5\u03bc\u03b1\u03c7\u03af\u03b1\u03c2 \u0388\u03bb\u03bb\u03b7\u03c2", "amenity": "restaurant", "building": "yes", "building:levels": "1", "name": "\u0394\u03ae\u03bc\u03bf\u03c2", "roof:shape": "flat"}}, {"type": "way", "id": 1131177279, "nodes": [10543093763, 10543093764, 2749410657, 2749410658, 10543093763], "tags": {"addr:city": "\u039c\u03c5\u03c4\u03b9\u03bb\u03ae\u03bd\u03b7", "addr:housenumber": "30", "addr:postcode": "81100", "addr:street": "\u039a\u03bf\u03bc\u03bd\u03b7\u03bd\u03ac\u03ba\u03b7", "amenity": "restaurant", "building": "yes", "contact:facebook": "nanrestaurantlesvos", "diet:vegan": "yes", "name": "Nan", "opening_hours": "We-Sa 13:00-00:00; Dec 25-Jan 10 off", "phone": "+302251020250"}}, {"type": "way", "id": 1131177280, "nodes": [2749410652, 2749410656, 10543093764, 10543093763, 2749410652], "tags": {"amenity": "cafe", "building": "yes", "check_date": "2025-04-12", "name": "Home"}}, {"type": "way", "id": 1134588342, "nodes": [10577239275, 10577239276, 10577239277, 10577239279, 10577239278, 10577239275], "tags": {"amenity": "restaurant", "building": "yes", "building:levels": "2", "cuisine": "pizza", "name": "Rama"}}, {"type": "way", "id": 1134588343, "nodes": [10577239279, 10577239280, 10577239281, 10577239277, 10577239279], "tags": {"amenity": "restaurant", "building": "yes", "cuisine": "greek", "name": "Thalassa"}}, {"type": "way", "id": 1134588344, "nodes": [10577239280, 10577239282, 10577239283, 10577239281, 10577239280], "tags": {"addr:city": "\u03a0\u03ad\u03c4\u03c1\u03b1", "addr:postcode": "81109", "amenity": "restaurant", "building": "yes", "cuisine": "greek", "name": "O NIKOS", "opening_hours": "09:00-23:59", "phone": "+30 22530 41285"}}, {"type": "way", "id": 1134594652, "nodes": [10577298972, 12014804332, 10577298973, 10577298974, 10577298963, 10577298972], "tags": {"amenity": "restaurant", "building": "yes", "cuisine": "greek", "name": "Mermaid"}}, {"type": "way", "id": 1134594653, "nodes": [10577298962, 10577298975, 10577298974, 10577298963, 10577298962], "tags": {"addr:city": "\u03a0\u03ad\u03c4\u03c1\u03b1", "addr:postcode": "81109", "amenity": "restaurant", "building": "yes", "cuisine": "greek", "name": "Christos", "opening_hours": "We-Mo 11:00-23:00", "outdoor_seating": "yes", "phone": "+30 22530 41266"}}, {"type": "way", "id": 1146497037, "nodes": [10669712779, 10669712780, 10669712781, 10669712782, 10669712779], "tags": {"amenity": "cafe", "building": "yes", "name": "Element"}}, {"type": "way", "id": 1153801015, "nodes": [10245462862, 10245462863, 10730448241, 10730448244, 10245462862], "tags": {"amenity": "restaurant", "building": "yes", "cuisine": "greek", "name": "\u03a4\u03bf \u03a7\u03ac\u03bd\u03b9"}}, {"type": "way", "id": 1154778120, "nodes": [10739449977, 10739449978, 10739449979, 10739449980, 10739449977], "tags": {"amenity": "restaurant", "building": "yes", "cuisine": "turkish"}}, {"type": "way", "id": 1163721894, "nodes": [10822763713, 10822763714, 10822763715, 10822763716, 10822763717, 10822763718, 10822763713], "tags": {"amenity": "restaurant", "building": "yes", "name": "Triena", "source": "microsoft/BuildingFootprints"}}, {"type": "way", "id": 1164422172, "nodes": [10829575663, 10829575662, 10829575661, 10829575660, 10829575663], "tags": {"amenity": "cafe", "building": "yes", "building:levels": "2"}}, {"type": "way", "id": 1244886726, "nodes": [11572541068, 11572591869, 11572591870, 11572591871, 11572541068], "tags": {"amenity": "restaurant", "building": "yes", "cuisine": "greek", "name": "\u0397\u03bb\u03b9\u03bf\u03c4\u03c1\u03cc\u03c0\u03b9\u03bf"}}, {"type": "way", "id": 1282411109, "nodes": [11900611557, 11906929673, 11900611558, 11900611559, 11900611568, 11900611560, 11900611557]}, {"type": "way", "id": 1282411110, "nodes": [11900611561, 11900611562, 11900611563, 11900611564, 11900611561], "tags": {"amenity": "restaurant", "building": "yes"}}, {"type": "way", "id": 1282411111, "nodes": [11900611558, 11900611566, 11900611567, 11900611568, 11900611559, 11900611558]}, {"type": "way", "id": 1282430839, "nodes": [11900611566, 11900611567, 11900611555, 11900732171, 11900611566]}, {"type": "way", "id": 1283189600, "nodes": [11906496742, 11906496743, 11906496744, 11906496745, 11906496742], "tags": {"amenity": "restaurant", "building": "yes", "building:levels": "2", "cuisine": "barbecue", "name": "Lucky Horse Shoe"}}, {"type": "way", "id": 1283741688, "nodes": [11910741568, 11910748069, 11910748070, 11910748071, 11910741568], "tags": {"amenity": "restaurant", "building": "yes", "name": "\u03c4\u03bf \u039a\u03ac\u03b4\u03c1\u03bf"}}, {"type": "way", "id": 1296805703, "nodes": [12016470021, 12016470022, 10577239283, 10577239282, 12016470021], "tags": {"amenity": "cafe", "building": "yes", "name": "Zefiros"}}, {"type": "way", "id": 1299939219, "nodes": [12041196139, 12041196132, 12041196131, 12041196140, 12041196139], "tags": {"amenity": "cafe", "building": "yes", "building:levels": "2", "name": "Velero"}}, {"type": "way", "id": 1300752454, "nodes": [12047986625, 12047986626, 12047986627, 12047986628, 12047986625], "tags": {"amenity": "restaurant", "building": "yes", "cuisine": "greek", "name": "The Cuckoo's Nest"}}, {"type": "way", "id": 1303903206, "nodes": [12075334168, 12075335169, 12075335170, 12075335171, 12075334168], "tags": {"addr:city": "\u039c\u03cc\u03bb\u03c5\u03b2\u03bf\u03c2", "addr:postcode": "81108", "addr:street": "\u03a0\u03bb\u03b1\u03c4\u03b5\u03af\u03b1 \u0391\u03bd\u03b4\u03c1\u03ad\u03b1 \u039a\u03c5\u03c1\u03b9\u03ac\u03ba\u03bf\u03c5", "amenity": "restaurant", "building": "yes", "cuisine": "greek", "mobile": "+30 698 8102730", "name": "Tropicana", "opening_hours": "09:30-23:59", "outdoor_seating": "yes", "phone": "+30 22530 71869", "smoking": "outside", "website": "https://www.unique-molivos.com/"}}, {"type": "way", "id": 1303903207, "nodes": [12075335172, 12075335173, 12075335174, 12075335175, 12075335172], "tags": {"addr:city": "\u039c\u03cc\u03bb\u03c5\u03b2\u03bf\u03c2", "addr:postcode": "81108", "addr:street": "\u03a0\u03bb\u03b1\u03c4\u03b5\u03af\u03b1 \u0391\u03bd\u03b4\u03c1\u03ad\u03b1 \u039a\u03c5\u03c1\u03b9\u03ac\u03ba\u03bf\u03c5", "amenity": "restaurant", "building": "yes", "building:levels": "2", "cuisine": "greek", "name": "\u039d\u03b7\u03c3\u03af", "name:en": "Nisi Restaurant", "opening_hours": "10:00-23:30", "phone": "+30 22530 72172", "website": "https://nisirestaurant.gr/"}}, {"type": "way", "id": 1333591575, "nodes": [12338114685, 12338114686, 12338114687, 12338114688, 12338114689, 12338114690, 12338114691, 12338114692, 12338114685], "tags": {"amenity": "restaurant", "building": "yes", "cuisine": "greek", "name": "\u0397 \u03b2\u03c1\u03cd\u03c3\u03b7 \u03c4\u03b7\u03c2 \u0394\u03ac\u03bd\u03c4\u03b7\u03c2"}}, {"type": "relation", "id": 14390323, "members": [{"type": "way", "ref": 914774873, "role": "outer"}, {"type": "way", "ref": 1081623084, "role": "outer"}], "tags": {"amenity": "cafe", "building": "yes", "building:levels": "1", "name": "\u03a0\u03b9", "type": "multipolygon"}}, {"type": "relation", "id": 17739474, "members": [{"type": "way", "ref": 1282411109, "role": "outer"}, {"type": "way", "ref": 1282411111, "role": "outer"}, {"type": "way", "ref": 1282430839, "role": "outer"}], "tags": {"amenity": "restaurant", "building": "yes", "cuisine": "greek", "name": "\u0386\u03b3\u03b3\u03b5\u03bb\u03bf\u03c2", "type": "multipolygon"}}, {"type": "relation", "id": 17774432, "members": [{"type": "way", "ref": 298753794, "role": "outer"}, {"type": "way", "ref": 298753795, "role": "outer"}], "tags": {"addr:city": "\u03a0\u03ad\u03c4\u03c1\u03b1", "addr:postcode": "81109", "amenity": "restaurant", "building": "yes", "building:levels": "2", "cuisine": "greek", "name": "Reef", "opening_hours": "10:00-23:30", "phone": "+30 22530 41488", "type": "multipolygon"}}]}