{"version": 0.6, "generator": "Overpass API 0.7.62.7 375dc00a", "osm3s": {"timestamp_osm_base": "2025-06-14T15:06:54Z", "copyright": "The data included in this document is from www.openstreetmap.org. The data is made available under ODbL."}, "elements": [{"type": "node", "id": 1889173614, "lat": 28.1084338, "lon": 30.7514904, "tags": {"amenity": "restaurant", "cuisine": "kebab", "name": "Bondo'aa", "name:ar": "\u0628\u0646\u062f\u0642\u0629 \u0644\u0644\u0645\u0634\u0648\u064a\u0627\u062a"}}, {"type": "node", "id": 1892479016, "lat": 28.0972774, "lon": 30.7545884, "tags": {"amenity": "cafe"}}, {"type": "node", "id": 1892479024, "lat": 28.0999842, "lon": 30.7552107, "tags": {"amenity": "cafe"}}, {"type": "node", "id": 1892479025, "lat": 28.0992744, "lon": 30.7539286, "tags": {"amenity": "cafe"}}, {"type": "node", "id": 1892479027, "lat": 28.0997322, "lon": 30.7537958, "tags": {"amenity": "cafe"}}, {"type": "node", "id": 1892479029, "lat": 28.0994495, "lon": 30.7543148, "tags": {"amenity": "cafe"}}, {"type": "node", "id": 1892479032, "lat": 28.0979442, "lon": 30.7552705, "tags": {"amenity": "cafe"}}, {"type": "node", "id": 2445781984, "lat": 28.1108327, "lon": 30.7501959, "tags": {"amenity": "restaurant", "cuisine": "crepe", "name": "Creps"}}, {"type": "node", "id": 2445781988, "lat": 28.1106722, "lon": 30.7502048, "tags": {"amenity": "restaurant", "cuisine": "mexican"}}, {"type": "node", "id": 2445781991, "lat": 28.1028366, "lon": 30.7558092, "tags": {"amenity": "cafe"}}, {"type": "node", "id": 5563971058, "lat": 28.1097237, "lon": 30.7506403, "tags": {"amenity": "cafe", "name": "Paccinos cafe"}}, {"type": "node", "id": 5578090151, "lat": 28.1097383, "lon": 30.7506596, "tags": {"amenity": "cafe", "name": "Friday Cafe"}}, {"type": "node", "id": 5612252223, "lat": 28.11124, "lon": 30.75137, "tags": {"amenity": "restaurant", "name:en": "Orkeed Restaurant"}}, {"type": "node", "id": 6056133886, "lat": 28.3057961, "lon": 30.9902851, "tags": {"addr:street": "\u0637\u0631\u064a\u0642 \u0627\u0644\u0642\u0627\u0647\u0631\u0629 \u0627\u0633\u064a\u0648\u0637 \u0627\u0644\u0634\u0631\u0642\u0649", "amenity": "cafe", "name": "\u0643\u0627\u0641\u062a\u0631\u064a\u0627 \u0627\u0644\u0644\u0648\u0627\u0621 \u0662", "name:ar": "\u0643\u0627\u0641\u062a\u0631\u064a\u0627 \u0627\u0644\u0644\u0648\u0627\u0621 \u0662"}}, {"type": "node", "id": 6177181024, "lat": 28.1080999, "lon": 30.7529125, "tags": {"amenity": "cafe", "cuisine": "coffee_shop;international", "name": "Toskanini", "name:de": "Toskanini", "source": "DuMont Reise-Taschenbuch \u00c4gypten - Die klassische Nilreise"}}, {"type": "node", "id": 6177248044, "lat": 28.1068165, "lon": 30.7522328, "tags": {"amenity": "restaurant", "cuisine": "turkish;sandwich", "name": "Crepiano", "outdoor_seating": "no", "source": "DuMont Reise-Taschenbuch \u00c4gypten - Die klassische Nilreise"}}, {"type": "node", "id": 6434032356, "lat": 28.1227591, "lon": 30.7304006}, {"type": "node", "id": 6434032357, "lat": 28.1227248, "lon": 30.7304006}, {"type": "node", "id": 6434032358, "lat": 28.1227189, "lon": 30.7303711}, {"type": "node", "id": 6434032359, "lat": 28.1227709, "lon": 30.7303577}, {"type": "node", "id": 6434032360, "lat": 28.1227638, "lon": 30.7303832}, {"type": "node", "id": 6458000300, "lat": 28.1209283, "lon": 30.7340414, "tags": {"addr:city": "Minya university", "addr:street": "Main street", "amenity": "restaurant", "name": "\u0645\u0637\u0639\u0645 \u0627\u0644\u062c\u0627\u0645\u0639\u0629", "name:ar": "\u0645\u0637\u0639\u0645 \u0627\u0644\u062c\u0627\u0645\u0639\u0629", "opening_hours": "We-Fr 12:00-05:00", "outdoor_seating": "yes"}}, {"type": "node", "id": 6536793877, "lat": 28.1254822, "lon": 30.7310402}, {"type": "node", "id": 6536793878, "lat": 28.1254633, "lon": 30.7309543}, {"type": "node", "id": 6536793879, "lat": 28.1253569, "lon": 30.7309892}, {"type": "node", "id": 6536793880, "lat": 28.1253853, "lon": 30.7310777}, {"type": "node", "id": 10861562229, "lat": 28.0901832, "lon": 30.8104813, "tags": {"amenity": "restaurant", "cuisine": "arab", "name": "Ahmed restaurant"}}, {"type": "node", "id": 10899641826, "lat": 28.0909569, "lon": 30.8150277, "tags": {"amenity": "restaurant", "brand": "fuel", "cuisine": "arab", "fuel:adblue": "yes", "fuel:octane_95": "yes", "microbrewery": "yes", "name": "Ahmed'srestorant", "outdoor_seating": "yes", "payment:routex": "yes"}}, {"type": "node", "id": 10900523786, "lat": 28.0925421, "lon": 30.8120525, "tags": {"amenity": "restaurant", "cuisine": "arab", "name": "Ahmed's restorant", "telecom": "exchange", "telecom:medium": "fibre"}}, {"type": "node", "id": 10900523787, "lat": 28.0921235, "lon": 30.8117902, "tags": {"amenity": "restaurant", "cuisine": "arab", "name": "Ahmed's restorant", "telecom": "exchange", "telecom:medium": "fibre"}}, {"type": "node", "id": 10900523788, "lat": 28.0923769, "lon": 30.8112705, "tags": {"amenity": "restaurant", "cuisine": "arab", "name": "Ahmed's restorant", "telecom": "exchange", "telecom:medium": "fibre"}}, {"type": "node", "id": 10900523789, "lat": 28.0927955, "lon": 30.8115327, "tags": {"amenity": "restaurant", "cuisine": "arab", "name": "Ahmed's restorant", "telecom": "exchange", "telecom:medium": "fibre"}}, {"type": "node", "id": 10931279979, "lat": 28.1164119, "lon": 30.769261}, {"type": "node", "id": 10931279980, "lat": 28.1164122, "lon": 30.7692639}, {"type": "node", "id": 10931279981, "lat": 28.1164705, "lon": 30.769256}, {"type": "node", "id": 10931279982, "lat": 28.1164702, "lon": 30.769253}, {"type": "node", "id": 10931279983, "lat": 28.1164085, "lon": 30.7692288}, {"type": "node", "id": 10931279984, "lat": 28.1164156, "lon": 30.7692959}, {"type": "node", "id": 10931279985, "lat": 28.1164739, "lon": 30.7692879}, {"type": "node", "id": 10931279986, "lat": 28.1164668, "lon": 30.7692209}, {"type": "node", "id": 10931738263, "lat": 28.1620548, "lon": 30.7683726, "tags": {"amenity": "cafe"}}, {"type": "node", "id": 10931912619, "lat": 28.1608798, "lon": 30.7607234}, {"type": "node", "id": 10931912620, "lat": 28.1608289, "lon": 30.7607234}, {"type": "node", "id": 10931912621, "lat": 28.1608289, "lon": 30.7606692}, {"type": "node", "id": 10931912622, "lat": 28.1608735, "lon": 30.7606656}, {"type": "node", "id": 10931963818, "lat": 28.1287647, "lon": 30.7461593}, {"type": "node", "id": 10931963819, "lat": 28.1286712, "lon": 30.7462156}, {"type": "node", "id": 10931963820, "lat": 28.1287694, "lon": 30.7464644}, {"type": "node", "id": 10931963821, "lat": 28.128867, "lon": 30.7464121}, {"type": "node", "id": 10931963848, "lat": 28.1259669, "lon": 30.746009}, {"type": "node", "id": 10931963849, "lat": 28.1259882, "lon": 30.7461324}, {"type": "node", "id": 10931963850, "lat": 28.1260616, "lon": 30.746111}, {"type": "node", "id": 10931963851, "lat": 28.1260379, "lon": 30.7459742}, {"type": "node", "id": 10931963867, "lat": 28.1251426, "lon": 30.7449395}, {"type": "node", "id": 10931963868, "lat": 28.1251337, "lon": 30.7448986}, {"type": "node", "id": 10931963869, "lat": 28.1252472, "lon": 30.7447947}, {"type": "node", "id": 10931963870, "lat": 28.1252691, "lon": 30.7448778}, {"type": "node", "id": 10931963871, "lat": 28.1250562, "lon": 30.7445902}, {"type": "node", "id": 10931963872, "lat": 28.1250894, "lon": 30.744727}, {"type": "node", "id": 10931963873, "lat": 28.1252053, "lon": 30.7446706}, {"type": "node", "id": 10931963874, "lat": 28.1251556, "lon": 30.7445151}, {"type": "node", "id": 10931963876, "lat": 28.1249687, "lon": 30.7443461}, {"type": "node", "id": 10931963877, "lat": 28.1250066, "lon": 30.7444507}, {"type": "node", "id": 10931963878, "lat": 28.1251296, "lon": 30.7443917}, {"type": "node", "id": 10931963879, "lat": 28.1250941, "lon": 30.7442817}, {"type": "node", "id": 10931963880, "lat": 28.1254773, "lon": 30.7460372}, {"type": "node", "id": 10931963881, "lat": 28.1254536, "lon": 30.7459474}, {"type": "node", "id": 10931963882, "lat": 28.1255009, "lon": 30.7459299}, {"type": "node", "id": 10931963883, "lat": 28.1255222, "lon": 30.7460131}, {"type": "node", "id": 12608239272, "lat": 28.227625, "lon": 30.7001645, "tags": {"addr:city": "\u0627\u0644\u0645\u0646\u064a\u0627", "addr:street": "\u0627\u0644\u0634\u0627\u0631\u0639 \u0627\u0644\u0639\u0645\u0648\u0645\u064a", "amenity": "cafe", "cuisine": "\u0643\u0627\u0641\u064a\u0647_\u0645\u0635\u0637\u0641\u0649;coffee_shop", "name": "\u0643\u0627\u0641\u064a\u0647 \u0645\u0635\u0637\u0641\u0649"}}, {"type": "way", "id": 686433895, "nodes": [6434032356, 6434032357, 6434032358, 6434032359, 6434032360, 6434032356], "tags": {"amenity": "cafe", "building": "hut"}}, {"type": "way", "id": 696117508, "nodes": [6536793877, 6536793878, 6536793879, 6536793880, 6536793877], "tags": {"amenity": "cafe", "building": "yes"}}, {"type": "way", "id": 1173170562, "nodes": [10900523789, 10900523786, 10900523787, 10900523788, 10900523789], "tags": {"amenity": "restaurant", "building": "yes", "cuisine": "arab", "name": "Ahmed's restorant", "telecom": "exchange", "telecom:medium": "fibre"}}, {"type": "way", "id": 1176542031, "nodes": [10931279986, 10931279982, 10931279981, 10931279985, 10931279984, 10931279980, 10931279979, 10931279983, 10931279986], "tags": {"amenity": "restaurant", "building": "yes", "name": "\u0645\u0637\u0639\u0645 \u0643\u0630\u0627 \u0645\u064a\u0632\u0629"}}, {"type": "way", "id": 1176630346, "nodes": [10931912619, 10931912620, 10931912621, 10931912622, 10931912619], "tags": {"amenity": "restaurant", "building": "yes", "cuisine": "regional;\u0641\u0648\u0644_\u0648\u0641\u0644\u0627\u0641\u0644", "diet:vegan": "yes", "name": "\u062d\u0633\u064a\u0646"}}, {"type": "way", "id": 1176633896, "nodes": [10931963821, 10931963820, 10931963819, 10931963818, 10931963821], "tags": {"amenity": "cafe", "cuisine": "ice_cream", "delivery": "no", "internet_access": "wlan", "internet_access:fee": "yes", "name": "ABO HALEEBA", "opening_hours": "24/7", "operator": "CAFE", "smoking": "no", "takeaway": "no", "wheelchair": "yes"}}, {"type": "way", "id": 1176633903, "nodes": [10931963851, 10931963850, 10931963849, 10931963848, 10931963851], "tags": {"amenity": "cafe", "cuisine": "ice_cream", "delivery": "no", "internet_access": "yes", "internet_access:fee": "no", "name": "barad shay", "opening_hours": "24/7", "operator": "cafe", "outdoor_seating": "yes", "smoking": "yes", "takeaway": "yes", "wheelchair": "yes"}}, {"type": "way", "id": 1176633908, "nodes": [10931963870, 10931963869, 10931963868, 10931963867, 10931963870], "tags": {"amenity": "restaurant", "cuisine": "arab", "delivery": "yes", "internet_access": "no", "internet_access:fee": "no", "microbrewery": "yes", "name": "SILVER KOUKH RESTAURANT", "opening_hours": "24/7", "opening_hours:kitchen": "24/7", "outdoor_seating": "yes", "reservation": "no", "smoking": "yes", "stars": "1", "takeaway": "yes", "wheelchair": "yes"}}, {"type": "way", "id": 1176633909, "nodes": [10931963874, 10931963873, 10931963872, 10931963871, 10931963874], "tags": {"amenity": "restaurant", "cuisine": "arab", "delivery": "yes", "internet_access": "no", "internet_access:fee": "no", "microbrewery": "yes", "name": "ROSTO FOR GRILLED MEAT AND CHICKEN", "opening_hours": "24/7", "opening_hours:kitchen": "24/7", "outdoor_seating": "yes", "reservation": "no", "smoking": "no", "stars": "3", "takeaway": "only", "wheelchair": "yes"}}, {"type": "way", "id": 1176633910, "nodes": [10931963879, 10931963878, 10931963877, 10931963876, 10931963879], "tags": {"amenity": "cafe", "delivery": "no", "internet_access": "wlan", "internet_access:fee": "yes", "name": "doctor keef cafe", "opening_hours": "24/7", "operator": "coffee shop", "smoking": "yes", "takeaway": "only", "wheelchair": "yes"}}, {"type": "way", "id": 1176633911, "nodes": [10931963883, 10931963882, 10931963881, 10931963880, 10931963883], "tags": {"amenity": "restaurant", "cuisine": "african"}}]}