{"version": 0.6, "generator": "Overpass API 0.7.62.7 375dc00a", "osm3s": {"timestamp_osm_base": "2025-06-14T14:38:18Z", "copyright": "The data included in this document is from www.openstreetmap.org. The data is made available under ODbL."}, "elements": [{"type": "node", "id": 890324696, "lat": 36.7647388, "lon": 21.907921, "tags": {"amenity": "restaurant", "check_date": "2022-08-03", "cuisine": "greek", "name": "Taverna O'Nikos", "phone": "+30 2725 051289"}}, {"type": "node", "id": 926449882, "lat": 36.793402, "lon": 21.9586106, "tags": {"amenity": "restaurant", "name": "Zaga Beach Restaurant", "website": "https://www.koroni.net/"}}, {"type": "node", "id": 1216334964, "lat": 36.7971785, "lon": 21.9569359, "tags": {"amenity": "restaurant", "cuisine": "regional", "name": "Parthenon"}}, {"type": "node", "id": 1278756772, "lat": 36.8089587, "lon": 21.9155978, "tags": {"amenity": "restaurant", "cuisine": "greek", "name": "To Fagopoti"}}, {"type": "node", "id": 1289176709, "lat": 36.780706, "lon": 21.9360694, "tags": {"amenity": "restaurant", "cuisine": "greek", "name": "\u03a4\u03b1\u03b2\u03b5\u03c1\u03bd\u03b1 *To Limanaki*", "note": "temporarily closed"}}, {"type": "node", "id": 1416235128, "lat": 36.7914716, "lon": 21.8935932, "tags": {"amenity": "restaurant", "cuisine": "greek", "name": "\u03a4\u03bf \u03ba\u03b5\u03bb\u03ac\u03c1\u03b9", "phone": "2725041158"}}, {"type": "node", "id": 1416235131, "lat": 36.7921083, "lon": 21.8905374, "tags": {"amenity": "restaurant", "cuisine": "greek", "name": "\u03a4\u03bf \u03ba\u03bf\u03c5\u03c4\u03bf\u03cd\u03ba\u03b9", "phone": "2725041146"}}, {"type": "node", "id": 1416247601, "lat": 36.7873162, "lon": 21.8857221, "tags": {"addr:city": "\u03a7\u03c1\u03c5\u03c3\u03bf\u03ba\u03b5\u03bb\u03bb\u03b1\u03c1\u03b9\u03ac", "addr:postcode": "240 04", "amenity": "restaurant", "cuisine": "greek", "int_name": "Strofes", "name": "\u03a3\u03c4\u03c1\u03bf\u03c6\u03ad\u03c2", "phone": "+302725041584"}}, {"type": "node", "id": 1427369085, "lat": 36.8088375, "lon": 21.9156928, "tags": {"amenity": "cafe"}}, {"type": "node", "id": 1517767531, "lat": 36.7833008, "lon": 21.9385137, "tags": {"addr:postcode": "24004", "addr:street": "Memi Beach", "amenity": "restaurant", "cuisine": "greek", "name": "Taverna 'To Koutsoukos' / Kyani Akti", "website": "https://koutsoukos-koroni.gr/"}}, {"type": "node", "id": 1523500663, "lat": 36.7759089, "lon": 21.9324985, "tags": {"addr:postcode": "24004", "addr:street": "\u039a\u03bf\u03c1\u03ce\u03bd\u03b7-\u039c\u03b5\u03b8\u03ce\u03bd\u03b7", "amenity": "restaurant", "cuisine": "greek", "name": "\u03a4\u03b1\u03b2\u03b5\u03c1\u03bd\u03b1 *\u039a\u03c1\u03c5\u03bf\u03bd\u03ad\u03c1\u03b9*"}}, {"type": "node", "id": 1534207757, "lat": 36.7704194, "lon": 21.9303863, "tags": {"addr:postcode": "24004", "addr:street": "Koroni-Methoni", "amenity": "restaurant", "cuisine": "greek", "name": "Foumaristis Taverna", "phone": "+30 697 232 6754", "source": "local knowledge", "website": "https://www.facebook.com/foumaristis.tavern/"}}, {"type": "node", "id": 1535252017, "lat": 36.7970047, "lon": 21.9592051, "tags": {"amenity": "restaurant", "cuisine": "fish", "name": "Kaggelarios"}}, {"type": "node", "id": 1617644308, "lat": 36.8083426, "lon": 21.9156299, "tags": {"amenity": "restaurant", "cuisine": "italian", "name": "Pizza Lambro"}}, {"type": "node", "id": 1617673467, "lat": 36.8084552, "lon": 21.915486, "tags": {"amenity": "cafe", "name": "Kafenion"}}, {"type": "node", "id": 1617703997, "lat": 36.7968766, "lon": 21.9561228, "tags": {"addr:postcode": "24004", "amenity": "restaurant", "cuisine": "greek", "name": "Bogris 2"}}, {"type": "node", "id": 1617706849, "lat": 36.8249937, "lon": 21.9144453, "tags": {"amenity": "restaurant", "cuisine": "greek", "name": "Tria Asteria"}}, {"type": "node", "id": 1619883634, "lat": 36.8267752, "lon": 21.9311932, "tags": {"amenity": "restaurant", "capacity": "100", "cuisine": "regional", "name": "Restaurant Peroulia"}}, {"type": "node", "id": 1619884767, "lat": 36.8294439, "lon": 21.931692, "tags": {"amenity": "restaurant", "cuisine": "greek", "name": "Akti"}}, {"type": "node", "id": 1619884930, "lat": 36.799667, "lon": 21.9510308, "tags": {"amenity": "restaurant", "cuisine": "greek", "name": "Anna"}}, {"type": "node", "id": 1619886034, "lat": 36.799203, "lon": 21.9415089, "tags": {"amenity": "restaurant", "cuisine": "greek", "name": "Bogris 1"}}, {"type": "node", "id": 1649079795, "lat": 36.797171, "lon": 21.9581993, "tags": {"amenity": "restaurant", "cuisine": "regional", "name": "Barbarossa"}}, {"type": "node", "id": 1649079807, "lat": 36.7970707, "lon": 21.9590027, "tags": {"amenity": "cafe", "internet_access": "wlan", "name": "Versus"}}, {"type": "node", "id": 1649079837, "lat": 36.7969658, "lon": 21.9568081, "tags": {"addr:city": "\u039a\u03bf\u03c1\u03ce\u03bd\u03b7", "addr:postcode": "24004", "amenity": "cafe", "cuisine": "greek", "name": "i Synantisi"}}, {"type": "node", "id": 1649079844, "lat": 36.7971591, "lon": 21.9586878, "tags": {"amenity": "restaurant", "name": "Zorbas"}}, {"type": "node", "id": 1649079855, "lat": 36.7971324, "lon": 21.9585583, "tags": {"addr:postcode": "24004", "amenity": "cafe", "internet_access": "wlan", "internet_access:fee": "no", "name": "Dodoni"}}, {"type": "node", "id": 1649161520, "lat": 36.7971616, "lon": 21.9575932, "tags": {"amenity": "restaurant", "cuisine": "regional", "name": "Ouzeri Apostolopoulos"}}, {"type": "node", "id": 1774801182, "lat": 36.8062195, "lon": 21.8004454, "tags": {"amenity": "restaurant"}}, {"type": "node", "id": 1774803557, "lat": 36.808207, "lon": 21.8018107, "tags": {"amenity": "restaurant"}}, {"type": "node", "id": 1897921780, "lat": 36.863356, "lon": 21.9212866, "tags": {"amenity": "restaurant", "name": "Pizza Valentino"}}, {"type": "node", "id": 1907729543, "lat": 36.8070571, "lon": 21.8192138, "tags": {"amenity": "restaurant", "name": "Happy"}}, {"type": "node", "id": 2442818665, "lat": 36.8178786, "lon": 21.7073858, "tags": {"amenity": "cafe", "internet_access": "wlan", "name": "Ostria", "wheelchair": "yes"}}, {"type": "node", "id": 2442818666, "lat": 36.817957, "lon": 21.7058518, "tags": {"amenity": "restaurant", "name": "Klimataria"}}, {"type": "node", "id": 2442818667, "lat": 36.8178107, "lon": 21.7062154, "tags": {"amenity": "restaurant", "cuisine": "greek", "name": "Nikos", "wheelchair": "no"}}, {"type": "node", "id": 2442818668, "lat": 36.8220194, "lon": 21.7076876, "tags": {"amenity": "restaurant", "name": "\u03a8\u03b7\u03c3\u03c4\u03b1\u03c1\u03b9\u03ac \u03bf \u039d\u03ce\u03bd\u03c4\u03b1\u03c2"}}, {"type": "node", "id": 2442818672, "lat": 36.8220296, "lon": 21.7066811, "tags": {"amenity": "cafe"}}, {"type": "node", "id": 2481353035, "lat": 36.7551024, "lon": 21.8543847}, {"type": "node", "id": 2481353119, "lat": 36.7550764, "lon": 21.854482}, {"type": "node", "id": 2481353170, "lat": 36.7551726, "lon": 21.854414}, {"type": "node", "id": 2481353272, "lat": 36.7551467, "lon": 21.8545113}, {"type": "node", "id": 2649600652, "lat": 36.7971824, "lon": 21.9572059, "tags": {"amenity": "cafe", "name": "Byzantinos"}}, {"type": "node", "id": 2649600667, "lat": 36.7971227, "lon": 21.9584564, "tags": {"amenity": "restaurant", "cuisine": "fish", "name": "Kagkelarios"}}, {"type": "node", "id": 2649600686, "lat": 36.7969437, "lon": 21.9586966, "tags": {"amenity": "restaurant", "cuisine": "regional", "name": "Symposion"}}, {"type": "node", "id": 3127207703, "lat": 36.9130452, "lon": 21.6964627, "tags": {"addr:city": "\u03a0\u03cd\u03bb\u03bf\u03c2", "addr:postcode": "24001", "addr:street": "\u03a0\u03bb\u03b1\u03c4\u03b5\u03af\u03b1 \u03a4\u03c1\u03b9\u03ce\u03bd \u039d\u03b1\u03c5\u03ac\u03c1\u03c7\u03c9\u03bd", "amenity": "restaurant", "cuisine": "\u03a8\u03b7\u03c4\u03bf\u03c0\u03c9\u03bb\u03b5\u03af\u03bf", "name": "\u0393\u03c5\u03c1\u03bf-\u03b3\u03b5\u03cd\u03c3\u03b5\u03b9\u03c2"}}, {"type": "node", "id": 3127223467, "lat": 36.9132327, "lon": 21.6962124, "tags": {"amenity": "cafe"}}, {"type": "node", "id": 3127223468, "lat": 36.9133114, "lon": 21.6961859, "tags": {"amenity": "cafe"}}, {"type": "node", "id": 3127223470, "lat": 36.9136166, "lon": 21.6960625, "tags": {"addr:city": "\u03a0\u03cd\u03bb\u03bf\u03c2", "addr:postcode": "24001", "addr:street": "\u03a0\u03bb\u03b1\u03c4\u03b5\u03af\u03b1 \u03a4\u03c1\u03b9\u03ce\u03bd \u039d\u03b1\u03c5\u03ac\u03c1\u03c7\u03c9\u03bd", "amenity": "cafe", "name": "\u039f \u03a0\u03bb\u03ac\u03c4\u03b1\u03bd\u03bf\u03c2", "operator": "\u03a3\u0395\u03a6\u0395\u03a1\u039b\u0397\u03a3 \u0398 \u0392\u0391\u03a3\u0399\u039b\u0395\u0399\u039f\u03a3", "outdoor_seating": "yes", "phone": "+30 2723 022642", "ref:vatin": "EL024216179"}}, {"type": "node", "id": 3127223471, "lat": 36.9134686, "lon": 21.6961102, "tags": {"amenity": "cafe", "name:en": "Krinos"}}, {"type": "node", "id": 3127240726, "lat": 36.9142092, "lon": 21.6958718, "tags": {"amenity": "restaurant", "check_date": "2023-07-02", "cuisine": "international", "indoor_seating": "yes", "name": "The Griffin", "name:en": "Restaurant", "outdoor_seating": "yes", "smoking": "outside", "wheelchair": "yes"}}, {"type": "node", "id": 3127240727, "lat": 36.9143405, "lon": 21.6957164, "tags": {"amenity": "restaurant", "check_date": "2023-07-02", "cuisine": "italian", "name": "Trattoria di Kokoras", "name:en": "Restaurant", "outdoor_seating": "yes", "wheelchair": "yes"}}, {"type": "node", "id": 3127240728, "lat": 36.914439, "lon": 21.6956471, "tags": {"amenity": "restaurant", "check_date": "2023-07-02", "cuisine": "greek", "name": "O Aetos", "name:en": "Restaurant", "outdoor_seating": "yes", "wheelchair": "yes"}}, {"type": "node", "id": 3127241329, "lat": 36.9143963, "lon": 21.6953789, "tags": {"amenity": "cafe", "name:en": "Cafeteria"}}, {"type": "node", "id": 3127314484, "lat": 36.9142509, "lon": 21.6947283}, {"type": "node", "id": 3127314487, "lat": 36.9138219, "lon": 21.6935208}, {"type": "node", "id": 3673903586, "lat": 36.8033311, "lon": 21.7828735, "tags": {"amenity": "restaurant", "name": "\u039c\u03bf\u03c5\u03c1\u03b9\u03ac"}}, {"type": "node", "id": 3690174318, "lat": 36.8775159, "lon": 21.7224492, "tags": {"amenity": "restaurant", "cuisine": "greek", "name": "\u03a4\u03c1\u03af\u03c7\u03bf\u03c1\u03b4\u03bf", "phone": "+30 694 542 8699"}}, {"type": "node", "id": 3700782847, "lat": 36.9032531, "lon": 21.923762, "tags": {"amenity": "restaurant", "name": "Taverna Sorcates"}}, {"type": "node", "id": 3700782851, "lat": 36.9035298, "lon": 21.9238398, "tags": {"amenity": "restaurant", "name": "Restaurant Veranda"}}, {"type": "node", "id": 3700782852, "lat": 36.9033861, "lon": 21.9237969, "tags": {"amenity": "cafe"}}, {"type": "node", "id": 3700802456, "lat": 36.9033818, "lon": 21.9231588, "tags": {"amenity": "cafe", "name": "Cafe Poseidon"}}, {"type": "node", "id": 3700802457, "lat": 36.9034997, "lon": 21.923191, "tags": {"amenity": "restaurant", "name": "the garden"}}, {"type": "node", "id": 3700802492, "lat": 36.9041367, "lon": 21.9226977, "tags": {"amenity": "restaurant", "name": "Hellas"}}, {"type": "node", "id": 3700838312, "lat": 36.9045465, "lon": 21.9215223, "tags": {"amenity": "restaurant", "name": "Billy's Place"}}, {"type": "node", "id": 3704593470, "lat": 36.8008967, "lon": 21.7445782, "tags": {"amenity": "restaurant", "name": "\u039b\u03ac\u03bc\u03c0\u03b5\u03c2"}}, {"type": "node", "id": 3707945099, "lat": 36.8053926, "lon": 21.8052724, "tags": {"amenity": "restaurant", "cuisine": "greek", "name": "\u0388\u03bb\u03b5\u03bd\u03b1", "name:el": "\u0388\u03bb\u03b5\u03bd\u03b1", "name:en": "Elena", "phone": "2723071235", "website": "https://www.facebook.com/Taverna-Finikounda-Elena-1658158371078758/"}}, {"type": "node", "id": 3711769658, "lat": 36.7969352, "lon": 21.9578232, "tags": {"addr:city": "\u039a\u03bf\u03c1\u03ce\u03bd\u03b7", "addr:postcode": "24004", "addr:street": "\u03a0\u03b5\u03c1\u03b9\u03ba\u03bb\u03ae \u03a1\u03ac\u03bb\u03bb\u03b7", "amenity": "restaurant", "cuisine": "greek", "name": "I Thraka"}}, {"type": "node", "id": 3711800494, "lat": 36.796928, "lon": 21.9584512, "tags": {"addr:city": "\u039a\u03bf\u03c1\u03ce\u03bd\u03b7", "addr:postcode": "24004", "amenity": "restaurant", "cuisine": "greek", "name": "Gianni's Gyros", "takeaway": "yes"}}, {"type": "node", "id": 3721474435, "lat": 36.8179388, "lon": 21.7068551, "tags": {"amenity": "restaurant", "check_date:opening_hours": "2023-10-28", "cuisine": "greek", "diet:halal": "no", "diet:kosher": "no", "diet:vegan": "no", "diet:vegetarian": "yes", "indoor_seating": "yes", "name": "\u03a4\u03bf \u039c\u03b5\u03bb\u03c4\u03ad\u03bc\u03b9", "name:el": "\u03a4\u03bf \u039c\u03b5\u03bb\u03c4\u03ad\u03bc\u03b9", "name:en": "To Meltemi", "opening_hours:signed": "no", "outdoor_seating": "yes", "smoking": "outside", "wheelchair": "yes"}}, {"type": "node", "id": 3721474436, "lat": 36.8179385, "lon": 21.7073274, "tags": {"amenity": "restaurant", "cuisine": "greek", "diet:vegetarian": "yes", "indoor_seating": "yes", "name": "Modon", "outdoor_seating": "yes", "smoking": "outside", "wheelchair": "yes"}}, {"type": "node", "id": 3766885202, "lat": 36.7968374, "lon": 21.9603421, "tags": {"amenity": "restaurant"}}, {"type": "node", "id": 3933010672, "lat": 36.8075587, "lon": 21.8083691, "tags": {"amenity": "restaurant"}}, {"type": "node", "id": 3967739899, "lat": 36.8070424, "lon": 21.8065008, "tags": {"amenity": "cafe"}}, {"type": "node", "id": 3967740455, "lat": 36.8074762, "lon": 21.8079921, "tags": {"amenity": "restaurant"}}, {"type": "node", "id": 3967740471, "lat": 36.8063208, "lon": 21.8054816, "tags": {"amenity": "restaurant"}}, {"type": "node", "id": 4042264427, "lat": 36.8069484, "lon": 21.8059723, "tags": {"amenity": "cafe", "name": "Zacharoplasteio Gardenia"}}, {"type": "node", "id": 4056828897, "lat": 36.8067592, "lon": 21.8056832, "tags": {"amenity": "restaurant", "name": "Medusa pizza caf\u00e9"}}, {"type": "node", "id": 4112410145, "lat": 36.9498785, "lon": 21.7033519}, {"type": "node", "id": 4112410146, "lat": 36.9496814, "lon": 21.703163}, {"type": "node", "id": 4112410147, "lat": 36.9494046, "lon": 21.703662}, {"type": "node", "id": 4112410149, "lat": 36.9495707, "lon": 21.7038138}, {"type": "node", "id": 4284819858, "lat": 36.7965725, "lon": 21.9597536, "tags": {"amenity": "restaurant", "name": "Obelistirion"}}, {"type": "node", "id": 4284853932, "lat": 36.7967517, "lon": 21.9566402, "tags": {"amenity": "restaurant", "name": "Souvlaki"}}, {"type": "node", "id": 4297207967, "lat": 36.755342, "lon": 21.854816, "tags": {"air_conditioning": "no", "amenity": "restaurant", "bar": "no", "check_date": "2023-08-15", "cuisine": "greek", "highchair": "no", "microbrewery": "no", "name": "Tsapi", "outdoor_seating": "yes", "payment:mastercard": "yes", "payment:visa": "yes", "smoking": "separated", "toilets": "yes", "toilets:wheelchair": "yes"}}, {"type": "node", "id": 4349060595, "lat": 36.8071054, "lon": 21.806119, "tags": {"amenity": "restaurant", "name": "Stravosougias"}}, {"type": "node", "id": 4350134591, "lat": 36.8177994, "lon": 21.7068023, "tags": {"amenity": "restaurant", "cuisine": "greek", "indoor_seating": "yes", "level": "0", "name": "\u0398\u03ac\u03bb\u03b1\u03c3\u03c3\u03b1", "name:el": "\u0398\u03ac\u03bb\u03b1\u03c3\u03c3\u03b1", "name:en": "Thalassa", "operator": "\u03a3\u0391\u039c\u0391\u03a1\u0391 \u0392 \u0395\u03a5\u0393\u0395\u039d\u0399\u0391", "outdoor_seating": "yes", "phone": "+30 2723 031773", "ref:vatin": "EL110566239", "smoking": "outside", "wheelchair": "yes"}}, {"type": "node", "id": 4351528873, "lat": 36.8072818, "lon": 21.805233, "tags": {"amenity": "restaurant", "cuisine": "pizza", "name": "La Foca", "opening_hours": "Mo-Su 18:00-24:00", "phone": "2723071410"}}, {"type": "node", "id": 4354767900, "lat": 36.8070938, "lon": 21.8062607, "tags": {"amenity": "restaurant", "name": "\u03a4\u03bf \u039a\u03cd\u03bc\u03b1"}}, {"type": "node", "id": 4507157103, "lat": 36.7965426, "lon": 21.9598571, "tags": {"amenity": "restaurant", "name": "Maria"}}, {"type": "node", "id": 4776146672, "lat": 36.9491358, "lon": 21.7043224, "tags": {"addr:city": "\u0393\u03b9\u03ac\u03bb\u03bf\u03b2\u03b1", "addr:postcode": "24001", "amenity": "restaurant", "cuisine": "greek", "name": "\u03ba\u03bf\u03c7\u03cd\u03bb\u03b9", "name:el": "\u03ba\u03bf\u03c7\u03cd\u03bb\u03b9", "name:en": "Fish Restaurant", "phone": "+30 2723023259"}}, {"type": "node", "id": 5007719731, "lat": 36.914656, "lon": 21.6974816, "tags": {"addr:housenumber": "6", "addr:street": "EO Pilou Kalamatas 6", "amenity": "restaurant", "name": "Koukous", "name:de": "koukos"}}, {"type": "node", "id": 5100817221, "lat": 36.7993852, "lon": 21.9524581, "tags": {"amenity": "restaurant", "cuisine": "greek", "name": "\u0391\u03c1\u03c4\u03b1\u03ba\u03b9", "name:el": "\u0391\u03c1\u03c4\u03b1\u03ba\u03b9", "name:en": "Artaki"}}, {"type": "node", "id": 5103929621, "lat": 36.8168621, "lon": 21.7163375, "tags": {"amenity": "restaurant", "cuisine": "greek", "name": "\u039a\u03b1\u03c6\u03ad \u0395\u03c3\u03c4\u03b9\u03b1\u03c4\u03cc\u03c1\u03b9\u03bf Camping Methonis", "name:el": "\u039a\u03b1\u03c6\u03ad \u0395\u03c3\u03c4\u03b9\u03b1\u03c4\u03cc\u03c1\u03b9\u03bf Camping Methonis", "name:en": "Kafe Estiatorio Camping Methonis"}}, {"type": "node", "id": 5149585116, "lat": 36.8331205, "lon": 21.7692226, "tags": {"amenity": "restaurant"}}, {"type": "node", "id": 5321513939, "lat": 36.9137453, "lon": 21.6935475}, {"type": "node", "id": 5321513940, "lat": 36.9137845, "lon": 21.6937239}, {"type": "node", "id": 5321513941, "lat": 36.9138612, "lon": 21.6936972}, {"type": "node", "id": 5321513958, "lat": 36.9141611, "lon": 21.694737}, {"type": "node", "id": 5321513959, "lat": 36.9141696, "lon": 21.6948739}, {"type": "node", "id": 5321513960, "lat": 36.9142594, "lon": 21.6948652}, {"type": "node", "id": 5433124620, "lat": 36.9501511, "lon": 21.7023241, "tags": {"amenity": "restaurant", "name": "\u0395\u03bb\u03b9\u03ac"}}, {"type": "node", "id": 5433124821, "lat": 36.950256, "lon": 21.702028, "tags": {"amenity": "restaurant", "name": "Namaste"}}, {"type": "node", "id": 5433124822, "lat": 36.9497998, "lon": 21.7030018, "tags": {"amenity": "restaurant", "name": "\u039c\u03ad\u03b1\u03bd\u03b4\u03c1\u03bf\u03c2"}}, {"type": "node", "id": 5433124823, "lat": 36.9499876, "lon": 21.7026538, "tags": {"amenity": "restaurant", "name": "\u039c\u03c0\u03bb\u03ad \u0393\u03b9\u03b1\u03bb\u03cc\u03c2"}}, {"type": "node", "id": 5433124824, "lat": 36.9505016, "lon": 21.7012371, "tags": {"amenity": "restaurant"}}, {"type": "node", "id": 5670389724, "lat": 36.9498891, "lon": 21.7028341, "tags": {"amenity": "restaurant", "name:en": "La cucina italiana"}}, {"type": "node", "id": 5670410822, "lat": 36.9503823, "lon": 21.7008493, "tags": {"amenity": "restaurant", "name:en": "Restaurant Natura"}}, {"type": "node", "id": 5784268554, "lat": 36.950419, "lon": 21.7009824, "tags": {"amenity": "restaurant", "name:en": "Restaurant Natura"}}, {"type": "node", "id": 5784274153, "lat": 36.9500928, "lon": 21.7024767, "tags": {"amenity": "restaurant", "name:en": "La Cucina Italians"}}, {"type": "node", "id": 5784274253, "lat": 36.9499293, "lon": 21.7027486, "tags": {"amenity": "restaurant", "name:en": "Blue Gialos"}}, {"type": "node", "id": 5822832557, "lat": 36.7648922, "lon": 21.9090104, "tags": {"amenity": "cafe"}}, {"type": "node", "id": 5822832558, "lat": 36.7650378, "lon": 21.90757, "tags": {"amenity": "cafe", "name": "\u03a3\u03c9\u03c4\u03ae\u03c1\u03b7\u03c2", "name:el": "\u03a3\u03c9\u03c4\u03ae\u03c1\u03b7\u03c2", "name:en": "Sotiris"}}, {"type": "node", "id": 5927867496, "lat": 36.8141638, "lon": 21.7197483, "tags": {"amenity": "cafe"}}, {"type": "node", "id": 6502285442, "lat": 36.9246915, "lon": 21.9331713, "tags": {"addr:housenumber": "Rizomilou-Koronis,", "addr:postcode": "240 05", "addr:street": "Epar.Od.", "amenity": "restaurant", "cuisine": "local;greek", "name": "\u039f \u0392\u03a1\u0391\u03a7\u039f\u03a3 (O Vrachos - The Rock)"}}, {"type": "node", "id": 6522130426, "lat": 36.818627, "lon": 21.8501197, "tags": {"amenity": "restaurant", "cuisine": "regional", "name": "Messinias"}}, {"type": "node", "id": 6612916823, "lat": 36.8064031, "lon": 21.8005574, "tags": {"amenity": "restaurant", "name": "Theoni's Corner"}}, {"type": "node", "id": 6612921467, "lat": 36.804961, "lon": 21.7983457, "tags": {"amenity": "restaurant", "name": "Mytilini"}}, {"type": "node", "id": 6612926948, "lat": 36.8061699, "lon": 21.8005761, "tags": {"amenity": "restaurant"}}, {"type": "node", "id": 6681757685, "lat": 36.946009, "lon": 21.7086404, "tags": {"amenity": "restaurant"}}, {"type": "node", "id": 6689123187, "lat": 36.924943, "lon": 21.9328178, "tags": {"amenity": "restaurant"}}, {"type": "node", "id": 6695735440, "lat": 36.8633149, "lon": 21.9208551, "tags": {"amenity": "restaurant", "cuisine": "pita", "name": "Serifis"}}, {"type": "node", "id": 6774811063, "lat": 36.8225693, "lon": 21.893539, "tags": {"amenity": "restaurant", "name": "Agia Peagia"}}, {"type": "node", "id": 7137145892, "lat": 36.8025644, "lon": 21.7809014, "tags": {"amenity": "cafe"}}, {"type": "node", "id": 7137145899, "lat": 36.8027394, "lon": 21.7807672, "tags": {"amenity": "restaurant"}}, {"type": "node", "id": 7840527786, "lat": 36.9016259, "lon": 21.9224704, "tags": {"amenity": "restaurant", "cuisine": "greek", "internet_access": "wlan", "name:en": "Aphrodite", "name:sk": "Afrodita"}}, {"type": "node", "id": 7872709986, "lat": 36.9136691, "lon": 21.6968588, "tags": {"amenity": "cafe", "name:en": "CUPALLOU"}}, {"type": "node", "id": 7872709987, "lat": 36.9136192, "lon": 21.6968375, "tags": {"amenity": "cafe", "indoor_seating": "yes", "name": "\u0395\u03b8\u03bf\u03c2", "outdoor_seating": "yes", "smoking": "outside", "wheelchair": "limited"}}, {"type": "node", "id": 7932162630, "lat": 36.9107201, "lon": 21.9280845}, {"type": "node", "id": 7932162631, "lat": 36.9106527, "lon": 21.9282051}, {"type": "node", "id": 7932162632, "lat": 36.9105419, "lon": 21.9281083}, {"type": "node", "id": 7932162633, "lat": 36.9106092, "lon": 21.9279877}, {"type": "node", "id": 8792352366, "lat": 36.8066924, "lon": 21.8055047, "tags": {"amenity": "restaurant", "name": "Omega"}}, {"type": "node", "id": 8792352367, "lat": 36.8066476, "lon": 21.8054466, "tags": {"amenity": "restaurant", "name": "Aris"}}, {"type": "node", "id": 8792352368, "lat": 36.8065018, "lon": 21.80542, "tags": {"amenity": "restaurant", "cuisine": "fish", "name:en": "The 5 FFFFF"}}, {"type": "node", "id": 8792352369, "lat": 36.8064333, "lon": 21.8053518, "tags": {"amenity": "restaurant", "name": "Dionysos"}}, {"type": "node", "id": 8792352371, "lat": 36.8066441, "lon": 21.8055659, "tags": {"amenity": "restaurant", "name": "Vourliotis"}}, {"type": "node", "id": 8792475780, "lat": 36.8072146, "lon": 21.8058588, "tags": {"amenity": "restaurant", "name": "Estiatorio"}}, {"type": "node", "id": 8792485719, "lat": 36.8070241, "lon": 21.8061002, "tags": {"amenity": "restaurant", "name": "Ploes"}}, {"type": "node", "id": 8792507408, "lat": 36.807345, "lon": 21.8070151, "tags": {"amenity": "restaurant", "name": "To Karavi"}}, {"type": "node", "id": 8792507411, "lat": 36.8074233, "lon": 21.8072701, "tags": {"amenity": "cafe", "name": "Gusto"}}, {"type": "node", "id": 8795137480, "lat": 36.8090914, "lon": 21.8033476, "tags": {"amenity": "cafe", "shop": "convenience"}}, {"type": "node", "id": 8797444957, "lat": 36.8087464, "lon": 21.8062204, "tags": {"amenity": "cafe", "name": "Vitorio"}}, {"type": "node", "id": 8948948620, "lat": 36.9501913, "lon": 21.7015716, "tags": {"amenity": "restaurant", "name:en": "Carne"}}, {"type": "node", "id": 8949300717, "lat": 36.9503751, "lon": 21.7016604, "tags": {"amenity": "restaurant", "name:de": "carne", "name:en": "carne"}}, {"type": "node", "id": 8978935599, "lat": 36.8026848, "lon": 21.8241779, "tags": {"amenity": "cafe", "name": "Caf\u00e9"}}, {"type": "node", "id": 8978936721, "lat": 36.7989439, "lon": 21.8427328, "tags": {"amenity": "cafe", "name": "Caf\u00e9 Nion"}}, {"type": "node", "id": 8989513951, "lat": 36.7989851, "lon": 21.8426633, "tags": {"amenity": "cafe", "name": "Pantopoleio"}}, {"type": "node", "id": 9068908097, "lat": 36.9282916, "lon": 21.903796, "tags": {"amenity": "restaurant", "cuisine": "greek", "name": "\u039f \u03a0\u03bb\u03ac\u03c4\u03b1\u03bd\u03bf\u03c2", "opening_hours": "19:00-00:00"}}, {"type": "node", "id": 9127846017, "lat": 36.913924, "lon": 21.694152, "tags": {"amenity": "restaurant", "name": "Fifty Fifty"}}, {"type": "node", "id": 9320808720, "lat": 36.8777736, "lon": 21.7843426, "tags": {"amenity": "cafe", "name:de": "Kiosk", "name:en": "Small shop"}}, {"type": "node", "id": 9777134073, "lat": 36.8095875, "lon": 21.7701522}, {"type": "node", "id": 9777134074, "lat": 36.8095694, "lon": 21.770187}, {"type": "node", "id": 9777134075, "lat": 36.8095476, "lon": 21.7701734}, {"type": "node", "id": 9777134076, "lat": 36.8094592, "lon": 21.770314}, {"type": "node", "id": 9777134077, "lat": 36.8094096, "lon": 21.7702762}, {"type": "node", "id": 9777134078, "lat": 36.8095125, "lon": 21.7700887}, {"type": "node", "id": 9783705224, "lat": 36.8192309, "lon": 21.7108425}, {"type": "node", "id": 9783705225, "lat": 36.8191821, "lon": 21.7110385}, {"type": "node", "id": 9783705226, "lat": 36.819077, "lon": 21.7109976}, {"type": "node", "id": 9783705227, "lat": 36.8191258, "lon": 21.7108016}, {"type": "node", "id": 10017490117, "lat": 36.8218725, "lon": 21.7064784, "tags": {"amenity": "restaurant", "cuisine": "greek", "name": "Al\u00e9kt\u014dr"}}, {"type": "node", "id": 10275525695, "lat": 36.7969474, "lon": 21.9568836, "tags": {"amenity": "cafe"}}, {"type": "node", "id": 10696836862, "lat": 36.8042244, "lon": 21.823174}, {"type": "node", "id": 10696836863, "lat": 36.8041367, "lon": 21.8231178}, {"type": "node", "id": 10696836864, "lat": 36.8040715, "lon": 21.8232764}, {"type": "node", "id": 10696836865, "lat": 36.8041592, "lon": 21.8233327}, {"type": "node", "id": 10907613105, "lat": 36.8178246, "lon": 21.7074852, "tags": {"amenity": "cafe", "name:de": "Sureal", "name:en": "Sureal"}}, {"type": "node", "id": 11019687742, "lat": 36.9139129, "lon": 21.6959609, "tags": {"amenity": "restaurant", "check_date": "2023-07-02", "cuisine": "italian", "indoor_seating": "yes", "name": "La Piazza", "outdoor_seating": "yes", "wheelchair": "yes"}}, {"type": "node", "id": 11155328044, "lat": 36.8178166, "lon": 21.7060747}, {"type": "node", "id": 11155328045, "lat": 36.8178514, "lon": 21.7059704}, {"type": "node", "id": 11155938352, "lat": 36.8183089, "lon": 21.7103732}, {"type": "node", "id": 11155938353, "lat": 36.8182767, "lon": 21.7105073}, {"type": "node", "id": 11155938354, "lat": 36.818332, "lon": 21.710528}, {"type": "node", "id": 11155938355, "lat": 36.8183642, "lon": 21.7103939}, {"type": "node", "id": 11156222517, "lat": 36.8178631, "lon": 21.7060989}, {"type": "node", "id": 11156222518, "lat": 36.8178979, "lon": 21.7059946}, {"type": "node", "id": 11245268837, "lat": 36.8170978, "lon": 21.7065732, "tags": {"amenity": "restaurant", "internet_access": "wlan", "name:en": "Methoni Beach Cafe Restaurant", "website": "https://methonibeachhotel.gr/"}}, {"type": "node", "id": 12041636542, "lat": 36.9127974, "lon": 21.6915782, "tags": {"amenity": "cafe"}}, {"type": "node", "id": 12442289915, "lat": 36.9135264, "lon": 21.6961035, "tags": {"addr:city": "\u03a0\u03cd\u03bb\u03bf\u03c2", "addr:postcode": "24001", "amenity": "restaurant", "name": "Souvlista", "opening_hours": "Mo-Su 10:30-23:45", "phone": "+302723023870"}}, {"type": "way", "id": 240396512, "nodes": [2481353272, 2481353119, 2481353035, 2481353170, 2481353272], "tags": {"amenity": "restaurant", "building": "yes", "cuisine": "greek", "name": "Maria"}}, {"type": "way", "id": 409327346, "nodes": [4112410145, 4112410146, 4112410147, 4112410149, 4112410145], "tags": {"amenity": "cafe", "building": "yes", "internet_access": "yes", "name": "Kaffeeneion n Aktn", "smoking": "outside"}}, {"type": "way", "id": 551009036, "nodes": [3127314487, 5321513939, 5321513940, 5321513941, 3127314487], "tags": {"addr:city": "\u03a0\u03cd\u03bb\u03bf\u03c2", "addr:postcode": "24001", "amenity": "restaurant", "building": "yes", "cuisine": "greek", "name": "\u039f\u03b9 \u03c4\u03ad\u03c3\u03c3\u03b5\u03c1\u03b9\u03c2 \u03b5\u03c0\u03bf\u03c7\u03ad\u03c2", "name:el": "\u039f\u03b9 \u03c4\u03ad\u03c3\u03c3\u03b5\u03c1\u03b9\u03c2 \u03b5\u03c0\u03bf\u03c7\u03ad\u03c2", "name:en": "Four seasons"}}, {"type": "way", "id": 551009041, "nodes": [3127314484, 5321513958, 5321513959, 5321513960, 3127314484], "tags": {"addr:city": "\u03a0\u03cd\u03bb\u03bf\u03c2", "addr:postcode": "24001", "amenity": "restaurant", "building": "yes", "cuisine": "greek", "name": "Poseidonia", "name:en": "Poseidonia", "outdoor_seating": "no", "phone": "+30 694 450 1629", "website": "https://pylosposeidonia.gr/", "wheelchair": "yes"}}, {"type": "way", "id": 850236244, "nodes": [7932162630, 7932162631, 7932162632, 7932162633, 7932162630], "tags": {"amenity": "restaurant", "building": "yes", "name": "Maistrali"}}, {"type": "way", "id": 1064589073, "nodes": [9777134073, 9777134074, 9777134075, 9777134076, 9777134077, 9777134078, 9777134073], "tags": {"addr:city": "Kamaria", "amenity": "restaurant", "building": "yes", "cuisine": "greek;regional", "name": "\u0391\u03c0\u03cc\u03bb\u03b1\u03c5\u03c3\u03b7", "name:el": "\u0391\u03c0\u03cc\u03bb\u03b1\u03c5\u03c3\u03b7", "name:en": "Apolafsi"}}, {"type": "way", "id": 1065306253, "nodes": [9783705224, 9783705225, 9783705226, 9783705227, 9783705224], "tags": {"addr:city": "Methoni", "addr:postcode": "24006", "amenity": "restaurant", "building": "yes", "cuisine": "greek", "name": "\u03a3\u03b1\u03c0\u03b9\u03ad\u03bd\u03c4\u03b6\u03b1", "name:el": "\u03a3\u03b1\u03c0\u03b9\u03ad\u03bd\u03c4\u03b6\u03b1", "name:en": "Sapientza", "phone": "2723 031459", "website": "https://www.facebook.com/Sapientza-Restaurant-572260336223485/"}}, {"type": "way", "id": 1149863662, "nodes": [10696836862, 10696836863, 10696836864, 10696836865, 10696836862], "tags": {"amenity": "restaurant", "building": "yes", "name": "Kantina"}}, {"type": "way", "id": 1203403648, "nodes": [11156222518, 11156222517, 11155328044, 11155328045, 11156222518], "tags": {"amenity": "restaurant", "building": "yes", "indoor_seating": "yes", "name": "\u0391\u03c5\u03bb\u03ae", "name:de": "Avli Gastro Bar", "name:el": "\u0391\u03c5\u03bb\u03ae", "name:en": "Avli Gastro Bar", "outdoor_seating": "yes", "wheelchair": "no"}}, {"type": "way", "id": 1203479832, "nodes": [11155938355, 11155938354, 11155938353, 11155938352, 11155938355], "tags": {"amenity": "restaurant", "building": "yes", "cuisine": "greek", "name": "\u0391\u03ba\u03c4\u03ae", "outdoor_seating": "yes"}}]}