{"version": 0.6, "generator": "Overpass API 0.7.62.7 375dc00a", "osm3s": {"timestamp_osm_base": "2025-06-14T15:17:02Z", "copyright": "The data included in this document is from www.openstreetmap.org. The data is made available under ODbL."}, "elements": [{"type": "node", "id": 403876385, "lat": 35.5955522, "lon": 35.7606087, "tags": {"alt_name": "\u0623\u0628\u0648 \u0643\u0645\u0627\u0644", "amenity": "restaurant", "name": "\u0623\u0628\u0648 \u0643\u0645\u0627\u0644", "name:ar": "\u0623\u0628\u0648 \u0643\u0645\u0627\u0644", "name:en": "Abu Kamal"}}, {"type": "node", "id": 1426879700, "lat": 35.6569499, "lon": 35.9208483, "tags": {"amenity": "restaurant"}}, {"type": "node", "id": 5241036821, "lat": 35.6001968, "lon": 35.7802542, "tags": {"amenity": "restaurant", "name": "\u0645\u0637\u0639\u0645 \u0627\u0644\u0628\u0631\u062c", "name:ar": "\u0645\u0637\u0639\u0645 \u0627\u0644\u0628\u0631\u062c"}}, {"type": "node", "id": 6278725485, "lat": 35.6003773, "lon": 35.7821555, "tags": {"amenity": "restaurant", "name": "\u062a\u0646\u0648\u0631 \u0648 \u0645\u0637\u0639\u0645 \u0623\u064a\u0627\u0645 \u0632\u0645\u0627\u0646"}}, {"type": "node", "id": 6342594288, "lat": 35.6003798, "lon": 35.7818667, "tags": {"amenity": "restaurant", "cuisine": "mediterranean", "email": "zizouhaddad@gmail.com", "internet_access": "wlan", "name": "\u0645\u0637\u0639\u0645 \u0648 \u062a\u0646\u0648\u0631 \u0623\u064a\u0627\u0645 \u0632\u0645\u0627\u0646", "opening_hours": "Mo-Su 01:00-14:00", "phone": "00963936140123"}}, {"type": "node", "id": 6610655485, "lat": 35.5940802, "lon": 35.7598201, "tags": {"amenity": "restaurant", "name": "\u0623\u0628\u0648 \u0627\u0644\u0645\u062c\u062f ( \u0627\u0644\u0643\u0648\u062e )", "name:en": "Abu Almajd"}}, {"type": "node", "id": 6855657087, "lat": 35.7099487, "lon": 35.8711885, "tags": {"amenity": "restaurant", "name": "\u0631\u0648\u0627\u0642", "name:en": "Rawaq"}}, {"type": "node", "id": 6858614685, "lat": 35.715829, "lon": 35.8828563, "tags": {"amenity": "restaurant", "name": "\u0627\u0628\u0648 \u064a\u0627\u0633\u0631", "name:en": "Abu Yaser"}}, {"type": "node", "id": 6950490186, "lat": 35.6171341, "lon": 35.8069615, "tags": {"amenity": "restaurant", "name": "\u0627\u0628\u0648 \u064a\u0632\u0646"}}, {"type": "node", "id": 7688421585, "lat": 35.6493666, "lon": 35.9217827, "tags": {"amenity": "restaurant", "name": "\u0634\u0637 \u0627\u0644\u0628\u062d\u064a\u0631\u0647", "name:en": "Shat albouhera", "operator": "\u0634\u0639\u0628\u064a"}}, {"type": "node", "id": 9090943717, "lat": 35.9249833, "lon": 35.9829591, "tags": {"amenity": "restaurant", "name": "\u0645\u0637\u0639\u0645 \u0627\u0644\u0642\u0644\u0639\u0629 \u0643\u0633\u0628", "name:ar": "\u0645\u0637\u0639\u0645 \u0627\u0644\u0642\u0644\u0639\u0629 \u0643\u0633\u0628", "name:fr": "Restaurant El Qalaat Kassab"}}, {"type": "node", "id": 10050853531, "lat": 35.5940891, "lon": 35.759442, "tags": {"amenity": "restaurant", "name": "\u0645\u0637\u0639\u0645 \u0623\u0628\u0648 \u062f\u0631\u064a\u062f"}}, {"type": "node", "id": 10050893718, "lat": 35.5959398, "lon": 35.761079, "tags": {"amenity": "restaurant", "name": "\u0646\u0633\u064a\u0645 \u0627\u0644\u0628\u062d\u0631"}}, {"type": "node", "id": 10179041519, "lat": 35.6709545, "lon": 35.9456195, "tags": {"amenity": "restaurant", "name": "\u0645\u0637\u0639\u0645 \u0627\u0644\u0648\u0627\u062f\u064a \u0627\u0644\u0627\u062e\u0636\u0631"}}, {"type": "node", "id": 10184217819, "lat": 35.6499974, "lon": 35.9277761, "tags": {"amenity": "restaurant", "name": "\u0645\u0637\u0639\u0645 \u0627\u0644\u0635\u0641\u0635\u0627\u0641"}}, {"type": "node", "id": 11019786605, "lat": 35.9283793, "lon": 35.9873399, "tags": {"amenity": "restaurant", "name": "\u0645\u0637\u0639\u0645 \u0644\u064a\u0644\u064a\u0643\u064a\u0627 m&h"}}, {"type": "node", "id": 11019786705, "lat": 35.5988538, "lon": 36.1331997, "tags": {"amenity": "restaurant", "name": "\u0645\u0637\u0639\u0645 \u0627\u0644\u0645\u062d\u0628\u0629 \u0635\u0644\u0646\u0641\u0629 m&h"}}, {"type": "node", "id": 11212639437, "lat": 35.6001935, "lon": 35.7766461, "tags": {"amenity": "restaurant", "name": "\u0645\u0637\u0639\u0645 \u0647\u0648\u0627\u0646\u0627 \u0631\u0627\u0633 \u0634\u0645\u0631\u0627 m&h"}}, {"type": "node", "id": 12328430502, "lat": 35.5875101, "lon": 35.7893038, "tags": {"amenity": "restaurant", "name:en": "\u063a\u0646\u062f\u0648\u0631 \u0627\u0644\u0635\u0646\u0627\u0639\u0629"}}, {"type": "node", "id": 12500625113, "lat": 35.9243383, "lon": 35.9922865, "tags": {"amenity": "restaurant"}}]}