{"version": 0.6, "generator": "Overpass API 0.7.62.7 375dc00a", "osm3s": {"timestamp_osm_base": "2025-06-14T13:49:28Z", "copyright": "The data included in this document is from www.openstreetmap.org. The data is made available under ODbL."}, "elements": [{"type": "node", "id": 267170051, "lat": 42.5957136, "lon": 11.8640117, "tags": {"amenity": "restaurant", "cuisine": "fish", "name": "Oasi del Pescatore"}}, {"type": "node", "id": 441149474, "lat": 42.5113753, "lon": 11.7749921, "tags": {"amenity": "cafe", "name": "Eldorado"}}, {"type": "node", "id": 441149480, "lat": 42.5099327, "lon": 11.7705718, "tags": {"amenity": "cafe", "name": "Luisella"}}, {"type": "node", "id": 705348232, "lat": 42.4542311, "lon": 11.420422, "tags": {"amenity": "restaurant", "name": "Osteria al Vecchio Comune"}}, {"type": "node", "id": 712000316, "lat": 42.4537239, "lon": 11.4223848, "tags": {"addr:housenumber": "3", "addr:street": "Piazza della Provvidenza", "amenity": "restaurant", "cuisine": "pizza", "name": "L'Angolo di Capalbio", "opening_hours": "Tu-Su 12:00-14:45, 19:00-23:45", "phone": "+39 0564 896919"}}, {"type": "node", "id": 1100661653, "lat": 42.6448798, "lon": 11.8560778, "tags": {"addr:city": "Gradoli", "addr:housenumber": "15", "addr:street": "Via Roma", "amenity": "cafe", "name": "Bar Farnese", "phone": "+39 0761 456090"}}, {"type": "node", "id": 1100803479, "lat": 42.634538, "lon": 11.6678896, "tags": {"addr:city": "Pitigliano", "addr:housenumber": "6", "addr:street": "Via Roma", "amenity": "cafe", "name": "Bar Centrale"}}, {"type": "node", "id": 1129358303, "lat": 42.4235763, "lon": 11.6294705}, {"type": "node", "id": 1129358389, "lat": 42.4235453, "lon": 11.6296349}, {"type": "node", "id": 1129358416, "lat": 42.4235794, "lon": 11.6293996}, {"type": "node", "id": 1129358754, "lat": 42.4235525, "lon": 11.6294686}, {"type": "node", "id": 1129358779, "lat": 42.4235062, "lon": 11.6293937}, {"type": "node", "id": 1129359184, "lat": 42.4235031, "lon": 11.6294647}, {"type": "node", "id": 1129359233, "lat": 42.4234959, "lon": 11.6296309}, {"type": "node", "id": 1383505481, "lat": 42.5089917, "lon": 11.7698004, "tags": {"amenity": "cafe", "cuisine": "coffee_shop", "name": "Barretto", "wifi": "no"}}, {"type": "node", "id": 1783637750, "lat": 42.5868062, "lon": 11.5145825, "tags": {"amenity": "restaurant", "cuisine": "italian", "indoor_seating": "yes", "name": "Trattoria Il Rifugio", "opening_hours": "Th-Tu 12:00-14:30,19:00-22:00", "outdoor_seating": "yes", "payment:credit_cards": "yes", "payment:debit_cards": "yes", "start_date": "1981"}}, {"type": "node", "id": 1857153100, "lat": 42.5871475, "lon": 11.5142194, "tags": {"amenity": "restaurant", "cuisine": "italian", "name": "La Filanda", "website": "https://www.lafilanda.biz/"}}, {"type": "node", "id": 1936452596, "lat": 42.5764311, "lon": 11.4434911, "tags": {"amenity": "restaurant", "name": "L'etruska"}}, {"type": "node", "id": 1936551441, "lat": 42.4544987, "lon": 11.4198259, "tags": {"addr:city": "Capalbio", "addr:housenumber": "1", "addr:street": "Via Vittorio Emanuele II", "amenity": "restaurant", "cuisine": "italian", "name": "La Porta"}}, {"type": "node", "id": 2219852480, "lat": 42.6203036, "lon": 11.491771, "tags": {"amenity": "restaurant", "internet_access": "no", "name": "Cacio e Vino", "phone": "+39 0564 602939", "stars": "1"}}, {"type": "node", "id": 2219852483, "lat": 42.6199681, "lon": 11.4916827, "tags": {"amenity": "restaurant", "internet_access": "no", "name": "Il Nibbio", "stars": "1"}}, {"type": "node", "id": 2329413541, "lat": 42.6344727, "lon": 11.6699823, "tags": {"amenity": "cafe", "indoor_seating": "yes", "name": "La Mandragola", "outdoor_seating": "yes"}}, {"type": "node", "id": 2493017675, "lat": 42.4147824, "lon": 11.35182}, {"type": "node", "id": 2493017676, "lat": 42.4147844, "lon": 11.3516229}, {"type": "node", "id": 2493017680, "lat": 42.414856, "lon": 11.3518213}, {"type": "node", "id": 2493017684, "lat": 42.414858, "lon": 11.3516242}, {"type": "node", "id": 2915134876, "lat": 42.4546066, "lon": 11.4197425, "tags": {"addr:housenumber": "17", "addr:street": "Via Vittorio Emanuele II", "amenity": "restaurant", "cuisine": "italian", "name": "Osteria al Pozzo", "phone": "+39 0564 896780"}}, {"type": "node", "id": 2915134891, "lat": 42.4898997, "lon": 11.3519078}, {"type": "node", "id": 2915134892, "lat": 42.4899431, "lon": 11.3517814}, {"type": "node", "id": 2915134893, "lat": 42.4897891, "lon": 11.3516829}, {"type": "node", "id": 2915134894, "lat": 42.4897458, "lon": 11.3518093}, {"type": "node", "id": 3024641211, "lat": 42.4088322, "lon": 11.371413, "tags": {"amenity": "cafe", "name": "Caf\u00e8 del Mar", "sandwich": "yes"}}, {"type": "node", "id": 3105361799, "lat": 42.4150619, "lon": 11.4263883, "tags": {"amenity": "cafe", "name": "Il Girasole", "opening_hours": "Mo-Sa 00:00-12:00"}}, {"type": "node", "id": 3105361800, "lat": 42.4143608, "lon": 11.3842725, "tags": {"amenity": "cafe", "name": "L'Oasi di Capalbio"}}, {"type": "node", "id": 3105361801, "lat": 42.4147067, "lon": 11.4602065, "tags": {"addr:city": "Capalbio", "addr:country": "IT", "addr:milestone": "Km 124", "addr:postcode": "58011", "addr:street": "Via Aurelia", "amenity": "restaurant", "bar": "yes", "name": "La Capanna", "opening_hours": "Mo-Fr,Su 09:30-15:00,18:45-22:00;Sa 09:30-15:00", "phone": "+39 0564 890325", "website": "https://www.lacapannadipaoletti.it/"}}, {"type": "node", "id": 3105361802, "lat": 42.4146803, "lon": 11.3234183, "tags": {"amenity": "restaurant", "cuisine": "italian", "name": "La Contessa"}}, {"type": "node", "id": 3105365242, "lat": 42.4148576, "lon": 11.3516645}, {"type": "node", "id": 3105365243, "lat": 42.4148565, "lon": 11.3517697}, {"type": "node", "id": 3105365285, "lat": 42.4154905, "lon": 11.343901}, {"type": "node", "id": 3105365286, "lat": 42.4154902, "lon": 11.3440263}, {"type": "node", "id": 3105365288, "lat": 42.4155643, "lon": 11.3439014}, {"type": "node", "id": 3105365289, "lat": 42.4155639, "lon": 11.3440267}, {"type": "node", "id": 3146883137, "lat": 42.5988981, "lon": 11.2928498, "tags": {"addr:housenumber": "20", "addr:street": "Via Giuseppe Garibaldi", "amenity": "restaurant", "capacity": "30", "cuisine": "italian", "name": "Ristorante Da Sandra", "opening_hours": "12:30-14:30,19:30-22:00", "phone": "+39 0564 592196", "website": "https://www.tripadvisor.it/Restaurant_Review-g1016057-d1753687-Reviews-Da_Sandra-Magliano_in_Toscana_Province_of_Grosseto_Tuscany.html"}}, {"type": "node", "id": 3163873861, "lat": 42.571471, "lon": 11.828805, "tags": {"addr:city": "Valentano", "addr:housenumber": "27", "addr:postcode": "01018", "addr:province": "Vt", "addr:street": "Via della Villa", "amenity": "restaurant", "cuisine": "pizza", "internet_access:fee": "no", "name": "Ristorante Pizzeria La Ciotola", "opening_hours": "We off", "outdoor_seating": "yes", "phone": "+39 0761 422132"}}, {"type": "node", "id": 3190210361, "lat": 42.568538, "lon": 11.819358, "tags": {"addr:city": "Valentano", "addr:housenumber": "25", "addr:postcode": "01018", "addr:street": "Via Solferino", "amenity": "restaurant", "cuisine": "regional", "drive_in": "no", "internet_access": "no", "name": "Locanda La Voltarella", "outdoor_seating": "yes", "phone": "+39 0761 422197", "smoking": "outside", "takeaway": "no", "wheelchair": "no"}}, {"type": "node", "id": 3258107384, "lat": 42.5730871, "lon": 11.8131357, "tags": {"addr:city": "Valentano", "addr:housenumber": "14", "addr:postcode": "01018", "addr:street": "Strada Provinciale Lago di Mezzano", "agritourism": "yes", "amenity": "restaurant", "email": "info@monteroio.com", "name": "Agriturismo Monte Roio", "phone": "+39 328 3838945", "website": "http://monteroio.com"}}, {"type": "node", "id": 3476398298, "lat": 42.561049, "lon": 11.8307779, "tags": {"addr:city": "Valentano", "addr:housenumber": "12", "addr:postcode": "01018", "addr:province": "Vt", "addr:street": "Via Aldo Moro", "amenity": "restaurant", "cuisine": "pizza", "name": "Fantasia di Pizza", "phone": "+39 0761453494", "takeaway": "yes"}}, {"type": "node", "id": 3827442737, "lat": 42.6220271, "lon": 11.4905954, "tags": {"addr:housenumber": "4", "addr:postcode": "58014", "addr:street": "Via Italia", "amenity": "restaurant", "name": "Caino"}}, {"type": "node", "id": 4240041636, "lat": 42.4095494, "lon": 11.3716102, "tags": {"addr:city": "Capalbio Scalo", "addr:postcode": "58011", "addr:street": "Via Umbria", "amenity": "cafe", "cuisine": "coffee_shop;burger;grill;juice;salad", "internet_access": "wlan", "internet_access:fee": "customers", "name": "Sottosopra - Edicolabar", "outdoor_seating": "yes"}}, {"type": "node", "id": 4274955691, "lat": 42.4251556, "lon": 11.3890996, "tags": {"addr:street": "Strada Pedemontana", "amenity": "restaurant", "name": "Ristorante Casale Nuovo"}}, {"type": "node", "id": 4290910834, "lat": 42.4255376, "lon": 11.4183712, "tags": {"amenity": "restaurant"}}, {"type": "node", "id": 4637559406, "lat": 42.6232889, "lon": 11.8739429}, {"type": "node", "id": 4637559407, "lat": 42.6231261, "lon": 11.8738836}, {"type": "node", "id": 4637559408, "lat": 42.6231012, "lon": 11.8740099}, {"type": "node", "id": 4637559409, "lat": 42.6232641, "lon": 11.8740692}, {"type": "node", "id": 4948982256, "lat": 42.601274, "lon": 11.8664005}, {"type": "node", "id": 4948982257, "lat": 42.6012375, "lon": 11.8665452}, {"type": "node", "id": 4948982258, "lat": 42.6013781, "lon": 11.8665835}, {"type": "node", "id": 4948982259, "lat": 42.6014047, "lon": 11.866432}, {"type": "node", "id": 5188536630, "lat": 42.4146556, "lon": 11.3649234}, {"type": "node", "id": 5188536631, "lat": 42.4145432, "lon": 11.3649261}, {"type": "node", "id": 5188536632, "lat": 42.4145475, "lon": 11.3652515}, {"type": "node", "id": 5188536633, "lat": 42.4146332, "lon": 11.3652494}, {"type": "node", "id": 5188536634, "lat": 42.4146318, "lon": 11.3651391}, {"type": "node", "id": 5188536635, "lat": 42.4146584, "lon": 11.3651385}, {"type": "node", "id": 5218825149, "lat": 42.6344486, "lon": 11.6697932, "tags": {"amenity": "restaurant", "cuisine": "regional"}}, {"type": "node", "id": 5218825150, "lat": 42.6344856, "lon": 11.6700681, "tags": {"addr:city": "Pitigliano", "addr:country": "IT", "addr:housenumber": "1", "addr:postcode": "58017", "addr:street": "Piazza Petruccioli", "amenity": "restaurant", "cuisine": "regional", "email": "winebar.pitigliano@tiscali.it", "name": "Trattoria Da Canapone", "opening_hours": "We off", "phone": "+39 0564 616 945", "smoking": "no"}}, {"type": "node", "id": 5218825151, "lat": 42.6335981, "lon": 11.6654125, "tags": {"amenity": "restaurant", "cuisine": "regional", "name": "Locanda del Pozzo Antico"}}, {"type": "node", "id": 5218825152, "lat": 42.633644, "lon": 11.6655909, "tags": {"addr:city": "Pitigliano", "addr:country": "IT", "addr:housenumber": "64", "addr:postcode": "58017", "addr:street": "Piazza San Gregorio VII", "amenity": "restaurant", "cuisine": "regional", "name": "Hostaria del Ceccottino", "organic": "yes", "outdoor_seating": "yes", "phone": "+39 0564 614 273", "smoking": "outside", "website": "https://www.ceccottino.com/", "wheelchair": "limited"}}, {"type": "node", "id": 5218825153, "lat": 42.6338334, "lon": 11.6652656, "tags": {"addr:city": "Pitigliano", "addr:country": "IT", "addr:postcode": "58017", "addr:street": "Via Vignoli", "amenity": "restaurant", "cuisine": "regional", "name": "La Corte del Ceccottino", "organic": "yes", "phone": "+39 0564 615 423", "smoking": "no", "website": "https://www.ceccottino.com/", "wheelchair": "no"}}, {"type": "node", "id": 5218825154, "lat": 42.6337351, "lon": 11.6653626, "tags": {"addr:city": "Pitigliano", "addr:country": "IT", "addr:housenumber": "209", "addr:postcode": "58017", "addr:street": "Via Vignoli", "amenity": "restaurant", "cuisine": "regional", "name": "La chiave del paradiso", "opening_hours": "Mo off", "outdoor_seating": "yes", "phone": "+39 0564 614 141", "smoking": "outside", "wheelchair": "no"}}, {"type": "node", "id": 5222220090, "lat": 42.6345823, "lon": 11.6687827, "tags": {"amenity": "restaurant", "cuisine": "regional", "indoor_seating": "yes", "name": "PanCaciUa", "outdoor_seating": "yes"}}, {"type": "node", "id": 5222220091, "lat": 42.6346701, "lon": 11.6689678, "tags": {"amenity": "restaurant", "cuisine": "regional", "indoor_seating": "yes", "name": "Grillo", "outdoor_seating": "no"}}, {"type": "node", "id": 5222220097, "lat": 42.6349542, "lon": 11.6690429, "tags": {"amenity": "restaurant", "cuisine": "italian", "name": "Pizzeria Il Noce"}}, {"type": "node", "id": 5222271153, "lat": 42.6349582, "lon": 11.6681416, "tags": {"amenity": "restaurant", "cuisine": "regional", "name": "La Rocca", "outdoor_seating": "yes"}}, {"type": "node", "id": 5281667942, "lat": 42.5384461, "lon": 11.3415135, "tags": {"amenity": "restaurant", "cuisine": "pizza", "name": "IL Picchio"}}, {"type": "node", "id": 5298396926, "lat": 42.6347352, "lon": 11.6718793, "tags": {"amenity": "cafe", "name": "Sicche Enoteca", "outdoor_seating": "yes"}}, {"type": "node", "id": 5354342513, "lat": 42.5351417, "lon": 11.3402349, "tags": {"amenity": "cafe", "name": "Bar La Sosta"}}, {"type": "node", "id": 5570070024, "lat": 42.6350304, "lon": 11.6697293, "tags": {"amenity": "restaurant", "name": "Ristorante Le Bont\u00e0 di Claudia"}}, {"type": "node", "id": 5597821764, "lat": 42.5928362, "lon": 11.6008198, "tags": {"amenity": "restaurant", "name": "La Capannella", "tobacco": "yes"}}, {"type": "node", "id": 5663060733, "lat": 42.6342735, "lon": 11.6666416, "tags": {"addr:city": "Pitigliano", "addr:country": "IT", "addr:housenumber": "122", "addr:postcode": "58017", "addr:street": "Via Roma", "amenity": "restaurant", "cuisine": "regional", "email": "alessandrohelga@tiscali.it", "name": "Delizie di Ale e Helga", "outdoor_seating": "no", "phone": "+39 0564615576", "website": "http://www.deliziedialeehelga.it"}}, {"type": "node", "id": 6196544378, "lat": 42.4024214, "lon": 11.4066417}, {"type": "node", "id": 6196544379, "lat": 42.4023788, "lon": 11.4067939}, {"type": "node", "id": 6196544380, "lat": 42.4022571, "lon": 11.4067315}, {"type": "node", "id": 6196544381, "lat": 42.4022997, "lon": 11.4065793}, {"type": "node", "id": 6441366386, "lat": 42.6216477, "lon": 11.4917106, "tags": {"addr:city": "Manciano", "addr:country": "IT", "addr:housenumber": "3", "addr:postcode": "58014", "addr:street": "Via Giovanni Conti", "amenity": "restaurant", "cuisine": "regional", "name": "Dal Moro", "phone": "+39 0564 602574"}}, {"type": "node", "id": 6448644975, "lat": 42.4551708, "lon": 11.4189991, "tags": {"amenity": "restaurant", "cuisine": "italian", "name": "Ristorante \"Il Cantinone\"", "opening_hours": "Tu-Su 12:00-15:00, 19:00-23:30", "phone": "+39 0564 896181", "website": "https://www.ristoranteilcantinonecapalbio.it/"}}, {"type": "node", "id": 6448704999, "lat": 42.4542968, "lon": 11.4206224, "tags": {"addr:housenumber": "27", "addr:street": "Via Nuova", "amenity": "restaurant", "cuisine": "italian", "name": "Ristorante Tullio", "opening_hours": "Mo-Tu 12:30-14:00, 19:00-21:30; Th-Su 12:30-14:00, 19:00-21:30", "phone": "+39 0564 896196", "website": "https://ristorantetullio.business.site/"}}, {"type": "node", "id": 6448705024, "lat": 42.4536239, "lon": 11.4223014, "tags": {"addr:housenumber": "1/2", "addr:street": "Piazza della Provvidenza", "amenity": "restaurant", "cuisine": "italian", "name": "Il Beverello", "opening_hours": "Tu-Sa 08:00-04:00; Su 08:00-00:00", "phone": "+39 347 181 6870"}}, {"type": "node", "id": 6448705033, "lat": 42.4536464, "lon": 11.4216413, "tags": {"addr:housenumber": "7", "addr:street": "Via Renato Fucini", "amenity": "cafe", "name": "BarCaccia", "opening_hours": "Mo 07:00-23:00; We-Su 07:00-23:00", "phone": "+39 335 527 2067"}}, {"type": "node", "id": 6448724914, "lat": 42.4550377, "lon": 11.4204423, "tags": {"addr:housenumber": "3", "addr:street": "Via Nuova", "amenity": "restaurant", "cuisine": "italian", "name": "Trattoria Da Maria", "phone": "+39 0564 896014", "website": "trattoriadamaria.com"}}, {"type": "node", "id": 6449323472, "lat": 42.4548578, "lon": 11.4202116, "tags": {"addr:housenumber": "2", "addr:street": "Via IV Novembre", "amenity": "restaurant", "cuisine": "italian", "name": "Trattoria Toscana", "phone": "+39 0564 896028", "website": "https://trattoriatoscana-downhomecookingrestaurant.business.site/"}}, {"type": "node", "id": 6450080439, "lat": 42.4546448, "lon": 11.4193943, "tags": {"addr:housenumber": "33", "addr:street": "Via Vittorio Emanuele II", "amenity": "restaurant", "cuisine": "italian", "name": "Trattoria Da Carla", "opening_hours": "Mo-We 12:30-14:30, 19:00-22:30; Fr-Su 12:30-14:30, 19:00-22:30", "phone": "+39 0564 896070", "website": "https://trattoriadacarla.it/"}}, {"type": "node", "id": 6450080440, "lat": 42.4545256, "lon": 11.4196505, "tags": {"addr:housenumber": "9", "addr:street": "Via Magenta", "amenity": "restaurant", "cuisine": "italian", "name": "Borgo Magenta", "opening_hours": "Mo-Su 10:00-22:30", "phone": "+39 339 881 1822"}}, {"type": "node", "id": 6450080441, "lat": 42.4546087, "lon": 11.4194726, "tags": {"amenity": "restaurant", "cuisine": "italian", "name": "La Torre"}}, {"type": "node", "id": 6450080442, "lat": 42.4545521, "lon": 11.4198985, "tags": {"amenity": "cafe", "name": "Magenta 7"}}, {"type": "node", "id": 6483882338, "lat": 42.622082, "lon": 11.4908161, "tags": {"amenity": "restaurant", "name": "Il giardino di Caino"}}, {"type": "node", "id": 6483882895, "lat": 42.6211483, "lon": 11.4907556, "tags": {"amenity": "cafe", "name": "Bar Il Glicine"}}, {"type": "node", "id": 6483882954, "lat": 42.6201537, "lon": 11.491618, "tags": {"amenity": "restaurant", "name": "La Cascia"}}, {"type": "node", "id": 6483892197, "lat": 42.621557, "lon": 11.4905881, "tags": {"amenity": "cafe", "name": "Crema & Cioccolato"}}, {"type": "node", "id": 6734413332, "lat": 42.5502127, "lon": 11.726099, "tags": {"amenity": "restaurant"}}, {"type": "node", "id": 6734704967, "lat": 42.5489502, "lon": 11.7222574, "tags": {"amenity": "restaurant", "name": "Piazzetta del Sole"}}, {"type": "node", "id": 6806012965, "lat": 42.4532996, "lon": 11.422271}, {"type": "node", "id": 6806025439, "lat": 42.4534002, "lon": 11.4219816}, {"type": "node", "id": 6806025440, "lat": 42.4532827, "lon": 11.4222578}, {"type": "node", "id": 6806025445, "lat": 42.4533023, "lon": 11.4222647}, {"type": "node", "id": 6806025446, "lat": 42.4533861, "lon": 11.4223302}, {"type": "node", "id": 6806025447, "lat": 42.4534144, "lon": 11.4222635}, {"type": "node", "id": 6806025448, "lat": 42.4534413, "lon": 11.4222005}, {"type": "node", "id": 6806025449, "lat": 42.4535009, "lon": 11.4220603}, {"type": "node", "id": 7450267256, "lat": 42.5869656, "lon": 11.5171229, "tags": {"addr:city": "Manciano", "addr:housenumber": "121", "addr:postcode": "58014", "addr:street": "Via Marsala", "amenity": "cafe", "name": "Bar La Combriccola"}}, {"type": "node", "id": 7598850130, "lat": 42.5863505, "lon": 11.5163586, "tags": {"addr:city": "Manciano", "addr:housenumber": "97", "addr:postcode": "58014", "addr:street": "Via Marsala", "amenity": "restaurant", "name": "Ristomacelleria La Imperiale", "shop": "butcher"}}, {"type": "node", "id": 7598850131, "lat": 42.585991, "lon": 11.5152461, "tags": {"addr:city": "Manciano", "addr:housenumber": "41", "addr:postcode": "58014", "addr:street": "Via Marsala", "amenity": "restaurant", "name": "Trattoria Da Paolino"}}, {"type": "node", "id": 7945558147, "lat": 42.6346266, "lon": 11.6696589, "tags": {"addr:city": "Pitigliano", "addr:housenumber": "73", "addr:street": "Piazza Francesco Petruccioli", "amenity": "restaurant", "indoor_seating": "yes", "name": "La Magica Torre", "outdoor_seating": "yes"}}, {"type": "node", "id": 7945564512, "lat": 42.6337692, "lon": 11.6656297, "tags": {"addr:city": "Pitigliano", "addr:housenumber": "73", "addr:postcode": "58043", "addr:street": "Piazza San Gregorio VII", "amenity": "cafe", "indoor_seating": "yes", "name": "Le Logge Bar Bistrot", "outdoor_seating": "yes"}}, {"type": "node", "id": 7994578480, "lat": 42.5990902, "lon": 11.2909043, "tags": {"addr:city": "Magliano in Toscana", "addr:housenumber": "2", "addr:postcode": "58051", "addr:street": "Via XX Settembre", "amenity": "restaurant", "contact:facebook": "https://it-it.facebook.com/Pizza-Movie-216308788394311/", "cuisine": "pizza;seafood", "name": "Pizza Movie", "opening_hours": "We-Mo 19:00-23:00; PH off", "outdoor_seating": "yes", "payment:bancomat": "yes", "payment:cash": "yes", "payment:mastercard": "yes", "phone": "+39 0564 592 574"}}, {"type": "node", "id": 8062290127, "lat": 42.6451006, "lon": 11.8571236, "tags": {"addr:city": "Gradoli", "addr:postcode": "01010", "addr:street": "Strada provinciale di Gradoli", "amenity": "cafe", "internet_access": "wlan", "internet_access:fee": "no", "name": "Bar Gelateria La Terrazza", "outdoor_seating": "yes"}}, {"type": "node", "id": 8424170817, "lat": 42.6345166, "lon": 11.6667711, "tags": {"amenity": "restaurant", "name": "La Pappalpomodoro"}}, {"type": "node", "id": 8430701817, "lat": 42.5826417, "lon": 11.6367506, "tags": {"amenity": "restaurant", "name": "Hosteria di Pantalla"}}, {"type": "node", "id": 9050091932, "lat": 42.5883334, "lon": 11.5179688, "tags": {"addr:city": "Manciano", "addr:country": "IT", "addr:housenumber": "8", "addr:street": "Via Circonvallazione Nord", "amenity": "restaurant", "cuisine": "pizza", "name": "Doppiozero"}}, {"type": "node", "id": 9245192952, "lat": 42.5994171, "lon": 11.2920198, "tags": {"amenity": "restaurant", "name": "La Poventa"}}, {"type": "node", "id": 9674268517, "lat": 42.4546573, "lon": 11.4199477, "tags": {"amenity": "restaurant", "name": "Trattoria al Pozzo"}}, {"type": "node", "id": 9711250817, "lat": 42.6345657, "lon": 11.6676338, "tags": {"amenity": "restaurant", "name": "Dalla Pepita"}}, {"type": "node", "id": 9883331905, "lat": 42.5448456, "lon": 11.7539301, "tags": {"addr:city": "Ischia di Castro", "addr:housenumber": "26", "addr:postcode": "01010", "addr:street": "Piazza Immacolata", "amenity": "restaurant", "name": "Ristorante Pizzeria Ranuccio II"}}, {"type": "node", "id": 9919872468, "lat": 42.4249583, "lon": 11.4683307}, {"type": "node", "id": 9919872469, "lat": 42.4249275, "lon": 11.4683198}, {"type": "node", "id": 9919872470, "lat": 42.4248972, "lon": 11.4683332}, {"type": "node", "id": 9919872471, "lat": 42.4248771, "lon": 11.4683666}, {"type": "node", "id": 9919872472, "lat": 42.4248735, "lon": 11.4684095}, {"type": "node", "id": 9919872473, "lat": 42.4248876, "lon": 11.4684482}, {"type": "node", "id": 9919872474, "lat": 42.4249149, "lon": 11.4684705}, {"type": "node", "id": 9919872475, "lat": 42.4249468, "lon": 11.4684692}, {"type": "node", "id": 9919872476, "lat": 42.4249731, "lon": 11.4684447}, {"type": "node", "id": 9919872477, "lat": 42.4249854, "lon": 11.4684049}, {"type": "node", "id": 9919872478, "lat": 42.4249799, "lon": 11.4683624}, {"type": "node", "id": 9952685914, "lat": 42.598295, "lon": 11.2936599, "tags": {"amenity": "cafe", "name": "Il Barretto"}}, {"type": "node", "id": 9966526249, "lat": 42.4082285, "lon": 11.3713014, "tags": {"addr:housenumber": "1", "addr:street": "Piazza Aldo Moro", "amenity": "cafe", "name": "Caff\u00e8 Station", "opening_hours": "Mo-Su 06:00-00:00", "phone": "+39 0564 898424", "pizza": "yes", "sandwich": "yes"}}, {"type": "node", "id": 9977404463, "lat": 42.4810819, "lon": 11.697162, "tags": {"amenity": "restaurant", "contact:facebook": "https://facebook.com/ristorantedaisolina.it/?locale2=it_IT", "cuisine": "italian;regional", "name": "Da Isolina"}}, {"type": "node", "id": 10040768319, "lat": 42.4145862, "lon": 11.4455431, "tags": {"amenity": "restaurant", "cuisine": "italian;pizza;pasta", "name": "Il mattarello di ginepro", "phone": "+39 0564 1837133"}}, {"type": "node", "id": 10296835359, "lat": 42.4012781, "lon": 11.4977476, "tags": {"amenity": "cafe", "name": "Bar del Borgo"}}, {"type": "node", "id": 10679887610, "lat": 42.6332062, "lon": 11.6711274, "tags": {"amenity": "restaurant", "name": "II Grottino"}}, {"type": "node", "id": 11279525769, "lat": 42.588975, "lon": 11.5171778, "tags": {"addr:housenumber": "35", "addr:postcode": "58014", "addr:street": "Strada Regionale 74 Maremmana", "amenity": "restaurant", "cuisine": "italian_pizza;pizza", "name": "Pizzeria", "name:it": "Pizzeria Os\u00e9e", "opening_hours": "Mo-Su 19:00-22:00"}}, {"type": "node", "id": 11479282379, "lat": 42.6340949, "lon": 11.6680448, "tags": {"amenity": "cafe", "indoor_seating": "no", "name": "Caff\u00e8 degli archi", "outdoor_seating": "yes"}}, {"type": "node", "id": 11487179102, "lat": 42.5886136, "lon": 11.5180495, "tags": {"amenity": "cafe", "indoor_seating": "no", "name": "Bar Cippi", "outdoor_seating": "yes"}}, {"type": "node", "id": 11804425985, "lat": 42.58361, "lon": 11.5248097, "tags": {"amenity": "restaurant", "cuisine": "pizza"}}, {"type": "node", "id": 11854152269, "lat": 42.5991328, "lon": 11.2925321, "tags": {"addr:city": "Magliano in Toscana", "addr:housenumber": "32", "addr:postcode": "58051", "addr:street": "Via Giuseppe Garibaldi", "amenity": "cafe", "name": "Il molino"}}, {"type": "node", "id": 11854246893, "lat": 42.5992478, "lon": 11.2918603, "tags": {"amenity": "restaurant", "name": "Da Guido"}}, {"type": "node", "id": 12040219975, "lat": 42.6449277, "lon": 11.8560157}, {"type": "node", "id": 12040219976, "lat": 42.6448304, "lon": 11.8561381}, {"type": "node", "id": 12040219977, "lat": 42.644888, "lon": 11.8562621}, {"type": "node", "id": 12040219978, "lat": 42.6449518, "lon": 11.8561868}, {"type": "node", "id": 12040219979, "lat": 42.6449395, "lon": 11.8561648}, {"type": "node", "id": 12040219980, "lat": 42.6449646, "lon": 11.8561222}, {"type": "node", "id": 12040219994, "lat": 42.6452615, "lon": 11.858074}, {"type": "node", "id": 12040219995, "lat": 42.6451444, "lon": 11.8580854}, {"type": "node", "id": 12040219996, "lat": 42.6451343, "lon": 11.8584108}, {"type": "node", "id": 12040219997, "lat": 42.6452348, "lon": 11.8583926}, {"type": "node", "id": 12164939899, "lat": 42.6053469, "lon": 11.8670892, "tags": {"amenity": "cafe"}}, {"type": "node", "id": 12165021655, "lat": 42.5567829, "lon": 11.8874128, "tags": {"amenity": "cafe"}}, {"type": "node", "id": 12601727777, "lat": 42.6217841, "lon": 11.4905091, "tags": {"addr:city": "Montemerano", "addr:housenumber": "31", "addr:postcode": "58014", "addr:street": "Via Italia", "amenity": "restaurant", "cuisine": "regional", "name": "Vecchia Dispensa", "opening_hours": "Mo-Su 09:00-21:00", "phone": "+39 0564 384193", "website": "https://www.vecchiadispensa.it/"}}, {"type": "node", "id": 12601727778, "lat": 42.621648, "lon": 11.490545, "tags": {"addr:city": "Montemerano", "addr:housenumber": "31", "addr:postcode": "58014", "addr:street": "Via Italia", "amenity": "cafe", "internet_access": "wlan", "name": "Vecchia Dispensa", "opening_hours": "Mo-Su 09:00-21:00", "outdoor_seating": "yes", "phone": "+39 0564 384193", "website": "https://www.vecchiadispensa.it/"}}, {"type": "node", "id": 12734361925, "lat": 42.5869719, "lon": 11.515906, "tags": {"amenity": "restaurant", "cuisine": "italian", "name": "Osteria L'Orologio", "opening_hours": "Tu-Su 09:30-14:00, 19:00-22:00", "phone": "+390564629503", "website": "https://www.osterialorologio.it/"}}, {"type": "node", "id": 12864767390, "lat": 42.6215431, "lon": 11.4900582, "tags": {"amenity": "restaurant", "name": "Passaparola"}}, {"type": "way", "id": 97543729, "nodes": [1129358303, 1129358754, 1129358389, 1129359233, 1129359184, 1129358779, 1129358416, 1129358303], "tags": {"amenity": "restaurant", "building": "yes", "cuisine": "local", "email": "info@vulci.it", "name": "Casaletto Mengarelli", "phone": "+39 0766 89519"}}, {"type": "way", "id": 241710385, "nodes": [2493017684, 2493017676, 2493017675, 2493017680, 3105365243, 3105365242, 2493017684], "tags": {"amenity": "cafe", "building": "yes", "cuisine": "sandwich;salad", "food": "yes"}}, {"type": "way", "id": 287958861, "nodes": [2915134891, 2915134892, 2915134893, 2915134894, 2915134891], "tags": {"amenity": "restaurant", "cuisine": "regional", "name": "I Caprai"}}, {"type": "way", "id": 305849858, "nodes": [3105365288, 3105365285, 3105365286, 3105365289, 3105365288], "tags": {"addr:city": "Capalbio", "addr:postcode": "58011", "addr:street": "Via Aurelia", "amenity": "cafe", "building": "yes", "cuisine": "sandwich;salad", "food": "yes"}}, {"type": "way", "id": 469432108, "nodes": [4637559409, 4637559408, 4637559407, 4637559406, 4637559409], "tags": {"amenity": "restaurant", "building": "yes", "cuisine": "regional", "name": "Trattoria da Giggetto"}}, {"type": "way", "id": 504786778, "nodes": [4948982259, 4948982258, 4948982257, 4948982256, 4948982259], "tags": {"amenity": "restaurant", "building": "yes", "cuisine": "pizza", "name": "Al Purgatorio"}}, {"type": "way", "id": 535237261, "nodes": [5188536630, 5188536631, 5188536632, 5188536633, 5188536634, 5188536635, 5188536630], "tags": {"addr:city": "Capalbio", "addr:postcode": "58011", "addr:street": "Via Aurelia", "amenity": "restaurant", "brand": "Autogrill", "brand:wikidata": "Q786790", "building": "yes", "cuisine": "italian;fast_food;breakfast", "name": "Autogrill", "toilets": "yes"}}, {"type": "way", "id": 661867823, "nodes": [6196544381, 6196544378, 6196544379, 6196544380, 6196544381], "tags": {"amenity": "restaurant", "building": "yes", "cuisine": "italian", "name": "La Selva"}}, {"type": "way", "id": 725905329, "nodes": [6806025440, 6806025439, 6806025449, 6806025448, 6806025447, 6806025446, 6806025445, 6806012965, 6806025440], "tags": {"addr:housenumber": "10", "addr:street": "Via Renato Fucini", "amenity": "restaurant", "building": "yes", "height": "9.21", "name": "Il Frantoio", "opening_hours": "Mo 09:30-01:00; We 17:30-01:00; Th-Sa 09:30-01:00; Su 09:30-01:30", "phone": "+39 0564 896484", "website": "https://frantoiocapalbio.com/"}}, {"type": "way", "id": 1082394132, "nodes": [9919872478, 9919872477, 9919872476, 9919872475, 9919872474, 9919872473, 9919872472, 9919872471, 9919872470, 9919872469, 9919872468, 9919872478], "tags": {"amenity": "cafe", "building": "yes", "name": "Tarots Cafe"}}, {"type": "way", "id": 1299827603, "nodes": [12040219975, 12040219976, 12040219977, 12040219978, 12040219979, 12040219980, 12040219975], "tags": {"addr:street": "Via Roma", "amenity": "restaurant", "building": "yes", "cuisine": "pizza", "name": "Bar Pizzeria Farnese"}}, {"type": "way", "id": 1299827606, "nodes": [12040219994, 12040219995, 12040219996, 12040219997, 12040219994], "tags": {"addr:city": "Gradoli", "addr:postcode": "01010", "addr:street": "Via Roma", "amenity": "restaurant", "building": "yes", "cuisine": "italian", "name": "La Ripetta", "opening_hours": "Tu-Su 12:30-14:00 - 19:30-21:30", "phone": "+39 0761 456100"}}]}