{"version": 0.6, "generator": "Overpass API 0.7.62.7 375dc00a", "osm3s": {"timestamp_osm_base": "2025-06-14T14:44:30Z", "copyright": "The data included in this document is from www.openstreetmap.org. The data is made available under ODbL."}, "elements": [{"type": "node", "id": 298646711, "lat": 39.9826991, "lon": 23.9610476, "tags": {"amenity": "restaurant", "name": "Panorama Kalamitsi"}}, {"type": "node", "id": 1406912632, "lat": 40.0473324, "lon": 23.9762572, "tags": {"amenity": "cafe", "name": "Bakerycafe - \u03a0\u03ac\u03c1\u03b3\u03b1\u03c2", "shop": "bakery"}}, {"type": "node", "id": 1406954293, "lat": 40.0268213, "lon": 24.0162523, "tags": {"amenity": "restaurant", "name": "To PANTEBOY"}}, {"type": "node", "id": 1816466430, "lat": 40.0975238, "lon": 23.9810196}, {"type": "node", "id": 1816466433, "lat": 40.097577, "lon": 23.9808675}, {"type": "node", "id": 1816466435, "lat": 40.0976522, "lon": 23.9809124}, {"type": "node", "id": 1816466514, "lat": 40.097599, "lon": 23.9810645}, {"type": "node", "id": 1834225832, "lat": 40.0361524, "lon": 23.999705, "tags": {"amenity": "restaurant", "cuisine": "greek", "name": "Korali"}}, {"type": "node", "id": 1834225834, "lat": 40.034647, "lon": 23.9962864, "tags": {"amenity": "restaurant", "check_date": "2024-08-23", "int_name": "5 Steps in the sand", "name": "\u03a0\u03ad\u03bd\u03c4\u03b5 \u03b2\u03ae\u03bc\u03b1\u03c4\u03b1 \u03c3\u03c4\u03b7\u03bd \u03ac\u03bc\u03bc\u03bf"}}, {"type": "node", "id": 1952486548, "lat": 40.0376779, "lon": 23.9401475, "tags": {"amenity": "restaurant"}}, {"type": "node", "id": 2409647597, "lat": 40.0345122, "lon": 23.9967432, "tags": {"amenity": "restaurant", "cuisine": "greek", "int_name": "Tavern Zampakos", "name": "\u03a4\u03b1\u03b2\u03ad\u03c1\u03bd\u03b1 \u0396\u03b1\u03bc\u03c0\u03b1\u03ba\u03bf\u03c2"}}, {"type": "node", "id": 3072423204, "lat": 39.9964243, "lon": 23.8812267, "tags": {"amenity": "cafe"}}, {"type": "node", "id": 3072423210, "lat": 39.9964202, "lon": 23.8810494, "tags": {"amenity": "restaurant"}}, {"type": "node", "id": 3469138377, "lat": 39.988888, "lon": 23.8981015, "tags": {"addr:city": "Toroni", "addr:postcode": "630 75", "amenity": "restaurant", "capacity": "200", "cuisine": "greek", "name": "Angelos Garden", "smoking": "yes"}}, {"type": "node", "id": 3709663894, "lat": 39.9912829, "lon": 23.987545}, {"type": "node", "id": 3709663895, "lat": 39.9911625, "lon": 23.9876285}, {"type": "node", "id": 3709663896, "lat": 39.9912231, "lon": 23.9877122}, {"type": "node", "id": 3709663897, "lat": 39.9912243, "lon": 23.9877299}, {"type": "node", "id": 3709663898, "lat": 39.991277, "lon": 23.9878318}, {"type": "node", "id": 3709663899, "lat": 39.9913521, "lon": 23.9878274}, {"type": "node", "id": 3709663900, "lat": 39.9913827, "lon": 23.9877815}, {"type": "node", "id": 3709663901, "lat": 39.991327, "lon": 23.9876016}, {"type": "node", "id": 3710797372, "lat": 39.9914226, "lon": 23.9915822, "tags": {"amenity": "restaurant", "name": "Taverna Zorbas"}}, {"type": "node", "id": 3711445415, "lat": 39.9912409, "lon": 23.9874957}, {"type": "node", "id": 3711445418, "lat": 39.9913359, "lon": 23.9876445}, {"type": "node", "id": 3711445419, "lat": 39.9913195, "lon": 23.9876781}, {"type": "node", "id": 3712355754, "lat": 39.9912236, "lon": 23.9902626}, {"type": "node", "id": 3712355755, "lat": 39.991252, "lon": 23.9901517}, {"type": "node", "id": 3712355757, "lat": 39.9912791, "lon": 23.9903746}, {"type": "node", "id": 3712355758, "lat": 39.9912824, "lon": 23.990213}, {"type": "node", "id": 3712355763, "lat": 39.9913353, "lon": 23.9900814}, {"type": "node", "id": 3712355765, "lat": 39.9913403, "lon": 23.9903228}, {"type": "node", "id": 3712355766, "lat": 39.9913446, "lon": 23.9903314}, {"type": "node", "id": 3712355767, "lat": 39.9913519, "lon": 23.9901149}, {"type": "node", "id": 3712355768, "lat": 39.991365, "lon": 23.9901039}, {"type": "node", "id": 3712355771, "lat": 39.9913949, "lon": 23.9902382}, {"type": "node", "id": 3712355773, "lat": 39.9914126, "lon": 23.990274}, {"type": "node", "id": 3712355775, "lat": 39.9914208, "lon": 23.9902164}, {"type": "node", "id": 3712355805, "lat": 39.9917519, "lon": 23.9920429}, {"type": "node", "id": 3712355807, "lat": 39.9917712, "lon": 23.9921675}, {"type": "node", "id": 3712355818, "lat": 39.9918285, "lon": 23.9920227}, {"type": "node", "id": 3712355820, "lat": 39.9918478, "lon": 23.9921472}, {"type": "node", "id": 3712616241, "lat": 39.9914571, "lon": 23.9917671, "tags": {"amenity": "restaurant", "name": "Giorgiakis Tavern"}}, {"type": "node", "id": 3713063096, "lat": 39.9911741, "lon": 23.9915053}, {"type": "node", "id": 3713063097, "lat": 39.9912088, "lon": 23.9916473}, {"type": "node", "id": 3713063098, "lat": 39.9912312, "lon": 23.9916913}, {"type": "node", "id": 3713063099, "lat": 39.9912627, "lon": 23.9914683}, {"type": "node", "id": 3713063100, "lat": 39.9912946, "lon": 23.9919515}, {"type": "node", "id": 3713063101, "lat": 39.9912974, "lon": 23.9916103}, {"type": "node", "id": 3713063102, "lat": 39.9913073, "lon": 23.9916597}, {"type": "node", "id": 3713063103, "lat": 39.9913707, "lon": 23.9919199}, {"type": "node", "id": 3713072412, "lat": 40.0973548, "lon": 23.9809805}, {"type": "node", "id": 3713072413, "lat": 40.097358, "lon": 23.9811661}, {"type": "node", "id": 3713072414, "lat": 40.0973723, "lon": 23.9811019}, {"type": "node", "id": 3713072415, "lat": 40.0973776, "lon": 23.9808787}, {"type": "node", "id": 3713072416, "lat": 40.097389, "lon": 23.9811083}, {"type": "node", "id": 3713072417, "lat": 40.0973969, "lon": 23.9810727}, {"type": "node", "id": 3713072419, "lat": 40.0974126, "lon": 23.9810025}, {"type": "node", "id": 3713072420, "lat": 40.0974244, "lon": 23.980948}, {"type": "node", "id": 3713072421, "lat": 40.097435, "lon": 23.9809006}, {"type": "node", "id": 3713072422, "lat": 40.0975127, "lon": 23.9810689}, {"type": "node", "id": 3713072423, "lat": 40.0975306, "lon": 23.9809885}, {"type": "node", "id": 3713072424, "lat": 40.0975738, "lon": 23.9812484}, {"type": "node", "id": 3713075526, "lat": 40.097606, "lon": 23.9811045}, {"type": "node", "id": 3714678438, "lat": 39.9912419, "lon": 23.9892977}, {"type": "node", "id": 3714678439, "lat": 39.9913909, "lon": 23.989043}, {"type": "node", "id": 3714678440, "lat": 39.9915093, "lon": 23.989564}, {"type": "node", "id": 3714678441, "lat": 39.9916583, "lon": 23.9893093}, {"type": "node", "id": 3715995132, "lat": 39.9913728, "lon": 23.9877374}, {"type": "node", "id": 4248715300, "lat": 39.9854429, "lon": 23.9034212}, {"type": "node", "id": 4248715301, "lat": 39.9854934, "lon": 23.9035664}, {"type": "node", "id": 4248715302, "lat": 39.9854315, "lon": 23.9036031}, {"type": "node", "id": 4248715303, "lat": 39.985381, "lon": 23.9034579}, {"type": "node", "id": 4298991296, "lat": 39.9966973, "lon": 23.8774213, "tags": {"amenity": "restaurant", "name": "Dimitris Beach Tavern", "name:el": "\u0394\u0397\u039c\u0397\u03a4\u03a1\u0397\u03a3 \u03a4\u0391\u0392\u0395\u03a1\u039d\u0391"}}, {"type": "node", "id": 4343557481, "lat": 40.0413831, "lon": 23.9833665, "tags": {"amenity": "restaurant", "check_date": "2024-08-21", "cuisine": "greek", "name": "\u0398\u03b5\u03b1\u03bd\u03ce"}}, {"type": "node", "id": 4343557485, "lat": 40.0361416, "lon": 23.9999004, "tags": {"amenity": "restaurant", "cuisine": "greek", "name": "\u03a4\u03bf\u03c5\u03c1\u03ba\u03bf\u03bb\u03af\u03bc\u03b1\u03bd\u03bf", "wheelchair": "no"}}, {"type": "node", "id": 4344485989, "lat": 40.0334158, "lon": 24.0096998, "tags": {"amenity": "restaurant", "cuisine": "greek", "name": "\u039a\u03bb\u03b7\u03bc\u03b1\u03c4\u03b1\u03c1\u03b9\u03ac", "name:el": "\u039a\u03bb\u03b7\u03bc\u03b1\u03c4\u03b1\u03c1\u03b9\u03ac", "name:en": "Klimataria"}}, {"type": "node", "id": 4959419260, "lat": 40.0384559, "lon": 23.9426731, "tags": {"amenity": "restaurant"}}, {"type": "node", "id": 4959419261, "lat": 40.0384189, "lon": 23.9424574, "tags": {"amenity": "cafe"}}, {"type": "node", "id": 5002607211, "lat": 40.0461783, "lon": 23.985103, "tags": {"addr:city": "Sikea", "addr:postcode": "63072", "amenity": "restaurant", "check_date": "2024-08-17", "cuisine": "pizza", "name": "Pizza Toula", "outdoor_seating": "yes", "takeaway": "yes"}}, {"type": "node", "id": 5103617421, "lat": 39.9859098, "lon": 23.902716, "tags": {"amenity": "restaurant", "name:en": "Taverns Leon"}}, {"type": "node", "id": 5154917022, "lat": 39.9712877, "lon": 23.9183682, "tags": {"amenity": "restaurant", "name:en": "Tzitzikas"}}, {"type": "node", "id": 5680238522, "lat": 39.9633809, "lon": 23.9268949, "tags": {"amenity": "restaurant", "name": "Mpoukadoura", "name:en": "Boukadoura"}}, {"type": "node", "id": 6566497494, "lat": 40.0533955, "lon": 23.9997127, "tags": {"amenity": "cafe", "name": "Mesogios", "payment:cash": "yes", "payment:mastercard": "yes", "payment:visa": "yes", "phone": "6942 066579"}}, {"type": "node", "id": 6609488185, "lat": 40.0319502, "lon": 24.0190542, "tags": {"amenity": "restaurant", "check_date": "2024-08-23", "name": "\u03a4\u0399\u0393\u0391\u039d\u0399\u0391 BEACH BAR"}}, {"type": "node", "id": 6638751005, "lat": 40.0348693, "lon": 23.9915879}, {"type": "node", "id": 6638751006, "lat": 40.0347604, "lon": 23.9915619}, {"type": "node", "id": 6638751007, "lat": 40.0347526, "lon": 23.9916177}, {"type": "node", "id": 6638751008, "lat": 40.0347284, "lon": 23.9916119}, {"type": "node", "id": 6638751009, "lat": 40.0347082, "lon": 23.9917565}, {"type": "node", "id": 6638751010, "lat": 40.0347684, "lon": 23.9917708}, {"type": "node", "id": 6638751011, "lat": 40.0347757, "lon": 23.9917191}, {"type": "node", "id": 6638751012, "lat": 40.0348485, "lon": 23.9917365}, {"type": "node", "id": 6689123189, "lat": 39.9823246, "lon": 23.9045299, "tags": {"amenity": "restaurant", "internet_access": "wlan", "name:en": "stelios"}}, {"type": "node", "id": 8504082179, "lat": 40.00225, "lon": 23.869735, "tags": {"amenity": "restaurant", "cuisine": "regional", "name": "\u03a4\u03b1\u03b2\u03ad\u03c1\u03bd\u03b1 \u0391\u03c0\u03cc\u03c3\u03c4\u03bf\u03bb\u03bf\u03c2"}}, {"type": "node", "id": 9001669417, "lat": 40.0012051, "lon": 23.8817407, "tags": {"amenity": "restaurant", "name:fr": "Krifos Paradisos"}}, {"type": "node", "id": 9060203317, "lat": 39.971298, "lon": 23.9179235, "tags": {"addr:street": "\u03a0\u03b5\u03c1\u03b9\u03bc\u03b5\u03c4\u03c1\u03b9\u03ba\u03ae \u039f\u03b4\u03cc\u03c2 \u03a3\u03b9\u03b8\u03c9\u03bd\u03af\u03b1\u03c2", "amenity": "restaurant", "check_date": "2024-08-27", "internet_access": "wlan", "name": "\u039f \u03a8\u03b1\u03c1\u03b1\u03c2"}}, {"type": "node", "id": 10940077457, "lat": 40.0533374, "lon": 23.9994599, "tags": {"amenity": "restaurant"}}, {"type": "node", "id": 11915124930, "lat": 40.0317816, "lon": 23.9727157, "tags": {"addr:city": "\u03a3\u03c5\u03ba\u03b9\u03ac", "addr:postcode": "63072", "addr:street": "\u03a0\u03b5\u03c1\u03b9\u03bc\u03b5\u03c4\u03c1\u03b9\u03ba\u03ae \u039f\u03b4\u03cc\u03c2 \u03a3\u03b9\u03b8\u03c9\u03bd\u03af\u03b1\u03c2", "amenity": "cafe", "cuisine": "coffee_shop;sandwich;ice_cream", "internet_access": "wlan", "internet_access:fee": "no", "name": "Cafe Take Away Melissis", "opening_hours": "Mo-Su 08:00-21:00", "outdoor_seating": "yes", "phone": "+302375041005"}}, {"type": "node", "id": 12063631493, "lat": 39.9712616, "lon": 23.9185466, "tags": {"amenity": "restaurant", "cuisine": "greek", "name": "\u039f \u03a0\u03b5\u03cd\u03ba\u03bf\u03c2", "name:el": "\u039f \u03a0\u03b5\u03cd\u03ba\u03bf\u03c2", "name:en": "O Pefkos", "opening_hours": "Mo-Su 09:00-01:00", "phone": "+302375051206", "website": "http://www.opefkos.gr/"}}, {"type": "node", "id": 12108735348, "lat": 39.9850584, "lon": 23.9033443, "tags": {"amenity": "restaurant", "name": "Daluz"}}, {"type": "node", "id": 12122127579, "lat": 40.0459179, "lon": 23.9847533, "tags": {"amenity": "restaurant", "name": "Bahari", "name:el": "\u03bc\u03c0\u03b1\u03c7\u03ac\u03c1\u03b9"}}, {"type": "node", "id": 12138713153, "lat": 39.9712999, "lon": 23.9181939, "tags": {"amenity": "restaurant", "name": "Porto Marina"}}, {"type": "node", "id": 12823715174, "lat": 39.9808373, "lon": 23.9050833, "tags": {"amenity": "restaurant", "cuisine": "greek", "indoor_seating": "yes", "name": "Akti Toroni", "outdoor_seating": "yes"}}, {"type": "way", "id": 170491870, "nodes": [1816466435, 1816466433, 1816466430, 1816466514, 1816466435], "tags": {"amenity": "restaurant", "building": "yes", "name": "\u039a\u03cc\u03c4\u03c3\u03b1\u03c1\u03b7\u03c2", "name:el": "\u039a\u03cc\u03c4\u03c3\u03b1\u03c1\u03b7\u03c2", "name:en": "Kotsaris"}}, {"type": "way", "id": 367294026, "nodes": [3712355763, 3712355755, 3712355758, 3712355754, 3712355757, 3712355765, 3712355766, 3712355773, 3712355771, 3712355775, 3712355768, 3712355767, 3712355763], "tags": {"amenity": "restaurant", "building": "house", "cuisine": "greek", "name": "Didakis", "operator": "Didakis Athanasios and John", "tourism": "apartment"}}, {"type": "way", "id": 367294036, "nodes": [3712355818, 3712355820, 3712355807, 3712355805, 3712355818], "tags": {"amenity": "restaurant", "building": "house", "building:levels": "1", "name": "Porto"}}, {"type": "way", "id": 367377664, "nodes": [3713063099, 3713063096, 3713063097, 3713063101, 3713063099], "tags": {"amenity": "restaurant", "building": "roof"}}, {"type": "way", "id": 367377674, "nodes": [3713063102, 3713063098, 3713063100, 3713063103, 3713063102], "tags": {"amenity": "restaurant", "building": "roof"}}, {"type": "way", "id": 367379538, "nodes": [3713075526, 3713072424, 3713072413, 3713072414, 3713072416, 3713072417, 3713072419, 3713072412, 3713072415, 3713072421, 3713072420, 3713072423, 3713072422, 3713075526], "tags": {"building": "roof"}}, {"type": "way", "id": 367553905, "nodes": [3714678441, 3714678440, 3714678438, 3714678439, 3714678441], "tags": {"name": "Kalamitsi Studios", "tourism": "guest_house"}}, {"type": "way", "id": 367710627, "nodes": [3711445415, 3709663894, 3709663901, 3711445418, 3711445419, 3715995132, 3709663900, 3709663899, 3709663898, 3709663897, 3709663896, 3709663895, 3711445415], "tags": {"amenity": "restaurant", "building": "yes"}}, {"type": "way", "id": 425583555, "nodes": [4248715300, 4248715301, 4248715302, 4248715303, 4248715300], "tags": {"addr:city": "\u03a4\u03bf\u03c1\u03ce\u03bd\u03b7", "addr:postcode": "63072", "addr:street": "Beach Street", "amenity": "restaurant", "building": "yes", "cuisine": "mediterranean;greek;seafood", "name": "TAVERNA APHRODITE"}}, {"type": "way", "id": 706493295, "nodes": [6638751005, 6638751006, 6638751007, 6638751008, 6638751009, 6638751010, 6638751011, 6638751012, 6638751005], "tags": {"amenity": "restaurant", "building": "yes", "cuisine": "seafood", "name": "\u0391\u03ba\u03c1\u03bf\u03b3\u03b9\u03b1\u03bb\u03b9", "name:bg": "\u0410\u043a\u0440\u043e\u044f\u043b\u0438", "name:el": "\u0391\u03ba\u03c1\u03bf\u03b3\u03b9\u03b1\u03bb\u03b9", "name:en": "Akrogiali", "phone": "2109853451, 6944279669"}}, {"type": "relation", "id": 5463942, "members": [{"type": "way", "ref": 367553905, "role": ""}, {"type": "way", "ref": 170491870, "role": ""}, {"type": "way", "ref": 367379538, "role": ""}], "tags": {"amenity": "restaurant", "name": "Kotsaris", "type": "site"}}]}