{"version": 0.6, "generator": "Overpass API 0.7.62.7 375dc00a", "osm3s": {"timestamp_osm_base": "2025-06-14T15:17:02Z", "copyright": "The data included in this document is from www.openstreetmap.org. The data is made available under ODbL."}, "elements": [{"type": "node", "id": 411887705, "lat": 33.2562037, "lon": 35.2181043, "tags": {"amenity": "restaurant"}}, {"type": "node", "id": 593121602, "lat": 33.2259358, "lon": 35.6379198, "tags": {"amenity": "restaurant", "cuisine": "fish", "name": "\u05d3\u05d2\u05d9 \u05d3\u05e4\u05e0\u05d4", "name:en": "Dgei Dafna", "name:he": "\u05d3\u05d2\u05d9 \u05d3\u05e4\u05e0\u05d4", "opening_hours": "Mo-Su 12:00-21:00, Jun 21-Sep 21 Mo-Su 12:00-23:00", "phone": "+972 4 694 1154", "website": "http://www.dagei-dafna.co.il"}}, {"type": "node", "id": 924424543, "lat": 33.2231925, "lon": 35.6156777, "tags": {"amenity": "cafe", "brand": "\u05d0\u05e8\u05d5\u05de\u05d4", "brand:en": "Aroma Espresso Bar", "brand:he": "\u05d0\u05e8\u05d5\u05de\u05d4", "brand:wikidata": "Q2909872", "brand:wikipedia": "en:Aroma Espresso Bar", "cuisine": "coffee_shop", "diet:kosher": "no", "internet_access": "wlan", "internet_access:ssid": "Aroma B-Zone", "name": "\u05d0\u05e8\u05d5\u05de\u05d4", "name:en": "Aroma Espresso Bar", "name:en1": "Aroma Espresso Bar", "name:he": "\u05d0\u05e8\u05d5\u05de\u05d4", "opening_hours": "Su-Th 06:45-22:00; Fr 06:45-17:00; Sa 06:45-22:00", "outdoor_seating": "yes", "phone": "+972 4 681 7204", "takeaway": "yes", "toilets": "yes", "website": "https://www.aroma.co.il/", "wheelchair": "yes"}}, {"type": "node", "id": 924439486, "lat": 33.1705669, "lon": 35.5699544, "tags": {"amenity": "restaurant", "name": "\u05d1\u05d9\u05ea \u05d4\u05e9\u05e3", "name:en": "Bait Hashef", "name:he": "\u05d1\u05d9\u05ea \u05d4\u05e9\u05e3", "opening_hours": "Mo-Su 10:00-22:00+", "phone": "+972 4 8441 166"}}, {"type": "node", "id": 1057764037, "lat": 33.2632929, "lon": 35.6222692}, {"type": "node", "id": 1517901143, "lat": 33.2233039, "lon": 35.6153083, "tags": {"amenity": "restaurant", "cuisine": "italian", "diet:kosher": "no", "internet_access": "wlan", "name": "\u05e4\u05d5\u05e7\u05e6'\u05d4", "name:en": "Fokatcha", "name:he": "\u05e4\u05d5\u05e7\u05e6'\u05d4", "opening_hours": "Su-Fr 12:00-23:00", "outdoor_seating": "no", "phone": "+972 4 960 4474", "smoking": "no", "website": "https://foccacia.co.il/", "wikidata": "Q64767402"}}, {"type": "node", "id": 1518086508, "lat": 33.2478919, "lon": 35.6922438, "tags": {"amenity": "restaurant", "name": "\u0627\u0644\u0645\u0637\u0639\u0645 \u0627\u0644\u0644\u0628\u0646\u0627\u0646\u064a", "name:ar": "\u0627\u0644\u0645\u0637\u0639\u0645 \u0627\u0644\u0644\u0628\u0646\u0627\u0646\u064a"}}, {"type": "node", "id": 1519225267, "lat": 33.2284997, "lon": 35.6409479, "tags": {"addr:city": "Dafna", "amenity": "restaurant", "contact:facebook": "https://www.facebook.com/cookia.pizzatruck.dafna/", "contact:instagram": "https://www.instagram.com/cookiapizzatruck/", "cuisine": "italian", "fax": "+972 4 690 1624", "internet_access": "wlan", "name": "\u05e7\u05d5\u05e7\u05d9\u05d4", "name:en": "Cookia", "name:he": "\u05e7\u05d5\u05e7\u05d9\u05d4", "opening_hours": "Mo-Su 08:30-23:00", "outdoor_seating": "yes", "phone": "+972 53 944 0907", "smoking": "no", "takeaway": "yes", "website": "https://www.cookia-pizzatruck.com/", "wheelchair": "yes"}}, {"type": "node", "id": 1522961241, "lat": 33.1704059, "lon": 35.5701676, "tags": {"alt_name": "\u05e1\u05d9 \u05d0\u05e1\u05e4\u05e8\u05e1\u05d5", "alt_name:en": "Si Espresso", "alt_name:he": "\u05e1\u05d9 \u05d0\u05e1\u05e4\u05e8\u05e1\u05d5", "amenity": "cafe", "brand": "\u05e1\u05d9 \u05e7\u05e4\u05d4", "brand:en": "Si Cafe", "brand:he": "\u05e1\u05d9 \u05e7\u05e4\u05d4", "brand:wikidata": "Q64606227", "cuisine": "coffee_shop", "fax": "+972 4 6941 335", "internet_access": "wlan", "internet_access:fee": "no", "name": "\u05e1\u05d9 \u05e7\u05e4\u05d4", "name:en": "Si Cafe", "name:he": "\u05e1\u05d9 \u05e7\u05e4\u05d4", "name:it": "Si Espresso", "opening_hours": "Mo-Th, Su 07:00-00:00; Fr 07:00-23:00; Sa 07:00-00:00", "phone": "+972 4 6941 336", "takeaway": "yes", "website": "https://sicafe.co.il/%D7%A1%D7%A0%D7%99%D7%A3-%D7%92%D7%95%D7%9E%D7%90/"}}, {"type": "node", "id": 1524467821, "lat": 33.2304169, "lon": 35.6213263, "tags": {"alt_name": "Dag Al HaDan", "amenity": "restaurant", "cuisine": "fish_and_chips", "name": "\u05d3\u05d2 \u05e2\u05dc \u05d4\u05d3\u05df", "name:en": "Fish on the Dan", "name:he": "\u05d3\u05d2 \u05e2\u05dc \u05d4\u05d3\u05df", "opening_hours": "Mo-Su 12:00+", "phone": "+972 4 695 0225", "website": "https://www.dagaldan.co.il/restoraunt/"}}, {"type": "node", "id": 1769054397, "lat": 33.0127027, "lon": 35.6417889, "tags": {"amenity": "cafe"}}, {"type": "node", "id": 1831037546, "lat": 33.2005193, "lon": 35.6068718, "tags": {"addr:city": "\u05d1\u05d9\u05ea \u05d4\u05dc\u05dc", "addr:street": "\u05d4\u05de\u05d9\u05d9\u05e1\u05d3\u05d9\u05dd", "amenity": "restaurant", "cuisine": "italian", "name": "Cheese", "name:en": "Cheese", "opening_hours": "Su-Th 9:30-24:00; Fr 9:00-23:00", "outdoor_seating": "yes", "phone": "+972 4 690 4699", "toilets": "yes", "website": "https://cheeserestaurant.co.il/"}}, {"type": "node", "id": 1915164836, "lat": 32.9699654, "lon": 35.5500126, "tags": {"amenity": "cafe", "contact:phone": "+97246860834", "name": "\u05e8\u05e0\u05d4", "name:en": "Rene", "name:he": "\u05e8\u05e0\u05d4", "opening_hours": "Su-Sa 08:00+", "outdoor_seating": "yes"}}, {"type": "node", "id": 1957634207, "lat": 33.0617794, "lon": 35.5990106, "tags": {"amenity": "restaurant"}}, {"type": "node", "id": 1975260622, "lat": 32.9688875, "lon": 35.547595, "tags": {"amenity": "cafe", "cuisine": "coffee_shop", "delivery": "yes", "name": "\u05e7\u05e4\u05d4 \u05e7\u05e4\u05d4", "name:en": "Cafe Cafe", "name:he": "\u05e7\u05e4\u05d4 \u05e7\u05e4\u05d4", "opening_hours": "Su-Th 8:15+; Fr, Sa unknown \"please inquire\"", "phone": "+972 4 693 6484", "wheelchair": "yes"}}, {"type": "node", "id": 1975260628, "lat": 32.9677818, "lon": 35.5488456, "tags": {"amenity": "restaurant", "cuisine": "steak_house", "diet:kosher": "no", "email": "ayelet@doris-k.co.il", "fax": "+972 4 693 4398", "name": "\u05d3\u05d5\u05e8\u05d9\u05e1 \u05e7\u05e6\u05d1\u05d9\u05dd", "name:en": "Doris Kazavim", "name:he": "\u05d3\u05d5\u05e8\u05d9\u05e1 \u05e7\u05e6\u05d1\u05d9\u05dd", "opening_hours": "Mo-We, Su 12:00-23:00; Th-Sa 12:00-00:00+", "outdoor_seating": "yes", "phone": "+972 4 680 1313", "takeaway": "yes", "website": "https://dorisk-roshpina.rest.co.il/", "wheelchair": "yes"}}, {"type": "node", "id": 1986299167, "lat": 33.018494, "lon": 35.6185602}, {"type": "node", "id": 1986299168, "lat": 33.0182671, "lon": 35.6185654}, {"type": "node", "id": 1986299169, "lat": 33.0182693, "lon": 35.6187467}, {"type": "node", "id": 1986299170, "lat": 33.0183265, "lon": 35.6187467}, {"type": "node", "id": 1986299171, "lat": 33.0183332, "lon": 35.6190121}, {"type": "node", "id": 1986299172, "lat": 33.0185094, "lon": 35.6190095}, {"type": "node", "id": 1993572585, "lat": 32.990605, "lon": 35.5631073, "tags": {"amenity": "restaurant", "cuisine": "mediterranean", "name": "\u05de\u05e1\u05e2\u05d3\u05ea \u05d0\u05dc \u05d1\u05d0\u05e9\u05d0", "name:en": "Al Basha Restaurant", "name:he": "\u05de\u05e1\u05e2\u05d3\u05ea \u05d0\u05dc \u05d1\u05d0\u05e9\u05d0"}}, {"type": "node", "id": 1993572588, "lat": 32.9904769, "lon": 35.5634397, "tags": {"amenity": "cafe", "cuisine": "ice_cream", "name": "\u05de\u05d2'\u05d9\u05e7\u05d4", "name:en": "Magica", "name:he": "\u05de\u05d2'\u05d9\u05e7\u05d4"}}, {"type": "node", "id": 1993572589, "lat": 32.9906201, "lon": 35.5635385, "tags": {"amenity": "restaurant", "cuisine": "mediterranean", "name": "\u05de\u05e1\u05e2\u05d3\u05ea \u05d0\u05dc \u05d4\u05db\u05d9\u05db\u05e8", "name:en": "El Kakikar", "name:he": "\u05de\u05e1\u05e2\u05d3\u05ea \u05d0\u05dc \u05d4\u05db\u05d9\u05db\u05e8"}}, {"type": "node", "id": 2078418527, "lat": 33.2392649, "lon": 35.7022784, "tags": {"amenity": "restaurant", "cuisine": "steak_house", "name": "\u05e9\u05e8\u05d5\u05dc\u05d4", "name:en": "Shrola", "name:he": "\u05e9\u05e8\u05d5\u05dc\u05d4"}}, {"type": "node", "id": 2078991165, "lat": 32.9808696, "lon": 35.5561903, "tags": {"amenity": "cafe", "diet:kosher": "yes", "name": "\u05e7\u05e4\u05d4 \u05e4\u05d5\u05e8\u05d8\u05d9\u05d5\u05dc\u05d9", "name:en": "Portioly Cafe", "name:he": "\u05e7\u05e4\u05d4 \u05e4\u05d5\u05e8\u05d8\u05d9\u05d5\u05dc\u05d9"}}, {"type": "node", "id": 2094622201, "lat": 33.0445521, "lon": 35.5734739, "tags": {"amenity": "restaurant", "name": "\u05d0\u05d1\u05d5 \u05e1\u05d0\u05dc\u05d7", "name:en": "Abu Salah", "name:he": "\u05d0\u05d1\u05d5 \u05e1\u05d0\u05dc\u05d7"}}, {"type": "node", "id": 2309375686, "lat": 33.1928994, "lon": 35.5707144, "tags": {"amenity": "cafe", "brand": "\u05e7\u05e4\u05d4 \u05e7\u05e4\u05d4", "brand:en": "Cafe Cafe", "brand:he": "\u05e7\u05e4\u05d4 \u05e7\u05e4\u05d4", "brand:wikidata": "Q5017233", "brand:wikipedia": "he:\u05e7\u05e4\u05d4 \u05e7\u05e4\u05d4", "cuisine": "coffee_shop", "delivery": "no", "internet_access": "wlan", "name": "\u05e7\u05e4\u05d4 \u05e7\u05e4\u05d4", "name:en": "Cafe Cafe", "name:he": "\u05e7\u05e4\u05d4 \u05e7\u05e4\u05d4", "opening_hours": "Su-Th 07:30-23:00; Fr 07:30-16:00; Sa 08:30-23:00", "outdoor_seating": "yes", "phone": "+972 4 678 9220", "takeaway": "yes", "website": "https://www.cafecafe.co.il/", "wheelchair": "yes"}}, {"type": "node", "id": 2318762527, "lat": 33.1928711, "lon": 35.5707912, "tags": {"amenity": "restaurant", "brand": "Pizza Hut", "brand:wikidata": "Q191615", "brand:wikipedia": "en:Pizza Hut", "cuisine": "pizza", "delivery": "yes", "diet:kosher": "yes", "internet_access": "wlan", "name": "\u05e4\u05d9\u05e6\u05d4 \u05d4\u05d0\u05d8", "name:en": "Pizza Hut", "name:he": "\u05e4\u05d9\u05e6\u05d4 \u05d4\u05d0\u05d8", "opening_hours": "Mo-Th, Su 11:00-22:30; Fr 11:00-16:00; Sa 20:20-22:30", "outdoor_seating": "yes", "phone": "+972 53 809 2650", "website": "https://www1.pizzahut.co.il/%D7%A1%D7%A0%D7%99%D7%A3_%D7%A7%D7%A8%D7%99%D7%AA_%D7%A9%D7%9E%D7%95%D7%A0%D7%94"}}, {"type": "node", "id": 2318762536, "lat": 33.1929071, "lon": 35.571015, "tags": {"amenity": "restaurant", "cuisine": "sushi", "delivery": "yes", "diet:kosher": "yes", "name": "\u05d0\u05e6\u05d4", "name:en": "Atza", "name:he": "\u05d0\u05e6\u05d4", "opening_hours": "Mo-Th, Su 11:00-23:00; Fr 11:00-14:30; Sa 18:00-23:00", "outdoor_seating": "yes", "phone": "+972 4 845 7766", "website": "https://atza.co.il/he/branches/259"}}, {"type": "node", "id": 2398524710, "lat": 33.2232647, "lon": 35.6154391, "tags": {"air_conditioning": "yes", "alt_name:en": "Klompus;Clompus;Clompos", "amenity": "restaurant", "contact:facebook": "https://www.facebook.com/people/%D7%A7%D7%9C%D7%95%D7%9E%D7%A4%D7%95%D7%A1/100063627215979/", "cuisine": "burger", "delivery": "yes", "diet:kosher": "no", "drinking_water": "yes", "internet_access": "wlan", "name": "\u05e7\u05dc\u05d5\u05de\u05e4\u05d5\u05e1", "name:en": "Klompos", "name:he": "\u05e7\u05dc\u05d5\u05de\u05e4\u05d5\u05e1", "opening_hours": "12:00 - 23:00", "outdoor_seating": "yes", "phone": "+972 52 314 0801", "reservation": "no", "smoking": "outside", "takeaway": "yes", "toilets": "yes", "website": "https://foccacia.co.il/clompus/", "website:menu": "https://foccacia.co.il/%D7%AA%D7%A4%D7%A8%D7%99%D7%98-%D7%A7%D7%9C%D7%95%D7%9E%D7%A4%D7%95%D7%A1/", "wheelchair": "yes", "wikidata": "Q64767028"}}, {"type": "node", "id": 2430258140, "lat": 33.1959314, "lon": 35.5705074, "tags": {"addr:housename": "\u05e1\u05d9\u05e0\u05d4 \u05e1\u05e0\u05d8\u05e8", "amenity": "restaurant", "cuisine": "regional", "name": "\u05de\u05d0\u05de\u05d0 \u05d7\u05dc\u05e1\u05d4", "name:en": "Mama Chalsa", "name:he": "\u05de\u05d0\u05de\u05d0 \u05d7\u05dc\u05e1\u05d4", "opening_hours": "Su-Th 12:00+", "phone": "+972 53 8094 627", "website": "https://www.2eat.co.il/mama-chalsa/"}}, {"type": "node", "id": 2432441726, "lat": 33.1251016, "lon": 35.5702227, "tags": {"amenity": "cafe", "atm": "yes", "brand": "\u05d0\u05e8\u05d5\u05de\u05d4", "brand:en": "Aroma Espresso Bar", "brand:he": "\u05d0\u05e8\u05d5\u05de\u05d4", "brand:wikidata": "Q2909872", "brand:wikipedia": "en:Aroma Espresso Bar", "cuisine": "coffee_shop", "drinking_water": "yes", "internet_access": "wlan", "name": "\u05d0\u05e8\u05d5\u05de\u05d4", "name:en": "Aroma", "name:en1": "Aroma Espresso Bar", "name:he": "\u05d0\u05e8\u05d5\u05de\u05d4", "opening_hours": "Su-Th 07:00-22:00, Fr 07:00-16:00, Sa 07:00-22:00", "outdoor_seating": "yes", "phone": "+972 4 845 5170", "takeaway": "yes", "website": "https://www.aroma.co.il/", "wheelchair": "yes"}}, {"type": "node", "id": 2450739030, "lat": 32.9951085, "lon": 35.5196519, "tags": {"addr:city": "\u05de\u05d5\u05e2\u05e6\u05d4 \u05d0\u05d6\u05d5\u05e8\u05d9\u05ea \u05de\u05e8\u05d5\u05dd \u05d4\u05d2\u05dc\u05d9\u05dc", "amenity": "restaurant", "contact:facebook": "batyaar.co.il", "contact:instagram": "batyaarfarm", "cuisine": "steak_house", "diet:kosher": "no", "int_name": "Bat Yaar", "internet_access": "wlan", "name": "\u05de\u05e1\u05e2\u05d3\u05ea \u05d1\u05ea \u05d9\u05e2\u05e8", "name:en": "Bat Ya'ar restaurant", "name:he": "\u05de\u05e1\u05e2\u05d3\u05ea \u05d1\u05ea \u05d9\u05e2\u05e8", "opening_hours": "Mo-Su 12:00-22:00", "phone": "+972 4 692 1788", "website": "https://www.batyaar.co.il/", "wikidata": "Q66881275"}}, {"type": "node", "id": 2455103489, "lat": 33.07841, "lon": 35.3819953, "tags": {"addr:city": "\u0631\u0645\u064a\u0634", "amenity": "restaurant", "name": "\u0645\u0648\u0646\u062a\u0646\u063a\u064a\u062a", "name:ar": "\u0645\u0648\u0646\u062a\u0646\u063a\u064a\u062a", "name:en": "Mountain Gate"}}, {"type": "node", "id": 2552148682, "lat": 33.2182713, "lon": 35.5842044, "tags": {"amenity": "restaurant", "name": "aliz", "name:en": "aliz", "name:it": "Aliz"}}, {"type": "node", "id": 2667062200, "lat": 32.9971541, "lon": 35.5174367, "tags": {"amenity": "cafe", "name": "\u05d4\u05d1\u05d9\u05ea \u05d1\u05e7\u05e6\u05d4 \u05d4\u05e0\u05d5\u05e3", "name:he": "\u05d4\u05d1\u05d9\u05ea \u05d1\u05e7\u05e6\u05d4 \u05d4\u05e0\u05d5\u05e3"}}, {"type": "node", "id": 2706904802, "lat": 33.3725128, "lon": 35.4810246, "tags": {"amenity": "restaurant", "capacity": "200", "name": "To tango", "opening_hours": "10:00-10:00"}}, {"type": "node", "id": 2707183545, "lat": 33.3777404, "lon": 35.4842394, "tags": {"amenity": "restaurant", "name": "Centre Mrouweh", "name:en": "Centre Mrouweh"}}, {"type": "node", "id": 2707190523, "lat": 33.3773255, "lon": 35.4832536, "tags": {"amenity": "restaurant", "name": "Falafel Al Arnaout"}}, {"type": "node", "id": 2707200081, "lat": 33.3707035, "lon": 35.4833013, "tags": {"amenity": "restaurant", "name": "Chaqif Club", "name:fr": "Club Chaq\u00eef"}}, {"type": "node", "id": 2707877856, "lat": 33.381107, "lon": 35.4818604, "tags": {"amenity": "restaurant", "brand": "Pizza Hut", "brand:wikidata": "Q191615", "brand:wikipedia": "en:Pizza Hut", "cuisine": "pizza", "name": "Pizza Hut"}}, {"type": "node", "id": 3141550262, "lat": 32.9941277, "lon": 35.6905539, "tags": {"addr:city": "\u05e7\u05e6\u05e8\u05d9\u05df", "addr:housenumber": "1", "addr:street": "\u05e9\u05d9\u05d0\u05d5\u05df", "amenity": "cafe", "contact:facebook": "https://www.facebook.com/franchook/", "cuisine": "coffee_shop", "email": "052411260@netvision.net.il", "name": "\u05e7\u05e4\u05d4 \u05e4\u05e8\u05e0\u05e6'\u05d5\u05e7", "name:en": "Franchuke cafe", "name:he": "\u05e7\u05e4\u05d4 \u05e4\u05e8\u05e0\u05e6'\u05d5\u05e7", "opening_hours": "Su-Fr 07:00-21:00", "phone": "+972 77 205 6789"}}, {"type": "node", "id": 3736154609, "lat": 32.9946856, "lon": 35.6892705, "tags": {"amenity": "restaurant"}}, {"type": "node", "id": 3736155731, "lat": 32.9952559, "lon": 35.6896165, "tags": {"amenity": "cafe"}}, {"type": "node", "id": 4122932131, "lat": 32.9677888, "lon": 35.4940393, "tags": {"amenity": "cafe", "cuisine": "coffee_shop", "name": "\u05e7\u05e4\u05d4 \u05d1\u05d2\u05d3\u05d3", "name:en": "Bagdad Cafe", "name:he": "\u05e7\u05e4\u05d4 \u05d1\u05d2\u05d3\u05d3"}}, {"type": "node", "id": 4122932141, "lat": 32.9681036, "lon": 35.4918658, "tags": {"amenity": "restaurant", "name": "\u05d9\u05e7\u05d1\u05d9 \u05d9\u05d5\u05e9\u05e4\u05d4", "name:en": "Yoshpe Winery", "name:he": "\u05d9\u05e7\u05d1\u05d9 \u05d9\u05d5\u05e9\u05e4\u05d4"}}, {"type": "node", "id": 4138207450, "lat": 32.9703733, "lon": 35.5340685, "tags": {"amenity": "cafe", "name": "\u05e9\u05d5\u05e7\u05d5\u05dc\u05d8\u05d4", "name:en": "Chocolata", "name:he": "\u05e9\u05d5\u05e7\u05d5\u05dc\u05d8\u05d4", "opening_hours": "Su, Tu, We, Sa 11:00-19:00; Th, Fr 11:00-23:00", "phone": "+972 4 686 0219", "website": "https://www.chocolatte.co.il/"}}, {"type": "node", "id": 4138207451, "lat": 32.9695, "lon": 35.5347614, "tags": {"amenity": "restaurant", "name": "La Terassa", "name:en": "La Terassa"}}, {"type": "node", "id": 4212963993, "lat": 33.0254538, "lon": 35.4440293, "tags": {"addr:city": "\u0627\u0644\u062c\u0634", "amenity": "restaurant", "cuisine": "mediterranean;arab;lebanese", "name": "\u0645\u0642\u0647\u0649 \u0628\u0644\u062f\u0646\u0627", "name:ar": "\u0645\u0642\u0647\u0649 \u0628\u0644\u062f\u0646\u0627", "name:en": "Baladna Caffe", "name:he": "\u05d1\u05d9\u05ea \u05d1\u05dc\u05d3\u05e0\u05d0"}}, {"type": "node", "id": 4212967889, "lat": 33.0206462, "lon": 35.4487561, "tags": {"addr:city": "\u0627\u0644\u062c\u0634", "alt_name": "Tik Tak Cafe", "amenity": "cafe", "description": "Indoor and outdoor seating, espresso, pastries.", "name": "\u062a\u064a\u0643 \u062a\u0648\u0643 \u0643\u0627\u0641\u064a\u0647", "name:ar": "\u062a\u064a\u0643 \u062a\u0648\u0643 \u0643\u0627\u0641\u064a\u0647", "name:en": "Tik Tok Caf\u00e9", "opening_hours": "Mo-Su 09:00-24:00"}}, {"type": "node", "id": 4236434596, "lat": 32.9801975, "lon": 35.3324432, "tags": {"addr:city": "\u0627\u0644\u0628\u0642\u064a\u0639\u0629", "amenity": "restaurant", "cuisine": "regional", "name": "\u0627\u0644\u062d\u0645\u0635 \u0645\u0647\u0631\u0648\u0633", "name:ar": "\u0627\u0644\u062d\u0645\u0635 \u0645\u0647\u0631\u0648\u0633", "name:he": "\u05d7\u05d5\u05de\u05d5\u05e1 \u05de\u05d4\u05e8\u05d5\u05e1"}}, {"type": "node", "id": 4236434598, "lat": 32.9799362, "lon": 35.3331566, "tags": {"addr:city": "\u0627\u0644\u0628\u0642\u064a\u0639\u0629", "amenity": "restaurant", "cuisine": "regional", "name": "\u063a\u0648\u0644\u064a\u0627\u0634", "name:ar": "\u063a\u0648\u0644\u064a\u0627\u0634", "name:he": "\u05de\u05e0\u05e7\u05d5\u05e9\u05d4"}}, {"type": "node", "id": 4236434599, "lat": 32.9768558, "lon": 35.3367672, "tags": {"addr:city": "\u0627\u0644\u0628\u0642\u064a\u0639\u0629", "amenity": "restaurant", "name": "\u0645\u0637\u0639\u0645 \u0628\u064a\u062a \u0627\u0644\u062f\u0631\u0648\u0632", "name:ar": "\u0645\u0637\u0639\u0645 \u0628\u064a\u062a \u0627\u0644\u062f\u0631\u0648\u0632", "name:en": "Druzi home", "name:he": "\u05de\u05e1\u05e2\u05d3\u05ea \u05d4\u05d1\u05d9\u05ea \u05d4\u05d3\u05e8\u05d5\u05d6\u05d9"}}, {"type": "node", "id": 4236434600, "lat": 32.975356, "lon": 35.3386622, "tags": {"addr:city": "\u0627\u0644\u0628\u0642\u064a\u0639\u0629", "amenity": "restaurant", "name": "\u0645\u0637\u0639\u0645 \u0627\u0644\u0643\u0647\u0641", "name:ar": "\u0645\u0637\u0639\u0645 \u0627\u0644\u0643\u0647\u0641", "name:en": "Cave restaurant", "name:he": "\u05de\u05e1\u05e2\u05d3\u05ea \u05d4\u05de\u05e2\u05e8\u05d4"}}, {"type": "node", "id": 4236434601, "lat": 32.9768321, "lon": 35.3365425, "tags": {"amenity": "restaurant", "cuisine": "regional", "name": "\u05de\u05e1\u05e2\u05d3\u05ea \u05e2\u05e5 \u05d4\u05ea\u05d5\u05ea", "name:ar": "\u0645\u0637\u0639\u0645 \u0634\u062c\u0631\u0629 \u0627\u0644\u062a\u0648\u062a", "name:en": "Etz Hatoot", "name:he": "\u05de\u05e1\u05e2\u05d3\u05ea \u05e2\u05e5 \u05d4\u05ea\u05d5\u05ea"}}, {"type": "node", "id": 4236434609, "lat": 32.979932, "lon": 35.3333162, "tags": {"addr:city": "\u0627\u0644\u0628\u0642\u064a\u0639\u0629", "alt_name": "\u05e4\u05d9\u05ea\u05d5\u05ea \u05e8\u05e2\u05d9\u05d4", "amenity": "restaurant", "cuisine": "regional", "name": "\u0631\u0627\u064a\u0629", "name:ar": "\u0631\u0627\u064a\u0629", "name:he": "\u05e8\u05e2\u05d9\u05d4"}}, {"type": "node", "id": 4236434611, "lat": 32.9759961, "lon": 35.3383051, "tags": {"addr:city": "\u0627\u0644\u0628\u0642\u064a\u0639\u0629", "amenity": "restaurant", "name": "864", "name:ar": "\u0668\u0666\u0664"}}, {"type": "node", "id": 4288710793, "lat": 33.2633159, "lon": 35.2191473, "tags": {"amenity": "restaurant", "cuisine": "arab", "name": "\u0622\u0644 \u0639\u0628\u062f \u0627\u0644\u0644\u0647", "name:ar": "\u0622\u0644 \u0639\u0628\u062f \u0627\u0644\u0644\u0647", "name:en": "Al Abdullah"}}, {"type": "node", "id": 4293281490, "lat": 33.0250911, "lon": 35.2537372, "tags": {"addr:city": "\u0645\u0639\u0644\u064a\u0627", "amenity": "restaurant", "name": "\u0645\u0627\u0646\u0634\u0633\u062a\u0631", "name:ar": "\u0645\u0627\u0646\u0634\u0633\u062a\u0631", "name:ar1": "\u0645\u0646\u0635\u064a\u0633", "name:en": "Menches", "name:he": "\u05de\u05e0\u05e6\u05d9\u05e1"}}, {"type": "node", "id": 4374168090, "lat": 33.2650725, "lon": 35.2176225, "tags": {"amenity": "cafe", "name": "\u0645\u0642\u0647\u0649 \u0623\u0648\u0643", "name:ar": "\u0645\u0642\u0647\u0649 \u0623\u0648\u0643", "name:en": "AUC Cafe", "name:fr": "AUC Cafe"}}, {"type": "node", "id": 4409249415, "lat": 33.0163565, "lon": 35.2778651, "tags": {"amenity": "restaurant", "name": "\u05d4\u05e9\u05de\u05df \u05d5\u05d4\u05e8\u05d6\u05d4", "name:en": "Hashamen Ve'harazze", "name:he": "\u05d4\u05e9\u05de\u05df \u05d5\u05d4\u05e8\u05d6\u05d4"}}, {"type": "node", "id": 4421769058, "lat": 33.0814201, "lon": 35.2823565, "tags": {"amenity": "restaurant", "name": "\u05e1\u05d4\u05e8\u05d4", "name:ar": "\u0627\u0644\u0635\u062d\u0631\u0627\u0621", "name:en": "Sahara", "name:he": "\u05e1\u05d4\u05e8\u05d4"}}, {"type": "node", "id": 4422257888, "lat": 33.2076236, "lon": 35.570264, "tags": {"amenity": "restaurant", "cuisine": "burger", "name": "\u05e8\u05d9\u05e7\u05d5", "name:en": "Ricco", "name:he": "\u05e8\u05d9\u05e7\u05d5"}}, {"type": "node", "id": 4423371440, "lat": 33.0363092, "lon": 35.4631515, "tags": {"amenity": "cafe", "name": "\u05de\u05d0\u05d3\u05dd \u05d0\u05dc\u05e7\u05dc\u05e2\u05d9", "name:en": "Madam Alkalay", "name:he": "\u05de\u05d0\u05d3\u05dd \u05d0\u05dc\u05e7\u05dc\u05e2\u05d9"}}, {"type": "node", "id": 4424821339, "lat": 33.0676418, "lon": 35.1890984, "tags": {"amenity": "restaurant", "name": "\u05e1\u05d8\u05e7\u05d9\u05d9\u05d4 \u05d1\u05db\u05e4\u05e8", "name:en": "Stekiya Bakfar", "name:he": "\u05e1\u05d8\u05e7\u05d9\u05d9\u05d4 \u05d1\u05db\u05e4\u05e8"}}, {"type": "node", "id": 4424821341, "lat": 33.0671171, "lon": 35.1843093, "tags": {"amenity": "restaurant", "cuisine": "burger", "name": "\u05d1\u05d9\u05e3 \u05d1\u05d4\u05e8", "name:en": "Biff Bahar", "name:he": "\u05d1\u05d9\u05e3 \u05d1\u05d4\u05e8"}}, {"type": "node", "id": 4432618965, "lat": 33.2456999, "lon": 35.5969485, "tags": {"amenity": "cafe", "name": "Grand Cafe", "name:en": "Grand Cafe"}}, {"type": "node", "id": 4433201249, "lat": 33.228048, "lon": 35.6456534, "tags": {"amenity": "restaurant", "name": "\u05e4\u05d0\u05d5\u05d6\u05d4", "name:en": "Pauza", "name:he": "\u05e4\u05d0\u05d5\u05d6\u05d4", "phone": "+972 54 6904 434"}}, {"type": "node", "id": 4511310889, "lat": 32.9684106, "lon": 35.5495394, "tags": {"amenity": "restaurant", "cuisine": "meat;fish", "diet:kosher": "yes", "email": "nitzazo777@walla.co.il", "internet_access": "wlan", "name": "\u05de\u05d9\u05d8\u05d1\u05dc\u05d9\u05dd", "name:en": "Mitbalim", "name:he": "\u05de\u05d9\u05d8\u05d1\u05dc\u05d9\u05dd", "note": "\u05d9\u05d5\u05dd \u05e9\u05d9\u05e9\u05d9: 12:00 - \u05e2\u05d3 \u05e9\u05e2\u05d4 \u05dc\u05e4\u05e0\u05d9 \u05db\u05e0\u05d9\u05e1\u05ea \u05e9\u05d1\u05ea; \u05d9\u05d5\u05dd \u05e9\u05d1\u05ea: \u05d4\u05d7\u05dc \u05de\u05d7\u05e6\u05d9 \u05e9\u05e2\u05d4 \u05d0\u05d7\u05e8\u05d9 \u05d9\u05e6\u05d9\u05d0\u05ea \u05e9\u05d1\u05ea - 24:00", "opening_hours": "Su-Th 11:00-00:00, Fr, Sa unknown \"please inquire\"", "outdoor_seating": "yes", "phone": "+972 4 686 0107", "takeaway": "yes", "website": "https://www.rol.co.il/sites/mitbalim/", "wheelchair": "yes"}}, {"type": "node", "id": 4539620532, "lat": 33.3798693, "lon": 35.4881749, "tags": {"amenity": "cafe", "name": "Abou-Ali Mini-Market", "name:en": "Abou-Ali Mini-Market"}}, {"type": "node", "id": 4539620534, "lat": 33.3795746, "lon": 35.4848718}, {"type": "node", "id": 4539623909, "lat": 33.3756462, "lon": 35.4871118, "tags": {"amenity": "restaurant", "name": "A la Grille", "name:fr": "A la Grille"}}, {"type": "node", "id": 4539682192, "lat": 33.3812242, "lon": 35.4818661, "tags": {"amenity": "restaurant", "name": "Baguette", "name:en": "Baguette"}}, {"type": "node", "id": 4583713698, "lat": 33.0638895, "lon": 35.2203554, "tags": {"amenity": "restaurant", "internet_access": "no", "internet_access:fee": "no", "microbrewery": "yes", "name": "\u05d1\u05d9\u05e1\u05d8\u05e8\u05d5 899", "name:en": "Bistro 899", "name:he": "\u05d1\u05d9\u05e1\u05d8\u05e8\u05d5 899", "smoking": "no", "wheelchair": "yes"}}, {"type": "node", "id": 4679021523, "lat": 33.2101187, "lon": 35.2944539, "tags": {"addr:city": "\u0642\u0627\u0646\u0627", "amenity": "restaurant"}}, {"type": "node", "id": 4698050039, "lat": 33.0257328, "lon": 35.6280714, "tags": {"amenity": "restaurant", "cuisine": "turkish", "name": "\u05d0\u05d9\u05e1\u05e7\u05e0\u05d3\u05e8", "name:en": "Iskander", "name:he": "\u05d0\u05d9\u05e1\u05e7\u05e0\u05d3\u05e8"}}, {"type": "node", "id": 4782489221, "lat": 33.0218758, "lon": 35.4509591, "tags": {"addr:city": "\u0627\u0644\u062c\u0634", "amenity": "restaurant", "name": "\u0645\u0637\u0639\u0645 \u062c\u0628\u0644 \u0627\u0644\u062c\u0631\u0645\u0642", "name:ar": "\u0645\u0637\u0639\u0645 \u062c\u0628\u0644 \u0627\u0644\u062c\u0631\u0645\u0642", "name:en": "har meron restaurant", "name:he": "\u05d4\u05e8 \u05de\u05d9\u05e8\u05d5\u05df"}}, {"type": "node", "id": 4818633227, "lat": 33.3001633, "lon": 35.3135591, "tags": {"amenity": "restaurant", "name": "\u0645\u0644\u062d\u0645\u0629 \u0648\u0641\u0631\u0646 \u0639\u0632\u0627\u0644\u062f\u064a\u0646", "name:ar": "\u0645\u0644\u062d\u0645\u0629 \u0648\u0641\u0631\u0646 \u0639\u0632\u0627\u0644\u062f\u064a\u0646"}}, {"type": "node", "id": 4818638523, "lat": 33.3002424, "lon": 35.3138123, "tags": {"amenity": "restaurant", "name": "\u0645\u0637\u0639\u0645 \u0627\u0644\u0647\u0627\u062f\u064a \u0641\u0631\u0648\u062c \u0648\u0641\u0648\u0644", "name:ar": "\u0645\u0637\u0639\u0645 \u0627\u0644\u0647\u0627\u062f\u064a \u0641\u0631\u0648\u062c \u0648\u0641\u0648\u0644"}}, {"type": "node", "id": 4892376817, "lat": 33.1249512, "lon": 35.5703548, "tags": {"amenity": "restaurant", "cuisine": "arab", "name": "\u05ea\u05e0\u05d5\u05e8\u05d9\u05df", "name:en": "Tanureen", "name:he": "\u05ea\u05e0\u05d5\u05e8\u05d9\u05df", "opening_hours": "Mo-Su 12:00-22:00", "outdoor_seating": "yes", "phone": "+972 4 821 8755"}}, {"type": "node", "id": 4942436792, "lat": 32.9662042, "lon": 35.4955556, "tags": {"amenity": "cafe", "brand": "Cofix", "brand:en": "Cofix", "brand:he": "\u05e7\u05e4\u05d5\u05d9\u05e7\u05e1", "brand:wikidata": "Q16132717", "cuisine": "coffee_shop", "name": "Cofix", "name:en": "Cofix", "name:he": "\u05e7\u05d5\u05e4\u05d9\u05e7\u05e1", "takeaway": "yes"}}, {"type": "node", "id": 5036486932, "lat": 32.9672448, "lon": 35.4942145, "tags": {"amenity": "cafe", "name": "\u05e7\u05e4\u05d4 \u05de\u05d5\u05e0\u05d9\u05d8\u05d9\u05df", "name:en": "Monitin coffe shop", "name:he": "\u05e7\u05e4\u05d4 \u05de\u05d5\u05e0\u05d9\u05d8\u05d9\u05df"}}, {"type": "node", "id": 5059975721, "lat": 33.0250209, "lon": 35.2542727, "tags": {"addr:city": "\u0645\u0639\u0644\u064a\u0627", "amenity": "cafe", "brand": "\u05e7\u05e4\u05d4 \u05e7\u05e4\u05d4", "brand:en": "Cafe Cafe", "brand:he": "\u05e7\u05e4\u05d4 \u05e7\u05e4\u05d4", "brand:wikidata": "Q5017233", "brand:wikipedia": "he:\u05e7\u05e4\u05d4 \u05e7\u05e4\u05d4", "cuisine": "coffee_shop", "internet_access": "wlan", "name": "\u05e7\u05e4\u05d4 \u05e7\u05e4\u05d4", "name:ar": "\u0642\u0647\u0648\u0629 \u0627\u0644\u0642\u0647\u0648\u0629", "name:de": "Caf\u00e9 Caf\u00e9", "name:en": "Cafe Cafe", "name:he": "\u05e7\u05e4\u05d4 \u05e7\u05e4\u05d4", "takeaway": "yes", "website": "https://cafecafe.co.il"}}, {"type": "node", "id": 5060796055, "lat": 33.2295744, "lon": 35.652118, "tags": {"amenity": "cafe"}}, {"type": "node", "id": 5109817422, "lat": 33.2795201, "lon": 35.578946, "tags": {"addr:city": "\u05de\u05d8\u05d5\u05dc\u05d4", "addr:housenumber": "28", "addr:postcode": "1029200", "addr:street": "\u05d4\u05e8\u05d0\u05e9\u05d5\u05e0\u05d9\u05dd", "amenity": "restaurant", "contact:facebook": "https://www.facebook.com/BeitShalomMetula/", "cuisine": "regional;meat", "email": "miriam@beitshalom.co.il", "name": "\u05d1\u05d9\u05ea \u05e9\u05dc\u05d5\u05dd", "name:en": "Beit Shalom", "name:he": "\u05d1\u05d9\u05ea \u05e9\u05dc\u05d5\u05dd", "opening_hours": "Mo-Su 11:30+", "opening_hours:url": "http://www.beitshalom.co.il/home_restaurant", "outdoor_seating": "yes", "phone": "+972 4 694 0767", "toilets": "yes", "website": "http://www.beitshalom.co.il/home_restaurant"}}, {"type": "node", "id": 5109820219, "lat": 33.2775325, "lon": 35.5777303, "tags": {"addr:city": "\u05de\u05d8\u05d5\u05dc\u05d4", "addr:housenumber": "1", "addr:postcode": "1029200", "addr:street": "\u05d4\u05e8\u05d0\u05e9\u05d5\u05e0\u05d9\u05dd", "amenity": "restaurant", "contact:facebook": "https://www.facebook.com/%D7%94%D7%98%D7%97%D7%A0%D7%94-458742837504670", "cuisine": "meat", "diet:kosher": "no", "fax": "+972 4 695 1949", "name": "\u05d4\u05d8\u05d7\u05e0\u05d4", "name:en": "Hatachana", "name:he": "\u05d4\u05d8\u05d7\u05e0\u05d4", "opening_hours": "Mo-Sa 13:00-00:00+", "outdoor_seating": "yes", "phone": "+972 4 694 4810", "takeaway": "yes", "website": "https://www.hatachana-m.co.il/", "wheelchair": "yes"}}, {"type": "node", "id": 5109822452, "lat": 33.280014, "lon": 35.5786781, "tags": {"addr:city": "\u05de\u05d8\u05d5\u05dc\u05d4", "addr:housenumber": "21", "addr:postcode": "1029200", "addr:street": "\u05d4\u05e8\u05d0\u05e9\u05d5\u05e0\u05d9\u05dd", "amenity": "restaurant", "contact:facebook": "https://facebook.com/ayuniMETULLA/", "name": "\u05e2\u05d9\u05d5\u05e0\u05d9", "name:en": "Ayuni", "name:he": "\u05e2\u05d9\u05d5\u05e0\u05d9", "opening_hours": "Mo-Su 02:00-00:00", "opening_hours:url": "https://www.facebook.com/pg/ayuniMETULLA/about/", "outdoor_seating": "yes", "phone": "+972 72 392 3794", "takeaway": "yes", "toilets": "yes"}}, {"type": "node", "id": 5114941335, "lat": 33.2206963, "lon": 35.5890189, "tags": {"amenity": "restaurant", "contact:facebook": "https://www.facebook.com/pages/%D7%A4%D7%A1%D7%98%D7%94-%D7%91%D7%A1%D7%98%D7%94/162244790468562", "cuisine": "pasta;wine;italian", "diet:kosher": "no", "name": "\u05e4\u05e1\u05d8\u05d4 \u05d1\u05e1\u05d8\u05d4", "name:en": "Pasta Basta", "name:he": "\u05e4\u05e1\u05d8\u05d4 \u05d1\u05e1\u05d8\u05d4", "opening_hours": "Sa-Th 12:00-23:00; Fr 12:00-17:00", "outdoor_seating": "yes", "phone": "+972 4 683 7080", "website": "https://pastabasta.co.il/"}}, {"type": "node", "id": 5114958733, "lat": 33.2126902, "lon": 35.5707941, "tags": {"addr:city": "\u05e7\u05e8\u05d9\u05ea \u05e9\u05de\u05d5\u05e0\u05d4", "addr:housenumber": "153", "addr:street": "\u05ea\u05dc \u05d7\u05d9", "amenity": "restaurant", "contact:facebook": "https://www.facebook.com/%D7%A4%D7%99%D7%A6%D7%94-%D7%95%D7%A1%D7%A4%D7%94-%D7%A7%D7%A8%D7%99%D7%AA-%D7%A9%D7%9E%D7%95%D7%A0%D7%94-355394174629837/", "cuisine": "italian_pizza;pizza", "delivery": "yes", "name": "\u05e4\u05d9\u05e6\u05d4 \u05d5\u05e1\u05e4\u05d4", "name:en": "Pizza Vespa", "name:he": "\u05e4\u05d9\u05e6\u05d4 \u05d5\u05e1\u05e4\u05d4", "opening_hours": "24/7", "phone": "+972 77 510 5009;+972 50 510 5000;+972 54 520 2000", "website": "http://pizza-vespa.co.il/"}}, {"type": "node", "id": 5115004882, "lat": 33.1968884, "lon": 35.5711736, "tags": {"amenity": "restaurant", "diet:kosher": "yes", "drive_through": "no", "email": "tadmit@012.net.il", "fax": "+972 4 695 9250", "internet_access": "wlan", "internet_access:ssid": "tadmit-Guest1", "name": "\u05e7\u05d9\u05d9\u05d8\u05e8\u05d9\u05e0\u05d2 \u05ea\u05d3\u05de\u05d9\u05ea", "name:en": "Tadmit", "name:he": "\u05e7\u05d9\u05d9\u05d8\u05e8\u05d9\u05e0\u05d2 \u05ea\u05d3\u05de\u05d9\u05ea", "outdoor_seating": "no", "phone": "+972 4 694 4508", "takeaway": "yes"}}, {"type": "node", "id": 5115026597, "lat": 33.2050622, "lon": 35.5691244, "tags": {"addr:city": "\u05e7\u05e8\u05d9\u05ea \u05e9\u05de\u05d5\u05e0\u05d4", "addr:housenumber": "10", "addr:street": "\u05e1\u05d9\u05e0\u05d9", "amenity": "restaurant", "contact:facebook": "https://he-il.facebook.com/%D7%94%D7%A4%D7%99%D7%A0%D7%94-%D7%A9%D7%9C-%D7%A2%D7%95%D7%91%D7%93-351287034956587/", "name": "\u05d4\u05e4\u05d9\u05e0\u05d4 \u05e9\u05dc \u05e2\u05d5\u05d1\u05d3", "name:en": "Corner of Oved", "name:he": "\u05d4\u05e4\u05d9\u05e0\u05d4 \u05e9\u05dc \u05e2\u05d5\u05d1\u05d3", "phone": "+972 54 255 0320"}}, {"type": "node", "id": 5115126898, "lat": 33.2120224, "lon": 35.5688682, "tags": {"addr:city": "\u05e7\u05e8\u05d9\u05ea \u05e9\u05de\u05d5\u05e0\u05d4", "addr:housenumber": "16", "addr:street": "\u05d4\u05de\u05db\u05d1\u05d9\u05dd", "amenity": "restaurant", "cuisine": "tex-mex", "delivery": "yes", "name": "\u05de\u05e7\u05e1\u05d9\u05e7\u05e0\u05d5 \u05d8\u05d5\u05e8\u05d8\u05d9\u05d4 \u05d1\u05e8", "name:en": "Mexicano tortilla BAR", "name:he": "\u05de\u05e7\u05e1\u05d9\u05e7\u05e0\u05d5 \u05d8\u05d5\u05e8\u05d8\u05d9\u05d4 \u05d1\u05e8", "name:it": "Mexicano Tortilla Bar", "opening_hours": "Su-We 12:00-02:30, Th 12:00-04:00, Sa 07:30-02:30", "outdoor_seating": "yes", "phone": "+972 53 937 0870;+972 4 627 5675", "takeaway": "yes"}}, {"type": "node", "id": 5115162603, "lat": 33.2118983, "lon": 35.5701315, "tags": {"amenity": "restaurant", "cuisine": "shawarma", "diet:kosher": "yes", "name": "\u05d4\u05e9\u05d5\u05d5\u05d0\u05e8\u05de\u05d4 \u05e9\u05dc \u05e6\u05d9\u05d5\u05df", "name:en": "The Shawarma of Zion", "name:he": "\u05d4\u05e9\u05d5\u05d5\u05d0\u05e8\u05de\u05d4 \u05e9\u05dc \u05e6\u05d9\u05d5\u05df"}}, {"type": "node", "id": 5128936020, "lat": 33.2102375, "lon": 35.5687527, "tags": {"addr:city": "\u05e7\u05e8\u05d9\u05ea \u05e9\u05de\u05d5\u05e0\u05d4", "addr:housenumber": "15", "addr:street": "\u05d0\u05e8\u05dc\u05d5\u05d6\u05d5\u05e8\u05d5\u05d1", "amenity": "restaurant", "cuisine": "pizza", "delivery": "yes", "diet:kosher": "yes", "name": "\u05e4\u05d9\u05e6\u05d4 \u05de\u05d8\u05e8\u05d9\u05e6\u05d4", "name:en": "Pizza Matrix", "name:he": "\u05e4\u05d9\u05e6\u05d4 \u05de\u05d8\u05e8\u05d9\u05e6\u05d4", "opening_hours": "Su-Th 11:00-01:00, Sa 20:30-01:00", "phone": "+972 4 694 4504"}}, {"type": "node", "id": 5128940825, "lat": 33.211508, "lon": 35.5700201, "tags": {"amenity": "restaurant", "cuisine": "burger", "name": "\u05d4\u05e7\u05d1\u05d1 \u05e9\u05dc \u05d0\u05e9\u05e8", "name:en": "Asher's Kabab", "name:he": "\u05d4\u05e7\u05d1\u05d1 \u05e9\u05dc \u05d0\u05e9\u05e8"}}, {"type": "node", "id": 5128943561, "lat": 33.2215567, "lon": 35.5753039, "tags": {"addr:city": "\u05e7\u05e8\u05d9\u05ea \u05e9\u05de\u05d5\u05e0\u05d4", "addr:housenumber": "4", "addr:postcode": "1102632", "addr:street": "\u05d4\u05e0\u05e9\u05d9\u05d0", "amenity": "cafe", "cuisine": "coffee_shop;sandwich", "diet:kosher": "yes", "name": "\u05dc\u05e0\u05d3\u05d5\u05d5\u05e8", "name:en": "Landwer", "name:he": "\u05dc\u05e0\u05d3\u05d5\u05d5\u05e8", "opening_hours": "Su-Th 08:00-00:00, Fr, Sa \"please inquire\"", "outdoor_seating": "yes", "phone": "+972 4 638 0221\u202c", "toilets": "yes", "website": "https://www.landwercafe.co.il/"}}, {"type": "node", "id": 5137057777, "lat": 33.2116257, "lon": 35.569519, "tags": {"amenity": "restaurant", "diet:kosher": "yes", "name": "\u05e1\u05e0\u05d3\u05d5\u05d5\u05d9\u05e6'\u05d4", "name:en": "Sandwiches", "name:he": "\u05e1\u05e0\u05d3\u05d5\u05d5\u05d9\u05e6'\u05d4", "phone": "+972 4 690 4443"}}, {"type": "node", "id": 5139796363, "lat": 33.2223026, "lon": 35.625966, "tags": {"addr:city": "\u05d4\u05d2\u05d5\u05e9\u05e8\u05d9\u05dd", "amenity": "restaurant", "contact:facebook": "https://www.facebook.com/people/La-luna-%D7%90%D7%99%D7%98%D7%9C%D7%99%D7%94-%D7%91%D7%92%D7%9C%D7%99%D7%9C/100064261533447/", "cuisine": "pizza;italian", "delivery": "yes", "name": "\u05dc\u05d4 \u05dc\u05d5\u05e0\u05d4 - \u05e4\u05d9\u05e6\u05d4", "name:en": "La Luna - Pizza", "name:he": "\u05dc\u05d4 \u05dc\u05d5\u05e0\u05d4 - \u05e4\u05d9\u05e6\u05d4", "opening_hours": "Su-Th 16:00-22:00; Sa 14:00-22:00", "phone": "073-397-6304", "reservation": "no", "website": "https://lalunapizza.co.il/", "website:menu": "https://lalunapizza.co.il/%d7%aa%d7%a4%d7%a8%d7%99%d7%98/"}}, {"type": "node", "id": 5143538759, "lat": 33.1979431, "lon": 35.5761098, "tags": {"amenity": "restaurant", "contact:facebook": "https://www.facebook.com/bataamasini/", "cuisine": "chinese", "delivery": "yes", "diet:kosher": "yes", "email": "batamasini@gmail.com", "name": "\u05d1\u05d8\u05e2\u05dd \u05d4\u05e1\u05d9\u05e0\u05d9", "name:en": "Chinese Taste", "name:he": "\u05d1\u05d8\u05e2\u05dd \u05d4\u05e1\u05d9\u05e0\u05d9", "name:it": "Chineeze Taste", "opening_hours": "Mo-Th, Su 11:00-22:30", "outdoor_seating": "yes", "phone": "+972 4 680 0663", "website": "http://bataam-hasini.inforu.mobi/", "wheelchair": "yes"}}, {"type": "node", "id": 5143557202, "lat": 33.2074782, "lon": 35.5689142, "tags": {"amenity": "restaurant", "contact:facebook": "https://www.facebook.com/burgerbomba/", "cuisine": "burger", "diet:kosher": "yes", "name": "\u05d1\u05d5\u05e8\u05d2\u05e8 \u05d1\u05d5\u05de\u05d1\u05d4", "name:en": "Burger Bomba", "name:he": "\u05d1\u05d5\u05e8\u05d2\u05e8 \u05d1\u05d5\u05de\u05d1\u05d4", "phone": "+972 77 403 0129"}}, {"type": "node", "id": 5143582538, "lat": 33.2211366, "lon": 35.5757253, "tags": {"addr:city": "\u05e7\u05e8\u05d9\u05ea \u05e9\u05de\u05d5\u05e0\u05d4", "addr:housenumber": "4", "addr:street": "\u05d4\u05e0\u05e9\u05d9\u05d0", "amenity": "restaurant", "contact:facebook": "https://www.facebook.com/%D7%A9%D7%99%D7%A4%D7%95%D7%93%D7%99-%D7%94%D7%AA%D7%A7%D7%95%D7%95%D7%94-%D7%A7%D7%A8%D7%99%D7%99%D7%AA-%D7%A9%D7%9E%D7%95%D7%A0%D7%94-667527110015168/", "delivery": "yes", "diet:kosher": "yes", "level": "1", "name": "\u05e9\u05d9\u05e4\u05d5\u05d3\u05d9 \u05d4\u05ea\u05e7\u05d5\u05d5\u05d4", "name:he": "\u05e9\u05d9\u05e4\u05d5\u05d3\u05d9 \u05d4\u05ea\u05e7\u05d5\u05d5\u05d4", "opening_hours": "Su-Th 12:00+", "outdoor_seating": "no", "phone": "+972 4 655 2555", "takeaway": "yes", "website": "http://hatikva.rest.co.il/he/home/"}}, {"type": "node", "id": 5143595379, "lat": 33.2215436, "lon": 35.575439, "tags": {"amenity": "restaurant", "cuisine": "italian", "diet:kosher": "yes", "level": "1", "name": "\u05d0\u05d9\u05d8\u05dc\u05d9\u05d4 \u05d4\u05e7\u05d8\u05e0\u05d4", "name:en": "Little Italia", "name:he": "\u05d0\u05d9\u05d8\u05dc\u05d9\u05d4 \u05d4\u05e7\u05d8\u05e0\u05d4"}}, {"type": "node", "id": 5147983274, "lat": 33.170073, "lon": 35.5705182, "tags": {"amenity": "restaurant", "contact:facebook": "https://www.facebook.com/uma.arburger/", "cuisine": "meat;burger", "name": "\u05d0\u05e8\u05d1\u05d5\u05e8\u05d2\u05e8", "name:en": "Arburger", "name:he": "\u05d0\u05e8\u05d1\u05d5\u05e8\u05d2\u05e8", "note": "Uma and Arburger are the same resturants but different name and kitchen", "opening_hours": "Su-Sa 12:00-00:00", "phone": "+972 4 959 7759;+972 53 937 6093", "toilets": "yes", "website": "https://www.2eat.co.il/uma/"}}, {"type": "node", "id": 5147983299, "lat": 33.1700673, "lon": 35.5709042, "tags": {"amenity": "restaurant", "contact:facebook": "https://www.facebook.com/%D7%A9%D7%95%D7%95%D7%90%D7%A8%D7%9E%D7%94-%D7%90%D7%9C%D7%91%D7%90%D7%A9%D7%90-1482479901982312/", "cuisine": "shawarma", "name": "\u05e9\u05d5\u05d5\u05d0\u05e8\u05de\u05d4 \u05d0\u05dc\u05d1\u05d0\u05e9\u05d0", "name:ar": "\u0634\u0648\u0627\u0631\u0645\u0629 \u0627\u0644\u0628\u0627\u0634\u0629", "name:en": "Shawarma Albasha", "name:he": "\u05e9\u05d5\u05d5\u05d0\u05e8\u05de\u05d4 \u05d0\u05dc\u05d1\u05d0\u05e9\u05d0", "phone": "+972 4 676 7677"}}, {"type": "node", "id": 5147987288, "lat": 33.1700703, "lon": 35.5706203, "tags": {"alt_name": "\u05d0\u05e8\u05d1\u05d5\u05e8\u05d2\u05e8", "alt_name:en": "Arburger", "amenity": "restaurant", "contact:facebook": "https://www.facebook.com/uma.arburger/", "contact:instagram": "uma_by_arikhagai", "cuisine": "asian;chinese;japanese;burger", "email": "arikhagai@gmail.com", "fax": "+972 4 681 7617", "name": "Uma", "name:en": "Uma", "name:he": "\u05d0\u05d5\u05de\u05d4", "note": "Uma and Arburger are the same resturants but different name and kitchen", "opening_hours": "Su-Sa 12:00-00:00", "phone": "+972 4 959 7759", "toilets": "yes", "website": "https://umarest.co.il", "wikidata": "Q66827629"}}, {"type": "node", "id": 5151399970, "lat": 32.9696622, "lon": 35.5506022, "tags": {"addr:city": "\u05e8\u05d0\u05e9 \u05e4\u05d9\u05e0\u05d4", "addr:housenumber": "3", "addr:street": "\u05d4\u05ea\u05e4\u05d5\u05d7", "amenity": "restaurant", "contact:facebook": "https://www.facebook.com/BurgusBurgerBar", "contact:instagram": "https://www.instagram.com/bbb_il/", "contact:youtube": "https://www.youtube.com/channel/UCxq_VB5dzzoqNC5Ahrd4Xsw/videos", "cuisine": "burger;meat", "email": "service@bbb3.co.il", "name": "Burgus Burger Bar", "name:en": "Burgus Burger Bar", "name:he": "\u05d1\u05d5\u05e8\u05d2\u05d5\u05e1 \u05d1\u05d5\u05e8\u05d2\u05e8 \u05d1\u05e8", "opening_hours": "Su-We 12:00-00:00, Th-Sa 12:00-01:00", "opening_hours:url": "https://burgus.co.il/?item=77&section=3", "outdoor_seating": "yes", "phone": "+972 4 686 0222", "website": "https://burgus.co.il/"}}, {"type": "node", "id": 5153572592, "lat": 33.2283008, "lon": 35.6411025, "tags": {"amenity": "restaurant", "cuisine": "pizza", "name": "Pizza Truck", "name:en": "Pizza Truck", "name:he": "\u05de\u05e9\u05d0\u05d9\u05ea \u05e9\u05dc \u05e4\u05d9\u05e6\u05d4", "outdoor_seating": "yes"}}, {"type": "node", "id": 5159500271, "lat": 33.1958749, "lon": 35.6583694, "tags": {"amenity": "restaurant", "cuisine": "schnitzel", "delivery": "yes", "name": "\u05e9\u05e0\u05d9\u05e6\u05dc \u05e2\u05dd \u05d7\u05d9\u05d5\u05da", "name:en": "Schnitzel With a Smile", "name:he": "\u05e9\u05e0\u05d9\u05e6\u05dc \u05e2\u05dd \u05d7\u05d9\u05d5\u05da", "opening_hours": "Mo-Th, Su 12:00-00:00", "phone": "+972 50 229 0779"}}, {"type": "node", "id": 5176327119, "lat": 33.2108804, "lon": 35.5690521, "tags": {"amenity": "restaurant", "diet:kosher": "yes", "name": "\u05d4\u05e9\u05e0\u05d9\u05e6\u05dc\u05d9\u05d4", "name:en": "Shnitzel", "name:he": "\u05d4\u05e9\u05e0\u05d9\u05e6\u05dc\u05d9\u05d4", "phone": "+972 4 821 20 42"}}, {"type": "node", "id": 5181482358, "lat": 33.2074347, "lon": 35.5701325, "tags": {"addr:city": "\u05e7\u05e8\u05d9\u05ea \u05e9\u05de\u05d5\u05e0\u05d4", "addr:housenumber": "77", "addr:street": "\u05ea\u05dc \u05d7\u05d9", "amenity": "restaurant", "cuisine": "meat", "delivery": "yes", "diet:kosher": "yes", "name": "\u05d2\u05d9\u05d2\u05e1 \u05d1\u05e8 \u05d0\u05e0\u05d8\u05e8\u05d9\u05e7\u05d5\u05d8", "name:en": "Giggs bar antrikot", "name:he": "\u05d2\u05d9\u05d2\u05e1 \u05d1\u05e8 \u05d0\u05e0\u05d8\u05e8\u05d9\u05e7\u05d5\u05d8", "name:it": "Giggs Bar Antrikot", "opening_hours": "Su-Th 11:00-23:00; Fr, Sa unknown \"please inquire\"", "phone": "+972 77 481 5269"}}, {"type": "node", "id": 5186610427, "lat": 32.9686683, "lon": 35.5504143, "tags": {"addr:city": "\u05e8\u05d0\u05e9 \u05e4\u05d9\u05e0\u05d4", "amenity": "cafe", "contact:facebook": "https://www.facebook.com/roladin/", "contact:instagram": "https://www.instagram.com/roladin_il/", "diet:kosher": "yes", "internet_access": "wlan", "name": "\u05e8\u05d5\u05dc\u05d3\u05d9\u05df", "name:en": "Roladin", "name:he": "\u05e8\u05d5\u05dc\u05d3\u05d9\u05df", "opening_hours": "Su-Th 07:00-21:30; Fr unknown \"please inquire\"", "outdoor_seating": "yes", "phone": "+972 4 638 5533", "website": "https://www.roladin.co.il/"}}, {"type": "node", "id": 5197615422, "lat": 33.2568722, "lon": 35.2164053, "tags": {"amenity": "restaurant", "contact:mobile": "+961 70 771 166", "cuisine": "lebanese", "internet_access": "wlan", "name": "\u0643\u062d\u0644\u0648\u0646", "name:ar": "\u0643\u062d\u0644\u0648\u0646", "name:en": "Kahloon", "name:fr": "Kahloon"}}, {"type": "node", "id": 5230830785, "lat": 33.2207677, "lon": 35.5904753, "tags": {"amenity": "restaurant", "email": "benjolina99@gmail.com", "internet_access": "wlan", "internet_access:ssid": "Benjolina1", "name": "\u05d1\u05e0\u05d2'\u05d5\u05dc\u05d9\u05e0\u05d4", "name:en": "Benjolina", "name:he": "\u05d1\u05e0\u05d2'\u05d5\u05dc\u05d9\u05e0\u05d4", "opening_hours": "Mo-Fr 12:00-22:30; Sa 12:00-21:30", "outdoor_seating": "yes", "phone": "+972 4 660 0876", "toilets": "yes", "website": "https://www.benjolina.co.il/", "wheelchair": "limited"}}, {"type": "node", "id": 5230844364, "lat": 33.2207694, "lon": 35.5907137, "tags": {"amenity": "restaurant", "cuisine": "indian", "name": "\u05d8\u05d0\u05dc\u05d9", "name:en": "Thali", "name:he": "\u05d8\u05d0\u05dc\u05d9", "opening_hours": "Su, Mo 12:00-22:00, Tu-Th 12:00-02:00, Fr 12:00-16:00", "phone": "+972 4 607 7764", "reservation": "required", "takeaway": "yes"}}, {"type": "node", "id": 5299579979, "lat": 33.1969601, "lon": 35.5723635, "tags": {"addr:city": "\u05e7\u05e8\u05d9\u05ea \u05e9\u05de\u05d5\u05e0\u05d4", "addr:street": "\u05d4\u05e4\u05dc\u05d3\u05d4", "amenity": "restaurant", "name": "\u05e7\u05e4\u05d4 \u05d0\u05d9\u05dc\u05df", "name:en": "Eilan Coffee", "name:he": "\u05e7\u05e4\u05d4 \u05d0\u05d9\u05dc\u05df"}}, {"type": "node", "id": 5299594181, "lat": 33.1986913, "lon": 35.5764871, "tags": {"amenity": "restaurant", "diet:kosher": "yes", "name": "\u05d0\u05e1\u05ea\u05e8\u05d9\u05e7\u05d4", "name:he": "\u05d0\u05e1\u05ea\u05e8\u05d9\u05e7\u05d4", "phone": "+972 4 652 5032"}}, {"type": "node", "id": 5302016863, "lat": 32.9814004, "lon": 35.5452064, "tags": {"amenity": "restaurant", "name": "\u05e9\u05d9\u05e4\u05d5\u05d3\u05d9 \u05d2\u05d2\u05d5", "name:he": "\u05e9\u05d9\u05e4\u05d5\u05d3\u05d9 \u05d2\u05d2\u05d5"}}, {"type": "node", "id": 5302040666, "lat": 32.98252, "lon": 35.5525685, "tags": {"amenity": "restaurant", "diet:kosher": "yes", "name": "\u05de\u05e1\u05e2\u05d3\u05ea \u05d7\u05d5\u05de\u05d5\u05e1 \u05d0\u05dc\u05d5\u05df", "name:he": "\u05de\u05e1\u05e2\u05d3\u05ea \u05d7\u05d5\u05de\u05d5\u05e1 \u05d0\u05dc\u05d5\u05df", "opening_hours": "Su-Th 08:00-18:00; Fr 08:00-14:00", "phone": "+972 4 680 2788"}}, {"type": "node", "id": 5382683457, "lat": 33.2794333, "lon": 35.5784885, "tags": {"amenity": "cafe", "name": "\u05d1\u05e8\u05e0\u05e8", "name:en": "Brenner", "name:he": "\u05d1\u05e8\u05e0\u05e8"}}, {"type": "node", "id": 5390494182, "lat": 33.1958759, "lon": 35.5699137, "tags": {"amenity": "restaurant", "contact:facebook": "https://www.facebook.com/pg/amigos.k8", "cuisine": "meat", "email": "info@amigos-rest.com", "name": "Amigos", "name:en": "Amigos", "name:he": "\u05d0\u05de\u05d9\u05d2\u05d5\u05e1", "phone": "+972 52 721 1672", "website": "http://www.amigos-rest.com/"}}, {"type": "node", "id": 5456137019, "lat": 33.223909, "lon": 35.614756, "tags": {"amenity": "cafe", "brand": "Rebar", "brand:en": "Rebar", "brand:he": "\u05e8\u05d9\u05d1\u05d0\u05e8", "brand:wikidata": "Q25490532", "brand:wikipedia": "he:ReBar", "coffee": "no", "contact:facebook": "https://www.facebook.com/rebarisrael/", "contact:instagram": "https://www.instagram.com/rebarisrael/", "drink:juice": "served", "email": "info@rebar.co.il", "name": "Rebar", "name:en": "Rebar", "name:he": "\u05e8\u05d9\u05d1\u05d0\u05e8", "opening_hours": "Su-Th 08:30-22:00; Fr 08:30-16:00; Sa 08:30-22:00", "outdoor_seating": "yes", "toilets": "no", "website": "https://www.rebar.co.il/", "wheelchair": "limited"}}, {"type": "node", "id": 5462798089, "lat": 32.9903412, "lon": 35.5634005, "tags": {"amenity": "restaurant", "contact:facebook": "https://www.facebook.com/kvish90", "cuisine": "burger", "email": "ransasson22@gmail.com", "name": "\u05db\u05d1\u05d9\u05e9 90", "name:en": "Kvish 90", "name:he": "\u05db\u05d1\u05d9\u05e9 90", "opening_hours": "Su-Sa 12:00+", "outdoor_seating": "yes", "phone": "+972 4 616 0190", "toilets": "yes", "website": "https://www.kvish90.com", "wikidata": "Q66689370"}}, {"type": "node", "id": 5464011822, "lat": 33.3764537, "lon": 35.4855169}, {"type": "node", "id": 5489269421, "lat": 32.971898, "lon": 35.4935888, "tags": {"amenity": "restaurant", "name:en": "HaAri 8"}}, {"type": "node", "id": 5498984564, "lat": 33.2092675, "lon": 35.5691219, "tags": {"addr:city": "\u05e7\u05e8\u05d9\u05ea \u05e9\u05de\u05d5\u05e0\u05d4", "addr:housenumber": "3", "addr:street": "\u05d0\u05e8\u05dc\u05d5\u05d6\u05d5\u05e8\u05d5\u05d1", "addr:street:en": "Arlosoroff", "amenity": "cafe", "contact:facebook": "https://www.facebook.com/%D7%A7%D7%A4%D7%94-%D7%A7%D7%A4%D7%9C%D7%94-1269490316427577/", "cuisine": "coffee_shop", "name": "\u05e7\u05e4\u05dc\u05d4", "name:en": "Kapla", "name:he": "\u05e7\u05e4\u05dc\u05d4", "phone": "+972 50 450 4898"}}, {"type": "node", "id": 5498992177, "lat": 32.9688559, "lon": 35.5500188, "tags": {"addr:city": "\u05e8\u05d0\u05e9 \u05e4\u05d9\u05e0\u05d4", "amenity": "cafe", "brand": "\u05e7\u05e4\u05d4 \u05d2\u05e8\u05d2", "brand:en": "Greg Cafe", "brand:he": "\u05e7\u05e4\u05d4 \u05d2\u05e8\u05d2", "brand:wikidata": "Q43295499", "brand:wikipedia": "he:\u05e7\u05e4\u05d4 \u05d2\u05e8\u05d2", "cuisine": "coffee_shop", "diet:kosher": "yes", "name": "\u05e7\u05e4\u05d4 \u05d2\u05e8\u05d2", "name:en": "Cafe Greg", "name:he": "\u05e7\u05e4\u05d4 \u05d2\u05e8\u05d2", "outdoor_seating": "yes", "takeaway": "yes"}}, {"type": "node", "id": 5577389315, "lat": 33.080592, "lon": 35.4224162, "tags": {"addr:city": "\u064a\u0627\u0631\u0648\u0646", "alt_name": "\u0645\u0627\u0631\u0648\u0646 \u0627\u0644\u0631\u0627\u0633", "amenity": "restaurant", "name": "\u0645\u0627\u0631\u0648\u0646 \u0627\u0644\u0631\u0623\u0633", "name:ar": "\u0645\u0627\u0631\u0648\u0646 \u0627\u0644\u0631\u0623\u0633"}}, {"type": "node", "id": 5613143407, "lat": 33.0463548, "lon": 35.5708238, "tags": {"amenity": "restaurant", "contact:facebook": "https://www.facebook.com/www.meatshos.co.il/", "contact:instagram": "https://www.instagram.com/meatshos/", "cuisine": "meat", "name": "\u05de\u05d9\u05d8\u05e9\u05d5\u05e1", "name:en": "Meatshos", "name:he": "\u05de\u05d9\u05d8\u05e9\u05d5\u05e1", "opening_hours": "Mo-Sa 12:00-22:30", "phone": "+972 4 699 7005", "website": "https://www.meatshos.co.il/"}}, {"type": "node", "id": 5613156025, "lat": 32.9690167, "lon": 35.5488434, "tags": {"addr:city": "\u05e8\u05d0\u05e9 \u05e4\u05d9\u05e0\u05d4", "addr:housenumber": "1", "addr:street": "\u05de\u05e2\u05dc\u05d4 \u05d2\u05d9\u05d0 \u05d0\u05d5\u05e0\u05d9", "amenity": "cafe", "contact:facebook": "https://www.facebook.com/cafelandwer", "contact:instagram": "https://www.instagram.com/landwer_cafe/", "contact:youtube": "https://www.youtube.com/channel/UCGVo3RgqAVfjMVPVgeIQmyQ", "diet:kosher": "no", "drinking_water": "yes", "email": "office@landwercafe.co.il", "internet_access": "wlan", "name": "\u05dc\u05e0\u05d3\u05d5\u05d5\u05e8", "name:en": "Landwer", "name:he": "\u05dc\u05e0\u05d3\u05d5\u05d5\u05e8", "opening_hours": "Su-Sa 08:00-23:00", "phone": "+972 4 874 7555", "toilets": "yes", "website": "https://www.landwercafe.co.il/"}}, {"type": "node", "id": 5711530694, "lat": 33.2109125, "lon": 35.5691857, "tags": {"addr:city": "\u05e7\u05e8\u05d9\u05ea \u05e9\u05de\u05d5\u05e0\u05d4", "addr:housenumber": "4", "addr:street": "\u05d8\u05e9\u05e8\u05e0\u05d9\u05d7\u05d5\u05d1\u05e1\u05e7\u05d9", "amenity": "cafe", "contact:facebook": "https://www.facebook.com/gregcafe/?fref=nf", "contact:youtube": "https://www.youtube.com/user/gregcafe1", "cuisine": "coffee_shop", "diet:kosher": "yes", "diet:vegan": "yes", "diet:vegetarian": "yes", "internet_access": "wlan", "name": "\u05e7\u05e4\u05d4 \u05d2\u05e8\u05d2", "name:en": "Cafe Greg", "name:he": "\u05e7\u05e4\u05d4 \u05d2\u05e8\u05d2", "name:it": "Gref", "opening_hours": "Su-Fr 08:00-21:00; Sa unknown \"please inquire\"", "phone": "+972 4 871 3710", "takeaway": "yes", "website": "https://gregcafe.co.il/"}}, {"type": "node", "id": 5711545371, "lat": 32.9905645, "lon": 35.56254, "tags": {"amenity": "restaurant", "cuisine": "regional;kebab", "name": "\u05de\u05e1\u05e2\u05d3\u05ea \u05d0\u05dc \u05d1\u05d0\u05e9\u05d0", "name:he": "\u05de\u05e1\u05e2\u05d3\u05ea \u05d0\u05dc \u05d1\u05d0\u05e9\u05d0", "outdoor_seating": "yes", "toilets": "yes"}}, {"type": "node", "id": 5711545461, "lat": 32.9681896, "lon": 35.5484588, "tags": {"amenity": "restaurant", "diet:kosher": "yes", "name": "\u05e9\u05d9\u05e4\u05d5\u05d3\u05d9 \u05e8\u05d7\u05de\u05d9\u05dd \u05e9\u05de\u05d7\u05d4 \u05d5\u05d1\u05e0\u05d9\u05d5", "name:he": "\u05e9\u05d9\u05e4\u05d5\u05d3\u05d9 \u05e8\u05d7\u05de\u05d9\u05dd \u05e9\u05de\u05d7\u05d4 \u05d5\u05d1\u05e0\u05d9\u05d5"}}, {"type": "node", "id": 5713129467, "lat": 33.279238, "lon": 35.5784658, "tags": {"amenity": "cafe", "name": "\u05e7\u05e4\u05d9\u05d8\u05e8\u05d9\u05d4", "name:he": "\u05e7\u05e4\u05d9\u05d8\u05e8\u05d9\u05d4"}}, {"type": "node", "id": 5713155683, "lat": 33.2805834, "lon": 35.5793634, "tags": {"addr:city": "\u05de\u05d8\u05d5\u05dc\u05d4", "addr:housenumber": "42", "addr:street": "\u05d4\u05e8\u05d0\u05e9\u05d5\u05e0\u05d9\u05dd", "amenity": "restaurant", "contact:facebook": "https://m.facebook.com/LishanskyHotel/", "email": "israelli72@gmail.com", "name": "\u05dc\u05d9\u05e9\u05e0\u05e1\u05e7\u05d9", "name:en": "Lishansky", "name:he": "\u05dc\u05d9\u05e9\u05e0\u05e1\u05e7\u05d9", "phone": "+972 4 699 7184"}}, {"type": "node", "id": 5713161271, "lat": 33.2813614, "lon": 35.5790746, "tags": {"amenity": "cafe", "cuisine": "coffee_shop", "name": "\u05e7\u05e4\u05d4 \u05de\u05e1\u05e2\u05d3\u05d4 \u05e0\u05d8\u05dc\u05d9", "name:en": "Cafe Restaurant Natalie", "name:he": "\u05e7\u05e4\u05d4 \u05de\u05e1\u05e2\u05d3\u05d4 \u05e0\u05d8\u05dc\u05d9"}}, {"type": "node", "id": 5728427295, "lat": 32.9684018, "lon": 35.548564, "tags": {"addr:city": "\u05e8\u05d0\u05e9 \u05e4\u05d9\u05e0\u05d4", "addr:housenumber": "1", "addr:street": "\u05d4\u05d2\u05dc\u05d9\u05dc", "amenity": "restaurant", "contact:facebook": "https://www.facebook.com/japanika.net", "contact:instagram": "http://i.instagram.com/japanikaisrael", "cuisine": "japanese;sushi", "diet:kosher": "yes", "name": "Japanika", "name:en": "Japanika", "name:he": "\u05d2'\u05e4\u05e0\u05d9\u05e7\u05d4", "opening_hours": "Su-Th 12:00-00:00; Fr, Sa unknown \"Please inquire\"", "smoking": "outside", "website": "https://www.japanika.net/", "wheelchair": "yes"}}, {"type": "node", "id": 5758515713, "lat": 33.2117216, "lon": 35.5689271, "tags": {"amenity": "cafe", "cuisine": "coffee_shop;cafe", "name": "Coffee Nino", "name:en": "Coffee Nino", "name:he": "\u05e7\u05e4\u05d4 \u05e0\u05d9\u05e0\u05d5"}}, {"type": "node", "id": 5767987153, "lat": 33.2905913, "lon": 35.2276232, "tags": {"amenity": "restaurant", "name": "\u0627\u0644\u0641\u062e\u0627\u0631"}}, {"type": "node", "id": 5853761588, "lat": 33.2241806, "lon": 35.6148844, "tags": {"amenity": "restaurant", "diet:kosher": "yes", "name": "\u05d4\u05e9\u05d9\u05e4\u05d5\u05d3\u05d9\u05d4 \u05d1\u05d2\u05df", "name:he": "\u05d4\u05e9\u05d9\u05e4\u05d5\u05d3\u05d9\u05d4 \u05d1\u05d2\u05df"}}, {"type": "node", "id": 5853761597, "lat": 33.2240002, "lon": 35.6147986, "tags": {"amenity": "restaurant", "name": "\u05d4\u05de\u05db\u05e9\u05e4\u05d4 \u05d5\u05d4\u05d7\u05dc\u05d1\u05df", "name:en": "The Witch and The Milkman", "name:he": "\u05d4\u05de\u05db\u05e9\u05e4\u05d4 \u05d5\u05d4\u05d7\u05dc\u05d1\u05df", "opening_hours": "Mo-Su 09:00-22:30"}}, {"type": "node", "id": 5859033784, "lat": 33.3443889, "lon": 35.57582}, {"type": "node", "id": 5859034485, "lat": 33.344241, "lon": 35.5757112}, {"type": "node", "id": 5859034486, "lat": 33.3441894, "lon": 35.5758117}, {"type": "node", "id": 5859034487, "lat": 33.3443373, "lon": 35.5759205}, {"type": "node", "id": 5859501201, "lat": 33.3405258, "lon": 35.5735986}, {"type": "node", "id": 5859501204, "lat": 33.3405074, "lon": 35.5736819}, {"type": "node", "id": 5859501205, "lat": 33.3428469, "lon": 35.5752252}, {"type": "node", "id": 5859501206, "lat": 33.3426843, "lon": 35.5751219}, {"type": "node", "id": 5859501207, "lat": 33.3426656, "lon": 35.5751642}, {"type": "node", "id": 5859501208, "lat": 33.3426167, "lon": 35.5751331}, {"type": "node", "id": 5859501209, "lat": 33.3425991, "lon": 35.5751728}, {"type": "node", "id": 5859501210, "lat": 33.3428106, "lon": 35.5753071}, {"type": "node", "id": 5859501211, "lat": 33.3507869, "lon": 35.5818272}, {"type": "node", "id": 5859501212, "lat": 33.3506559, "lon": 35.5817172}, {"type": "node", "id": 5859501213, "lat": 33.3504831, "lon": 35.582012}, {"type": "node", "id": 5859501214, "lat": 33.3505633, "lon": 35.5820794}, {"type": "node", "id": 5859501215, "lat": 33.3533255, "lon": 35.5834904}, {"type": "node", "id": 5859501216, "lat": 33.3532837, "lon": 35.5835595}, {"type": "node", "id": 5859501217, "lat": 33.3533255, "lon": 35.5835958}, {"type": "node", "id": 5859501218, "lat": 33.353164, "lon": 35.5838628}, {"type": "node", "id": 5859501219, "lat": 33.3530352, "lon": 35.5837511}, {"type": "node", "id": 5859501221, "lat": 33.3532385, "lon": 35.5834149}, {"type": "node", "id": 5980997284, "lat": 33.0457475, "lon": 35.5733105, "tags": {"addr:city": "\u05d9\u05e1\u05d5\u05d3 \u05d4\u05de\u05e2\u05dc\u05d4", "alt_name:en": "Cafe Cafe", "amenity": "cafe", "brand:wikidata": "Q5017233", "brand:wikipedia": "he:\u05e7\u05e4\u05d4 \u05e7\u05e4\u05d4", "contact:facebook": "https://www.facebook.com/cafe.cafe.il", "contact:instagram": "https://www.instagram.com/cafe_cafe_official/", "cuisine": "coffee_shop", "delivery": "no", "name": "\u05e7\u05e4\u05d4 \u05e7\u05e4\u05d4", "name:en": "Cafe Cafe", "name:he": "\u05e7\u05e4\u05d4 \u05e7\u05e4\u05d4", "opening_hours": "Sa-Th 08:00-23:00; Fr 06:30-23:00", "phone": "+972 4 853 8228", "takeaway": "yes", "website": "https://www.cafecafe.co.il/", "wheelchair": "yes"}}, {"type": "node", "id": 5997940257, "lat": 33.115815, "lon": 35.5732026, "tags": {"alt_name:en": "Nimrod Coffee", "amenity": "cafe", "brand": "\u05e7\u05e4\u05d4 \u05e0\u05de\u05e8\u05d5\u05d3", "brand:en": "Cafe Nimrod", "brand:he": "\u05e7\u05e4\u05d4 \u05e0\u05de\u05e8\u05d5\u05d3", "brand:website": "https://www.cafenimrod.com/", "cuisine": "coffee_shop", "name": "\u05e7\u05e4\u05d4 \u05e0\u05de\u05e8\u05d5\u05d3", "name:en": "Cafe Nimrod", "name:he": "\u05e7\u05e4\u05d4 \u05e0\u05de\u05e8\u05d5\u05d3", "opening_hours": "Su-Th 09:00+; Fr-Sa 08:30+", "phone": "+972 4 871 6407"}}, {"type": "node", "id": 6014905295, "lat": 32.9696112, "lon": 35.5497693, "tags": {"addr:city": "\u05e8\u05d0\u05e9 \u05e4\u05d9\u05e0\u05d4", "amenity": "restaurant", "contact:facebook": "https://www.facebook.com/%D7%A4%D7%99%D7%A6%D7%94-%D7%A1%D7%99%D7%A6%D7%99%D7%9C%D7%99%D7%90%D7%A0%D7%95-%D7%A8%D7%90%D7%A9-%D7%A4%D7%99%D7%A0%D7%94-1492399837739698/", "cuisine": "pizza", "name": "\u05e4\u05d9\u05e6\u05d4 \u05e1\u05d9\u05e6\u05d9\u05dc\u05d9\u05d0\u05e0\u05d5", "name:he": "\u05e4\u05d9\u05e6\u05d4 \u05e1\u05d9\u05e6\u05d9\u05dc\u05d9\u05d0\u05e0\u05d5"}}, {"type": "node", "id": 6014908134, "lat": 32.9701485, "lon": 35.5498406, "tags": {"amenity": "restaurant", "contact:facebook": "https://www.facebook.com/%D7%A9%D7%99%D7%A4%D7%95%D7%93%D7%99m-%D7%A8%D7%90%D7%A9-%D7%A4%D7%99%D7%A0%D7%94-1845726635715116/", "diet:kosher": "yes", "name": "\u05e9\u05d9\u05e4\u05d5\u05d3\u05d9M", "name:he": "\u05e9\u05d9\u05e4\u05d5\u05d3\u05d9M"}}, {"type": "node", "id": 6015019892, "lat": 32.9689383, "lon": 35.5500764, "tags": {"addr:city": "\u05e8\u05d0\u05e9 \u05e4\u05d9\u05e0\u05d4", "amenity": "cafe", "brand:wikidata": "Q25490532", "brand:wikipedia": "he:ReBar", "coffee": "no", "contact:facebook": "https://www.facebook.com/rebarisrael/", "contact:instagram": "https://www.instagram.com/rebarisrael/", "drink:juice": "served", "email": "info@rebar.co.il", "name": "Rebar", "name:en": "Rebar", "opening_hours": "Su-Th 09:00-22:00; Fr 09:00-15:00; Sa (Sunset+00:30)-23:00", "website": "https://www.rebar.co.il/"}}, {"type": "node", "id": 6077181339, "lat": 33.1157446, "lon": 35.5732639, "tags": {"amenity": "restaurant", "contact:facebook": "https://www.facebook.com/gallianorest/", "cuisine": "italian", "diet:kosher": "no", "internet_access": "no", "name": "\u05d2\u05dc\u05d9\u05d0\u05e0\u05d5", "name:en": "Galliano", "name:he": "\u05d2\u05dc\u05d9\u05d0\u05e0\u05d5", "opening_hours": "Su-Sa 12:00-00:00", "outdoor_seating": "no", "phone": "+972 4 813 5444", "smoking": "no", "takeaway": "yes", "website": "https://galiano.rest.co.il/", "wheelchair": "yes"}}, {"type": "node", "id": 6123158347, "lat": 32.9588126, "lon": 35.4918844, "tags": {"amenity": "restaurant", "name": "\u05d7\u05d8\u05d9\u05e4\u05d9 \u05ea\u05d9\u05de\u05df", "name:he": "\u05d7\u05d8\u05d9\u05e4\u05d9 \u05ea\u05d9\u05de\u05df"}}, {"type": "node", "id": 6150191271, "lat": 33.2392473, "lon": 35.7023473, "tags": {"amenity": "restaurant", "name": "\u05de\u05e1\u05d9\u05d9\u05d0\u05e3", "name:he": "\u05de\u05e1\u05d9\u05d9\u05d0\u05e3"}}, {"type": "node", "id": 6150191272, "lat": 33.2393054, "lon": 35.7021935, "tags": {"amenity": "cafe", "name": "\u05e7\u05e4\u05d4 \u05e1\u05d0\u05d3\u05d0", "name:he": "\u05e7\u05e4\u05d4 \u05e1\u05d0\u05d3\u05d0"}}, {"type": "node", "id": 6158555986, "lat": 33.3935744, "lon": 35.418695, "tags": {"addr:city": "\u0627\u0644\u062f\u0648\u064a\u0631", "amenity": "restaurant", "name": "\u0645\u0637\u0639\u0645 \u0627\u0644\u0645\u062e\u062a\u0627\u0631", "name:ar": "\u0645\u0637\u0639\u0645 \u0627\u0644\u0645\u062e\u062a\u0627\u0631"}}, {"type": "node", "id": 6328336013, "lat": 32.9825099, "lon": 35.5574303, "tags": {"addr:city": "\u05d7\u05e6\u05d5\u05e8 \u05d4\u05d2\u05dc\u05d9\u05dc\u05d9\u05ea", "amenity": "cafe", "cuisine": "coffee_shop", "name": "\u05e7\u05e4\u05d4 JOE", "name:en": "Cafe Joe", "name:he": "\u05e7\u05e4\u05d4 JOE"}}, {"type": "node", "id": 6344254690, "lat": 33.1490096, "lon": 35.4379508}, {"type": "node", "id": 6344254802, "lat": 33.1488843, "lon": 35.4379727}, {"type": "node", "id": 6344254803, "lat": 33.1488761, "lon": 35.4379057}, {"type": "node", "id": 6344254804, "lat": 33.1490014, "lon": 35.4378838}, {"type": "node", "id": 6372262511, "lat": 33.3918203, "lon": 35.508711}, {"type": "node", "id": 6372262512, "lat": 33.3918188, "lon": 35.5084417}, {"type": "node", "id": 6372262513, "lat": 33.3919453, "lon": 35.5084407}, {"type": "node", "id": 6398860786, "lat": 33.0502558, "lon": 35.4889829, "tags": {"amenity": "restaurant", "name": "\u05de\u05e1\u05e2\u05d3\u05ea \u05e0\u05dc\u05e6'\u05d9\u05e7", "name:en": "Nelchik Restaurant", "name:he": "\u05de\u05e1\u05e2\u05d3\u05ea \u05e0\u05dc\u05e6'\u05d9\u05e7"}}, {"type": "node", "id": 6464242540, "lat": 33.2206993, "lon": 35.5889395, "tags": {"amenity": "restaurant", "name": "\u05d8\u05d0\u05d1\u05d5\u05dc\u05d4 \u05e8\u05d0\u05e1\u05d4", "name:en": "Tabula Rasa", "name:he": "\u05d8\u05d0\u05d1\u05d5\u05dc\u05d4 \u05e8\u05d0\u05e1\u05d4"}}, {"type": "node", "id": 6464263478, "lat": 32.9673474, "lon": 35.5375941, "tags": {"addr:city": "\u05e8\u05d0\u05e9 \u05e4\u05d9\u05e0\u05d4", "alt_name": "\u05d0\u05d7\u05d5\u05d6\u05ea \u05e9\u05d5\u05dc\u05de\u05d9\u05ea", "amenity": "restaurant", "email": "shulamit@shulamit.co.il", "fax": "+972 4 693 1495", "name": "\u05d0\u05d7\u05d5\u05d5\u05ea \u05e9\u05d5\u05dc\u05de\u05d9\u05ea", "name:en": "Shulamit Manor", "name:he": "\u05d0\u05d7\u05d5\u05d5\u05ea \u05e9\u05d5\u05dc\u05de\u05d9\u05ea", "phone": "+972 4 693 1485", "website": "http://www.shulamit.co.il"}}, {"type": "node", "id": 6482702439, "lat": 32.9881405, "lon": 35.266532, "tags": {"amenity": "restaurant", "cuisine": "arab", "name": "\u05d0\u05dc\u05de\u05e0\u05e1\u05e3", "name:he": "\u05d0\u05dc\u05de\u05e0\u05e1\u05e3"}}, {"type": "node", "id": 6511522731, "lat": 33.2233832, "lon": 35.6150482, "tags": {"amenity": "restaurant", "name": "Smoky bar", "name:en": "Smoky bar"}}, {"type": "node", "id": 6512849574, "lat": 33.217922, "lon": 35.5872493, "tags": {"alt_name:en": "Cafe Zfoni;Coffee Tzfone", "amenity": "cafe", "atm": "yes", "cuisine": "cafe", "diet:kosher": "yes", "name": "\u05e7\u05e4\u05d4 \u05e6\u05e4\u05d5\u05e0\u05d9", "name:en": "Northern coffee", "name:he": "\u05e7\u05e4\u05d4 \u05e6\u05e4\u05d5\u05e0\u05d9", "outdoor_seating": "yes"}}, {"type": "node", "id": 6531709739, "lat": 33.0452696, "lon": 35.5734823, "tags": {"amenity": "restaurant", "diet:kosher": "yes", "name": "\u05de\u05e4\u05d2\u05e9 \u05d4\u05de\u05d6\u05dc", "name:he": "\u05de\u05e4\u05d2\u05e9 \u05d4\u05de\u05d6\u05dc"}}, {"type": "node", "id": 6532297809, "lat": 33.0573931, "lon": 35.6090535, "tags": {"addr:city": "\u05d9\u05e1\u05d5\u05d3 \u05d4\u05de\u05e2\u05dc\u05d4", "amenity": "restaurant", "contact:facebook": "https://www.facebook.com/%D7%A4%D7%95-%D7%91%D7%9B%D7%99%D7%9B%D7%A8-2089031231345700/", "contact:instagram": "https://www.instagram.com/pooh_home_restaurant/", "name": "\u05e4\u05d5 \u05d1\u05db\u05d9\u05db\u05e8", "name:en": "Pooh Bakikar", "name:he": "\u05e4\u05d5 \u05d1\u05db\u05d9\u05db\u05e8", "opening_hours": "Su-Th 08:00-16:00; Fr 07:00-14:00", "phone": "+972 50 789 3205", "takeaway": "yes"}}, {"type": "node", "id": 6545190948, "lat": 32.9685487, "lon": 35.54863, "tags": {"amenity": "restaurant", "diet:kosher": "yes", "name": "Mexicanas", "name:en": "Mexicanas"}}, {"type": "node", "id": 6573083786, "lat": 32.9694119, "lon": 35.4921972, "tags": {"amenity": "restaurant", "diet:gluten_free": "yes", "name": "Elements Gluten Free", "name:en": "Elements Gluten Free"}}, {"type": "node", "id": 6612813599, "lat": 33.3437451, "lon": 35.5750791}, {"type": "node", "id": 6612813601, "lat": 33.343908, "lon": 35.5751295}, {"type": "node", "id": 6612813602, "lat": 33.3436727, "lon": 35.575414}, {"type": "node", "id": 6612813603, "lat": 33.3438356, "lon": 35.5754645}, {"type": "node", "id": 6612813620, "lat": 33.3405534, "lon": 35.5739665}, {"type": "node", "id": 6612813621, "lat": 33.3404016, "lon": 35.5739108}, {"type": "node", "id": 6612813622, "lat": 33.3403702, "lon": 35.5740338}, {"type": "node", "id": 6612813623, "lat": 33.340522, "lon": 35.5740894}, {"type": "node", "id": 6612813628, "lat": 33.3477236, "lon": 35.5787945}, {"type": "node", "id": 6612813629, "lat": 33.3476256, "lon": 35.578728}, {"type": "node", "id": 6612813630, "lat": 33.3475293, "lon": 35.5789314}, {"type": "node", "id": 6612813631, "lat": 33.3476273, "lon": 35.5789979}, {"type": "node", "id": 6619012804, "lat": 33.2635061, "lon": 35.6218067}, {"type": "node", "id": 6619012805, "lat": 33.2628576, "lon": 35.6212627}, {"type": "node", "id": 6619012810, "lat": 33.2604992, "lon": 35.622489}, {"type": "node", "id": 6619012811, "lat": 33.2602935, "lon": 35.6223589}, {"type": "node", "id": 6619012812, "lat": 33.260336, "lon": 35.62292}, {"type": "node", "id": 6619012813, "lat": 33.2605502, "lon": 35.6227106}, {"type": "node", "id": 6619012814, "lat": 33.2605273, "lon": 35.622858}, {"type": "node", "id": 6619012815, "lat": 33.260452, "lon": 35.6229245}, {"type": "node", "id": 6619012817, "lat": 33.2601225, "lon": 35.6226619}, {"type": "node", "id": 6624721934, "lat": 33.3092269, "lon": 35.5702741}, {"type": "node", "id": 6624721935, "lat": 33.3090589, "lon": 35.5702248}, {"type": "node", "id": 6624721936, "lat": 33.3090241, "lon": 35.5703788}, {"type": "node", "id": 6624721937, "lat": 33.3090692, "lon": 35.5703912}, {"type": "node", "id": 6624721938, "lat": 33.3092198, "lon": 35.5703111}, {"type": "node", "id": 6703494685, "lat": 33.3518735, "lon": 35.544327, "tags": {"amenity": "restaurant", "name": "\u0645\u0637\u0639\u0645 \u0627\u0644\u0645\u0644\u0648\u0643"}}, {"type": "node", "id": 6755314744, "lat": 33.2816754, "lon": 35.575216}, {"type": "node", "id": 6755314780, "lat": 33.2817116, "lon": 35.5753322}, {"type": "node", "id": 6755326985, "lat": 33.2818422, "lon": 35.575274}, {"type": "node", "id": 6755326989, "lat": 33.2818061, "lon": 35.5751578}, {"type": "node", "id": 6956225381, "lat": 33.3952397, "lon": 35.4805457}, {"type": "node", "id": 6956225382, "lat": 33.3950981, "lon": 35.4804438}, {"type": "node", "id": 6956225383, "lat": 33.3949114, "lon": 35.4808162}, {"type": "node", "id": 6956225384, "lat": 33.395051, "lon": 35.4809166}, {"type": "node", "id": 6956264185, "lat": 33.3950803, "lon": 35.4808582}, {"type": "node", "id": 6956264186, "lat": 33.3950973, "lon": 35.4808704}, {"type": "node", "id": 6956264187, "lat": 33.395134, "lon": 35.4807971}, {"type": "node", "id": 6956264188, "lat": 33.3951109, "lon": 35.4807805}, {"type": "node", "id": 6956264189, "lat": 33.3951613, "lon": 35.4806797}, {"type": "node", "id": 6956264190, "lat": 33.3951878, "lon": 35.4806987}, {"type": "node", "id": 6956264191, "lat": 33.3952332, "lon": 35.4806081}, {"type": "node", "id": 6967841181, "lat": 33.2552152, "lon": 35.3804168}, {"type": "node", "id": 6967868521, "lat": 33.2810828, "lon": 35.3705598, "tags": {"amenity": "restaurant"}}, {"type": "node", "id": 6977880066, "lat": 33.376982, "lon": 35.4685425}, {"type": "node", "id": 6977880067, "lat": 33.3768328, "lon": 35.4685265}, {"type": "node", "id": 6977880068, "lat": 33.3768062, "lon": 35.4688232}, {"type": "node", "id": 6977880069, "lat": 33.3769527, "lon": 35.4688359}, {"type": "node", "id": 6981876636, "lat": 33.3788858, "lon": 35.4578742}, {"type": "node", "id": 6981876637, "lat": 33.3787559, "lon": 35.4578595}, {"type": "node", "id": 6981876638, "lat": 33.3787772, "lon": 35.4576798}, {"type": "node", "id": 6981876639, "lat": 33.378805, "lon": 35.4576828}, {"type": "node", "id": 7040010787, "lat": 33.0349108, "lon": 35.2453273, "tags": {"amenity": "restaurant", "name": "\u05d1\u05d5\u05d0\u05d6 \u05de\u05d1\u05e9\u05dc", "name:he": "\u05d1\u05d5\u05d0\u05d6 \u05de\u05d1\u05e9\u05dc"}}, {"type": "node", "id": 7040010788, "lat": 33.0062911, "lon": 35.2947976, "tags": {"amenity": "restaurant", "name": "\u05d4\u05d3\u05e8\u05dc\u05d9\u05d4", "name:he": "\u05d4\u05d3\u05e8\u05dc\u05d9\u05d4"}}, {"type": "node", "id": 7040022187, "lat": 33.0376108, "lon": 35.2415445, "tags": {"amenity": "restaurant", "name:en": "La Pampa"}}, {"type": "node", "id": 7040022189, "lat": 33.0053096, "lon": 35.2922944, "tags": {"amenity": "cafe", "name:en": "Sant lake"}}, {"type": "node", "id": 7040022286, "lat": 33.0306798, "lon": 35.2488423, "tags": {"amenity": "restaurant", "name:en": "El Vadi"}}, {"type": "node", "id": 7083333405, "lat": 33.2676958, "lon": 35.4468915, "tags": {"addr:city": "\u0627\u0644\u063a\u0646\u062f\u0648\u0631\u064a\u0629", "amenity": "restaurant", "contact:mobile": "+961 3 907 132", "name": "\u0645\u0646\u062a\u062c\u0639 \u0631\u0623\u0633 \u0627\u0644\u0646\u0628\u0639", "name:ar": "\u0645\u0646\u062a\u062c\u0639 \u0631\u0623\u0633 \u0627\u0644\u0646\u0628\u0639"}}, {"type": "node", "id": 7126653815, "lat": 33.3609595, "lon": 35.592483}, {"type": "node", "id": 7126653816, "lat": 33.3609265, "lon": 35.592483}, {"type": "node", "id": 7126653817, "lat": 33.3609266, "lon": 35.5925541}, {"type": "node", "id": 7126653818, "lat": 33.3609595, "lon": 35.5925541}, {"type": "node", "id": 7126653827, "lat": 33.3559086, "lon": 35.5869323, "tags": {"amenity": "restaurant", "cuisine": "thai", "name": "fanta's argili"}}, {"type": "node", "id": 7126653864, "lat": 33.3500398, "lon": 35.5807587, "tags": {"amenity": "restaurant", "name": "Domino Resto-Cafe", "name:en": "Domino Resto-Cafe'", "name:fr": "Domino Resto-Cafe'"}}, {"type": "node", "id": 7126653865, "lat": 33.3464888, "lon": 35.5772956, "tags": {"amenity": "restaurant", "name": "Kalakesh arakil", "name:en": "Kalakesh arakil", "name:fr": "Kalakesh arakil"}}, {"type": "node", "id": 7126653874, "lat": 33.3076981, "lon": 35.5595265}, {"type": "node", "id": 7126653875, "lat": 33.3074912, "lon": 35.5594657}, {"type": "node", "id": 7126653876, "lat": 33.3074054, "lon": 35.5598627}, {"type": "node", "id": 7126653877, "lat": 33.3076357, "lon": 35.5598767}, {"type": "node", "id": 7149221921, "lat": 33.3824552, "lon": 35.4829198}, {"type": "node", "id": 7149221922, "lat": 33.382456, "lon": 35.4829541}, {"type": "node", "id": 7149221923, "lat": 33.3825771, "lon": 35.4829505}, {"type": "node", "id": 7149221924, "lat": 33.3825764, "lon": 35.4829168}, {"type": "node", "id": 7149221925, "lat": 33.3825455, "lon": 35.4829177}, {"type": "node", "id": 7149221926, "lat": 33.3825452, "lon": 35.4829039}, {"type": "node", "id": 7149221927, "lat": 33.3824921, "lon": 35.4829055}, {"type": "node", "id": 7149221928, "lat": 33.3824923, "lon": 35.4829187}, {"type": "node", "id": 7157428476, "lat": 33.3789827, "lon": 35.481104}, {"type": "node", "id": 7157428477, "lat": 33.3788808, "lon": 35.4810934}, {"type": "node", "id": 7157428479, "lat": 33.3787489, "lon": 35.481233}, {"type": "node", "id": 7157428480, "lat": 33.3787709, "lon": 35.4809318}, {"type": "node", "id": 7157428481, "lat": 33.3788917, "lon": 35.4809444}, {"type": "node", "id": 7157433057, "lat": 33.3906977, "lon": 35.410172}, {"type": "node", "id": 7157433058, "lat": 33.390652, "lon": 35.4101472}, {"type": "node", "id": 7157433059, "lat": 33.3906846, "lon": 35.410054}, {"type": "node", "id": 7157433060, "lat": 33.3907836, "lon": 35.4101087}, {"type": "node", "id": 7160701382, "lat": 33.3803115, "lon": 35.4826449}, {"type": "node", "id": 7160701383, "lat": 33.380304, "lon": 35.4826543}, {"type": "node", "id": 7160701386, "lat": 33.3802391, "lon": 35.4828909}, {"type": "node", "id": 7160701387, "lat": 33.3801878, "lon": 35.4829545}, {"type": "node", "id": 7160701388, "lat": 33.3801343, "lon": 35.4828925}, {"type": "node", "id": 7160701389, "lat": 33.3801232, "lon": 35.4829063}, {"type": "node", "id": 7160701390, "lat": 33.3800883, "lon": 35.4828659}, {"type": "node", "id": 7160701391, "lat": 33.3802883, "lon": 35.4826181}, {"type": "node", "id": 7163557584, "lat": 33.3746893, "lon": 35.4780129}, {"type": "node", "id": 7163557585, "lat": 33.3747007, "lon": 35.4778742}, {"type": "node", "id": 7163557586, "lat": 33.3744207, "lon": 35.4778414}, {"type": "node", "id": 7163557587, "lat": 33.3744094, "lon": 35.4779801}, {"type": "node", "id": 7233745339, "lat": 33.3282187, "lon": 35.5652994}, {"type": "node", "id": 7233745340, "lat": 33.3281279, "lon": 35.565255}, {"type": "node", "id": 7233745341, "lat": 33.3280906, "lon": 35.5653642}, {"type": "node", "id": 7233745342, "lat": 33.3281814, "lon": 35.5654086}, {"type": "node", "id": 7248195003, "lat": 33.3403962, "lon": 35.5732705}, {"type": "node", "id": 7248195004, "lat": 33.3402909, "lon": 35.5732477}, {"type": "node", "id": 7248195005, "lat": 33.3402707, "lon": 35.5732664}, {"type": "node", "id": 7248195006, "lat": 33.3402315, "lon": 35.573544}, {"type": "node", "id": 7248195007, "lat": 33.3403626, "lon": 35.5735025}, {"type": "node", "id": 7259000645, "lat": 33.2775543, "lon": 35.6222209}, {"type": "node", "id": 7259000646, "lat": 33.2774336, "lon": 35.6221795}, {"type": "node", "id": 7259000647, "lat": 33.2773827, "lon": 35.6223917}, {"type": "node", "id": 7259000648, "lat": 33.2775092, "lon": 35.6224351}, {"type": "node", "id": 7259000649, "lat": 33.2775344, "lon": 35.6223303}, {"type": "node", "id": 7259000650, "lat": 33.2775286, "lon": 35.6223283}, {"type": "node", "id": 7259001014, "lat": 33.2769318, "lon": 35.6216095}, {"type": "node", "id": 7259001015, "lat": 33.2769191, "lon": 35.6216492}, {"type": "node", "id": 7259001016, "lat": 33.2768927, "lon": 35.6216702}, {"type": "node", "id": 7259001017, "lat": 33.276883, "lon": 35.6216667}, {"type": "node", "id": 7259001168, "lat": 33.2769807, "lon": 35.621447}, {"type": "node", "id": 7259001169, "lat": 33.2768983, "lon": 35.6214063}, {"type": "node", "id": 7259001170, "lat": 33.2768482, "lon": 35.6213891}, {"type": "node", "id": 7259001171, "lat": 33.2768218, "lon": 35.6214683}, {"type": "node", "id": 7259001172, "lat": 33.2767666, "lon": 35.6214643}, {"type": "node", "id": 7259001173, "lat": 33.2767453, "lon": 35.6215161}, {"type": "node", "id": 7259001174, "lat": 33.276736, "lon": 35.6215171}, {"type": "node", "id": 7259001175, "lat": 33.276719, "lon": 35.6216259}, {"type": "node", "id": 7259001176, "lat": 33.276708, "lon": 35.6216726}, {"type": "node", "id": 7259001177, "lat": 33.2766553, "lon": 35.6217956}, {"type": "node", "id": 7259001178, "lat": 33.2767419, "lon": 35.6218424}, {"type": "node", "id": 7259001179, "lat": 33.2767904, "lon": 35.6217224}, {"type": "node", "id": 7259001180, "lat": 33.2768312, "lon": 35.6217265}, {"type": "node", "id": 7259001181, "lat": 33.2768524, "lon": 35.6216543}, {"type": "node", "id": 7259002392, "lat": 33.2739452, "lon": 35.6237775}, {"type": "node", "id": 7259002393, "lat": 33.2739422, "lon": 35.6237437}, {"type": "node", "id": 7259002394, "lat": 33.2739295, "lon": 35.6237297}, {"type": "node", "id": 7259002395, "lat": 33.27391, "lon": 35.6237262}, {"type": "node", "id": 7259002398, "lat": 33.2738681, "lon": 35.6237332}, {"type": "node", "id": 7259002399, "lat": 33.2738534, "lon": 35.6237378}, {"type": "node", "id": 7259002400, "lat": 33.2737958, "lon": 35.6239048}, {"type": "node", "id": 7259002401, "lat": 33.2738349, "lon": 35.6239199}, {"type": "node", "id": 7259002402, "lat": 33.2738446, "lon": 35.6239456}, {"type": "node", "id": 7259002403, "lat": 33.2738603, "lon": 35.6239538}, {"type": "node", "id": 7259002404, "lat": 33.2738759, "lon": 35.6239444}, {"type": "node", "id": 7259002405, "lat": 33.2739256, "lon": 35.6239666}, {"type": "node", "id": 7259002406, "lat": 33.2739647, "lon": 35.6238394}, {"type": "node", "id": 7259002407, "lat": 33.2739247, "lon": 35.6238207}, {"type": "node", "id": 7578572000, "lat": 33.2728813, "lon": 35.6231943, "tags": {"amenity": "restaurant", "brand": "Moses", "brand:ar": "\u0645\u0648\u0633\u0633", "brand:de": "Moses", "brand:en": "Moses", "brand:fr": "Moses", "brand:he": "\u05de\u05d5\u05d6\u05e1", "brand:wikidata": "Q64760150", "cuisine": "burger", "name": "Moses", "name:ar": "\u0645\u0648\u0633\u0633", "name:de": "Moses", "name:en": "Moses", "name:fr": "Moses", "name:he": "\u05de\u05d5\u05d6\u05e1"}}, {"type": "node", "id": 7680878185, "lat": 33.2822385, "lon": 35.2202462, "tags": {"amenity": "restaurant", "name": "Abo Deeb Restaurant"}}, {"type": "node", "id": 7725586346, "lat": 33.2581675, "lon": 35.222663, "tags": {"amenity": "restaurant", "name": "Bamboo"}}, {"type": "node", "id": 7725586347, "lat": 33.2523388, "lon": 35.225728, "tags": {"amenity": "restaurant", "name": "Time Restaurant"}}, {"type": "node", "id": 7725586348, "lat": 33.2532624, "lon": 35.2249457, "tags": {"amenity": "restaurant", "name": "Iziss"}}, {"type": "node", "id": 7725586361, "lat": 33.2650796, "lon": 35.2176182, "tags": {"amenity": "cafe", "name": "AUC Cafe"}}, {"type": "node", "id": 7725586373, "lat": 33.2549809, "lon": 35.2219336, "tags": {"amenity": "restaurant", "name": "Sondos Restaurant"}}, {"type": "node", "id": 7725586375, "lat": 33.2420683, "lon": 35.2393604, "tags": {"amenity": "cafe", "name": "Al Fouani"}}, {"type": "node", "id": 7725589700, "lat": 33.2488192, "lon": 35.2299291, "tags": {"amenity": "restaurant", "name": "Sour Restaurant"}}, {"type": "node", "id": 7725589704, "lat": 33.2645874, "lon": 35.2179728, "tags": {"amenity": "cafe", "name": "Zabad Cafe"}}, {"type": "node", "id": 7725589722, "lat": 33.2531393, "lon": 35.2247224, "tags": {"amenity": "cafe", "name": "Coffee Shop"}}, {"type": "node", "id": 7725589731, "lat": 33.2570795, "lon": 35.2156756, "tags": {"amenity": "cafe", "name": "Jana Cafe"}}, {"type": "node", "id": 7725589742, "lat": 33.2691223, "lon": 35.2169304, "tags": {"amenity": "cafe", "name": "Mshaaf Cafe"}}, {"type": "node", "id": 7734147317, "lat": 33.2854667, "lon": 35.2236217, "tags": {"amenity": "restaurant", "name": "Al Jawad Restaurant And More"}}, {"type": "node", "id": 7734147320, "lat": 33.2454669, "lon": 35.236999, "tags": {"amenity": "cafe", "name": "The Lord Coffee"}}, {"type": "node", "id": 7743675344, "lat": 33.2479304, "lon": 35.2321473, "tags": {"amenity": "restaurant", "contact:mobile": "+96170665444", "name": "Plat Du Sour", "website": "http://www.platdusour.com"}}, {"type": "node", "id": 7743675345, "lat": 33.2486743, "lon": 35.2303879, "tags": {"amenity": "cafe", "name": "Kabse W Noos"}}, {"type": "node", "id": 7796418010, "lat": 33.1944187, "lon": 35.6538658, "tags": {"amenity": "cafe", "name": "\u05e4\u05e1\u05dc \u05e7\u05e4\u05d4", "name:he": "\u05e4\u05e1\u05dc \u05e7\u05e4\u05d4"}}, {"type": "node", "id": 7885054885, "lat": 32.9709033, "lon": 35.5350792, "tags": {"addr:housenumber": "8", "addr:street": "\u05d4\u05d7\u05dc\u05d5\u05e6\u05d9\u05dd", "amenity": "restaurant", "name:he": "\u05e4\u05d9\u05e0\u05d4 \u05d1\u05e8\u05d0\u05e9", "name:ru": "\u041f\u0438\u043d\u0430 \u0411\u0435\u0440\u043e\u0448", "phone": "04-6936582"}}, {"type": "node", "id": 7928561619, "lat": 33.2026819, "lon": 35.4394929}, {"type": "node", "id": 7928561620, "lat": 33.2025684, "lon": 35.43946}, {"type": "node", "id": 7928561621, "lat": 33.2025444, "lon": 35.4395777}, {"type": "node", "id": 7928561622, "lat": 33.202658, "lon": 35.4396106}, {"type": "node", "id": 7928561658, "lat": 33.2031064, "lon": 35.4350862, "tags": {"amenity": "cafe"}}, {"type": "node", "id": 7928561818, "lat": 33.2029915, "lon": 35.4416794, "tags": {"amenity": "cafe"}}, {"type": "node", "id": 7928561833, "lat": 33.2027692, "lon": 35.4415283}, {"type": "node", "id": 7928561834, "lat": 33.2026381, "lon": 35.441539}, {"type": "node", "id": 7928561835, "lat": 33.2026263, "lon": 35.4413315}, {"type": "node", "id": 7928561840, "lat": 33.2027574, "lon": 35.4413209}, {"type": "node", "id": 7931624008, "lat": 33.0859857, "lon": 35.3766928, "tags": {"amenity": "restaurant", "name": "Milano"}}, {"type": "node", "id": 7931624011, "lat": 33.0796837, "lon": 35.3725441, "tags": {"amenity": "restaurant", "name": "Chez Rony- Chez Roger"}}, {"type": "node", "id": 7931624021, "lat": 33.0876405, "lon": 35.3779997, "tags": {"amenity": "restaurant", "name": "Restaurant Rafi", "name:en": "Restaurant Rafi"}}, {"type": "node", "id": 7931943522, "lat": 33.2565042, "lon": 35.2228597, "tags": {"amenity": "restaurant"}}, {"type": "node", "id": 7934573790, "lat": 33.3846844, "lon": 35.4442651, "tags": {"addr:city": "nabatieh, toul", "addr:street": "toul - dweir main road", "air_conditioning": "yes", "amenity": "restaurant", "contact:phone": "+9617765095", "cuisine": "burger;italian;sandwich", "name": "4 ways", "opening_hours": "Mo-Su 12:00-24:00"}}, {"type": "node", "id": 7934573802, "lat": 33.3893485, "lon": 35.4905288, "tags": {"amenity": "cafe", "name": "saj w ma saj"}}, {"type": "node", "id": 7934573804, "lat": 33.3932966, "lon": 35.4879862}, {"type": "node", "id": 7934573805, "lat": 33.3936516, "lon": 35.4875903, "tags": {"addr:city": "kfarjouz", "addr:street": "\u0627\u0644\u0632\u0647\u0631\u0627\u0646\u064a - \u0627\u0644\u0646\u0628\u0637\u064a\u0629", "amenity": "restaurant", "cuisine": "chicken", "name": "Al Hayek", "name:en": "Al Hayek"}}, {"type": "node", "id": 7934573807, "lat": 33.3927057, "lon": 35.4890977, "tags": {"amenity": "cafe", "name": "hekayat"}}, {"type": "node", "id": 7934573809, "lat": 33.3925621, "lon": 35.488677, "tags": {"amenity": "restaurant", "name": "skyline"}}, {"type": "node", "id": 7934573810, "lat": 33.3919355, "lon": 35.5087101}, {"type": "node", "id": 7935267126, "lat": 33.3789004, "lon": 35.4576932}, {"type": "node", "id": 7935267127, "lat": 33.3790461, "lon": 35.4563763, "tags": {"amenity": "restaurant", "name": "Al Andalib"}}, {"type": "node", "id": 7935267150, "lat": 33.3808578, "lon": 35.4494865, "tags": {"amenity": "restaurant", "name": "Nour Al Zahraa"}}, {"type": "node", "id": 7935267163, "lat": 33.3818253, "lon": 35.4466402, "tags": {"amenity": "restaurant", "name": "al sayad"}}, {"type": "node", "id": 7935267164, "lat": 33.3816349, "lon": 35.4465038, "tags": {"amenity": "restaurant", "name": "alaa al abdallah"}}, {"type": "node", "id": 7954650509, "lat": 33.395215, "lon": 35.480595}, {"type": "node", "id": 7954650517, "lat": 33.388483, "lon": 35.4923474, "tags": {"amenity": "restaurant", "name": "ventus"}}, {"type": "node", "id": 7954650522, "lat": 33.3880018, "lon": 35.4990788}, {"type": "node", "id": 7954650523, "lat": 33.3886926, "lon": 35.5009929, "tags": {"amenity": "restaurant", "name": "abu mahmoud"}}, {"type": "node", "id": 7954650524, "lat": 33.3897939, "lon": 35.5029537, "tags": {"amenity": "restaurant", "name": "el aun"}}, {"type": "node", "id": 7954650525, "lat": 33.3901203, "lon": 35.5034312, "tags": {"amenity": "restaurant", "name": "dayeetna"}}, {"type": "node", "id": 7954650527, "lat": 33.3912791, "lon": 35.5027997}, {"type": "node", "id": 7954650531, "lat": 33.3919138, "lon": 35.5099737}, {"type": "node", "id": 7954650533, "lat": 33.3934814, "lon": 35.5139066, "tags": {"amenity": "restaurant", "name": "hammati"}}, {"type": "node", "id": 7989022295, "lat": 33.2017885, "lon": 35.4419504, "tags": {"amenity": "cafe", "name": "cofee, Nescafe, cappuccino"}}, {"type": "node", "id": 8009028980, "lat": 33.3091681, "lon": 35.517605, "tags": {"amenity": "cafe", "name": "Fernando Cafe"}}, {"type": "node", "id": 8009028982, "lat": 33.3090333, "lon": 35.5167533, "tags": {"amenity": "cafe", "name": "Olleik cafe"}}, {"type": "node", "id": 8009089190, "lat": 33.3092338, "lon": 35.5157597, "tags": {"amenity": "cafe", "name": "abo tafesh"}}, {"type": "node", "id": 8084739188, "lat": 33.1918295, "lon": 35.443555, "tags": {"amenity": "restaurant", "name": "\u0645\u0637\u0639\u0645 \u0633\u0644\u0637\u0627\u0646 \u0627\u0644\u0628\u062d\u0631"}}, {"type": "node", "id": 8084739193, "lat": 33.1918228, "lon": 35.4430749, "tags": {"amenity": "restaurant", "name": "Billiard Restaurent"}}, {"type": "node", "id": 8084739195, "lat": 33.1922111, "lon": 35.44282, "tags": {"amenity": "restaurant", "name": "\u0645\u0637\u0639\u0645 \u062d\u0627\u0646\u064a\u0646\u064a"}}, {"type": "node", "id": 8084739197, "lat": 33.1915332, "lon": 35.4438876, "tags": {"amenity": "restaurant", "name": "Baterma Brick"}}, {"type": "node", "id": 8084739244, "lat": 33.1885922, "lon": 35.4449491}, {"type": "node", "id": 8084739245, "lat": 33.1882108, "lon": 35.4449474}, {"type": "node", "id": 8084739246, "lat": 33.1882116, "lon": 35.4447036}, {"type": "node", "id": 8084739247, "lat": 33.188593, "lon": 35.4447054}, {"type": "node", "id": 8180164518, "lat": 33.2601899, "lon": 35.5284219, "tags": {"amenity": "restaurant", "name:en": "way 41"}}, {"type": "node", "id": 8232582218, "lat": 33.0248053, "lon": 35.2606445, "tags": {"amenity": "restaurant", "name:en": "Chateau du Roi", "name:ru": "\u0428\u0430\u0442\u043e \u0434\u044e \u0420\u043e\u0438"}}, {"type": "node", "id": 8245874690, "lat": 33.0807492, "lon": 35.4222866, "tags": {"amenity": "restaurant", "name": "maroun al ras"}}, {"type": "node", "id": 8254414545, "lat": 33.3789716, "lon": 35.4812563}, {"type": "node", "id": 8254414556, "lat": 33.3782518, "lon": 35.482721, "tags": {"amenity": "restaurant", "name": "al ostoura"}}, {"type": "node", "id": 8254414557, "lat": 33.3782392, "lon": 35.4828118, "tags": {"amenity": "restaurant", "name": "grilled"}}, {"type": "node", "id": 8254414562, "lat": 33.3775151, "lon": 35.4830045, "tags": {"amenity": "restaurant", "name": "al tarbosh al ahmar"}}, {"type": "node", "id": 8265079958, "lat": 33.0598387, "lon": 35.4335294, "tags": {"amenity": "restaurant", "name": "\u05d7\u05d3\u05e8 \u05d0\u05d5\u05db\u05dc", "name:he": "\u05d7\u05d3\u05e8 \u05d0\u05d5\u05db\u05dc"}}, {"type": "node", "id": 8310650116, "lat": 33.3762777, "lon": 35.4967931, "tags": {"amenity": "cafe"}}, {"type": "node", "id": 8310691317, "lat": 33.3760258, "lon": 35.4964836, "tags": {"amenity": "cafe", "name": "Qahwa Al-Mafra", "name:fr": "Qahwa Al-Mafra"}}, {"type": "node", "id": 8310691318, "lat": 33.3757107, "lon": 35.4963052}, {"type": "node", "id": 8310691322, "lat": 33.3778836, "lon": 35.4961163}, {"type": "node", "id": 8310691329, "lat": 33.3749229, "lon": 35.495308, "tags": {"amenity": "restaurant", "name": "blu crepe"}}, {"type": "node", "id": 8310691332, "lat": 33.3746123, "lon": 35.4950521, "tags": {"amenity": "restaurant", "name": "lets cheese"}}, {"type": "node", "id": 8310691339, "lat": 33.3718427, "lon": 35.4942301}, {"type": "node", "id": 8310691343, "lat": 33.3701752, "lon": 35.4935938, "tags": {"amenity": "restaurant", "cuisine": "pizza", "name": "napoli pizzeria"}}, {"type": "node", "id": 8310691349, "lat": 33.368262, "lon": 35.494544, "tags": {"amenity": "cafe", "name": "NescafeW"}}, {"type": "node", "id": 8334707073, "lat": 33.2572189, "lon": 35.2151957, "tags": {"amenity": "restaurant"}}, {"type": "node", "id": 8714443876, "lat": 33.1078808, "lon": 35.2856208, "tags": {"amenity": "cafe", "name": "The Border Cafeteria Marwahin"}}, {"type": "node", "id": 8868662089, "lat": 33.277408, "lon": 35.6224004}, {"type": "node", "id": 8868662090, "lat": 33.2774874, "lon": 35.6224276}, {"type": "node", "id": 8874979617, "lat": 33.0169866, "lon": 35.3501446, "tags": {"amenity": "restaurant", "cuisine": "lebanese;local", "name": "\u05d0\u05d5\u05db\u05dc \u05d5\u05e1\u05d3\u05e0\u05d0\u05d5\u05ea \u05e9\u05dc \u05d0\u05d1\u05ea\u05d9\u05e1\u05d0\u05dd", "name:en": "Ibtisam", "name:he": "\u05d0\u05d5\u05db\u05dc \u05d5\u05e1\u05d3\u05e0\u05d0\u05d5\u05ea \u05e9\u05dc \u05d0\u05d1\u05ea\u05d9\u05e1\u05d0\u05dd", "phone": "+972-50-691-7337"}}, {"type": "node", "id": 9082357970, "lat": 33.2481917, "lon": 35.23101, "tags": {"amenity": "cafe", "cuisine": "coffee_shop", "name": "Nakla Cafe"}}, {"type": "node", "id": 9103841118, "lat": 33.1723764, "lon": 35.6098441, "tags": {"amenity": "cafe", "name": "\u05d1\u05dc\u05d5\u05de\u05d4", "survey:date": "2021-09-18"}}, {"type": "node", "id": 9232541690, "lat": 33.42193, "lon": 35.3052207}, {"type": "node", "id": 9232541691, "lat": 33.4218573, "lon": 35.3051772}, {"type": "node", "id": 9232541692, "lat": 33.4218216, "lon": 35.305263}, {"type": "node", "id": 9232541693, "lat": 33.4218943, "lon": 35.3053064}, {"type": "node", "id": 9232541694, "lat": 33.4219925, "lon": 35.3053017}, {"type": "node", "id": 9232541695, "lat": 33.4219514, "lon": 35.3052816}, {"type": "node", "id": 9232541696, "lat": 33.4219355, "lon": 35.3053281}, {"type": "node", "id": 9232541697, "lat": 33.4219767, "lon": 35.3053482}, {"type": "node", "id": 9232541698, "lat": 33.4218587, "lon": 35.3053481}, {"type": "node", "id": 9232541699, "lat": 33.421898, "lon": 35.3053719}, {"type": "node", "id": 9232541700, "lat": 33.421878, "lon": 35.3054193}, {"type": "node", "id": 9232541701, "lat": 33.4218386, "lon": 35.3053955}, {"type": "node", "id": 9521366149, "lat": 32.9579113, "lon": 35.5331075}, {"type": "node", "id": 9521366150, "lat": 32.9578429, "lon": 35.5334114}, {"type": "node", "id": 9521366151, "lat": 32.9579644, "lon": 35.5334503}, {"type": "node", "id": 9521366152, "lat": 32.9579842, "lon": 35.5333623}, {"type": "node", "id": 9521366153, "lat": 32.9581104, "lon": 35.5334027}, {"type": "node", "id": 9521366154, "lat": 32.9581362, "lon": 35.5332883}, {"type": "node", "id": 9521366155, "lat": 32.9581555, "lon": 35.5332945}, {"type": "node", "id": 9521366156, "lat": 32.9581784, "lon": 35.5331929}, {"type": "node", "id": 9546842205, "lat": 33.1878995, "lon": 35.6230504}, {"type": "node", "id": 9546842206, "lat": 33.1877366, "lon": 35.6229152}, {"type": "node", "id": 9546842207, "lat": 33.1876562, "lon": 35.6230536}, {"type": "node", "id": 9546842208, "lat": 33.1877207, "lon": 35.6231071}, {"type": "node", "id": 9546842209, "lat": 33.1877455, "lon": 35.6230644}, {"type": "node", "id": 9546842210, "lat": 33.1878439, "lon": 35.6231461}, {"type": "node", "id": 9804088290, "lat": 33.2457993, "lon": 35.5969515}, {"type": "node", "id": 9804088291, "lat": 33.2456896, "lon": 35.5969759}, {"type": "node", "id": 9804088292, "lat": 33.2457084, "lon": 35.5970967}, {"type": "node", "id": 9804088293, "lat": 33.2458181, "lon": 35.5970723}, {"type": "node", "id": 9805290490, "lat": 32.9702461, "lon": 35.5343878, "tags": {"amenity": "cafe", "name": "Caf\u00e9 La Rosh"}}, {"type": "node", "id": 9805292379, "lat": 32.970146, "lon": 35.5354215, "tags": {"amenity": "cafe"}}, {"type": "node", "id": 9892574117, "lat": 33.0223925, "lon": 35.4464526, "tags": {"amenity": "restaurant", "name": "\u05de\u05e1\u05e2\u05d3\u05ea \u05e9\u05e3 \u05d1\u05d9\u05ea \u05d4\u05e6\u05d9\u05d9\u05d3", "name:he": "\u05de\u05e1\u05e2\u05d3\u05ea \u05e9\u05e3 \u05d1\u05d9\u05ea \u05d4\u05e6\u05d9\u05d9\u05d3", "name:ru": "\u0420\u0435\u0441\u0442\u043e\u0440\u0430\u043d \u00ab \u041e\u0445\u043e\u0442\u043d\u0438\u0447\u0438\u0439 \u0434\u043e\u043c\u00bb", "phone": "053-938-8003"}}, {"type": "node", "id": 9951319270, "lat": 32.968633, "lon": 35.550566, "tags": {"amenity": "restaurant", "name": "Vamos Amos"}}, {"type": "node", "id": 10159143917, "lat": 32.9695538, "lon": 35.5509336, "tags": {"amenity": "restaurant", "name:en": "Joys Rosh Pina"}}, {"type": "node", "id": 10213611817, "lat": 33.2734435, "lon": 35.6251054, "tags": {"amenity": "cafe", "name": "\u05e9\u05e3 \u05e7\u05d5\u05e0\u05d3\u05d9\u05d8\u05d5\u05e8 \u05d0\u05d7\u05de\u05d3 \u05d7\u05d8\u05d9\u05d1", "name:ar": "\u0637\u0627\u0647\u064a \u0627\u0644\u0645\u0639\u062c\u0646\u0627\u062a \u0623\u062d\u0645\u062f \u062e\u0637\u064a\u0628", "name:en": "Pastry Chef Ahmed Khatib", "name:fr": "Chef P\u00e2tissier Ahmed Khatib", "name:he": "\u05e9\u05e3 \u05e7\u05d5\u05e0\u05d3\u05d9\u05d8\u05d5\u05e8 \u05d0\u05d7\u05de\u05d3 \u05d7\u05d8\u05d9\u05d1"}}, {"type": "node", "id": 10589399164, "lat": 32.9709011, "lon": 35.5363782, "tags": {"amenity": "cafe"}}, {"type": "node", "id": 10949092653, "lat": 33.2395347, "lon": 35.6538975, "tags": {"amenity": "cafe", "name": "\u05d1\u05e7\u05ea\u05d0", "name:he": "\u05d1\u05e7\u05ea\u05d0", "outdoor_seating": "yes"}}, {"type": "node", "id": 11006034200, "lat": 33.2626319, "lon": 35.6217336}, {"type": "node", "id": 11006087987, "lat": 33.2602494, "lon": 35.6228415}, {"type": "node", "id": 11006087988, "lat": 33.2601755, "lon": 35.6227059}, {"type": "node", "id": 11285988323, "lat": 32.9958886, "lon": 35.2754353, "tags": {"amenity": "cafe", "name": "\u05d0\u05d5\u05dc\u05d9\u05d1\u05e8", "name:he": "\u05d0\u05d5\u05dc\u05d9\u05d1\u05e8", "survey:date": "2023-10-24"}}, {"type": "node", "id": 11374797744, "lat": 33.3745242, "lon": 35.4779936}, {"type": "node", "id": 11391577414, "lat": 33.008663, "lon": 35.2260196, "tags": {"amenity": "cafe", "cuisine": "coffee_shop", "name": "Le petit Paris", "survey:date": "2023-12-03"}}, {"type": "node", "id": 11397573643, "lat": 33.0251578, "lon": 35.2342238, "tags": {"amenity": "restaurant", "check_date": "2023-12-06", "cuisine": "lebanese", "name": "\u05de\u05e8\u05d5\u05e9", "name:he": "\u05de\u05e8\u05d5\u05e9", "name:ru": "\u041c\u0430\u0440\u043e\u0448", "phone": "+97249570512", "survey:date": "2023-12-06"}}, {"type": "node", "id": 11637901926, "lat": 33.1782909, "lon": 35.6218915, "tags": {"amenity": "cafe", "name": "\u05de\u05e2\u05d9\u05d5\u05e0\u05d4"}}, {"type": "node", "id": 12020166729, "lat": 33.2580349, "lon": 35.2229478, "tags": {"amenity": "restaurant", "name": "Aljawad Dining Tyre", "name:en": "Aljawad Dining Tyre"}}, {"type": "node", "id": 12076726384, "lat": 33.3812244, "lon": 35.6222725}, {"type": "node", "id": 12076726386, "lat": 33.3813643, "lon": 35.6219612}, {"type": "node", "id": 12076726387, "lat": 33.3811762, "lon": 35.6220178}, {"type": "node", "id": 12076726389, "lat": 33.3814153, "lon": 35.6222108}, {"type": "node", "id": 12083293105, "lat": 33.3790795, "lon": 35.6459935}, {"type": "node", "id": 12083293106, "lat": 33.37918, "lon": 35.6461404}, {"type": "node", "id": 12083293107, "lat": 33.3792857, "lon": 35.6460528}, {"type": "node", "id": 12083293108, "lat": 33.3791955, "lon": 35.6459254}, {"type": "node", "id": 12083293109, "lat": 33.3791645, "lon": 35.6459068}, {"type": "node", "id": 12083293110, "lat": 33.3790958, "lon": 35.6459546}, {"type": "node", "id": 12134743822, "lat": 33.087709, "lon": 35.3200923, "tags": {"amenity": "cafe", "cuisine": "coffee_shop", "name": "\u05e2\u05dc \u05d4\u05d2\u05d1\u05d5\u05dc \u05e7\u05e4\u05d4 \u05d5\u05d8\u05d0\u05d1\u05d5\u05df", "name:he": "\u05e2\u05dc \u05d4\u05d2\u05d1\u05d5\u05dc \u05e7\u05e4\u05d4 \u05d5\u05d8\u05d0\u05d1\u05d5\u05df"}}, {"type": "node", "id": 12406703166, "lat": 33.3403682, "lon": 35.573638}, {"type": "node", "id": 12406703167, "lat": 33.3403866, "lon": 35.5735547}, {"type": "node", "id": 12412048932, "lat": 33.350571, "lon": 35.5817756}, {"type": "node", "id": 12412048933, "lat": 33.3506001, "lon": 35.5817258}, {"type": "node", "id": 12412048934, "lat": 33.350605, "lon": 35.5818041}, {"type": "node", "id": 12412048935, "lat": 33.3506341, "lon": 35.5817544}, {"type": "node", "id": 12412048936, "lat": 33.3507884, "lon": 35.5818285}, {"type": "node", "id": 12412048937, "lat": 33.3507389, "lon": 35.5819127}, {"type": "node", "id": 12412048938, "lat": 33.3506868, "lon": 35.5818689}, {"type": "node", "id": 12412048972, "lat": 33.3532765, "lon": 35.5838135}, {"type": "node", "id": 12412048973, "lat": 33.3533506, "lon": 35.583691}, {"type": "node", "id": 12412048974, "lat": 33.3532223, "lon": 35.5837665}, {"type": "node", "id": 12412048975, "lat": 33.3532964, "lon": 35.583644}, {"type": "node", "id": 12492041620, "lat": 33.1433749, "lon": 35.4021435}, {"type": "node", "id": 12492041621, "lat": 33.1434751, "lon": 35.4022211}, {"type": "node", "id": 12492041622, "lat": 33.1435566, "lon": 35.4020709}, {"type": "node", "id": 12492041623, "lat": 33.1434565, "lon": 35.4019934}, {"type": "node", "id": 12492282354, "lat": 33.2551875, "lon": 35.3805824}, {"type": "node", "id": 12492282355, "lat": 33.2551878, "lon": 35.3805472}, {"type": "node", "id": 12492282356, "lat": 33.2552155, "lon": 35.380385}, {"type": "node", "id": 12492282358, "lat": 33.255293, "lon": 35.3804178}, {"type": "node", "id": 12492282359, "lat": 33.2552916, "lon": 35.3805837}, {"type": "node", "id": 12492282360, "lat": 33.2551726, "lon": 35.380547}, {"type": "node", "id": 12492282361, "lat": 33.255174, "lon": 35.3803845}, {"type": "node", "id": 12555855557, "lat": 33.3933801, "lon": 35.4876823}, {"type": "node", "id": 12555855558, "lat": 33.3934719, "lon": 35.4878361}, {"type": "node", "id": 12555855560, "lat": 33.3932048, "lon": 35.4878324}, {"type": "node", "id": 12560890552, "lat": 33.3919343, "lon": 35.5084864}, {"type": "node", "id": 12560890553, "lat": 33.3919456, "lon": 35.5084863}, {"type": "node", "id": 12560890576, "lat": 33.3918259, "lon": 35.5100457}, {"type": "node", "id": 12560890577, "lat": 33.3918169, "lon": 35.5100169}, {"type": "node", "id": 12560890578, "lat": 33.3918828, "lon": 35.5098741}, {"type": "node", "id": 12560890579, "lat": 33.3917272, "lon": 35.5099435}, {"type": "node", "id": 12560890580, "lat": 33.3917671, "lon": 35.5100719}, {"type": "node", "id": 12565840955, "lat": 33.3718056, "lon": 35.4944033}, {"type": "node", "id": 12565840956, "lat": 33.3717029, "lon": 35.4943718}, {"type": "node", "id": 12565840957, "lat": 33.3717399, "lon": 35.4941986}, {"type": "node", "id": 12578466236, "lat": 33.3912767, "lon": 35.5028777}, {"type": "node", "id": 12578466237, "lat": 33.3912915, "lon": 35.5028918}, {"type": "node", "id": 12578466238, "lat": 33.3912458, "lon": 35.5028312}, {"type": "node", "id": 12578466239, "lat": 33.3912423, "lon": 35.5028713}, {"type": "node", "id": 12578466240, "lat": 33.3913262, "lon": 35.5028791}, {"type": "node", "id": 12578466241, "lat": 33.3913293, "lon": 35.5028795}, {"type": "node", "id": 12578466242, "lat": 33.3912914, "lon": 35.5028942}, {"type": "node", "id": 12578466243, "lat": 33.391288, "lon": 35.5028999}, {"type": "node", "id": 12578466244, "lat": 33.3912828, "lon": 35.5029028}, {"type": "node", "id": 12578466245, "lat": 33.391277, "lon": 35.5029022}, {"type": "node", "id": 12578466246, "lat": 33.3912723, "lon": 35.5028982}, {"type": "node", "id": 12578466247, "lat": 33.3912698, "lon": 35.5028919}, {"type": "node", "id": 12578466248, "lat": 33.3912703, "lon": 35.502885}, {"type": "node", "id": 12578466249, "lat": 33.3912737, "lon": 35.5028794}, {"type": "node", "id": 12578466250, "lat": 33.391235, "lon": 35.5028652}, {"type": "node", "id": 12578466251, "lat": 33.3912312, "lon": 35.5028553}, {"type": "node", "id": 12578466252, "lat": 33.391232, "lon": 35.5028446}, {"type": "node", "id": 12578466253, "lat": 33.3912372, "lon": 35.5028357}, {"type": "node", "id": 12578466254, "lat": 33.3912454, "lon": 35.5028312}, {"type": "node", "id": 12578466255, "lat": 33.3912768, "lon": 35.5028253}, {"type": "node", "id": 12578466256, "lat": 33.3912467, "lon": 35.5028215}, {"type": "node", "id": 12578466257, "lat": 33.3912423, "lon": 35.5028714}, {"type": "node", "id": 12578466258, "lat": 33.3912768, "lon": 35.5028758}, {"type": "node", "id": 12578466259, "lat": 33.3912922, "lon": 35.5028919}, {"type": "node", "id": 12578466261, "lat": 33.3912883, "lon": 35.5029361}, {"type": "node", "id": 12578466262, "lat": 33.3913209, "lon": 35.5029402}, {"type": "node", "id": 12578466263, "lat": 33.3913357, "lon": 35.5028068}, {"type": "node", "id": 12584760584, "lat": 33.3879832, "lon": 35.4990247}, {"type": "node", "id": 12584760585, "lat": 33.387974, "lon": 35.4989994}, {"type": "node", "id": 12584760586, "lat": 33.3879933, "lon": 35.4990195}, {"type": "node", "id": 12584760587, "lat": 33.3879847, "lon": 35.4989938}, {"type": "node", "id": 12584760588, "lat": 33.3879556, "lon": 35.4989564}, {"type": "node", "id": 12584760589, "lat": 33.387952, "lon": 35.4989464}, {"type": "node", "id": 12584760590, "lat": 33.387966, "lon": 35.4989392}, {"type": "node", "id": 12584760591, "lat": 33.3879687, "lon": 35.4989496}, {"type": "node", "id": 12584760592, "lat": 33.3877784, "lon": 35.4991279}, {"type": "node", "id": 12584760593, "lat": 33.3878076, "lon": 35.4991128}, {"type": "node", "id": 12584760594, "lat": 33.3878078, "lon": 35.4991133}, {"type": "node", "id": 12584760596, "lat": 33.3879969, "lon": 35.4990653}, {"type": "node", "id": 12584760597, "lat": 33.3880079, "lon": 35.4990596}, {"type": "node", "id": 12584760598, "lat": 33.3880105, "lon": 35.4990743}, {"type": "node", "id": 12584760599, "lat": 33.387952, "lon": 35.4989006}, {"type": "node", "id": 12584760600, "lat": 33.3877366, "lon": 35.4990125}, {"type": "node", "id": 12584760601, "lat": 33.3878421, "lon": 35.499208}, {"type": "node", "id": 12584760602, "lat": 33.3880246, "lon": 35.4991131}, {"type": "node", "id": 12587815440, "lat": 33.3780355, "lon": 35.4959978}, {"type": "node", "id": 12587815441, "lat": 33.3780291, "lon": 35.4959941}, {"type": "node", "id": 12587815442, "lat": 33.3780497, "lon": 35.4959619}, {"type": "node", "id": 12587815443, "lat": 33.3780388, "lon": 35.4959557}, {"type": "node", "id": 12587815444, "lat": 33.3780033, "lon": 35.4960592}, {"type": "node", "id": 12587815445, "lat": 33.3779853, "lon": 35.496049}, {"type": "node", "id": 12587815446, "lat": 33.3779628, "lon": 35.4958881}, {"type": "node", "id": 12587815447, "lat": 33.3779449, "lon": 35.4961511}, {"type": "node", "id": 12587815448, "lat": 33.3779571, "lon": 35.4959025}, {"type": "node", "id": 12587815449, "lat": 33.3780467, "lon": 35.4959358}, {"type": "node", "id": 12587815450, "lat": 33.3778738, "lon": 35.496141}, {"type": "node", "id": 12587815451, "lat": 33.3778262, "lon": 35.496114}, {"type": "node", "id": 12587815452, "lat": 33.3779186, "lon": 35.4958807}, {"type": "node", "id": 12592576833, "lat": 33.3756982, "lon": 35.4963389}, {"type": "node", "id": 12592576834, "lat": 33.3756541, "lon": 35.4963154}, {"type": "node", "id": 12592576835, "lat": 33.3758111, "lon": 35.4963588}, {"type": "node", "id": 12592576836, "lat": 33.3758334, "lon": 35.4962991}, {"type": "node", "id": 12592576837, "lat": 33.3756889, "lon": 35.496222}, {"type": "node", "id": 12595335456, "lat": 33.3796087, "lon": 35.4846267}, {"type": "node", "id": 12595335457, "lat": 33.3796649, "lon": 35.4848373}, {"type": "node", "id": 12595335459, "lat": 33.3795184, "lon": 35.4846613}, {"type": "node", "id": 12596152594, "lat": 33.3802464, "lon": 35.4828993}, {"type": "node", "id": 12596152595, "lat": 33.3803719, "lon": 35.482733}, {"type": "node", "id": 12596152596, "lat": 33.3802623, "lon": 35.4828689}, {"type": "node", "id": 12596152597, "lat": 33.3802668, "lon": 35.4828741}, {"type": "node", "id": 12597192594, "lat": 33.3765314, "lon": 35.4856183}, {"type": "node", "id": 12597192599, "lat": 33.3765221, "lon": 35.4856445}, {"type": "node", "id": 12597192600, "lat": 33.3764257, "lon": 35.4855953}, {"type": "node", "id": 12597192601, "lat": 33.3765606, "lon": 35.4856332}, {"type": "node", "id": 12597192603, "lat": 33.3765792, "lon": 35.485581}, {"type": "node", "id": 12705244401, "lat": 32.9873092, "lon": 35.2603978, "tags": {"amenity": "restaurant", "cuisine": "mediterranean", "name": "\u05d7\u05d5\u05de\u05d5\u05e1\u05d9\u05d9\u05ea \u05d4\u05e0\u05d5\u05e3"}}, {"type": "way", "id": 188003626, "nodes": [1986299167, 1986299168, 1986299169, 1986299170, 1986299171, 1986299172, 1986299167], "tags": {"amenity": "restaurant", "building": "yes", "name": "\u05d7\u05d3\u05e8 \u05d0\u05d5\u05db\u05dc \u05d2\u05d3\u05d5\u05ea", "name:he": "\u05d7\u05d3\u05e8 \u05d0\u05d5\u05db\u05dc \u05d2\u05d3\u05d5\u05ea", "source": "Bing"}}, {"type": "way", "id": 620103782, "nodes": [5859033784, 5859034485, 5859034486, 5859034487, 5859033784], "tags": {"amenity": "restaurant", "building": "yes", "contact:phone": "+961 7 836 088", "cuisine": "italian;italian_pizza", "delivery": "yes", "name": "\u0628\u064a\u0627\u062f\u0632\u0648\u0633", "name:ar": "\u0628\u064a\u0627\u062f\u0632\u0648\u0633", "name:de": "Piazos", "name:en": "Piazos", "name:fr": "Piazos", "name:he": "\u05e4\u05d9\u05d0\u05e6\u05d5\u05ea", "opening_hours": "24/7", "outdoor_seating": "yes", "smoking": "yes", "takeaway": "yes"}}, {"type": "way", "id": 620153136, "nodes": [5859501201, 12406703167, 12406703166, 5859501204, 5859501201], "tags": {"amenity": "restaurant", "building": "yes", "cuisine": "italian;italian_pizza", "name": "\u062a\u064a\u0633\u062a\u064a", "name:ar": "\u062a\u064a\u0633\u062a\u064a", "name:de": "Tasty", "name:en": "Tasty", "name:fr": "Tasty", "name:he": "\u05d8\u05b8\u05e2\u05b4\u05d9\u05dd", "outdoor_seating": "no", "smoking": "yes"}}, {"type": "way", "id": 620153137, "nodes": [5859501205, 5859501206, 5859501207, 5859501208, 5859501209, 5859501210, 5859501205], "tags": {"amenity": "restaurant", "building": "yes", "cuisine": "lebanese", "name": "\u0646\u0627\u064a\u0627\u062a", "name:ar": "\u0646\u0627\u064a\u0627\u062a", "name:de": "Nayat", "name:en": "Nayat", "name:fr": "Nayat", "name:he": "\u05e0\u05d9\u05d0\u05ea"}}, {"type": "way", "id": 620153138, "nodes": [5859501211, 5859501212, 12412048935, 12412048933, 12412048932, 12412048934, 5859501213, 5859501214, 12412048938, 12412048937, 12412048936, 5859501211], "tags": {"amenity": "restaurant", "building": "yes", "contact:phone": "+9617831169", "cuisine": "lebanese", "name": "\u0648\u0646 \u0648\u064a", "name:ar": "\u0648\u0646 \u0648\u064a", "name:en": "One Way", "name:fr": "One Way", "name:he": "\u05d5\u05df \u05d5\u05d5\u05d9", "opening_hours": "Mo-Sa 09:00-00:00"}}, {"type": "way", "id": 620153139, "nodes": [5859501215, 5859501216, 5859501217, 12412048975, 12412048973, 12412048972, 12412048974, 5859501218, 5859501219, 5859501221, 5859501215], "tags": {"amenity": "restaurant", "building": "yes", "cuisine": "lebanese", "name": "\u0631\u0627\u0634\u062f", "name:ar": "\u0631\u0627\u0634\u062f", "name:en": "R\u0101shid", "name:fr": "R\u0101shid", "name:he": "\u05e8\u05d0\u05e9\u05d9\u05d3"}}, {"type": "way", "id": 677568509, "nodes": [6344254690, 6344254802, 6344254803, 6344254804, 6344254690], "tags": {"addr:city": "\u0643\u0648\u0646\u064a\u0646", "addr:city:fr": "Kounine", "amenity": "cafe", "building": "yes", "name": "\u0645\u0642\u0647\u0649 \u062d\u0645\u0648\u062f\u064a", "name:ar": "\u0645\u0642\u0647\u0649 \u062d\u0645\u0648\u062f\u064a", "name:en": "Caf\u00e9 Hammoudi", "name:fr": "Caf\u00e9 Hammoudi"}}, {"type": "way", "id": 680549999, "nodes": [6372262513, 6372262512, 6372262511, 7934573810, 12560890552, 12560890553, 6372262513], "tags": {"amenity": "restaurant", "building": "yes", "cuisine": "sandwich", "name": "fahham"}}, {"type": "way", "id": 704273179, "nodes": [6612813601, 6612813603, 6612813602, 6612813599, 6612813601], "tags": {"amenity": "restaurant", "building": "yes", "cuisine": "lebanese", "name": "Pupa", "name:en": "Pupa", "name:fr": "Pupa"}}, {"type": "way", "id": 704273184, "nodes": [6612813620, 6612813621, 6612813622, 6612813623, 6612813620], "tags": {"amenity": "restaurant", "building": "yes", "cuisine": "lebanese", "name": "\u0628\u062f\u0631\u0648\u0633", "name:en": "Pedros", "name:fr": "Pedros", "name:he": "\u05e9\u05d9\u05e2\u05d5\u05e8\u05d9\u05dd"}}, {"type": "way", "id": 704273186, "nodes": [6612813628, 6612813629, 6612813630, 6612813631, 6612813628], "tags": {"amenity": "restaurant", "building": "yes", "name": "Jacqui's Diner", "name:en": "Jacqui's Diner", "name:fr": "Jacqui's Diner"}}, {"type": "way", "id": 704818141, "nodes": [6619012804, 6619012805, 11006034200, 1057764037, 6619012804], "tags": {"amenity": "restaurant", "cuisine": "lebanese", "name": "20/5000 \u0627\u0644\u0648\u0632\u0627\u0646\u064a - \u0645\u0637\u0639\u0645 \u0639\u0648\u0627\u0636\u0629", "name:en": "Wazzani - Awada Rest", "name:fr": "Wazzani - Awada Rest"}}, {"type": "way", "id": 704818142, "nodes": [6619012810, 6619012811, 6619012817, 11006087988, 11006087987, 6619012812, 6619012815, 6619012814, 6619012813, 6619012810], "tags": {"amenity": "restaurant", "name": "\u0627\u0633\u062a\u0631\u0627\u062d\u0629 \u0627\u0644\u062c\u0632\u064a\u0631\u0629"}}, {"type": "way", "id": 705250339, "nodes": [6624721934, 6624721935, 6624721936, 6624721937, 6624721938, 6624721934], "tags": {"amenity": "restaurant", "building": "yes", "name": "Royal View Resort", "name:en": "Royal View Resort", "name:fr": "Royal View Resort"}}, {"type": "way", "id": 719614498, "nodes": [6755326989, 6755314744, 6755314780, 6755326985, 6755326989], "tags": {"amenity": "restaurant", "building": "yes", "name": "\u05e7\u05e0\u05d9\u05d9\u05e4\u05d4", "name:he": "\u05e7\u05e0\u05d9\u05d9\u05e4\u05d4"}}, {"type": "way", "id": 743159399, "nodes": [6956225381, 6956225382, 6956225383, 6956225384, 6956264185, 6956264186, 6956264187, 6956264188, 6956264189, 6956264190, 6956264191, 7954650509, 6956225381], "tags": {"amenity": "cafe", "building": "yes", "name": "sky net"}}, {"type": "way", "id": 745462763, "nodes": [6977880066, 6977880067, 6977880068, 6977880069, 6977880066], "tags": {"amenity": "restaurant", "building": "yes", "name": "al abdalla restaurant"}}, {"type": "way", "id": 746038392, "nodes": [7935267126, 6981876636, 6981876637, 6981876638, 6981876639, 7935267126], "tags": {"amenity": "restaurant", "building": "yes", "name": "Regina cafe"}}, {"type": "way", "id": 762693984, "nodes": [7126653815, 7126653816, 7126653817, 7126653818, 7126653815], "tags": {"amenity": "restaurant", "building": "yes", "name": "\u0641\u0631\u0646 \u0627\u0628\u0648 \u0637\u0631\u0627\u0641", "name:ar": "\u0641\u0631\u0646 \u0627\u0628\u0648 \u0637\u0631\u0627\u0641", "name:en": "Furn Abou Tarraf", "name:fr": "Furn Abou Tarraf"}}, {"type": "way", "id": 762693992, "nodes": [7126653874, 7126653875, 7126653876, 7126653877, 7126653874], "tags": {"amenity": "cafe", "building": "yes", "name": "Tamo caf\u00e9", "name:en": "Tamo coffee", "name:fr": "Tamo caf\u00e9"}}, {"type": "way", "id": 766351251, "nodes": [7157428481, 7157428477, 7157428476, 8254414545, 7157428479, 7157428480, 7157428481], "tags": {"amenity": "restaurant", "building": "yes", "name": "shahd w ward"}}, {"type": "way", "id": 766351909, "nodes": [7157433060, 7157433057, 7157433058, 7157433059, 7157433060], "tags": {"amenity": "restaurant", "building": "yes", "name": "Le chef"}}, {"type": "way", "id": 766715012, "nodes": [7160701387, 7160701386, 12596152594, 12596152597, 12596152596, 12596152595, 7160701383, 7160701382, 7160701391, 7160701390, 7160701389, 7160701388, 7160701387], "tags": {"amenity": "restaurant", "building": "yes", "name": "Gentina"}}, {"type": "way", "id": 775363406, "nodes": [7233745339, 7233745340, 7233745341, 7233745342, 7233745339], "tags": {"amenity": "restaurant", "building": "yes", "name": "Snack Mado", "name:en": "Snack Mado", "name:fr": "Snack Mado"}}, {"type": "way", "id": 776813751, "nodes": [7248195003, 7248195004, 7248195005, 7248195006, 7248195007, 7248195003], "tags": {"amenity": "restaurant", "building": "yes", "name": "\u00c0 la Tabkha Resto-Caf\u00e9", "name:fr": "\u00c0 la Tabkha Resto-Caf\u00e9"}}, {"type": "way", "id": 777810172, "nodes": [7259000645, 7259000646, 7259000647, 8868662089, 8868662090, 7259000648, 7259000649, 7259000650, 7259000645], "tags": {"amenity": "restaurant", "building": "yes", "name": "Blue Line", "name:en": "Blue Line"}}, {"type": "way", "id": 777810250, "nodes": [7259001168, 7259001169, 7259001170, 7259001171, 7259001172, 7259001173, 7259001174, 7259001175, 7259001176, 7259001177, 7259001178, 7259001179, 7259001180, 7259001181, 7259001017, 7259001016, 7259001015, 7259001014, 7259001168], "tags": {"amenity": "restaurant", "building": "yes", "name": "\u05e4\u05d0\u05e8\u05e7 \u05d0\u05dc \u05e7\u05d0\u05ea\u05d0\u05e8", "name:ar": "\u0645\u0646\u062a\u0632\u0647 \u0627\u0644\u0643\u0648\u062b\u0631", "name:fr": "Parc Al-Kaouthar", "name:he": "\u05e4\u05d0\u05e8\u05e7 \u05d0\u05dc \u05e7\u05d0\u05ea\u05d0\u05e8"}}, {"type": "way", "id": 777810388, "nodes": [7259002392, 7259002393, 7259002394, 7259002395, 7259002398, 7259002399, 7259002400, 7259002401, 7259002402, 7259002403, 7259002404, 7259002405, 7259002406, 7259002407, 7259002392], "tags": {"amenity": "restaurant", "building": "yes", "name": "\u05de\u05e1\u05e2\u05d3\u05ea \u05d1\u05d9\u05e1\u05d0\u05df \u05e2\u05d2\u05e8", "name:ar": "\u0645\u0637\u0639\u0645 \u0628\u064a\u0633\u0627\u0646 \u0627\u0644\u063a\u062c\u0631", "name:en": "Restaurant Bisan Ghajar", "name:fr": "Restaurant Bisan Ghajar", "name:he": "\u05de\u05e1\u05e2\u05d3\u05ea \u05d1\u05d9\u05e1\u05d0\u05df \u05e2\u05d2\u05e8"}}, {"type": "way", "id": 849822283, "nodes": [7928561619, 7928561620, 7928561621, 7928561622, 7928561619], "tags": {"amenity": "restaurant", "building": "yes", "name": "\u0645\u062d\u0644 \u0641\u0644\u0627\u0641\u0644"}}, {"type": "way", "id": 849822308, "nodes": [7928561840, 7928561833, 7928561834, 7928561835, 7928561840], "tags": {"amenity": "restaurant", "building": "yes"}}, {"type": "way", "id": 850257769, "nodes": [7163557585, 7163557586, 7163557587, 11374797744, 7163557584, 7163557585], "tags": {"amenity": "restaurant", "building": "yes"}}, {"type": "way", "id": 864293480, "nodes": [7149221922, 7149221923, 7149221924, 7149221925, 7149221926, 7149221927, 7149221928, 7149221921, 7149221922], "tags": {"amenity": "cafe", "building": "yes", "name": "tawil cafe"}}, {"type": "way", "id": 867315486, "nodes": [8084739247, 8084739244, 8084739245, 8084739246, 8084739247], "tags": {"amenity": "cafe", "building": "yes", "name": "7ouda caffe"}}, {"type": "way", "id": 1000212617, "nodes": [9232541690, 9232541691, 9232541692, 9232541693, 9232541690], "tags": {"amenity": "cafe", "building": "yes"}}, {"type": "way", "id": 1000212618, "nodes": [9232541694, 9232541695, 9232541696, 9232541697, 9232541694], "tags": {"amenity": "cafe", "building": "yes"}}, {"type": "way", "id": 1000212619, "nodes": [9232541698, 9232541699, 9232541700, 9232541701, 9232541698], "tags": {"amenity": "cafe", "building": "yes"}}, {"type": "way", "id": 1033448808, "nodes": [9521366149, 9521366150, 9521366151, 9521366152, 9521366153, 9521366154, 9521366155, 9521366156, 9521366149], "tags": {"amenity": "restaurant", "building": "yes", "name": "\u05de\u05e1\u05e2\u05d3\u05ea \u05d2\u05e8\u05d9\u05dc \u05e2\u05e5", "name:he": "\u05de\u05e1\u05e2\u05d3\u05ea \u05d2\u05e8\u05d9\u05dc \u05e2\u05e5"}}, {"type": "way", "id": 1036220417, "nodes": [9546842205, 9546842206, 9546842207, 9546842208, 9546842209, 9546842210, 9546842205], "tags": {"amenity": "restaurant", "building": "yes", "cuisine": "pizza", "name": "\u05e4\u05d9\u05e6\u05d4 \u05e0\u05d7\u05de\u05d9\u05d4", "name:he": "\u05e4\u05d9\u05e6\u05d4 \u05e0\u05d7\u05de\u05d9\u05d4"}}, {"type": "way", "id": 1067921127, "nodes": [9804088290, 9804088291, 9804088292, 9804088293, 9804088290], "tags": {"amenity": "cafe", "building": "yes"}}, {"type": "way", "id": 1304066938, "nodes": [12076726386, 12076726387, 12076726384, 12076726389, 12076726386], "tags": {"amenity": "restaurant", "building": "yes", "contact:mobile": "+96170958052", "name": "Villa Springs Restaurant", "name:en": "Villa Springs Restaurant"}}, {"type": "way", "id": 1304654868, "nodes": [12083293105, 12083293106, 12083293107, 12083293108, 12083293109, 12083293110, 12083293105], "tags": {"amenity": "restaurant", "building": "yes", "name": "\u0641\u0631\u0646 \u0648\u0645\u0644\u062d\u0645\u0647 \u0627\u0633\u0639\u062f \u062d\u062c\u0648\u0644"}}, {"type": "way", "id": 1350330938, "nodes": [12492041620, 12492041621, 12492041622, 12492041623, 12492041620], "tags": {"amenity": "restaurant", "building": "yes"}}, {"type": "way", "id": 1350359025, "nodes": [12492282361, 12492282356, 6967841181, 12492282358, 12492282359, 12492282354, 12492282355, 12492282360, 12492282361], "tags": {"amenity": "restaurant", "building": "yes"}}, {"type": "way", "id": 1356603032, "nodes": [12555855557, 12555855558, 7934573804, 12555855560, 12555855557], "tags": {"addr:city": "kfarjouz", "addr:street": "kfarjouz", "amenity": "cafe", "building": "yes", "cuisine": "japanese", "name": "mogetee", "opening_hours": "Mo-Su 10:00-21:00"}}, {"type": "way", "id": 1357150656, "nodes": [7954650531, 12560890577, 12560890576, 12560890580, 12560890579, 12560890578, 7954650531], "tags": {"amenity": "restaurant", "building": "yes", "name": "shawrma w bass"}}, {"type": "way", "id": 1357817043, "nodes": [8310691339, 12565840955, 12565840956, 12565840957, 8310691339], "tags": {"amenity": "cafe", "building": "yes", "cuisine": "coffee_shop", "name": "tishrin"}}, {"type": "way", "id": 1358992189, "nodes": [12578466238, 12578466256, 12578466255, 7954650527, 12578466263, 12578466241, 12578466240, 12578466262, 12578466261, 12578466259, 12578466237, 12578466242, 12578466243, 12578466244, 12578466245, 12578466246, 12578466247, 12578466248, 12578466249, 12578466236, 12578466258, 12578466257, 12578466239, 12578466250, 12578466251, 12578466252, 12578466253, 12578466254, 12578466238], "tags": {"amenity": "cafe", "building": "yes", "name": "time cafe"}}, {"type": "way", "id": 1359557043, "nodes": [12584760602, 12584760601, 12584760594, 12584760593, 12584760592, 12584760600, 12584760599, 12584760590, 12584760589, 12584760588, 12584760591, 12584760587, 12584760585, 12584760584, 12584760586, 12584760597, 12584760596, 7954650522, 12584760598, 12584760602], "tags": {"amenity": "restaurant", "building": "yes", "name": "linas"}}, {"type": "way", "id": 1359875024, "nodes": [12587815452, 12587815448, 12587815446, 12587815449, 12587815443, 12587815442, 12587815440, 12587815441, 12587815444, 12587815445, 12587815447, 8310691322, 12587815450, 12587815451, 12587815452], "tags": {"amenity": "restaurant", "building": "yes", "name": "carinos"}}, {"type": "way", "id": 1360298196, "nodes": [12592576837, 12592576836, 12592576835, 8310691318, 12592576833, 12592576834, 12592576837], "tags": {"amenity": "restaurant", "building": "yes", "name": "marj al rim"}}, {"type": "way", "id": 1360584468, "nodes": [12595335459, 12595335456, 12595335457, 4539620534, 12595335459], "tags": {"amenity": "restaurant", "building": "yes", "name": "Yassine", "name:en": "Yassine", "name:fr": "Yassine"}}, {"type": "way", "id": 1360770615, "nodes": [5464011822, 12597192603, 12597192601, 12597192594, 12597192599, 12597192600, 5464011822], "tags": {"amenity": "cafe", "building": "yes", "cuisine": "asian", "internet_access": "wlan", "name": "\u0642\u0647\u0648\u0629 \u0645\u0646\u0635\u0648\u0631 \u0627\u0644\u0641\u0627\u062e\u0631\u0629", "name:ar": "\u0642\u0647\u0648\u0629 \u0645\u0646\u0635\u0648\u0631 \u0627\u0644\u0641\u0627\u062e\u0631\u0629", "name:fr": "Caf\u00e9 de Luxe Mansour", "operator": "\u0645\u0646\u0635\u0648\u0631 \u0635\u062f\u0642\u0629", "operator:fr": "Mansour Sadaqa"}}]}