{"version": 0.6, "generator": "Overpass API 0.7.62.7 375dc00a", "osm3s": {"timestamp_osm_base": "2025-06-14T15:13:00Z", "copyright": "The data included in this document is from www.openstreetmap.org. The data is made available under ODbL."}, "elements": [{"type": "node", "id": 252043773, "lat": 38.7192331, "lon": 34.8478787, "tags": {"amenity": "restaurant", "name": "Zelve", "source": "survey", "tourism": "hotel", "website": "http://zelvehotel-restaurant.com/"}}, {"type": "node", "id": 284774067, "lat": 38.6414718, "lon": 34.8438197, "tags": {"amenity": "cafe"}}, {"type": "node", "id": 284893673, "lat": 38.7175074, "lon": 34.8435107, "tags": {"amenity": "restaurant", "name": "\u00c7al\u0131 Teras"}}, {"type": "node", "id": 299100508, "lat": 38.7198411, "lon": 34.847331, "tags": {"amenity": "cafe", "name": "Kervanhan Karmina", "source": "survey"}}, {"type": "node", "id": 299110160, "lat": 38.7127985, "lon": 34.8448734, "tags": {"amenity": "cafe"}}, {"type": "node", "id": 314404239, "lat": 38.6700136, "lon": 34.8635308, "tags": {"amenity": "cafe"}}, {"type": "node", "id": 314404241, "lat": 38.6699728, "lon": 34.8630644, "tags": {"amenity": "cafe"}}, {"type": "node", "id": 314404242, "lat": 38.6696761, "lon": 34.8630867, "tags": {"amenity": "cafe"}}, {"type": "node", "id": 314405707, "lat": 38.6424991, "lon": 34.8290992, "tags": {"amenity": "cafe"}}, {"type": "node", "id": 314408188, "lat": 38.6437198, "lon": 34.830974, "tags": {"amenity": "restaurant", "name": "Sedef"}}, {"type": "node", "id": 314408191, "lat": 38.6430498, "lon": 34.8304969, "tags": {"amenity": "restaurant", "internet_access": "wlan", "name": "Alaturca"}}, {"type": "node", "id": 314657355, "lat": 38.6209614, "lon": 34.8651213, "tags": {"amenity": "cafe"}}, {"type": "node", "id": 314657366, "lat": 38.6227197, "lon": 34.8652662, "tags": {"addr:housenumber": "1/A", "addr:street": "Cumhuriyet Meydan\u0131", "amenity": "restaurant", "cuisine": "turkish", "name": "Ne\u015feli G\u00fcnler", "opening_hours": "24/7"}}, {"type": "node", "id": 314659423, "lat": 38.621084, "lon": 34.864865, "tags": {"amenity": "restaurant"}}, {"type": "node", "id": 314665461, "lat": 38.6214661, "lon": 34.865673, "tags": {"amenity": "restaurant"}}, {"type": "node", "id": 315055623, "lat": 38.7032962, "lon": 34.8417213}, {"type": "node", "id": 315055624, "lat": 38.7033554, "lon": 34.8420881}, {"type": "node", "id": 315055625, "lat": 38.7035139, "lon": 34.8420379}, {"type": "node", "id": 315055626, "lat": 38.7035328, "lon": 34.8417812}, {"type": "node", "id": 315057377, "lat": 38.704549, "lon": 34.8411686}, {"type": "node", "id": 315057378, "lat": 38.7045709, "lon": 34.8407245}, {"type": "node", "id": 315057379, "lat": 38.7042636, "lon": 34.8411454}, {"type": "node", "id": 315057380, "lat": 38.7042855, "lon": 34.8407014}, {"type": "node", "id": 315057381, "lat": 38.7044509, "lon": 34.8417135}, {"type": "node", "id": 315057382, "lat": 38.704166, "lon": 34.8417017}, {"type": "node", "id": 315057383, "lat": 38.704162, "lon": 34.8418604}, {"type": "node", "id": 315057384, "lat": 38.7044469, "lon": 34.8418722}, {"type": "node", "id": 315507287, "lat": 38.7185389, "lon": 34.8462993, "tags": {"amenity": "restaurant", "level": "1", "name": "Kumsal & \u0130nci"}}, {"type": "node", "id": 316075365, "lat": 38.6087867, "lon": 34.8023937, "tags": {"amenity": "restaurant", "name": "Harmandal\u0131"}}, {"type": "node", "id": 316755513, "lat": 38.6448384, "lon": 34.8278157, "tags": {"amenity": "restaurant", "name": "Orient"}}, {"type": "node", "id": 316755670, "lat": 38.6444167, "lon": 34.8283894, "tags": {"addr:housenumber": "1", "addr:street": "Adnan Menderes Caddesi", "amenity": "restaurant", "cuisine": "chinese", "name": "\u00c7in restaraunt", "name:en": "Chinese restaraunt", "opening_hours": "Mo-Su 08:00-23:00"}}, {"type": "node", "id": 316755671, "lat": 38.6438249, "lon": 34.8303286, "tags": {"amenity": "restaurant", "name": "Mercan"}}, {"type": "node", "id": 317182164, "lat": 38.7174934, "lon": 34.84386, "tags": {"amenity": "restaurant", "name": "Evranos"}}, {"type": "node", "id": 317559718, "lat": 38.7179746, "lon": 34.8463124, "tags": {"amenity": "restaurant", "name": "Akdeniz Kebap"}}, {"type": "node", "id": 318099495, "lat": 38.6443993, "lon": 34.8317322, "tags": {"amenity": "restaurant"}}, {"type": "node", "id": 318099496, "lat": 38.643935, "lon": 34.8313266, "tags": {"amenity": "restaurant", "name": "Cafeturca"}}, {"type": "node", "id": 318100063, "lat": 38.6441778, "lon": 34.83247, "tags": {"amenity": "restaurant", "cuisine": "asian", "name": "Panda's Asian Kitchen"}}, {"type": "node", "id": 318742938, "lat": 38.7172543, "lon": 34.8444373, "tags": {"addr:city": "Nev\u015fehir", "addr:district": "Avanos", "addr:housenumber": "64/A", "addr:neighbourhood": "Orta Mah.", "addr:street": "Atat\u00fcrk Caddesi", "amenity": "cafe", "cuisine": "coffee_shop;cookies;pastry", "internet_access": "wlan", "internet_access:fee": "no", "name": "Piccolo Coffee & More", "old_name": "Yufka D\u00fcnyas\u0131", "opening_hours": "Mo-Su 09:00-22:00", "outdoor_seating": "yes", "phone": "+905336817983"}}, {"type": "node", "id": 320434087, "lat": 38.716518, "lon": 34.8264497, "tags": {"amenity": "restaurant", "name": "Alt\u0131nocak"}}, {"type": "node", "id": 320884260, "lat": 38.6229002, "lon": 34.8046911, "tags": {"amenity": "restaurant", "created_by": "Potlatch 0.10f", "name": "Bindall\u0131"}}, {"type": "node", "id": 333669477, "lat": 38.642986, "lon": 34.8302552, "tags": {"amenity": "restaurant", "name": "G\u00f6reme Restaurant", "name:tr": "Mitos cafe G\u00f6reme"}}, {"type": "node", "id": 333669481, "lat": 38.6432702, "lon": 34.82907, "tags": {"amenity": "restaurant", "name": "Oneway"}}, {"type": "node", "id": 339101734, "lat": 38.64285, "lon": 34.828639, "tags": {"amenity": "restaurant", "cuisine": "turkish", "internet_access": "wlan", "name": "My Mother's", "name:en": "My Mother's Restaurant"}}, {"type": "node", "id": 339101735, "lat": 38.6425589, "lon": 34.8290668, "tags": {"amenity": "restaurant", "name": "Dibek", "name:zh": "Dibek\u9910\u5385"}}, {"type": "node", "id": 344454962, "lat": 38.7192757, "lon": 34.8458933}, {"type": "node", "id": 344454963, "lat": 38.7194752, "lon": 34.8459177}, {"type": "node", "id": 344454964, "lat": 38.7195269, "lon": 34.8460801}, {"type": "node", "id": 344454965, "lat": 38.7193814, "lon": 34.8461759}, {"type": "node", "id": 344458316, "lat": 38.7184777, "lon": 34.8473677, "tags": {"amenity": "cafe", "name": "Damla Pastanesi", "shop": "confectionery", "source": "survey"}}, {"type": "node", "id": 344947292, "lat": 38.6304025, "lon": 34.9104112, "tags": {"amenity": "cafe", "phone": "(0242)3416090"}}, {"type": "node", "id": 344947295, "lat": 38.6315707, "lon": 34.9126487, "tags": {"amenity": "cafe"}}, {"type": "node", "id": 344947299, "lat": 38.6312961, "lon": 34.9134897, "tags": {"amenity": "cafe"}}, {"type": "node", "id": 344947302, "lat": 38.6298268, "lon": 34.9103321, "tags": {"amenity": "cafe"}}, {"type": "node", "id": 364418788, "lat": 38.651077, "lon": 34.8561783, "tags": {"amenity": "cafe", "name": "G\u00fcll\u00fcdere Tea Garden"}}, {"type": "node", "id": 364418883, "lat": 38.645766, "lon": 34.8331889, "tags": {"amenity": "restaurant"}}, {"type": "node", "id": 364421701, "lat": 38.6557773, "lon": 34.8461668, "tags": {"amenity": "cafe", "name": "Cafeteria"}}, {"type": "node", "id": 365632697, "lat": 38.6322762, "lon": 34.8567419, "tags": {"amenity": "restaurant", "name": "Dervi\u015f Evi"}}, {"type": "node", "id": 365632788, "lat": 38.6415762, "lon": 34.8436754, "tags": {"amenity": "cafe"}}, {"type": "node", "id": 365632878, "lat": 38.6428258, "lon": 34.8406209, "tags": {"amenity": "cafe"}}, {"type": "node", "id": 365632904, "lat": 38.6445588, "lon": 34.8335722, "tags": {"amenity": "restaurant", "name": "Hansaray"}}, {"type": "node", "id": 365655766, "lat": 38.6307887, "lon": 34.9112362, "tags": {"amenity": "cafe", "name": "Merkez Pastanesi"}}, {"type": "node", "id": 366792445, "lat": 38.621824, "lon": 34.8650219}, {"type": "node", "id": 366792448, "lat": 38.6222577, "lon": 34.865215}, {"type": "node", "id": 366792451, "lat": 38.6222447, "lon": 34.8652715}, {"type": "node", "id": 366792453, "lat": 38.6217915, "lon": 34.8652834}, {"type": "node", "id": 368298013, "lat": 38.6427144, "lon": 34.8296383, "tags": {"amenity": "restaurant", "name": "Teras Cafe"}}, {"type": "node", "id": 368298014, "lat": 38.6428051, "lon": 34.8294837, "tags": {"amenity": "restaurant", "name": "Anatolia Kitchen"}}, {"type": "node", "id": 370145398, "lat": 38.6525836, "lon": 34.8603838, "tags": {"amenity": "cafe"}}, {"type": "node", "id": 375982930, "lat": 38.6331572, "lon": 34.9048005, "tags": {"amenity": "restaurant", "name": "Dimrit", "name:en": "Prokopi", "name:ru": "Prokopi", "name:tr": "Prokopi"}}, {"type": "node", "id": 419722972, "lat": 38.7181465, "lon": 34.8480541}, {"type": "node", "id": 419722976, "lat": 38.7182347, "lon": 34.8484125}, {"type": "node", "id": 428239216, "lat": 38.6311143, "lon": 34.9119303, "tags": {"amenity": "restaurant", "name": "Sofra"}}, {"type": "node", "id": 428239218, "lat": 38.6303539, "lon": 34.9111624, "tags": {"amenity": "restaurant", "name": "Micro"}}, {"type": "node", "id": 428239220, "lat": 38.6306316, "lon": 34.911689, "tags": {"amenity": "restaurant"}}, {"type": "node", "id": 428239222, "lat": 38.630563, "lon": 34.911412, "tags": {"amenity": "restaurant"}}, {"type": "node", "id": 428239224, "lat": 38.629539, "lon": 34.912932, "tags": {"amenity": "restaurant", "name": "Develili Dering\u00f6ller Kiymali ve Kebab", "name:tr": "Develili Dering\u00f6ller Kiymali ve Kebab"}}, {"type": "node", "id": 437796038, "lat": 38.583248, "lon": 34.8970189, "tags": {"amenity": "restaurant", "name": "Eleni"}}, {"type": "node", "id": 441871773, "lat": 38.6189064, "lon": 34.7044238, "tags": {"amenity": "restaurant", "name": "Nev\u015fehir Kona\u011f\u0131"}}, {"type": "node", "id": 444981520, "lat": 38.5835287, "lon": 34.898713, "tags": {"amenity": "cafe", "name": "Beiliys Cafe"}}, {"type": "node", "id": 444981522, "lat": 38.5830381, "lon": 34.8989144, "tags": {"amenity": "restaurant", "name": "Anadolu Evi"}}, {"type": "node", "id": 444989254, "lat": 38.6304609, "lon": 34.9099978, "tags": {"amenity": "restaurant", "name": "Han \u00c7\u0131ra\u011fan"}}, {"type": "node", "id": 449522721, "lat": 38.7043448, "lon": 34.841152}, {"type": "node", "id": 617626862, "lat": 38.7180673, "lon": 34.8481112}, {"type": "node", "id": 663792749, "lat": 38.6467671, "lon": 34.8329055, "tags": {"amenity": "restaurant", "name": "Aydede"}}, {"type": "node", "id": 697643796, "lat": 38.7355861, "lon": 34.9291538, "tags": {"amenity": "cafe"}}, {"type": "node", "id": 719065445, "lat": 38.6437801, "lon": 34.8399279, "tags": {"amenity": "restaurant"}}, {"type": "node", "id": 769264313, "lat": 38.6100842, "lon": 34.7843658, "tags": {"amenity": "restaurant", "name": "Oba"}}, {"type": "node", "id": 800022190, "lat": 38.7419951, "lon": 34.6184696, "tags": {"amenity": "cafe"}}, {"type": "node", "id": 836143465, "lat": 38.6439034, "lon": 34.8300055, "tags": {"amenity": "restaurant", "name": "Sultan"}}, {"type": "node", "id": 842200625, "lat": 38.7125811, "lon": 34.8429423, "tags": {"amenity": "cafe"}}, {"type": "node", "id": 842216790, "lat": 38.7152402, "lon": 34.8434715}, {"type": "node", "id": 842216795, "lat": 38.7152125, "lon": 34.8431848}, {"type": "node", "id": 842216806, "lat": 38.7153841, "lon": 34.8434487}, {"type": "node", "id": 842217795, "lat": 38.7161232, "lon": 34.8459078}, {"type": "node", "id": 842217797, "lat": 38.7162326, "lon": 34.8462176}, {"type": "node", "id": 842217799, "lat": 38.7161702, "lon": 34.8462538}, {"type": "node", "id": 842217800, "lat": 38.7160608, "lon": 34.845944}, {"type": "node", "id": 915265932, "lat": 38.7185003, "lon": 34.8474681, "tags": {"amenity": "restaurant", "name": "Lezzet Sofras\u0131", "old_name": "Topkap\u0131", "source": "survey"}}, {"type": "node", "id": 927954358, "lat": 38.7176279, "lon": 34.8706092, "tags": {"amenity": "cafe", "expensive": "yes"}}, {"type": "node", "id": 939101254, "lat": 38.4614982, "lon": 34.7509402, "tags": {"amenity": "cafe", "name": "Park Kahvesi"}}, {"type": "node", "id": 974977826, "lat": 38.6216679, "lon": 34.8579556, "tags": {"amenity": "restaurant", "name": "Kayalar Urfa Sofras\u0131"}}, {"type": "node", "id": 986569881, "lat": 38.6300827, "lon": 34.912045, "tags": {"amenity": "restaurant", "name": "\u00dcrg\u00fcp pide salonu", "name:tr": "\u00dcrg\u00fcp pide salonu"}}, {"type": "node", "id": 1044553590, "lat": 38.6207747, "lon": 34.7007311, "tags": {"amenity": "restaurant"}}, {"type": "node", "id": 1127323882, "lat": 38.7173061, "lon": 34.8441091}, {"type": "node", "id": 1127323890, "lat": 38.7172528, "lon": 34.8439645}, {"type": "node", "id": 1127323902, "lat": 38.7173074, "lon": 34.8441855}, {"type": "node", "id": 1127323916, "lat": 38.7173429, "lon": 34.8439775}, {"type": "node", "id": 1127323938, "lat": 38.7172503, "lon": 34.8441839}, {"type": "node", "id": 1127323974, "lat": 38.7173365, "lon": 34.8441107}, {"type": "node", "id": 1263431158, "lat": 38.7312125, "lon": 34.9460905, "tags": {"amenity": "restaurant", "name": "alabal\u0131k"}}, {"type": "node", "id": 1301964809, "lat": 38.7196655, "lon": 34.8491464, "tags": {"amenity": "restaurant", "cuisine": "turkish", "name": "Mant\u0131\u00e7a", "outdoor_seating": "yes", "smoking": "outside", "takeaway": "yes"}}, {"type": "node", "id": 1301964814, "lat": 38.7200544, "lon": 34.8475813, "tags": {"amenity": "cafe", "name": "Avc\u0131lar Kul\u00fcb\u00fc"}}, {"type": "node", "id": 1400155128, "lat": 38.7275264, "lon": 34.8220721, "tags": {"amenity": "restaurant", "name": "Uranos"}}, {"type": "node", "id": 1409440350, "lat": 38.7171388, "lon": 34.843302, "tags": {"alcohol": "yes", "amenity": "restaurant", "name": "Seval Sahne & Restaurant", "phone": "+90543 223 00 50", "website": "https://www.instagram.com/seval_sahne_restaurant/"}}, {"type": "node", "id": 1409440382, "lat": 38.7175301, "lon": 34.844898, "tags": {"amenity": "restaurant", "name": "Neman Cafe", "source": "survey"}}, {"type": "node", "id": 1409590281, "lat": 38.70343, "lon": 34.8416858}, {"type": "node", "id": 1409590285, "lat": 38.7035471, "lon": 34.8419125}, {"type": "node", "id": 1436616437, "lat": 38.7175911, "lon": 34.8447376, "tags": {"amenity": "cafe", "internet_access": "wlan", "name": "Sand\u0131k Caf\u00e9"}}, {"type": "node", "id": 1759985608, "lat": 38.6426179, "lon": 34.828999, "tags": {"amenity": "restaurant", "name": "Firin Express"}}, {"type": "node", "id": 1760003150, "lat": 38.64291, "lon": 34.8298988, "tags": {"amenity": "restaurant", "name": "Cappadocia Kebap Center"}}, {"type": "node", "id": 1765532498, "lat": 38.6448466, "lon": 34.853446, "tags": {"amenity": "cafe", "name": "Cafe Natural"}}, {"type": "node", "id": 2065238026, "lat": 38.7178743, "lon": 34.84354}, {"type": "node", "id": 2065238031, "lat": 38.7179187, "lon": 34.8436326}, {"type": "node", "id": 2065238034, "lat": 38.7179318, "lon": 34.8434685}, {"type": "node", "id": 2065238043, "lat": 38.7179745, "lon": 34.843378}, {"type": "node", "id": 2065238044, "lat": 38.7179811, "lon": 34.8435485}, {"type": "node", "id": 2065238048, "lat": 38.7179983, "lon": 34.8434011}, {"type": "node", "id": 2065238050, "lat": 38.7180287, "lon": 34.8434306}, {"type": "node", "id": 2341161589, "lat": 38.6281102, "lon": 34.8050001, "tags": {"amenity": "restaurant", "cuisine": "regional", "name": "Le Mouton Rouge", "website": "https://www.le-mouton-rouge.com/"}}, {"type": "node", "id": 2402626959, "lat": 38.6572526, "lon": 34.8544985, "tags": {"amenity": "cafe", "drink:beer": "yes", "drink:orange_juice": "yes", "drink:tea": "yes", "drink:wine": "yes", "name": "Kahve", "name:en": "Emin's Cafe", "toilets": "yes"}}, {"type": "node", "id": 2432714239, "lat": 38.7186908, "lon": 34.8473188, "tags": {"amenity": "restaurant", "name": "Urfa Sofras\u0131", "source": "survey"}}, {"type": "node", "id": 2432714240, "lat": 38.718734, "lon": 34.8466651, "tags": {"amenity": "restaurant", "contact:phone": "+90 384 511 70 43", "delivery": "yes", "name": "Usta'n\u0131n Yeri", "opening_hours": "09:00-22:00", "outdoor_seating": "yes", "smoking": "no", "source": "survey"}}, {"type": "node", "id": 2510612589, "lat": 38.7177035, "lon": 34.8453938, "tags": {"amenity": "cafe", "level": "1", "name": "Istanbullu", "name:historic": "Eyl\u00fcl"}}, {"type": "node", "id": 2510612592, "lat": 38.7187859, "lon": 34.846715, "tags": {"amenity": "cafe", "name": "Aytemur Pastanesi", "shop": "confectionery", "source": "survey"}}, {"type": "node", "id": 2704689295, "lat": 38.7172356, "lon": 34.8488903}, {"type": "node", "id": 2704689301, "lat": 38.7173637, "lon": 34.8492005}, {"type": "node", "id": 2704689303, "lat": 38.7173894, "lon": 34.848786}, {"type": "node", "id": 2704689306, "lat": 38.7175175, "lon": 34.8490962}, {"type": "node", "id": 2704689307, "lat": 38.7176262, "lon": 34.8496415}, {"type": "node", "id": 2704689308, "lat": 38.7177073, "lon": 34.84954}, {"type": "node", "id": 2704689309, "lat": 38.7177984, "lon": 34.850069}, {"type": "node", "id": 2704689310, "lat": 38.7179581, "lon": 34.8498692}, {"type": "node", "id": 2843906696, "lat": 38.7166065, "lon": 34.8417324}, {"type": "node", "id": 2843906697, "lat": 38.7166082, "lon": 34.8415539}, {"type": "node", "id": 2843906698, "lat": 38.7166094, "lon": 34.8414183}, {"type": "node", "id": 2843906713, "lat": 38.7166848, "lon": 34.8417336}, {"type": "node", "id": 2843906714, "lat": 38.7166865, "lon": 34.8415551}, {"type": "node", "id": 2843906717, "lat": 38.7166878, "lon": 34.8414195}, {"type": "node", "id": 2922321408, "lat": 38.6150575, "lon": 34.9065957, "tags": {"amenity": "restaurant", "name": "Karaku\u015f"}}, {"type": "node", "id": 3067983462, "lat": 38.7182477, "lon": 34.8484764}, {"type": "node", "id": 3347578781, "lat": 38.8134577, "lon": 34.8393429, "tags": {"amenity": "cafe", "source": "survey"}}, {"type": "node", "id": 3547599057, "lat": 38.6427778, "lon": 34.8297222, "tags": {"amenity": "restaurant", "cuisine": "turkish", "name": "Ottoman Kebap Royal"}}, {"type": "node", "id": 3613075221, "lat": 38.8255753, "lon": 34.7304382, "tags": {"amenity": "cafe"}}, {"type": "node", "id": 3615833188, "lat": 38.6414783, "lon": 34.82716, "tags": {"addr:housenumber": "27", "addr:street": "Kaz\u0131m Eren Sokak", "amenity": "cafe", "name": "Omurca Art Cafe"}}, {"type": "node", "id": 3623369742, "lat": 38.6437802, "lon": 34.8288612, "tags": {"addr:city": "Nev\u015fehir", "addr:district": "G\u00f6reme", "addr:housenumber": "5/C", "addr:neighbourhood": "Orta Mah", "addr:street": "Belediye Caddesi", "amenity": "restaurant", "bar": "yes", "changing_table": "yes", "cuisine": "regional;kebab;seafood;ice_cream;turkish;grill;juice;salad;dessert;diner;fine_dining;soup;international;indian;nargile;hookah", "delivery": "yes", "diet:gluten_free": "yes", "diet:halal": "yes", "diet:healthy": "yes", "diet:kosher": "yes", "diet:lactose_free": "yes", "diet:local": "yes", "diet:meat": "yes", "diet:mediterranean": "yes", "diet:non-vegetarian": "yes", "diet:pescetarian": "yes", "diet:vegan": "yes", "diet:vegetarian": "yes", "internet_access": "yes", "name": "Keyif Restaurant", "name:ko": "\ud0a4\uc774\ud504 \ub808\uc2a4\ud1a0\ub791", "name:ru": "\u0420\u0435\u0441\u0442\u043e\u0440\u0430\u043d \u041a\u0435\u0439\u0438\u0444", "name:zh": "\u4eab\u53d7\u9910\u5385", "note": "360\u00b0 Great Cappadocia View", "outdoor_seating": "yes", "payment:american_express": "yes", "payment:cash": "yes", "payment:credit_cards": "yes", "payment:mastercard": "yes", "phone": "+905327002221", "reservation": "recommended", "takeaway": "yes", "toilets": "yes", "website": "https://www.keyifrestaurant.com/", "website:menu": "www.keyifrestaurant.com/menu", "wheelchair": "yes"}}, {"type": "node", "id": 3682783905, "lat": 38.7123865, "lon": 34.8428496, "tags": {"amenity": "cafe"}}, {"type": "node", "id": 3726625343, "lat": 38.6000547, "lon": 34.8470213, "tags": {"amenity": "restaurant", "name": "Babayan Evi"}}, {"type": "node", "id": 3726640535, "lat": 38.599083, "lon": 34.8495217, "tags": {"amenity": "restaurant", "name": "El Puente"}}, {"type": "node", "id": 3845562724, "lat": 38.6411288, "lon": 34.8323757}, {"type": "node", "id": 3845562725, "lat": 38.641052, "lon": 34.8324263}, {"type": "node", "id": 3845562726, "lat": 38.6410674, "lon": 34.8324644}, {"type": "node", "id": 3845562727, "lat": 38.6410335, "lon": 34.8324867}, {"type": "node", "id": 3845562728, "lat": 38.641053, "lon": 34.8325354}, {"type": "node", "id": 3845562729, "lat": 38.6411174, "lon": 34.8324931}, {"type": "node", "id": 3845562730, "lat": 38.6410952, "lon": 34.8324376}, {"type": "node", "id": 3845562731, "lat": 38.6411414, "lon": 34.8324071}, {"type": "node", "id": 3866938416, "lat": 38.7671842, "lon": 34.9704373, "tags": {"alt_name": "Acar", "amenity": "restaurant", "cuisine": "turkish", "name": "Acar Cafe ve Restaurant", "opening_hours": "24/7", "outdoor_seating": "yes", "phone": "0536 706 4413", "smoking": "yes"}}, {"type": "node", "id": 3906010555, "lat": 38.6296723, "lon": 34.805324, "tags": {"addr:city": "Nev\u015fehir", "addr:housenumber": "23", "addr:postcode": "50240", "addr:street": "Kayaba\u015f\u0131 Sok. argos in Cappadocia", "amenity": "restaurant", "cuisine": "international", "name": "Seki Restaurant"}}, {"type": "node", "id": 4058619494, "lat": 38.6438368, "lon": 34.8288174, "tags": {"amenity": "cafe", "changing_table": "no", "indoor_seating": "yes", "internet_access": "wlan", "internet_access:fee": "customers", "internet_access:ssid": "hoppercoffee", "level": "0", "name": "Hopper Coffee", "opening_hours": "Mo-Su 05:30-24:00", "outdoor_seating": "yes", "shop": "coffee", "takeaway": "yes", "toilets": "yes", "toilets:access": "permissive", "toilets:wheelchair": "no", "wheelchair": "limited"}}, {"type": "node", "id": 4085430313, "lat": 38.7187155, "lon": 34.8474066, "tags": {"alt_name": "Kebap Yerim;Kebab Yerim", "amenity": "restaurant", "name": "Kebap Yeri'm", "source": "survey"}}, {"type": "node", "id": 4085430315, "lat": 38.719226, "lon": 34.8478348, "tags": {"amenity": "restaurant", "cuisine": "pizza;turkish", "fax": "+90 384 511 4687", "name": "Zelve", "old_name": "Sofra", "phone": "+90 384 511 6777", "source": "survey", "website": "http://www.zelvehotelrestaurant.com/"}}, {"type": "node", "id": 4195110890, "lat": 38.6417558, "lon": 34.8276558, "tags": {"addr:housenumber": "15", "addr:street": "Hafiz Abdullah S.", "amenity": "restaurant", "name": "Topdeck Cave Restaurant"}}, {"type": "node", "id": 4310330991, "lat": 38.6421596, "lon": 34.8288064, "tags": {"amenity": "restaurant", "cuisine": "turkish", "name": "Saray", "name:en": "Saray Local Food", "name:tr": "Saray Local Food"}}, {"type": "node", "id": 4310330992, "lat": 38.6418522, "lon": 34.8286818, "tags": {"amenity": "restaurant", "cuisine": "turkish", "name": "Old Cappadocia"}}, {"type": "node", "id": 4310352489, "lat": 38.6427724, "lon": 34.828652, "tags": {"addr:housenumber": "14", "addr:street": "Harim", "amenity": "restaurant", "cuisine": "turkish", "internet_access": "wlan", "name": "Viewpoint", "name:fr": "Caf\u00e9 Manzara", "opening_hours": "24/7", "phone": "2172712"}}, {"type": "node", "id": 4350589490, "lat": 38.6428447, "lon": 34.8408057, "tags": {"amenity": "cafe", "name": "Volcanic Cave Cafe"}}, {"type": "node", "id": 4386738245, "lat": 38.6429106, "lon": 34.8293052, "tags": {"amenity": "restaurant", "cuisine": "turkish;international", "name": "Fat Boys"}}, {"type": "node", "id": 4437377700, "lat": 38.6311384, "lon": 34.9119847, "tags": {"amenity": "restaurant", "name": "Zeytin Cafe", "name:tr": "Zeytin Cafe"}}, {"type": "node", "id": 4463483193, "lat": 38.6333707, "lon": 34.8138055, "tags": {"amenity": "restaurant", "name:en": "Tea shop"}}, {"type": "node", "id": 4830422587, "lat": 38.7203959, "lon": 34.8474834, "tags": {"amenity": "cafe", "name": "Otantik"}}, {"type": "node", "id": 4852217306, "lat": 38.6367049, "lon": 34.8138159, "tags": {"amenity": "restaurant"}}, {"type": "node", "id": 4853721321, "lat": 38.6436741, "lon": 34.8302897, "tags": {"amenity": "restaurant", "cuisine": "korean;japanese", "name:en": "Woori Jip Korean Restaurant", "name:ko": "\uc6b0\ub9ac\uc9d1 \ud55c\uc2dd\ub2f9"}}, {"type": "node", "id": 4855259622, "lat": 38.6432792, "lon": 34.8302574, "tags": {"amenity": "cafe", "name:en": "Coffeedocia"}}, {"type": "node", "id": 4901583922, "lat": 38.6303992, "lon": 34.7373962, "tags": {"amenity": "restaurant", "cuisine": "pizza", "internet_access": "wlan", "name": "Firin Expres", "name:es": "Firin Expres", "phone": "+90 384 212 00 53", "website": "http://www.firinexpres.com/"}}, {"type": "node", "id": 4904993722, "lat": 38.6428285, "lon": 34.8298903, "tags": {"amenity": "restaurant", "cuisine": "local", "internet_access": "wlan", "name": "La Vida", "name:es": "\u00d6zlem"}}, {"type": "node", "id": 4904993723, "lat": 38.6406254, "lon": 34.8230172, "tags": {"amenity": "cafe"}}, {"type": "node", "id": 5022178345, "lat": 38.7194988, "lon": 34.8469798, "tags": {"amenity": "cafe", "cuisine": "turkish", "internet_access": "wlan", "name": "L\u00fctfi\u015f Cafe", "name:en": "Lutfis cafe", "source": "survey"}}, {"type": "node", "id": 5106942721, "lat": 38.6314563, "lon": 34.7965171, "tags": {"amenity": "restaurant"}}, {"type": "node", "id": 5217812833, "lat": 38.6321188, "lon": 34.8631186, "tags": {"amenity": "restaurant", "name:en": "DEDE EFENDi KAYA RESTAURANT"}}, {"type": "node", "id": 5260179022, "lat": 38.6734747, "lon": 34.8388799, "tags": {"amenity": "cafe", "name:en": "Pal market and cafe", "opening_hours": "Mo-Su 09:00-22:00"}}, {"type": "node", "id": 5262147825, "lat": 38.6297024, "lon": 34.8062776, "tags": {"amenity": "restaurant", "cuisine": "turkish", "diet:vegan": "yes", "name:en": "House of Memories"}}, {"type": "node", "id": 5294089121, "lat": 38.6442883, "lon": 34.8332671, "tags": {"addr:housenumber": "42", "addr:postcode": "50180", "addr:street": "M\u00fcze yolu", "amenity": "restaurant", "cuisine": "regional;beef_bowl;burger;coffee_shop;breakfast;friture;pasta;cake;sandwich;chicken;turkish;tea;grill;local", "internet_access": "wlan", "name": "Pashas Lounge", "opening_hours": "24/7", "operator": "Haluk G\u00fcng\u00f6r"}}, {"type": "node", "id": 5365276621, "lat": 38.62868, "lon": 34.8028833, "tags": {"amenity": "restaurant", "cuisine": "turkish", "name:en": "Asma"}}, {"type": "node", "id": 5497242822, "lat": 38.6324522, "lon": 34.8069678, "tags": {"amenity": "restaurant", "name": "Sira"}}, {"type": "node", "id": 5497250222, "lat": 38.6289157, "lon": 34.8055336, "tags": {"amenity": "restaurant", "name:en": "Elai Restaurant"}}, {"type": "node", "id": 5497395021, "lat": 38.6312099, "lon": 34.8081723, "tags": {"amenity": "restaurant", "name:en": "Milocal restaurant"}}, {"type": "node", "id": 5648029621, "lat": 38.6444208, "lon": 34.8303399, "tags": {"addr:housenumber": "8", "addr:postcode": "50180", "addr:street": "Avcilar Mahallesi Saglik Sokak", "amenity": "restaurant", "cuisine": "turkish", "name": "Nucello Cigk\u00f6fte Salonu", "phone": "05314229874", "website": "http://www.nucello.com"}}, {"type": "node", "id": 5679149242, "lat": 38.6234685, "lon": 34.8043705, "tags": {"amenity": "restaurant", "name": "Yasak Elma"}}, {"type": "node", "id": 5762422414, "lat": 38.6305813, "lon": 34.9102932, "tags": {"amenity": "cafe", "cuisine": "turkish", "name": "teras kafe restaurant"}}, {"type": "node", "id": 5812642384, "lat": 38.6259014, "lon": 34.7170626, "tags": {"alt_name": "Pizza Seven;Pizza 7", "amenity": "restaurant", "cuisine": "italian;hamburger", "name": "Pizza7", "outdoor_seating": "yes", "smoking": "separated", "website": "https://www.pizza7.com.tr/"}}, {"type": "node", "id": 5901899487, "lat": 38.661784, "lon": 34.8173741, "tags": {"amenity": "cafe", "cuisine": "turkish", "name:en": "KeLes Cafe"}}, {"type": "node", "id": 5928493055, "lat": 38.7173234, "lon": 34.8443088, "tags": {"amenity": "restaurant", "name": "Meral", "old_name": "Limon;Lemon"}}, {"type": "node", "id": 5928493071, "lat": 38.7180365, "lon": 34.8464837, "tags": {"amenity": "restaurant", "name": "Hatay D\u00f6ner"}}, {"type": "node", "id": 5951109785, "lat": 38.6663928, "lon": 34.8408929, "tags": {"amenity": "restaurant", "name": "Seyyah Han"}}, {"type": "node", "id": 5972028285, "lat": 38.6418825, "lon": 34.8269001, "tags": {"addr:housenumber": "1", "addr:street": "Aydinli Sk.", "amenity": "restaurant", "cuisine": "turkish", "internet_access": "wlan", "name:en": "Turkish Ravioli Restaraunt", "opening_hours": "Mo-Su 11:00-22:00", "phone": "05321566543", "website": "https://www.turkishravioli.com/"}}, {"type": "node", "id": 5993565285, "lat": 38.666923, "lon": 34.8421397, "tags": {"amenity": "cafe", "name": "vadi cafe \u043e\u0442\u043b\u0438\u0447\u043d\u044b\u0439 \u0432\u0438\u0434 \u043d\u0430 \u0437\u0430\u043c\u043e\u043a"}}, {"type": "node", "id": 5995400585, "lat": 38.659897, "lon": 34.8191029, "tags": {"amenity": "cafe"}}, {"type": "node", "id": 6048369251, "lat": 38.6429843, "lon": 34.831229, "tags": {"amenity": "restaurant", "cuisine": "chinese", "internet_access": "wlan", "name": "Meihua Chinese restaurant", "opening_hours": "Mo-Su 12:00-22:00", "website": "https://m.facebook.com/meihuachineserestaurant.cappadocia/"}}, {"type": "node", "id": 6048808399, "lat": 38.7194746, "lon": 34.8459524}, {"type": "node", "id": 6121205571, "lat": 38.7182442, "lon": 34.8473837, "tags": {"amenity": "restaurant", "delivery": "yes", "name": "Sayan Karde\u015fler 3 Kebap Salonu", "source": "survey"}}, {"type": "node", "id": 6121205572, "lat": 38.7183115, "lon": 34.8473472, "tags": {"amenity": "restaurant", "delivery": "no", "level": "1;2", "name": "Ta\u015fevim", "opening_hours": "Tu-Su 12:00-22:00", "outdoor_seating": "yes", "smoking": "outside", "source": "survey"}}, {"type": "node", "id": 6121205576, "lat": 38.7181103, "lon": 34.8415575}, {"type": "node", "id": 6121205577, "lat": 38.7181508, "lon": 34.8414535}, {"type": "node", "id": 6121205578, "lat": 38.7181822, "lon": 34.8416355}, {"type": "node", "id": 6121205579, "lat": 38.7182486, "lon": 34.8415338}, {"type": "node", "id": 6121205580, "lat": 38.7182762, "lon": 34.8416591}, {"type": "node", "id": 6121205581, "lat": 38.7183057, "lon": 34.8415646}, {"type": "node", "id": 6160845636, "lat": 38.6385626, "lon": 34.8462539, "tags": {"amenity": "cafe"}}, {"type": "node", "id": 6160845637, "lat": 38.6398509, "lon": 34.8455597, "tags": {"amenity": "cafe"}}, {"type": "node", "id": 6167232519, "lat": 38.8138737, "lon": 34.8397406}, {"type": "node", "id": 6167232520, "lat": 38.8137247, "lon": 34.8396698}, {"type": "node", "id": 6167232521, "lat": 38.8136627, "lon": 34.8397459}, {"type": "node", "id": 6167232522, "lat": 38.8138281, "lon": 34.839799}, {"type": "node", "id": 6167948943, "lat": 38.8067155, "lon": 34.8398433}, {"type": "node", "id": 6167948944, "lat": 38.8066244, "lon": 34.8396132}, {"type": "node", "id": 6167948945, "lat": 38.8065665, "lon": 34.8396521}, {"type": "node", "id": 6167948946, "lat": 38.8066548, "lon": 34.8398822}, {"type": "node", "id": 6174679386, "lat": 38.6422517, "lon": 34.8288917, "tags": {"amenity": "restaurant", "name": "Goreme Cafe"}}, {"type": "node", "id": 6176772387, "lat": 38.6409596, "lon": 34.8289483, "tags": {"amenity": "restaurant", "cuisine": "chinese", "name": "\u4e2d\u56fd\u862d\u5dde\u62c9\u9eba", "name:en": "Chinese Restaurant", "name:tr": "Lan Zhou El Makarnasi"}}, {"type": "node", "id": 6181201787, "lat": 38.6425874, "lon": 34.8295519, "tags": {"amenity": "restaurant", "name": "Kale Terasse"}}, {"type": "node", "id": 6181234688, "lat": 38.6205637, "lon": 34.8046664, "tags": {"amenity": "cafe"}}, {"type": "node", "id": 6181234689, "lat": 38.6437131, "lon": 34.8305665, "tags": {"amenity": "restaurant", "name": "Se\u00e7kin Cafe & Restaurant"}}, {"type": "node", "id": 6181235786, "lat": 38.6436164, "lon": 34.8318347, "tags": {"amenity": "restaurant", "name:en": "Meeting Point Cafe"}}, {"type": "node", "id": 6184179305, "lat": 38.6427628, "lon": 34.8291096, "tags": {"amenity": "cafe", "name": "Oze Coffee Shop"}}, {"type": "node", "id": 6185131385, "lat": 38.6423185, "lon": 34.8279525, "tags": {"amenity": "restaurant", "name:en": "Inci Cave Restaurant"}}, {"type": "node", "id": 6196386151, "lat": 38.6205153, "lon": 34.8652326, "tags": {"amenity": "restaurant", "cuisine": "turkish", "name": "Fresko"}}, {"type": "node", "id": 6201496385, "lat": 38.669113, "lon": 34.7389412, "tags": {"amenity": "restaurant", "name": "Cigeci Yakup"}}, {"type": "node", "id": 6238023988, "lat": 38.630318, "lon": 34.9148838, "tags": {"addr:street": "Eski Sanayii Sokak", "amenity": "cafe", "cuisine": "regional;turkish", "internet_access": "wlan", "name": "TANDIRBA\u015eI"}}, {"type": "node", "id": 6243733893, "lat": 38.6441464, "lon": 34.8287343, "tags": {"amenity": "restaurant", "name": "Buyuk Adana Kebab Goreme"}}, {"type": "node", "id": 6288400685, "lat": 38.6193903, "lon": 34.8045218, "tags": {"amenity": "restaurant", "name": "Tandirevi Restaurant"}}, {"type": "node", "id": 6342539476, "lat": 38.7195291, "lon": 34.8459763}, {"type": "node", "id": 6367785886, "lat": 38.6414921, "lon": 34.8286586, "tags": {"amenity": "restaurant", "name": "Cappadocia Pide House"}}, {"type": "node", "id": 6388905085, "lat": 38.666884, "lon": 34.8402998, "tags": {"amenity": "restaurant", "name": "Cavusin Depe Restaurant"}}, {"type": "node", "id": 6401092910, "lat": 38.7158634, "lon": 34.8473694, "tags": {"amenity": "cafe", "name": "Mimoza Nargilem", "old_name": "Demir Atl\u0131"}}, {"type": "node", "id": 6401092911, "lat": 38.7152289, "lon": 34.844031, "tags": {"amenity": "cafe", "name": "Starbucks", "old_name": "Mercedes"}}, {"type": "node", "id": 6401092921, "lat": 38.717561, "lon": 34.8497831}, {"type": "node", "id": 6401092922, "lat": 38.7176496, "lon": 34.8496722}, {"type": "node", "id": 6401092923, "lat": 38.7177361, "lon": 34.8500129}, {"type": "node", "id": 6401092924, "lat": 38.7177461, "lon": 34.8500004}, {"type": "node", "id": 6426143107, "lat": 38.6724777, "lon": 34.8387517, "tags": {"amenity": "restaurant", "name:en": "Good pide restaurant", "name:fr": "Bon restaurant pide"}}, {"type": "node", "id": 6441436089, "lat": 38.6452613, "lon": 34.8233297, "tags": {"amenity": "restaurant", "name": "Moonlight At \u00c7iftli\u011fi", "name:en": "Moonlight Horse Ranch", "phone": "05350888575"}}, {"type": "node", "id": 6481660367, "lat": 38.6407869, "lon": 34.8369679, "tags": {"amenity": "cafe", "name": "Zemi cafe", "source": "survey;local_knowledge(2019-05);bing"}}, {"type": "node", "id": 6493896985, "lat": 38.6327855, "lon": 34.8040306, "tags": {"amenity": "cafe", "name": "Peri Cafe"}}, {"type": "node", "id": 6517991043, "lat": 38.5943796, "lon": 34.718435, "tags": {"addr:city": "Nev\u015fehir", "addr:district": "G\u00f6re", "addr:housenumber": "1", "addr:neighbourhood": "Afatevler Mahallesi", "addr:street": "Kapadokya Hill Hotel & Spa - Entrance Way", "air_conditioning": "yes", "amenity": "restaurant", "bar": "yes", "capacity": "80", "cuisine": "coffee_shop;kebab;turkish;steak_house", "description": "Yemek \u00f6ncesi harika manzaraya sahip \u00e7arp\u0131c\u0131 bir yemek alan\u0131 bulunan G\u00f6re Restoran, leziz yerel yemekler servis etmektedir. Hizmet verdi\u011fimiz yiyecekler yerel \u00fcr\u00fcnlerle ve lezzetlerle muhte\u015fem tatlara d\u00f6n\u00fc\u015f\u00fcr.", "diet:diabetes": "yes", "diet:organic": "yes", "diet:vegetarian": "yes", "email": "booking@kapadokyahill.com", "name": "G\u00f6re Anatolian Restaurant Cappadocia", "opening_hours": "Mo-Su 11:00-23:00", "phone": "+903842154455", "reservation": "yes", "stars": "5", "website": "https://www.goreanatolian.com"}}, {"type": "node", "id": 6573042487, "lat": 38.6432683, "lon": 34.8282822, "tags": {"amenity": "restaurant", "name": "Namaste"}}, {"type": "node", "id": 6577452287, "lat": 38.6413624, "lon": 34.8258903, "tags": {"amenity": "restaurant", "name": "Seten"}}, {"type": "node", "id": 6586971378, "lat": 38.6437115, "lon": 34.8306571, "tags": {"amenity": "restaurant", "name": "Peking Chinese Restaurant"}}, {"type": "node", "id": 6654829685, "lat": 38.6280961, "lon": 34.8031432, "tags": {"amenity": "restaurant", "name": "Somine restaurant"}}, {"type": "node", "id": 6681161279, "lat": 38.6529187, "lon": 34.8630585, "tags": {"amenity": "cafe"}}, {"type": "node", "id": 6710019627, "lat": 38.6439253, "lon": 34.8220069, "tags": {"addr:city": "Nev\u015fehir", "addr:district": "G\u00f6reme", "addr:housenumber": "3/2", "addr:neighbourhood": "Ayd\u0131nl\u0131 Orta", "addr:postcode": "50180", "addr:street": "Karam\u0131zrak Sokak", "amenity": "cafe", "cuisine": "regional;coffee_shop;kebab;sandwich;turkish;chicken", "internet_access": "yes", "internet_access:fee": "no", "name": "Nazar B\u00f6rek & Cafe", "outdoor_seating": "yes"}}, {"type": "node", "id": 6710230091, "lat": 38.6438948, "lon": 34.8228951}, {"type": "node", "id": 6710230092, "lat": 38.6438962, "lon": 34.8230254}, {"type": "node", "id": 6710230093, "lat": 38.643826, "lon": 34.8230272}, {"type": "node", "id": 6710230094, "lat": 38.643826, "lon": 34.8228987}, {"type": "node", "id": 6724322285, "lat": 38.6423599, "lon": 34.8282273, "tags": {"amenity": "restaurant", "name:en": "soffys kitchen"}}, {"type": "node", "id": 6724795495, "lat": 38.6297678, "lon": 34.8014307, "tags": {"amenity": "restaurant", "name": "Sakl\u0131 Konak Restaurant"}}, {"type": "node", "id": 6736504585, "lat": 38.6209053, "lon": 34.8641796, "tags": {"amenity": "restaurant", "name": "No. 10 Restaurant"}}, {"type": "node", "id": 6780683887, "lat": 38.6409752, "lon": 34.8297389, "tags": {"amenity": "restaurant", "cuisine": "turkish", "name:en": "Organic Cave Kitchen"}}, {"type": "node", "id": 6797255485, "lat": 38.6433454, "lon": 34.8314222, "tags": {"amenity": "cafe", "name:en": "Cafe Safek"}}, {"type": "node", "id": 6799226686, "lat": 38.6665648, "lon": 34.84173, "tags": {"amenity": "restaurant", "name:en": "Cappa Gusto Cafe & Restaurant"}}, {"type": "node", "id": 6799905886, "lat": 38.631458, "lon": 34.9120223, "tags": {"amenity": "restaurant", "cuisine": "turkish", "name": "Yeni lokanta"}}, {"type": "node", "id": 6799924285, "lat": 38.6304363, "lon": 34.9117429, "tags": {"amenity": "cafe", "name": "\u015e\u00fck\u00fcro\u011fullar\u0131 pastanesi"}}, {"type": "node", "id": 6805820917, "lat": 38.6275794, "lon": 34.907933}, {"type": "node", "id": 6831024088, "lat": 38.6266838, "lon": 34.714757, "tags": {"amenity": "cafe", "cuisine": "turkish", "name": "Kebap Dunyasi"}}, {"type": "node", "id": 6884278010, "lat": 38.7193869, "lon": 34.8460673}, {"type": "node", "id": 6910057434, "lat": 38.6406849, "lon": 34.8291098, "tags": {"amenity": "restaurant", "cuisine": "turkish", "name:en": "Pumpkin"}}, {"type": "node", "id": 7006489783, "lat": 38.642045, "lon": 34.8271433, "tags": {"amenity": "cafe", "name": "Retro Cappadocia Caf\u00e9 Restaurant"}}, {"type": "node", "id": 7006489784, "lat": 38.6396833, "lon": 34.8347223, "tags": {"amenity": "cafe"}}, {"type": "node", "id": 7203135995, "lat": 38.6317905, "lon": 34.9072487, "tags": {"amenity": "restaurant", "cuisine": "regional", "name": "LAGARTO"}}, {"type": "node", "id": 7204730085, "lat": 38.6429249, "lon": 34.8300725, "tags": {"amenity": "cafe", "name": "Mydonose"}}, {"type": "node", "id": 7747324385, "lat": 38.6309696, "lon": 34.8018656, "tags": {"amenity": "restaurant", "name:en": "Dream Spot Cappadocia"}}, {"type": "node", "id": 7897406785, "lat": 38.6420059, "lon": 34.8293861, "tags": {"amenity": "restaurant", "name": "06 ankara"}}, {"type": "node", "id": 7913565085, "lat": 38.6418954, "lon": 34.8282187, "tags": {"amenity": "cafe", "name": "Konak cafe"}}, {"type": "node", "id": 7925364887, "lat": 38.6270901, "lon": 34.8045863, "tags": {"amenity": "cafe", "name": "Antepli kebapci"}}, {"type": "node", "id": 7973241595, "lat": 38.6431968, "lon": 34.8271643, "tags": {"amenity": "restaurant", "name:en": "Cappadocian Cuisine"}}, {"type": "node", "id": 7989066286, "lat": 38.6431815, "lon": 34.8270993, "tags": {"amenity": "restaurant", "name": "Cappadocian Cuisine Restaurant"}}, {"type": "node", "id": 7997109283, "lat": 38.6431996, "lon": 34.8279365, "tags": {"addr:city": "Nev\u015fehir", "addr:district": "G\u00f6reme", "addr:housenumber": "9", "addr:neighbourhood": "Orta Mah", "addr:postcode": "50180", "addr:street": "Uzundere Caddesi", "amenity": "restaurant", "cuisine": "turkish", "diet:non-vegetarian": "yes", "diet:vegetarian": "yes", "level": "2", "name": "Cozy Up Cafe", "opening_hours": "Mo-Su 12:00-23:00"}}, {"type": "node", "id": 8003857285, "lat": 38.643873, "lon": 34.8312485, "tags": {"amenity": "restaurant", "cuisine": "turkish", "internet_access": "wlan", "name:en": "Kebapzade Restaurant"}}, {"type": "node", "id": 8039769585, "lat": 38.6403783, "lon": 34.83043, "tags": {"addr:street": "Hafiz Rifat Efendi Sokak", "amenity": "restaurant", "name": "Smile Steakhouse", "opening_hours": "Mo-Su 11:00-00:00"}}, {"type": "node", "id": 8047114346, "lat": 38.6555065, "lon": 34.7309054, "tags": {"addr:city": "Nev\u015fehir", "addr:district": "Merkez", "addr:housenumber": "no:9", "addr:neighbourhood": "15 TEMMUZ MAHALLES\u0130", "addr:postcode": "50100", "addr:street": "147.sokak", "amenity": "cafe", "cuisine": "coffee_shop;kebab", "internet_access": "wlan", "name": "Cafe 112", "opening_hours": "Mo-Su 09:00-21:00", "outdoor_seating": "yes"}}, {"type": "node", "id": 8051720689, "lat": 38.6409038, "lon": 34.8289679, "tags": {"addr:housenumber": "3", "addr:postcode": "50180", "addr:street": "\u0130\u00e7eridere Sokak", "amenity": "cafe", "cuisine": "coffee_shop;tea;turkish", "name": "King\u2019s Coffee", "opening_hours": "Mo-Su 07:00-22:00", "phone": "05332385061"}}, {"type": "node", "id": 8073495117, "lat": 38.6296248, "lon": 34.802083, "tags": {"amenity": "cafe", "name": "Saklikahve", "name:ru": "\u0421\u0430\u043a\u043b\u0438\u043a\u0430\u0445\u0432\u0435", "opening_hours": "24/7"}}, {"type": "node", "id": 8078306517, "lat": 38.6411336, "lon": 34.8295536, "tags": {"amenity": "cafe", "cuisine": "turkish", "name": "Kuytuk\u00f6se cafe", "name:en": "Kuytukose cafe"}}, {"type": "node", "id": 8091113617, "lat": 38.6297632, "lon": 34.807271, "tags": {"amenity": "restaurant", "name:en": "Seki"}}, {"type": "node", "id": 8115545118, "lat": 38.6429087, "lon": 34.8300202, "tags": {"addr:street": "M\u00fcze Caddesi", "amenity": "restaurant", "cuisine": "turkish", "internet_access": "wlan", "name:en": "Silkroad restaurant"}}, {"type": "node", "id": 8263923417, "lat": 38.6438715, "lon": 34.8438067, "tags": {"amenity": "restaurant", "name:en": "dining hall"}}, {"type": "node", "id": 8524365717, "lat": 38.6459158, "lon": 34.8326358, "tags": {"amenity": "cafe", "cuisine": "grill;turkish", "diet:vegetarian": "yes", "name:en": "CanCan restaurant"}}, {"type": "node", "id": 8648705973, "lat": 38.6421827, "lon": 34.8287484, "tags": {"amenity": "cafe", "name": "Sunshine cafe", "opening_hours": "Mo-Su 06:00-23:00"}}, {"type": "node", "id": 8953520535, "lat": 38.7193151, "lon": 34.8462068}, {"type": "node", "id": 8953520536, "lat": 38.719291, "lon": 34.8460659}, {"type": "node", "id": 8953520540, "lat": 38.7151274, "lon": 34.8440516, "tags": {"amenity": "restaurant", "level": "1", "name": "K\u00f6fteci Yusuf", "outdoor_seating": "yes", "smoking": "outside"}}, {"type": "node", "id": 8953520554, "lat": 38.7183545, "lon": 34.8488809, "tags": {"amenity": "cafe", "name": "K\u0131y\u0131 Cafe"}}, {"type": "node", "id": 8956916118, "lat": 38.6223052, "lon": 34.8640843, "tags": {"amenity": "cafe", "name": "kafe lokanta"}}, {"type": "node", "id": 9076128117, "lat": 38.6435505, "lon": 34.8312692, "tags": {"amenity": "cafe", "name": "Cafe Safak"}}, {"type": "node", "id": 9159993657, "lat": 38.7133845, "lon": 34.8444734, "tags": {"amenity": "restaurant", "cuisine": "fish", "name": "Ekonomik Bal\u0131k", "smoking": "outside", "source": "bing"}}, {"type": "node", "id": 9222018318, "lat": 38.7210288, "lon": 34.8592687, "tags": {"addr:street": "\u00cfn\u00f6n\u00fc Caddesi 15", "amenity": "restaurant", "name": "Saban Ustanin Yeri", "name:es": "Taller Alfarer\u00eda"}}, {"type": "node", "id": 9233632817, "lat": 38.6441465, "lon": 34.8324115, "tags": {"amenity": "restaurant", "name:en": "Gurme Kebab"}}, {"type": "node", "id": 9235023762, "lat": 38.6372556, "lon": 34.7150893, "tags": {"addr:city": "Nev\u015fehir \u0130l Merkezi", "addr:district": "Merkez", "addr:housenumber": "77", "addr:neighbourhood": "Emek", "addr:postcode": "50100", "addr:street": "Nar Yolu Sokak", "amenity": "restaurant", "name": "Topuzlu Han Restoran", "website": "https://www.nevsehir.pol.tr/topuzlu-han"}}, {"type": "node", "id": 9248075817, "lat": 38.6276808, "lon": 34.8638879, "tags": {"amenity": "restaurant", "name": "Aydede Restaurant"}}, {"type": "node", "id": 9250969278, "lat": 38.7153565, "lon": 34.843162}, {"type": "node", "id": 9308005617, "lat": 38.6346921, "lon": 34.8103042, "tags": {"amenity": "cafe", "name": "House of Memory"}}, {"type": "node", "id": 9332309450, "lat": 38.6432497, "lon": 34.8292169, "tags": {"amenity": "restaurant", "name": "Mozaik"}}, {"type": "node", "id": 9389356917, "lat": 38.6417453, "lon": 34.8276907, "tags": {"amenity": "restaurant", "cuisine": "turkish", "name:en": "A Wooden Spoon"}}, {"type": "node", "id": 9392852932, "lat": 38.6289414, "lon": 34.9166708, "tags": {"amenity": "restaurant", "cuisine": "turkish", "name": "Pide firini (good pide)"}}, {"type": "node", "id": 9392907809, "lat": 38.7149636, "lon": 34.8449006, "tags": {"amenity": "restaurant", "cuisine": "turkish", "name": "Mutlu unlu mam\u00fclleri", "name:en": "Pide"}}, {"type": "node", "id": 9608332781, "lat": 38.7173375, "lon": 34.8440903, "tags": {"entrance": "yes"}}, {"type": "node", "id": 9608332784, "lat": 38.7174787, "lon": 34.8433515, "tags": {"addr:housenumber": "92", "addr:street": "Atat\u00fcrk Caddesi", "amenity": "restaurant", "level": "2", "name": "Sarhan"}}, {"type": "node", "id": 9695696617, "lat": 38.6439983, "lon": 34.8314095, "tags": {"amenity": "restaurant", "name:en": "Kofteci"}}, {"type": "node", "id": 9695696717, "lat": 38.6459729, "lon": 34.8327179, "tags": {"amenity": "restaurant", "name:en": "Cancan"}}, {"type": "node", "id": 9697607561, "lat": 38.6460812, "lon": 34.8326792, "tags": {"amenity": "restaurant", "cuisine": "turkish", "name": "G\u00f6reme Han Restaurant"}}, {"type": "node", "id": 9772338217, "lat": 38.6460776, "lon": 34.8240368, "tags": {"amenity": "restaurant", "cuisine": "turkish", "internet_access": "wlan", "name": "Kev i Ala"}}, {"type": "node", "id": 9796044115, "lat": 38.6213975, "lon": 34.8597111, "tags": {"amenity": "restaurant", "name": "Tandir Restaurant"}}, {"type": "node", "id": 9796054212, "lat": 38.621393, "lon": 34.8653479, "tags": {"amenity": "restaurant", "name": "Beefy Kebab"}}, {"type": "node", "id": 9796075303, "lat": 38.621137, "lon": 34.8641865, "tags": {"amenity": "restaurant", "name": "Carna Cave"}}, {"type": "node", "id": 9796088577, "lat": 38.6211768, "lon": 34.865414, "tags": {"amenity": "restaurant", "name": "Minik Restaurant"}}, {"type": "node", "id": 9798164004, "lat": 38.6596076, "lon": 34.8537749, "tags": {"amenity": "cafe"}}, {"type": "node", "id": 9798202174, "lat": 38.4616005, "lon": 34.7505134, "tags": {"amenity": "restaurant"}}, {"type": "node", "id": 9798206208, "lat": 38.4598622, "lon": 34.7501986, "tags": {"amenity": "cafe", "name": "\u00c7ay 2 TL (2022)"}}, {"type": "node", "id": 9923699219, "lat": 38.6428832, "lon": 34.8284703, "tags": {"amenity": "restaurant", "name:en": "Nature Little Kitchen (Asian Restaurant)"}}, {"type": "node", "id": 9958889117, "lat": 38.6420173, "lon": 34.8287158, "tags": {"addr:street": "\u0130\u00e7eridere Sk. no:8, 50180 G\u00f6reme/Nev\u015fehir Merkez/Nev\u015fehir, Turchia", "amenity": "restaurant", "internet_access": "wlan", "name": "Old Cappadocia", "opening_hours": "Mo-Su 11:00-00:00", "phone": "+90 384 271 28 58"}}, {"type": "node", "id": 9994218870, "lat": 38.6315805, "lon": 34.7232561, "tags": {"amenity": "restaurant", "name": "Gaziantep Lezzetleri"}}, {"type": "node", "id": 10017560052, "lat": 38.6182492, "lon": 34.8671642, "tags": {"amenity": "cafe", "check_date": "2022-09-12", "name": "Lavanta Panaroma", "payment:cards": "no", "payment:credit_cards": "no", "payment:debit_cards": "no", "toilets": "yes"}}, {"type": "node", "id": 10067995404, "lat": 38.7181868, "lon": 34.8485014}, {"type": "node", "id": 10067995405, "lat": 38.7192167, "lon": 34.8477021, "tags": {"amenity": "restaurant", "name": "Meydan", "source": "survey"}}, {"type": "node", "id": 10100826363, "lat": 38.6397286, "lon": 34.8224082, "tags": {"amenity": "cafe"}}, {"type": "node", "id": 10175242117, "lat": 38.6208831, "lon": 34.8647878, "tags": {"amenity": "restaurant", "cuisine": "turkish", "name:en": "Yigit Cafe"}}, {"type": "node", "id": 10212219917, "lat": 38.6307291, "lon": 34.9108067, "tags": {"amenity": "restaurant", "name": "\u015e\u00fck\u00fcro\u011fullar\u0131"}}, {"type": "node", "id": 10225010596, "lat": 38.7172108, "lon": 34.8443238, "tags": {"addr:city": "Nev\u015fehir", "addr:district": "Avanos", "addr:neighbourhood": "Orta Mah.", "addr:street": "Atat\u00fcrk Caddesi", "amenity": "cafe", "level": "1", "name": "Chiapas", "outdoor_seating": "yes"}}, {"type": "node", "id": 10225010597, "lat": 38.719834, "lon": 34.8497567, "tags": {"amenity": "cafe", "name": "Yufka D\u00fcnyas\u0131", "shop": "bakery"}}, {"type": "node", "id": 10225010598, "lat": 38.7190064, "lon": 34.8486851, "tags": {"amenity": "restaurant", "name": "Fedo", "source": "survey"}}, {"type": "node", "id": 10225024159, "lat": 38.7172512, "lon": 34.8441053}, {"type": "node", "id": 10235794409, "lat": 38.6453432, "lon": 34.8281122, "tags": {"addr:housenumber": "18", "addr:postcode": "50180", "addr:street": "Okul sokak", "amenity": "restaurant", "cuisine": "regional;turkish", "name": "G\u00f6reme kad\u0131n", "name:en": "G\u00f6reme kad\u0131n kooperatifi", "name:es": "G\u00f6reme kad\u0131n kooperatifi", "name:fr": "G\u00f6reme kad\u0131n kooperatifi", "name:tr": "G\u00f6reme kad\u0131n kooperatifi", "opening_hours": "Mo-Su 10:00-17:30", "phone": "+90 538 271 86 50"}}, {"type": "node", "id": 10260842309, "lat": 38.617914, "lon": 34.8667125, "tags": {"amenity": "cafe", "name:en": "Lavanta Panorama cafe"}}, {"type": "node", "id": 10260842409, "lat": 38.6182058, "lon": 34.8671338, "tags": {"amenity": "cafe", "name:en": "Ethem Ustanin yeri"}}, {"type": "node", "id": 10309640959, "lat": 38.6417959, "lon": 34.8542517, "tags": {"amenity": "cafe", "name": "Valley Caf\u00e9"}}, {"type": "node", "id": 10732775971, "lat": 38.6280231, "lon": 34.7175078, "tags": {"amenity": "cafe", "name": "Kral B\u00f6rek"}}, {"type": "node", "id": 10732775987, "lat": 38.4941647, "lon": 34.6315272, "tags": {"amenity": "restaurant", "cuisine": "turkish"}}, {"type": "node", "id": 10739031811, "lat": 38.5499766, "lon": 34.7648337, "tags": {"amenity": "cafe", "internet_access": "yes", "name": "\u00c7ay Evi"}}, {"type": "node", "id": 10758419062, "lat": 38.7139267, "lon": 34.8449749, "tags": {"amenity": "restaurant", "cuisine": "turkish", "name": "\u0130nci Pide Salonu"}}, {"type": "node", "id": 10945914545, "lat": 38.6412612, "lon": 34.817891, "tags": {"amenity": "cafe"}}, {"type": "node", "id": 10983689811, "lat": 38.6430302, "lon": 34.8307081, "tags": {"amenity": "restaurant", "check_date": "2023-08-01", "cuisine": "asian", "email": "bilgi@quickchina.com.tr", "name": "Quick China", "website": "https://quickchina.com.tr"}}, {"type": "node", "id": 11084110354, "lat": 38.6675943, "lon": 34.8436391, "tags": {"amenity": "cafe"}}, {"type": "node", "id": 11085902210, "lat": 38.6444765, "lon": 34.8231333, "tags": {"amenity": "cafe", "name": "Maria's Breakfast"}}, {"type": "node", "id": 11086686246, "lat": 38.6436081, "lon": 34.8317331, "tags": {"amenity": "restaurant", "check_date": "2023-08-04", "cuisine": "turkish", "name": "Kibele", "toilets": "yes", "toilets:wheelchair": "no"}}, {"type": "node", "id": 11119571417, "lat": 38.6276017, "lon": 34.9079139}, {"type": "node", "id": 11119571418, "lat": 38.6278198, "lon": 34.9081581}, {"type": "node", "id": 11119571419, "lat": 38.6277703, "lon": 34.9082379}, {"type": "node", "id": 11119571420, "lat": 38.627553, "lon": 34.9080095}, {"type": "node", "id": 11119571421, "lat": 38.6275558, "lon": 34.9079725}, {"type": "node", "id": 11176601494, "lat": 38.7178575, "lon": 34.8463677, "tags": {"amenity": "restaurant", "name": "Esnaf Lokantas\u0131"}}, {"type": "node", "id": 11277043438, "lat": 38.6396358, "lon": 34.8161501, "tags": {"amenity": "cafe", "cuisine": "coffee_shop;turkish", "name": "Salkim Tepesi"}}, {"type": "node", "id": 11277046570, "lat": 38.633278, "lon": 34.8041217, "tags": {"amenity": "restaurant", "name": "Jardinn"}}, {"type": "node", "id": 11277138970, "lat": 38.6399582, "lon": 34.8169465, "tags": {"amenity": "cafe", "name": "Manzara"}}, {"type": "node", "id": 11277142669, "lat": 38.6400335, "lon": 34.8170707, "tags": {"amenity": "cafe", "name": "Anzana Alti"}}, {"type": "node", "id": 11277151769, "lat": 38.6438093, "lon": 34.8311715, "tags": {"amenity": "restaurant", "cuisine": "indian", "name": "Delhi Darbar"}}, {"type": "node", "id": 11277343470, "lat": 38.6494785, "lon": 34.8414502, "tags": {"amenity": "cafe", "name:en": "Swords Valley Caravan Cafe"}}, {"type": "node", "id": 11279730869, "lat": 38.6452603, "lon": 34.8328247, "tags": {"amenity": "restaurant", "cuisine": "indian", "name": "Namaste India"}}, {"type": "node", "id": 11285913869, "lat": 38.6421235, "lon": 34.7115419, "tags": {"amenity": "cafe", "name": "Fayton Cafe"}}, {"type": "node", "id": 11335229271, "lat": 38.6444783, "lon": 34.8233877, "tags": {"addr:housenumber": "2", "addr:street": "Karam\u0131zrak Sokak", "amenity": "restaurant", "cuisine": "breakfast", "internet_access": "wlan", "name": "Maria\u2019s Breakfast G\u00f6reme", "opening_hours": "Mo-Su 08:00-14:00"}}, {"type": "node", "id": 11337787072, "lat": 38.6466495, "lon": 34.832948, "tags": {"addr:housenumber": "63", "addr:street": "Bilal Ero\u011flu Caddesi", "amenity": "cafe", "cuisine": "coffee_shop", "internet_access": "wlan", "name": "The Goat Coffee Kapadokya", "opening_hours": "Mo-Su 04:00-01:00", "phone": "+90 531 030 51 59"}}, {"type": "node", "id": 11601267677, "lat": 38.6358758, "lon": 34.8636237, "tags": {"amenity": "restaurant"}}, {"type": "node", "id": 11601267678, "lat": 38.6345951, "lon": 34.8631759, "tags": {"amenity": "restaurant"}}, {"type": "node", "id": 11796203187, "lat": 38.6446414, "lon": 34.8319254, "tags": {"addr:city": "Nevsehir", "addr:district": "G\u00f6reme", "addr:housenumber": "47", "addr:postcode": "50200", "addr:street": "Bilal Ero\u011flu Caddesi", "amenity": "cafe", "brand": "Piri Zara", "cuisine": "coffee_shop", "internet_access": "yes", "internet_access:fee": "no", "name": "Piri ZARA Tours & Travel Coffee Shop", "opening_hours": "24/7", "outdoor_seating": "yes", "phone": "+905422799272", "website": "www.pirizaratravel.com.tr"}}, {"type": "node", "id": 11820012434, "lat": 38.625929, "lon": 34.8623926}, {"type": "node", "id": 11820012435, "lat": 38.6258969, "lon": 34.8622085}, {"type": "node", "id": 11820012436, "lat": 38.6256381, "lon": 34.8621731}, {"type": "node", "id": 11820012437, "lat": 38.6256514, "lon": 34.8622411}, {"type": "node", "id": 11820012438, "lat": 38.6256337, "lon": 34.8623133}, {"type": "node", "id": 11820012439, "lat": 38.6256558, "lon": 34.8624209}, {"type": "node", "id": 11820012440, "lat": 38.6257133, "lon": 34.8624081}, {"type": "node", "id": 11820012441, "lat": 38.6257244, "lon": 34.8624605}, {"type": "node", "id": 11820117187, "lat": 38.6320759, "lon": 34.7893742, "tags": {"amenity": "restaurant", "building": "yes", "email": "\u0130NFO@YASARBABA.COM", "image": "https://photos.app.goo.gl/RyvWb2LTLcx4QPSM9", "name": "Ya\u015far Baba Restaurant", "phone": "+90 384 219 2870", "phone:mobile": "+90 535 490 5790", "tourism": "attraction", "url": "https://youtu.be/E3M9AoQtRQg?si=UXqEv-rxAHY6jnfX", "website": "https://yasarbaba.com/"}}, {"type": "node", "id": 11826812191, "lat": 38.6282672, "lon": 34.8040378, "tags": {"amenity": "restaurant", "name": "Town Cafe Restaurant"}}, {"type": "node", "id": 11950456670, "lat": 38.7185941, "lon": 34.8459934, "tags": {"amenity": "restaurant", "name:en": "Muba Caf\u00e9"}}, {"type": "node", "id": 11963053153, "lat": 38.6194286, "lon": 34.8651818, "tags": {"addr:city": "NEV\u015eEH\u0130R", "addr:district": "\u00dcRG\u00dcP", "addr:housenumber": "24", "addr:neighbourhood": "Eski Mahalle", "addr:postcode": "50650", "addr:street": "Kapadokya Caddesi", "amenity": "restaurant", "cuisine": "turkish;regional;italian;chicken;seafood;fish;steak_house;dessert;salad", "diet:halal": "yes", "diet:kosher": "yes", "diet:vegan": "yes", "diet:vegetarian": "yes", "name": "Janus Cappadocia Restaurant", "opening_hours": "Mo-Su 08:00-22:00", "outdoor_seating": "yes", "payment:american_express": "yes", "payment:cash": "yes", "payment:credit_cards": "yes", "payment:debit_cards": "yes", "payment:mastercard": "yes", "payment:visa": "yes", "phone": "+90 538 418 32 50", "reservation": "recommended", "toilets": "yes", "website": "https://januscappadocia.com.tr/Restaurant", "website:menu": "https://januscappadocia.com.tr/Restaurant"}}, {"type": "node", "id": 11964041471, "lat": 38.6194751, "lon": 34.8652709, "tags": {"addr:housenumber": "21", "addr:postcode": "50650", "addr:street": "Hac\u0131 Telgraf Sokak", "amenity": "restaurant", "cuisine": "breakfast;burger;chicken;curry;friture;grill;international", "email": "info@januscappadocia.com.tr", "internet_access": "wlan", "name": "Janus Cappadocia Restaurant", "opening_hours": "Su-Sa 08:00-22:00", "phone": "+905384183250", "website": "https://www.januscappadocia.com.tr/Restaurant"}}, {"type": "node", "id": 11969086226, "lat": 38.7155104, "lon": 34.8555154, "tags": {"amenity": "cafe", "name": "Vuslat Cafe"}}, {"type": "node", "id": 11989653503, "lat": 38.7205184, "lon": 34.8255604, "tags": {"amenity": "restaurant", "cuisine": "fish;turkish", "mobile": "+90 530 519 5830", "name": "Bal\u0131kl\u0131ova", "source": "survey"}}, {"type": "node", "id": 11989653510, "lat": 38.7205686, "lon": 34.8481165, "tags": {"amenity": "restaurant", "mobile": "+90 543 901 1351", "name": "Gloria Ta\u015f Evi", "source": "survey"}}, {"type": "node", "id": 12020490670, "lat": 38.8060894, "lon": 34.8417117, "tags": {"amenity": "restaurant", "cuisine": "breakfast;cake;coffee_shop;grill;ice_cream;local", "internet_access": "wlan", "name": "Asmal\u0131 Konak", "opening_hours": "Mo-Su 08:00-00:00"}}, {"type": "node", "id": 12142721247, "lat": 38.660521, "lon": 34.8277915, "tags": {"amenity": "cafe"}}, {"type": "node", "id": 12194357901, "lat": 38.6281506, "lon": 34.7196922, "tags": {"amenity": "restaurant", "cuisine": "local", "name": "Kasa Osmanl\u0131 \u00e7orbac\u0131s\u0131"}}, {"type": "node", "id": 12210585801, "lat": 38.6441665, "lon": 34.8315527, "tags": {"amenity": "restaurant", "internet_access": "wlan", "name": "Chef Kebap Restaurant"}}, {"type": "node", "id": 12251784302, "lat": 38.6273146, "lon": 34.8642189, "tags": {"addr:housenumber": "14", "addr:street": "Atat\u00fcrk Caddesi", "amenity": "restaurant", "name": "Anka Restaurant", "opening_hours": "Mo-Su 07:00-22:30", "phone": "+90 384 343 36 66"}}, {"type": "node", "id": 12252870601, "lat": 38.8071511, "lon": 34.8403491, "tags": {"amenity": "cafe", "internet_access": "wlan", "name": "World Cafe Patisserie"}}, {"type": "node", "id": 12369546903, "lat": 38.7195672, "lon": 34.848783, "tags": {"amenity": "cafe", "name": "Qupaa Coffee"}}, {"type": "node", "id": 12532716474, "lat": 38.582123, "lon": 34.8984541}, {"type": "node", "id": 12532716475, "lat": 38.5821133, "lon": 34.8985355}, {"type": "node", "id": 12532716476, "lat": 38.5821402, "lon": 34.8986285}, {"type": "node", "id": 12532716477, "lat": 38.5822696, "lon": 34.8985807}, {"type": "node", "id": 12532716478, "lat": 38.5823111, "lon": 34.8985223}, {"type": "node", "id": 12532716479, "lat": 38.5822212, "lon": 34.8984648}, {"type": "node", "id": 12590431815, "lat": 38.6792169, "lon": 34.6573058, "tags": {"amenity": "cafe", "cuisine": "chicken;kebab", "name": "Cafe8"}}, {"type": "node", "id": 12597984501, "lat": 38.6269829, "lon": 34.8026038, "tags": {"amenity": "restaurant", "cuisine": "turkish", "name": "Ucasar D\u00f6ner & \u00e7igk\u00f6fte"}}, {"type": "node", "id": 12597984601, "lat": 38.6407392, "lon": 34.8289255, "tags": {"addr:housenumber": "2/1", "addr:postcode": "50180", "addr:street": "\u0130\u00e7eridere Sokak", "amenity": "cafe", "cuisine": "turkish", "internet_access": "wlan", "name": "The Patio Cafe", "opening_hours": "Mo-Su 08:30-19:30", "phone": "+90 501 148 21 17"}}, {"type": "node", "id": 12782167390, "lat": 38.717237, "lon": 34.8595145, "tags": {"amenity": "cafe", "name": "Kar\u015f\u0131ba\u011f K\u0131r Evi", "name:en": "Kar\u015f\u0131ba\u011f Event Garden"}}, {"type": "node", "id": 12822602362, "lat": 38.5559815, "lon": 35.0823434, "tags": {"amenity": "cafe"}}, {"type": "node", "id": 12872702503, "lat": 38.641929, "lon": 34.827171, "tags": {"amenity": "cafe", "cuisine": "caribbean;coffee_shop", "name:en": "La Petite Pause", "opening_hours": "Mo-Su 08:00-19:00"}}, {"type": "node", "id": 12878784101, "lat": 38.6429411, "lon": 34.8302798, "tags": {"amenity": "restaurant", "name:en": "Trevi Terrace cafe & restaurant"}}, {"type": "node", "id": 12880612701, "lat": 38.6432972, "lon": 34.8294061, "tags": {"amenity": "restaurant", "cuisine": "local;pizza;turkish", "name:en": "Firin Expres"}}, {"type": "way", "id": 28668039, "nodes": [315055623, 1409590281, 315055626, 1409590285, 315055625, 315055624, 315055623], "tags": {"amenity": "restaurant", "building": "yes"}}, {"type": "way", "id": 28668262, "nodes": [315057380, 315057378, 315057377, 449522721, 315057379, 315057380], "tags": {"addr:street": "\u00c7evre Yolu G\u00f6reme Yolu Kav\u015fa\u011f\u0131", "amenity": "restaurant", "building": "yes", "fax": "+90 384 511 4678", "mobile": "+90 549 511 5006", "name": "Hanedan", "phone": "+90 384 511 5006", "website": "http://avanoshanedanrestaurant.com"}}, {"type": "way", "id": 28668263, "nodes": [315057382, 315057381, 315057384, 315057383, 315057382], "tags": {"amenity": "restaurant", "building": "yes", "name": "Zerdali", "website": "https://www.isturturizm.com.tr/"}}, {"type": "way", "id": 30977409, "nodes": [344454962, 344454963, 6048808399, 6342539476, 344454964, 6884278010, 344454965, 8953520535, 8953520536, 344454962], "tags": {"addr:country": "TR", "addr:housenumber": "23", "addr:place": "Avanos", "addr:postcode": "50500", "addr:suburb": "Orta Mahalle", "amenity": "restaurant", "building": "yes", "name": "Despina Restaurant", "old_name": "Afife Ocakba\u015f\u0131 Restaurant"}}, {"type": "way", "id": 32617967, "nodes": [366792445, 366792448, 366792451, 366792453, 366792445], "tags": {"amenity": "cafe"}}, {"type": "way", "id": 70574679, "nodes": [842216790, 842216795, 9250969278, 842216806, 842216790], "tags": {"amenity": "restaurant", "building": "yes", "name": "Bigchefs", "source": "bing", "website": "https://www.bigchefs.com.tr"}}, {"type": "way", "id": 70574781, "nodes": [842217795, 842217797, 842217799, 842217800, 842217795], "tags": {"amenity": "cafe", "building": "cafe", "name": "Irmak Cafe", "source": "survey"}}, {"type": "way", "id": 97338793, "nodes": [1127323938, 10225024159, 1127323890, 1127323916, 9608332781, 1127323974, 1127323882, 1127323902, 1127323938], "tags": {"amenity": "restaurant", "building": "yes", "cuisine": "turkish", "mobile": "+90 545 871 5973", "name": "Nevizade", "outdoor_seating": "yes", "smoking": "outside", "source": "bing"}}, {"type": "way", "id": 196170479, "nodes": [2065238026, 2065238034, 2065238043, 2065238048, 2065238050, 2065238044, 2065238031, 2065238026], "tags": {"amenity": "restaurant", "building": "yes", "name": "Bizim Ev", "phone": "+90 384 511 5525", "source": "bing", "website": "https://bizim-ev.com/"}}, {"type": "way", "id": 264820651, "nodes": [2704689308, 2704689310, 2704689309, 6401092924, 6401092923, 6401092921, 6401092922, 2704689307, 2704689308], "tags": {"amenity": "restaurant", "building": "yes", "cuisine": "turkish", "expensive": "yes", "name": "Surbal\u0131k"}}, {"type": "way", "id": 264820653, "nodes": [2704689303, 2704689306, 2704689301, 2704689295, 2704689303], "tags": {"amenity": "restaurant", "building": "yes", "cuisine": "turkish", "expensive": "yes", "name": "Mado"}}, {"type": "way", "id": 280245646, "nodes": [2843906696, 2843906697, 2843906698, 2843906717, 2843906714, 2843906713, 2843906696], "tags": {"alt_name": "Ula\u015f Hallak Cafe;Ula\u015f Kahvesi;Ula\u015f Hallak Kahvesi;Ula\u015f", "amenity": "cafe", "name": "Ula\u015f Hallak Kahvesi", "name:en": "Ula\u015f Cafe"}}, {"type": "way", "id": 381337562, "nodes": [3845562724, 3845562725, 3845562726, 3845562727, 3845562728, 3845562729, 3845562730, 3845562731, 3845562724], "tags": {"amenity": "restaurant", "building": "yes"}}, {"type": "way", "id": 653119678, "nodes": [6121205580, 6121205578, 6121205576, 6121205577, 6121205579, 6121205581, 6121205580], "tags": {"amenity": "restaurant", "building": "yes", "name": "Sar\u0131kaya Konak", "name:en": "Sar\u0131kaya Restaurant & Cafe", "name:tr": "Sar\u0131kaya Konak", "source": "digitalGlobe Premium"}}, {"type": "way", "id": 658616243, "nodes": [6167232519, 6167232520, 6167232521, 6167232522, 6167232519], "tags": {"amenity": "cafe", "building": "yes"}}, {"type": "way", "id": 658704342, "nodes": [6167948943, 6167948944, 6167948945, 6167948946, 6167948943], "tags": {"amenity": "restaurant", "building": "yes"}}, {"type": "way", "id": 713695381, "nodes": [6710230091, 6710230092, 6710230093, 6710230094, 6710230091], "tags": {"addr:city": "Nev\u015fehir", "addr:district": "G\u00f6reme", "addr:housenumber": "7", "addr:neighbourhood": "Ayd\u0131nl\u0131 Orta", "addr:postcode": "50180", "addr:street": "Karam\u0131zrak Sokak", "air_conditioning": "yes", "amenity": "cafe", "building": "terrace_lounge", "cuisine": "breakfast;coffee_shop;sandwich;turkish;local;drinks;beer;vine", "email": "stay@yastikhouses.com", "internet_access": "wlan", "internet_access:fee": "no", "name": "YASTIK LOUNGE", "name:en": "YASTIK LOUNGE", "name:tr": "YASTIK LOUNGE", "operator": "Faruk \u00c7ift\u00e7i", "outdoor_seating": "yes", "phone": "+903842712747", "website": "https://www.yastikhouses.com/"}}, {"type": "way", "id": 1099783374, "nodes": [3067983462, 10067995404, 617626862, 419722972, 419722976, 3067983462], "tags": {"amenity": "cafe", "name": "Osman Efendi Cafe"}}, {"type": "way", "id": 1198732701, "nodes": [11119571417, 11119571418, 11119571419, 11119571420, 11119571421, 6805820917, 11119571417], "tags": {"addr:city": "Nev\u015fehir", "addr:district": "\u00fcrg\u00fcp", "addr:housenumber": "10", "addr:neighbourhood": "Duayeri Mahallesi", "addr:postcode": "50400", "addr:street": "Dedeli Ba\u015f\u0131 Sokak", "amenity": "cafe", "contact:instagram": "deringoller", "name": "Dering\u00f6ller Breakfast&Cafe", "opening_hours": "Mo-Sa 07:00-21:00", "outdoor_seating": "yes", "phone": "+90 0552 1793850"}}, {"type": "way", "id": 1272882038, "nodes": [11820012434, 11820012435, 11820012436, 11820012437, 11820012438, 11820012439, 11820012440, 11820012441, 11820012434], "tags": {"amenity": "restaurant", "building": "yes", "image": "https://photos.app.goo.gl/Hgkqrm2W7d1CexPT9"}}, {"type": "way", "id": 1354283379, "nodes": [12532716474, 12532716475, 12532716476, 12532716477, 12532716478, 12532716479, 12532716474], "tags": {"addr:city": "Nev\u015fehir", "addr:district": "\u00dcrg\u00fcp", "addr:housenumber": "10", "addr:neighbourhood": "Mustafapa\u015fa", "addr:postcode": "50400", "addr:street": "Y\u0131lmaz Sokak", "amenity": "restaurant", "building": "yes", "name": "Gorgoli Lounge & Eatery", "opening_hours": "09:00-22:00", "website": "https://gorgoli.com/"}}]}