{"version": 0.6, "generator": "Overpass API 0.7.62.7 375dc00a", "osm3s": {"timestamp_osm_base": "2025-06-14T13:22:01Z", "copyright": "The data included in this document is from www.openstreetmap.org. The data is made available under ODbL."}, "elements": [{"type": "node", "id": 1497172906, "lat": 39.1101274, "lon": 8.3683581}, {"type": "node", "id": 1497174212, "lat": 39.1101818, "lon": 8.3683807}, {"type": "node", "id": 1497175003, "lat": 39.1105087, "lon": 8.3684545}, {"type": "node", "id": 1497175220, "lat": 39.1101806, "lon": 8.3682925}, {"type": "node", "id": 1497175312, "lat": 39.1102153, "lon": 8.3683393}, {"type": "node", "id": 1497177454, "lat": 39.1105394, "lon": 8.3684939}, {"type": "node", "id": 1497177535, "lat": 39.1101622, "lon": 8.3684049}, {"type": "node", "id": 2338607667, "lat": 39.1446635, "lon": 8.3071933, "tags": {"amenity": "cafe", "name": "La Fontana"}}, {"type": "node", "id": 2574597013, "lat": 39.0152924, "lon": 8.3799506, "tags": {"addr:city": "Sant'Antioco", "addr:place": "Cala Sapone", "amenity": "restaurant", "capacity": "100", "cuisine": "regional", "name": "Mercury Boutique Hotel", "website": "https://www.mercuryboutiquehotel.it/"}}, {"type": "node", "id": 2822506341, "lat": 39.110194, "lon": 8.368312}, {"type": "node", "id": 2822506355, "lat": 39.1105797, "lon": 8.3683638}, {"type": "node", "id": 2827786318, "lat": 39.0251093, "lon": 8.3782099}, {"type": "node", "id": 2827786322, "lat": 39.0251591, "lon": 8.3782839}, {"type": "node", "id": 2827786341, "lat": 39.0252696, "lon": 8.3780486}, {"type": "node", "id": 2827786342, "lat": 39.0252723, "lon": 8.3781451}, {"type": "node", "id": 2827786347, "lat": 39.0252832, "lon": 8.3781698}, {"type": "node", "id": 2827786352, "lat": 39.0253129, "lon": 8.3781061}, {"type": "node", "id": 3079110592, "lat": 39.0080451, "lon": 8.3861772, "tags": {"addr:place": "Cala Sapone", "amenity": "restaurant", "cuisine": "regional", "ele": "3", "name": "Mario e Pinella", "phone": "+39 347 3017361", "website": "http://www.marioepinella.it"}}, {"type": "node", "id": 3079141639, "lat": 39.0067343, "lon": 8.3871991, "tags": {"amenity": "restaurant"}}, {"type": "node", "id": 3511185188, "lat": 39.1449803, "lon": 8.3063733, "tags": {"addr:city": "U P\u00e0ize/Carloforte", "addr:housenumber": "38", "addr:postcode": "09014", "addr:street": "Via Venti settembre", "amenity": "cafe", "name": "Re Carlo Emanuele III"}}, {"type": "node", "id": 3763069068, "lat": 39.1102181, "lon": 8.3684635, "tags": {"addr:housenumber": "3", "addr:street": "Via Roma", "amenity": "cafe", "name": "Caf\u00e9 del Mar", "phone": "+39 02 418970923"}}, {"type": "node", "id": 3763069069, "lat": 39.1096496, "lon": 8.3691953, "tags": {"amenity": "cafe", "name": "Lo Spinnaker"}}, {"type": "node", "id": 3763093268, "lat": 39.1100122, "lon": 8.3687599, "tags": {"amenity": "cafe", "name": "Caf\u00e9 Sardini"}}, {"type": "node", "id": 4846124621, "lat": 39.1440731, "lon": 8.3060277, "tags": {"addr:housenumber": "36", "addr:postcode": "09014", "addr:street": "Nicol\u00f3 Segni", "amenity": "restaurant", "cuisine": "italian;local", "name": "Galaia", "name:it": "Galaia", "opening_hours": "Mo-Su 09:00-14:30, 19:00-23:00", "phone": "+390781854081"}}, {"type": "node", "id": 5359014078, "lat": 39.1106388, "lon": 8.3684405}, {"type": "node", "id": 5359014079, "lat": 39.1105686, "lon": 8.3685314}, {"type": "node", "id": 5803645605, "lat": 39.1445798, "lon": 8.3062486, "tags": {"amenity": "restaurant", "name": "La Cantina"}}, {"type": "node", "id": 6788464578, "lat": 39.1418444, "lon": 8.3078773, "tags": {"addr:city": "Carloforte", "addr:housenumber": "36", "addr:postcode": "09014", "addr:street": "Corso Battellieri", "amenity": "restaurant", "cuisine": "seafood;regional", "name": "Osteria della Tonnara, da Andrea", "phone": "+39 0781 855734"}}, {"type": "node", "id": 9851491676, "lat": 39.1114274, "lon": 8.3691157, "tags": {"addr:city": "C\u00e2des\u00e9dda/Calasetta", "addr:housenumber": "3", "addr:postcode": "09011", "addr:street": "Viale Regina Margherita", "amenity": "restaurant", "cuisine": "pizza", "name": "L'Approdo"}}, {"type": "node", "id": 9866720659, "lat": 39.0097394, "lon": 8.3854786, "tags": {"amenity": "restaurant", "check_date:opening_hours": "2022-07-04", "contact:email": "bar.allaplaya@gmail.com", "contact:phone": "+39 347 3719560", "contact:website": "http://allaplaya.altervista.org/", "cuisine": "fish", "name": "A la Playa", "opening_hours": "Mo-Su 12:30-15:00,18:30-23:00", "outdoor_seating": "yes", "reservation": "yes", "takeaway": "no"}}, {"type": "node", "id": 12169772208, "lat": 39.0965342, "lon": 8.3618419, "tags": {"amenity": "restaurant"}}, {"type": "node", "id": 12169772210, "lat": 39.0966509, "lon": 8.3620797, "tags": {"amenity": "cafe"}}, {"type": "node", "id": 12169772213, "lat": 39.0965878, "lon": 8.3620065, "tags": {"amenity": "restaurant", "cuisine": "pizza"}}, {"type": "node", "id": 12396505749, "lat": 39.1913435, "lon": 8.3228175, "tags": {"amenity": "restaurant", "cuisine": "italian;local", "name": "Ristorante Palazzotto"}}, {"type": "node", "id": 12396506199, "lat": 39.191127, "lon": 8.3245385, "tags": {"amenity": "restaurant", "cuisine": "italian;local", "name": "Pizzeria Dell'Olio"}}, {"type": "way", "id": 136487872, "nodes": [1497175220, 2822506341, 1497175312, 1497174212, 1497177535, 1497172906, 1497175220], "tags": {"amenity": "restaurant", "building": "yes", "name": "La Boqueria"}}, {"type": "way", "id": 278406656, "nodes": [2827786352, 2827786342, 2827786347, 2827786322, 2827786318, 2827786341, 2827786352], "tags": {"amenity": "restaurant", "building": "yes", "name": "Ristoro Calalunga"}}, {"type": "way", "id": 555452795, "nodes": [2822506355, 5359014078, 5359014079, 1497177454, 1497175003, 2822506355], "tags": {"amenity": "restaurant", "building": "yes", "cuisine": "pizza", "name": "Pizzeria Tore"}}]}