{"version": 0.6, "generator": "Overpass API 0.7.62.7 375dc00a", "osm3s": {"timestamp_osm_base": "2025-06-14T14:44:30Z", "copyright": "The data included in this document is from www.openstreetmap.org. The data is made available under ODbL."}, "elements": [{"type": "node", "id": 2393789064, "lat": 40.89457, "lon": 24.3357178, "tags": {"addr:city": "\u03a0\u03b1\u03bb\u03b7\u03cc", "addr:housenumber": "173", "addr:postcode": "641 00", "addr:street": "\u039c\u03b5\u03bb\u03af\u03bd\u03b1\u03c2 \u039c\u03b5\u03c1\u03ba\u03bf\u03cd\u03c1\u03b7 ", "amenity": "cafe", "branch": "Vita Beach Bar", "brand": "Costa", "brand:wikidata": "Q608845", "brand:wikipedia": "en:Costa Coffee", "cuisine": "coffee_shop", "name": "Costa", "takeaway": "yes"}}, {"type": "node", "id": 2396602512, "lat": 40.8474472, "lon": 24.3089579}, {"type": "node", "id": 2396602514, "lat": 40.8472727, "lon": 24.3089392}, {"type": "node", "id": 2396602529, "lat": 40.8474573, "lon": 24.308915}, {"type": "node", "id": 2396602535, "lat": 40.8473376, "lon": 24.3088292}, {"type": "node", "id": 2396602537, "lat": 40.8474878, "lon": 24.3089928}, {"type": "node", "id": 2396602539, "lat": 40.8473843, "lon": 24.3088775}, {"type": "node", "id": 2396602540, "lat": 40.8474391, "lon": 24.3090894}, {"type": "node", "id": 2396602541, "lat": 40.8474025, "lon": 24.3088614}, {"type": "node", "id": 2399479560, "lat": 40.9354396, "lon": 24.4132537, "tags": {"addr:housenumber": "52", "addr:postcode": "65201", "addr:street": "\u03a0\u03bb\u03b1\u03c4\u03b5\u03af\u03b1 \u039a\u03b1\u03c1\u03b1\u03bf\u03bb\u03ae \u0394\u03b7\u03bc\u03b7\u03c4\u03c1\u03af\u03bf\u03c5", "amenity": "cafe", "name": "\u039d\u03b9\u03ba\u03b7\u03c6\u03cc\u03c1\u03bf\u03c2", "opening_hours": "08:00-03:00", "phone": "+302510228617"}}, {"type": "node", "id": 2399479561, "lat": 40.9350456, "lon": 24.412993, "tags": {"amenity": "restaurant", "email": "panoszafira@gmail.com", "name": "\u03a0\u03ac\u03bd\u03bf\u03c2 - \u0396\u03b1\u03c6\u03b5\u03af\u03c1\u03b1", "phone": "+302510227978", "website": "http://www.zafira.gr/"}}, {"type": "node", "id": 2606202972, "lat": 40.8439651, "lon": 24.1151397}, {"type": "node", "id": 2606202973, "lat": 40.8440625, "lon": 24.1153746}, {"type": "node", "id": 2606202974, "lat": 40.8437449, "lon": 24.1156049}, {"type": "node", "id": 2606202975, "lat": 40.8436474, "lon": 24.1153701}, {"type": "node", "id": 2606202976, "lat": 40.8427888, "lon": 24.115685}, {"type": "node", "id": 2606202977, "lat": 40.8429357, "lon": 24.1160516}, {"type": "node", "id": 2606202978, "lat": 40.8426748, "lon": 24.1162344}, {"type": "node", "id": 2606202979, "lat": 40.8425278, "lon": 24.1158678}, {"type": "node", "id": 2664675554, "lat": 40.9366826, "lon": 24.4020823, "tags": {"amenity": "cafe"}}, {"type": "node", "id": 3021899952, "lat": 40.8359196, "lon": 24.3055239}, {"type": "node", "id": 3021899953, "lat": 40.8359154, "lon": 24.3054574}, {"type": "node", "id": 3021899954, "lat": 40.8357338, "lon": 24.3054774}, {"type": "node", "id": 3021899955, "lat": 40.835738, "lon": 24.3055439}, {"type": "node", "id": 3021923732, "lat": 40.8389477, "lon": 24.3045112}, {"type": "node", "id": 3021925533, "lat": 40.8389554, "lon": 24.3045978}, {"type": "node", "id": 3021925534, "lat": 40.8388778, "lon": 24.3046044}, {"type": "node", "id": 3021925535, "lat": 40.8388772, "lon": 24.3045225}, {"type": "node", "id": 3266990259, "lat": 40.9369593, "lon": 24.4093429, "tags": {"addr:city": "\u039a\u03b1\u03b2\u03ac\u03bb\u03b1", "addr:housenumber": "37", "addr:postcode": "65302", "addr:street": "\u0395\u03bb\u03b5\u03c5\u03b8\u03b5\u03c1\u03af\u03bf\u03c5 \u0392\u03b5\u03bd\u03b9\u03b6\u03ad\u03bb\u03bf\u03c5", "amenity": "cafe", "brand": "Mikel", "brand:wikidata": "Q16952021", "brand:wikipedia": "el:Mikel Coffee Company", "cuisine": "coffee_shop", "name": "Mikel", "opening_hours": "Mo-Sa 05:00-23:30;Su 06:00-23:30", "phone": "+302510620479", "takeaway": "yes"}}, {"type": "node", "id": 3267034126, "lat": 40.9309412, "lon": 24.4140508}, {"type": "node", "id": 3267034127, "lat": 40.931032, "lon": 24.4140824}, {"type": "node", "id": 3267034128, "lat": 40.9310639, "lon": 24.4139223}, {"type": "node", "id": 3267034129, "lat": 40.9309731, "lon": 24.4138906}, {"type": "node", "id": 3267149109, "lat": 40.9344714, "lon": 24.3956047}, {"type": "node", "id": 3267149110, "lat": 40.9345149, "lon": 24.3958018}, {"type": "node", "id": 3267149111, "lat": 40.9345869, "lon": 24.3957777}, {"type": "node", "id": 3267149112, "lat": 40.9346091, "lon": 24.3959091}, {"type": "node", "id": 3267149113, "lat": 40.9346963, "lon": 24.3958863}, {"type": "node", "id": 3267149114, "lat": 40.9346528, "lon": 24.3956221}, {"type": "node", "id": 3267149115, "lat": 40.9346305, "lon": 24.3956301}, {"type": "node", "id": 3267149116, "lat": 40.9346112, "lon": 24.3955497}, {"type": "node", "id": 3267162390, "lat": 40.9356911, "lon": 24.4090788, "tags": {"addr:city": "\u039a\u03b1\u03b2\u03ac\u03bb\u03b1", "addr:housenumber": "3", "addr:postcode": "65403", "addr:street": "\u0391\u03b2\u03ad\u03c1\u03c9\u03c6", "amenity": "restaurant", "cuisine": "pizza", "name": "Milano Pizza", "phone": "+302510838508"}}, {"type": "node", "id": 3268062252, "lat": 40.9370478, "lon": 24.4172344, "tags": {"addr:city": "\u039a\u03b1\u03b2\u03ac\u03bb\u03b1", "addr:housenumber": "12", "addr:street": "\u039d\u03c5\u03c1\u03b5\u03bc\u03b2\u03ad\u03c1\u03b3\u03b7\u03c2", "amenity": "restaurant", "cuisine": "regional", "name": "\u039a\u03b1\u03c1\u03bd\u03ac\u03b3\u03b9\u03bf", "phone": "+302510227994"}}, {"type": "node", "id": 3268081238, "lat": 40.9369151, "lon": 24.414925, "tags": {"addr:city": "\u039a\u03b1\u03b2\u03ac\u03bb\u03b1", "addr:postcode": "65201", "amenity": "restaurant", "cuisine": "regional", "name": "\u039f \u039a\u03c1\u03bf\u03ba\u03cc\u03b4\u03b5\u03b9\u03bb\u03bf\u03c2", "opening_hours": "11:00 - 01:00", "phone": "+302510232488"}}, {"type": "node", "id": 3273634432, "lat": 40.934547, "lon": 24.394423}, {"type": "node", "id": 3273634433, "lat": 40.9346564, "lon": 24.3943687}, {"type": "node", "id": 3273634434, "lat": 40.9346352, "lon": 24.3942941}, {"type": "node", "id": 3276829431, "lat": 40.9365654, "lon": 24.4063628, "tags": {"addr:city": "\u039a\u03b1\u03b2\u03ac\u03bb\u03b1", "addr:housenumber": "28", "addr:street": "\u0395\u03c1\u03c5\u03b8\u03c1\u03bf\u03cd \u03a3\u03c4\u03b1\u03c5\u03c1\u03bf\u03cd", "amenity": "restaurant", "name": "La Rocca", "phone": "+302510830850", "website": "https://www.larocca.gr/"}}, {"type": "node", "id": 3282402414, "lat": 40.9345259, "lon": 24.3943484}, {"type": "node", "id": 3285698896, "lat": 40.9301305, "lon": 24.3924255, "tags": {"addr:city": "\u039a\u03b1\u03b2\u03ac\u03bb\u03b1", "addr:street": "\u03a4\u03b5\u03bd\u03ad\u03b4\u03bf\u03c5", "amenity": "restaurant", "cuisine": "regional", "name": "\u039c\u03cd\u03bb\u03bf\u03c5 \u039c\u03ce\u03bb\u03bf\u03c2", "phone": "+306979750098", "website": "https://www.miloumolos.gr/"}}, {"type": "node", "id": 3292076225, "lat": 40.9382193, "lon": 24.4102864, "tags": {"addr:city": "\u039a\u03b1\u03b2\u03ac\u03bb\u03b1", "addr:housenumber": "44", "addr:postcode": "65403", "addr:street": "\u039c\u03b5\u03b3\u03ac\u03bb\u03bf\u03c5 \u0391\u03bb\u03b5\u03be\u03ac\u03bd\u03b4\u03c1\u03bf\u03c5", "amenity": "restaurant", "cuisine": "regional", "name": "\u03a3\u03c4\u03bf \u03ba\u03bf\u03c5\u03c4\u03bf\u03cd\u03ba\u03b9 \u03c4\u03bf\u03c5 \u03a3\u03b1\u03c1\u03c1\u03ae", "phone": "+302514001493"}}, {"type": "node", "id": 3295234738, "lat": 40.9357997, "lon": 24.4123154, "tags": {"addr:city": "\u039a\u03b1\u03b2\u03ac\u03bb\u03b1", "addr:housenumber": "2", "addr:street": "\u0395\u03c1\u03c5\u03b8\u03c1\u03bf\u03cd \u03a3\u03c4\u03b1\u03c5\u03c1\u03bf\u03cd", "amenity": "restaurant", "cuisine": "regional", "internet_access": "wlan", "name": "\u0391\u03c0\u03af\u03ba\u03bf", "name:el": "\u0391\u03c0\u03af\u03ba\u03bf", "name:en": "Apiko", "phone": "+302510227173"}}, {"type": "node", "id": 3295251488, "lat": 40.9364903, "lon": 24.4111262}, {"type": "node", "id": 3295251489, "lat": 40.9364451, "lon": 24.4112369}, {"type": "node", "id": 3295251490, "lat": 40.9363767, "lon": 24.411188}, {"type": "node", "id": 3295251491, "lat": 40.9364219, "lon": 24.4110773}, {"type": "node", "id": 3297426181, "lat": 40.9416858, "lon": 24.4042543, "tags": {"addr:city": "\u039a\u03b1\u03b2\u03ac\u03bb\u03b1", "addr:housenumber": "172", "addr:street": "\u039f\u03bc\u03cc\u03bd\u03bf\u03b9\u03b1\u03c2", "amenity": "restaurant", "name": "\u03a0\u03b1\u03c1\u03ac\u03b4\u03b5\u03b9\u03c3\u03bf\u03c2"}}, {"type": "node", "id": 3307070767, "lat": 40.902545, "lon": 24.3464411, "tags": {"addr:city": "\u03a0\u03b1\u03bb\u03b1\u03b9\u03cc \u03a4\u03c3\u03b9\u03c6\u03bb\u03af\u03ba\u03b9", "addr:housenumber": "83", "addr:postcode": "65500", "addr:street": "\u039c\u03b5\u03bb\u03af\u03bd\u03b1\u03c2 \u039c\u03b5\u03c1\u03ba\u03bf\u03cd\u03c1\u03b7", "amenity": "restaurant", "cuisine": "regional", "name": "\u03a4\u03bf \u03a6\u03b9\u03bb\u03b1\u03c1\u03ac\u03ba\u03b9", "name:el": "\u03a4\u03bf \u03a6\u03b9\u03bb\u03b1\u03c1\u03ac\u03ba\u03b9", "name:en": "Filaraki tavern", "phone": "+302510441729"}}, {"type": "node", "id": 3307087271, "lat": 40.9006822, "lon": 24.3426064, "tags": {"addr:city": "\u03a0\u03b1\u03bb\u03b1\u03b9\u03cc \u03a4\u03c3\u03b9\u03c6\u03bb\u03af\u03ba\u03b9", "addr:housenumber": "118", "addr:street": "\u039c\u03b5\u03bb\u03af\u03bd\u03b1\u03c2 \u039c\u03b5\u03c1\u03ba\u03bf\u03cd\u03c1\u03b7", "amenity": "restaurant", "cuisine": "regional", "name": "\u039f \u039a\u03c5\u03bd\u03b7\u03b3\u03cc\u03c2", "phone": "+302510442000"}}, {"type": "node", "id": 3307887049, "lat": 40.9393763, "lon": 24.4090721, "tags": {"addr:city": "\u039a\u03b1\u03b2\u03ac\u03bb\u03b1", "addr:housenumber": "21", "addr:postcode": "65403", "addr:street": "\u0395\u03b8\u03bd\u03ac\u03c1\u03c7\u03bf\u03c5 \u039c\u03b1\u03ba\u03b1\u03c1\u03af\u03bf\u03c5", "amenity": "restaurant", "cuisine": "regional", "delivery": "yes", "name": "\u039f \u03a3\u03c0\u03cd\u03c1\u03bf\u03c2", "phone": "+302510836604", "takeaway": "yes"}}, {"type": "node", "id": 3313918383, "lat": 40.9360356, "lon": 24.408584, "tags": {"addr:city": "\u039a\u03b1\u03b2\u03ac\u03bb\u03b1", "addr:housenumber": "4", "addr:postcode": "65403", "addr:street": "\u03a6\u03b9\u03bb\u03b9\u03ba\u03ae\u03c2 \u0395\u03c4\u03b1\u03b9\u03c1\u03b5\u03af\u03b1\u03c2", "amenity": "restaurant", "cuisine": "regional", "name": "\u039a\u03c9\u03bd\u03c3\u03c4\u03b1\u03bd\u03c4\u03b9\u03bd\u03bf\u03cd\u03c0\u03bf\u03bb\u03b7", "phone": "+302510232013"}}, {"type": "node", "id": 3374037708, "lat": 40.9366795, "lon": 24.4095201, "tags": {"addr:city": "\u039a\u03b1\u03b2\u03ac\u03bb\u03b1", "addr:housenumber": "20", "addr:street": "\u0395\u03c1\u03c5\u03b8\u03c1\u03bf\u03cd \u03a3\u03c4\u03b1\u03c5\u03c1\u03bf\u03cd", "amenity": "cafe", "name": "\u03bc\u03c5\u03c1\u03bf\u03b2\u03cc\u03bb\u03bf\u03c2 \u03ac\u03bd\u03bf\u03b9\u03be\u03b9\u03c2", "phone": "+302513006835", "website": "https://www.myrovolosanoixis.gr/"}}, {"type": "node", "id": 3379479518, "lat": 40.9291372, "lon": 24.3845747, "tags": {"addr:city": "\u039a\u03b1\u03b2\u03ac\u03bb\u03b1", "addr:housenumber": "91", "addr:postcode": "65404", "addr:street": "\u0392\u03cc\u03bb\u03bf\u03c5", "amenity": "restaurant", "cuisine": "regional", "name": "\u03a3\u03b1\u03bd \u03a0\u03b1\u03c1\u03b1\u03bc\u03cd\u03b8\u03b9", "opening_hours": "12:00-00:00", "phone": "+306955564979"}}, {"type": "node", "id": 3401320366, "lat": 40.8657362, "lon": 24.3165451, "tags": {"amenity": "cafe", "cuisine": "donut", "name": "\u0391\u03ba\u03c4\u03b1\u03af\u03bf\u03bd", "opening_hours": "10:30-23:30", "phone": "+302594022970"}}, {"type": "node", "id": 3405247377, "lat": 40.8662551, "lon": 24.0791353, "tags": {"amenity": "restaurant", "cuisine": "regional", "name": "\u039a\u03b1\u03c3\u03c4\u03b1\u03bd\u03b9\u03ad\u03c2", "operator": "\u039e\u03bf\u03c5\u03bb\u03cc\u03b3\u03b7\u03c2 \u0393\u03b5\u03ce\u03c1\u03b3\u03b9\u03bf\u03c2", "phone": "+302592093687"}}, {"type": "node", "id": 3410657326, "lat": 40.9367992, "lon": 24.4131591, "tags": {"addr:city": "\u039a\u03b1\u03b2\u03ac\u03bb\u03b1", "addr:housenumber": "12", "addr:street": "\u03a8\u03b1\u03c1\u03ce\u03bd", "amenity": "restaurant", "cuisine": "regional", "name": "\u039f\u03b9\u03bd\u03cc\u03bc\u03b5\u03bb\u03bf", "phone": "+302510833975"}}, {"type": "node", "id": 3410657327, "lat": 40.9368794, "lon": 24.413175, "tags": {"addr:city": "\u039a\u03b1\u03b2\u03ac\u03bb\u03b1", "addr:housenumber": "9-11", "addr:postcode": "65302", "addr:street": "\u03a8\u03b1\u03c1\u03ce\u03bd", "amenity": "restaurant", "cuisine": "regional", "name": "\u03c3\u03c4\u03bf\u03c5 \u039c\u03b7\u03bd\u03ac", "phone": "+302510230932"}}, {"type": "node", "id": 3410696568, "lat": 40.937606, "lon": 24.4108494, "tags": {"addr:housenumber": "8", "addr:street": "\u03a0\u03b1\u03cd\u03bb\u03bf\u03c5 \u039c\u03b5\u03bb\u03ac", "amenity": "cafe", "name": "\u0395\u03c5\u03b1\u03b3\u03b3\u03ad\u03bb\u03bf\u03c5", "opening_hours": "09:00-21:00", "phone": "+302510207949"}}, {"type": "node", "id": 3424666933, "lat": 40.9339744, "lon": 24.4137286, "tags": {"addr:city": "\u039a\u03b1\u03b2\u03ac\u03bb\u03b1", "addr:housenumber": "29", "addr:postcode": "65201", "addr:street": "\u03a0\u03bf\u03c5\u03bb\u03af\u03b4\u03bf\u03c5", "amenity": "restaurant", "cuisine": "regional", "name": "\u03a4\u03bf \u03ba\u03bf\u03c5\u03c4\u03bf\u03c5\u03ba\u03ac\u03ba\u03b9", "operator": "\u0393\u03c1\u03b7\u03b3\u03bf\u03c1\u03b9\u03ac\u03b4\u03b7\u03c2 \u0393\u03b5\u03ce\u03c1\u03b3\u03b9\u03bf\u03c2", "phone": "+302510838583"}}, {"type": "node", "id": 3442899482, "lat": 40.8657276, "lon": 24.0822296, "tags": {"amenity": "cafe"}}, {"type": "node", "id": 3444605929, "lat": 40.9379912, "lon": 24.4115966, "tags": {"addr:city": "\u039a\u03b1\u03b2\u03ac\u03bb\u03b1", "addr:housenumber": "77", "addr:street": "\u039f\u03bc\u03cc\u03bd\u03bf\u03b9\u03b1\u03c2", "amenity": "cafe", "name": "\u039a\u03b1\u03c6\u03ad \u039f\u03bc\u03bf\u03bd\u03bf\u03af\u03b1\u03c2 77"}}, {"type": "node", "id": 3478879788, "lat": 40.8833914, "lon": 24.2232352, "tags": {"addr:city": "\u039a\u03b7\u03c0\u03af\u03b1", "addr:postcode": "64100", "amenity": "restaurant", "cuisine": "regional", "name": "\u03a0\u03c1\u03ac\u03c3\u03b9\u03bd\u03b7 \u0393\u03c9\u03bd\u03b9\u03ac", "phone": "+302592023877"}}, {"type": "node", "id": 3522591324, "lat": 40.9353777, "lon": 24.4134949, "tags": {"addr": "\u03a0\u03bb\u03b1\u03c4\u03b5\u03af\u03b1 \u039a\u03b1\u03c1\u03b1\u03bf\u03bb\u03ae \u0394\u03b7\u03bc\u03b7\u03c4\u03c1\u03af\u03bf\u03c5", "addr:postcode": "65201", "amenity": "cafe", "internet_access": "wlan", "internet_access:fee": "no", "name": "\u03a4\u03bf \u039c\u03b9\u03ba\u03c1\u03cc \u039d\u03b7\u03c3\u03af", "opening_hours": "10:00-03:00", "phone": "+302510835868"}}, {"type": "node", "id": 3522591325, "lat": 40.9354153, "lon": 24.4133251, "tags": {"addr:city": "\u039a\u03b1\u03b2\u03ac\u03bb\u03b1", "addr:housenumber": "36", "addr:street": "\u03a0\u03bb\u03b1\u03c4\u03b5\u03af\u03b1 \u039a\u03b1\u03c1\u03b1\u03bf\u03bb\u03ae \u0394\u03b7\u03bc\u03b7\u03c4\u03c1\u03af\u03bf\u03c5", "amenity": "cafe", "name": "\u03a4\u03c3\u03b1\u03bb\u03b1\u03c0\u03b5\u03c4\u03b5\u03b9\u03bd\u03cc\u03c2", "opening_hours": "08:30-02:00", "phone": "+302511111073"}}, {"type": "node", "id": 3530354319, "lat": 40.9363914, "lon": 24.4137277, "tags": {"addr:city": "\u039a\u03b1\u03b2\u03ac\u03bb\u03b1", "addr:housenumber": "4", "addr:postcode": "65302", "addr:street": "\u0391\u03b3\u03af\u03bf\u03c5 \u039d\u03b9\u03ba\u03bf\u03bb\u03ac\u03bf\u03c5", "amenity": "restaurant", "cuisine": "regional", "name": "\u03a3\u03bf\u03cd\u03c3\u03bf\u03c5\u03c1\u03bf", "opening_hours": "12:00-01:00", "phone": "+302510226111", "website": "https://www.sousouro.com/"}}, {"type": "node", "id": 3532702158, "lat": 40.9363313, "lon": 24.4135169, "tags": {"addr:city": "\u039a\u03b1\u03b2\u03ac\u03bb\u03b1", "addr:street": "\u03a3\u03c0\u03b5\u03c4\u03c3\u03ce\u03bd", "amenity": "cafe", "name": "Velo", "opening_hours": "08:00-01:00", "phone": "+302510837515"}}, {"type": "node", "id": 3608467210, "lat": 40.9364536, "lon": 24.411065, "tags": {"addr:city": "\u039a\u03b1\u03b2\u03ac\u03bb\u03b1", "addr:housenumber": "6", "addr:street": "\u0395\u03c1\u03c5\u03b8\u03c1\u03bf\u03cd \u03a3\u03c4\u03b1\u03c5\u03c1\u03bf\u03cd", "amenity": "restaurant", "cuisine": "regional", "name": "\u03c0\u03b1\u03c1\u03b1\u03bb\u03b9\u03b1\u03ba\u03cc\u03bd", "phone": "+302510211005"}}, {"type": "node", "id": 3655763811, "lat": 40.9364666, "lon": 24.4111843, "tags": {"addr:city": "\u039a\u03b1\u03b2\u03ac\u03bb\u03b1", "addr:housenumber": "17A", "addr:street": "\u0395\u03bb\u03b5\u03c5\u03b8\u03b5\u03c1\u03af\u03bf\u03c5 \u0392\u03b5\u03bd\u03b9\u03b6\u03ad\u03bb\u03bf\u03c5"}}, {"type": "node", "id": 3661052096, "lat": 40.9008207, "lon": 24.3428443, "tags": {"addr:city": "\u03a0\u03b1\u03bb\u03b1\u03b9\u03cc \u03a4\u03c3\u03b9\u03c6\u03bb\u03af\u03ba\u03b9", "addr:housenumber": "118\u0391", "addr:street": "\u039c\u03b5\u03bb\u03af\u03bd\u03b1\u03c2 \u039c\u03b5\u03c1\u03ba\u03bf\u03cd\u03c1\u03b7", "amenity": "restaurant", "cuisine": "pizza", "delivery": "yes", "name": "Pizza House", "opening_hours": "12:00-24:00", "phone": "+302510442550"}}, {"type": "node", "id": 3735593337, "lat": 40.9353245, "lon": 24.4135197, "tags": {"amenity": "cafe", "name": "\u03a6\u03bb\u03ad\u03c1\u03c5"}}, {"type": "node", "id": 3783535874, "lat": 40.8058644, "lon": 24.2052106, "tags": {"amenity": "restaurant", "cuisine": "regional", "name": "\u03a4\u03b1 \u03a0\u03bb\u03b1\u03c4\u03b1\u03bd\u03ac\u03ba\u03b9\u03b1", "phone": "+302594092204"}}, {"type": "node", "id": 3830469552, "lat": 40.935451, "lon": 24.4077157, "tags": {"addr:city": "\u039a\u03b1\u03b2\u03ac\u03bb\u03b1", "addr:housenumber": "8", "addr:street": "\u039b\u03b5\u03c9\u03c6\u03cc\u03c1\u03bf\u03c2 \u0395\u03b8\u03bd\u03b9\u03ba\u03ae\u03c2 \u0391\u03bd\u03c4\u03b9\u03c3\u03c4\u03ac\u03c3\u03b5\u03c9\u03c2", "amenity": "restaurant", "check_date": "2023-06-12", "cuisine": "greek", "diet:fish": "yes", "diet:local": "yes", "diet:meat": "yes", "diet:plant-based": "yes", "internet_access": "wlan", "internet_access:fee": "customers", "name": "Nemesis", "payment:mastercard": "yes", "payment:visa": "yes", "phone": "+302512512510", "wheelchair": "yes"}}, {"type": "node", "id": 3892887323, "lat": 40.9464704, "lon": 24.4379595, "tags": {"addr:city": "\u039a\u03b1\u03b2\u03ac\u03bb\u03b1", "addr:housenumber": "184", "addr:street": "\u039d\u03c5\u03c1\u03b5\u03bc\u03b2\u03ad\u03c1\u03b3\u03b7\u03c2", "amenity": "restaurant", "cuisine": "regional", "name": "\u03a0\u03c1\u03ce\u03c4\u03bf \u039a\u03b1\u03c4\u03c3\u03af\u03ba\u03b9", "opening_hours": "11:00-01:00", "phone": "+302510223983"}}, {"type": "node", "id": 3988353545, "lat": 40.941383, "lon": 24.4051416, "tags": {"addr:city": "\u039a\u03b1\u03b2\u03ac\u03bb\u03b1", "addr:housenumber": "170", "addr:street": "\u039f\u03bc\u03cc\u03bd\u03bf\u03b9\u03b1\u03c2", "amenity": "restaurant", "cuisine": "regional", "name": "\u03a3\u03c7\u03af\u03bd\u03bf\u03c2", "phone": "+306940530358"}}, {"type": "node", "id": 4043714127, "lat": 40.9327078, "lon": 24.3381631, "tags": {"amenity": "restaurant", "cuisine": "greek", "name": "\u03a6\u03b1\u03bb\u03ac\u03ba\u03c1\u03b1\u03c2", "phone": "+302510326287"}}, {"type": "node", "id": 4052830000, "lat": 40.940199, "lon": 24.3933606, "tags": {"amenity": "restaurant", "cuisine": "greek", "name": "\u039f \u039c\u03ac\u03ba\u03b1\u03c1\u03bf\u03c2", "old_name": "\u039a\u03bf\u03c5\u03c4\u03bf\u03c5\u03c1\u03bf\u03cd & \u03bc\u03b5 \u03c4\u03bf \u03bd\u03bf\u03c5", "phone": "+306995434840"}}, {"type": "node", "id": 4193086649, "lat": 40.9382161, "lon": 24.40902, "tags": {"addr:city": "\u039a\u03b1\u03b2\u03ac\u03bb\u03b1", "addr:street": "\u039a\u03b1\u03c3\u03c3\u03ac\u03bd\u03b4\u03c1\u03bf\u03c5", "amenity": "cafe", "name": "Black Drop", "opening_hours": "08:00-20:00", "phone": "+302510222203"}}, {"type": "node", "id": 4262540413, "lat": 40.9155693, "lon": 24.3794262, "tags": {"amenity": "restaurant", "cuisine": "greek", "internet_access": "wlan", "name": "elia", "website": "https://www.batis-sa.gr/en/kavala/batis-taverna"}}, {"type": "node", "id": 4281652409, "lat": 40.8652955, "lon": 24.3201118, "tags": {"amenity": "restaurant", "cuisine": "greek", "name": "\u03a1\u03ad\u03bc\u03b2\u03b7"}}, {"type": "node", "id": 4307706792, "lat": 40.9403562, "lon": 24.4185296, "tags": {"amenity": "cafe", "name": "City Internet Cafe"}}, {"type": "node", "id": 4317931090, "lat": 40.8002144, "lon": 24.2627775, "tags": {"amenity": "restaurant", "cuisine": "fish", "name": "\u0386\u03bb\u03bc\u03c0\u03bf\u03c5\u03c1\u03bf", "phone": "+302594092002", "website": "http://www.alburoseafood.gr/"}}, {"type": "node", "id": 4348527090, "lat": 40.8680012, "lon": 24.3141911}, {"type": "node", "id": 4348527093, "lat": 40.8686989, "lon": 24.3139846}, {"type": "node", "id": 4348527100, "lat": 40.8680641, "lon": 24.3141482}, {"type": "node", "id": 4359169290, "lat": 40.9351571, "lon": 24.4130694, "tags": {"amenity": "restaurant", "name": "\u03a9\u03c1\u03b1\u03af\u03b1 \u039c\u03c5\u03c4\u03b9\u03bb\u03ae\u03bd\u03b7", "name:el": "\u03a9\u03c1\u03b1\u03af\u03b1 \u039c\u03c5\u03c4\u03b9\u03bb\u03ae\u03bd\u03b7", "name:en": "Orea Mitilini"}}, {"type": "node", "id": 4381806191, "lat": 40.9357586, "lon": 24.4090814, "tags": {"addr:city": "\u039a\u03b1\u03b2\u03ac\u03bb\u03b1", "addr:housenumber": "3", "addr:postcode": "65302", "addr:street": "\u0391\u03b2\u03ad\u03c1\u03c9\u03c6", "amenity": "restaurant", "cuisine": "italian;italian_pizza", "internet_access": "wlan", "name": "Napolitana;Venezia", "name:el": "Napolitana;Venezia", "name:en": "Napolitana;Venezia", "phone": "+302510836368;+302510228357"}}, {"type": "node", "id": 4586835790, "lat": 40.9455529, "lon": 24.432769, "tags": {"addr:city": "\u039a\u03b1\u03b2\u03ac\u03bb\u03b1", "addr:housenumber": "176", "addr:street": "\u039d\u03c5\u03c1\u03b5\u03bc\u03b2\u03ad\u03c1\u03b3\u03b7\u03c2", "amenity": "restaurant", "cuisine": "seafood", "name": "\u039a\u03c5\u03c1\u03ac \u0392\u03b1\u03b3\u03b3\u03b5\u03bb\u03b9\u03ce", "name:el": "\u039a\u03c5\u03c1\u03ac \u0392\u03b1\u03b3\u03b3\u03b5\u03bb\u03b9\u03ce", "opening_hours": "12:00-00:00", "phone": "+302510225846"}}, {"type": "node", "id": 4598103663, "lat": 40.9341822, "lon": 24.406478, "tags": {"addr:city": "\u039a\u03b1\u03b2\u03ac\u03bb\u03b1", "addr:housenumber": "3", "addr:street": "\u0395\u03b8\u03bd\u03b9\u03ba\u03ae\u03c2 \u0391\u03bd\u03c4\u03b9\u03c3\u03c4\u03ac\u03c3\u03b5\u03c9\u03c2", "amenity": "restaurant", "cuisine": "greek", "diet:vegetarian": "yes", "indoor_seating": "yes", "name": "\u03a8\u03b1\u03c1\u03ac\u03ba\u03b9", "outdoor_seating": "yes", "payment:credit_cards": "yes", "payment:debit_cards": "yes", "phone": "+302510211750", "website": "https://www.psaraki.gr/"}}, {"type": "node", "id": 4795130204, "lat": 40.9420108, "lon": 24.4255204, "tags": {"addr:postcode": "65201", "amenity": "restaurant", "cuisine": "greek;seafood", "diet:fish": "yes", "diet:meat": "yes", "name": "\u03a3\u03ac\u03b2\u03b2\u03b1\u03c2", "opening_hours": "10:00-23:00", "phone": "+302510225505"}}, {"type": "node", "id": 4920557728, "lat": 40.9365071, "lon": 24.4135429, "tags": {"addr:housenumber": "4", "addr:street": "\u0388\u03bb\u03bb\u03b7\u03c2", "amenity": "restaurant", "check_date": "2024-06-25", "cuisine": "fish;greek", "internet_access": "wlan", "internet_access:fee": "customers", "name": "\u0393\u03bf\u03c1\u03b3\u03cc\u03bd\u03b5\u03c2 \u039a\u03b1\u03b9 \u039c\u03ac\u03b3\u03ba\u03b5\u03c2", "opening_hours": "12:00-2:00", "payment:cash": "yes", "payment:credit_cards": "yes", "payment:debit_cards": "yes", "phone": "+302510833600"}}, {"type": "node", "id": 5014754636, "lat": 40.8983088, "lon": 24.3393463, "tags": {"amenity": "restaurant", "cuisine": "greek", "name": "\u039f \u039a\u03cc\u03ba\u03ba\u03b9\u03bd\u03bf\u03c2 \u03a4\u03b1\u03cd\u03c1\u03bf\u03c2"}}, {"type": "node", "id": 5014754637, "lat": 40.9021262, "lon": 24.3452445, "tags": {"amenity": "restaurant", "cuisine": "greek", "name": "\u03a7\u03b5\u03bb\u03b9\u03b4\u03cc\u03bd\u03b9", "phone": "+302510441167"}}, {"type": "node", "id": 5051677422, "lat": 40.8386606, "lon": 24.3049628, "tags": {"amenity": "cafe", "cuisine": "greek", "name:en": "Mouragio tavern"}}, {"type": "node", "id": 5486401421, "lat": 40.9361466, "lon": 24.4143297, "tags": {"addr:housenumber": "22", "addr:street": "\u039a\u03bf\u03c5\u03bd\u03c4\u03bf\u03c5\u03c1\u03b9\u03ce\u03c4\u03bf\u03c5", "amenity": "cafe", "cuisine": "greek", "name": "\u0386\u03c1\u03c9\u03bc\u03b1 \u039a\u03b1\u03bd\u03ad\u03bb\u03b1\u03c2", "name:el": "\u0386\u03c1\u03c9\u03bc\u03b1 \u039a\u03b1\u03bd\u03ad\u03bb\u03b1\u03c2", "name:en": "Aroma di Canella", "name:tr": "Boug\u00e1tsa Sotos", "opening_hours": "Mo-Su 00:00-16:00", "payment:cash": "yes", "payment:coins": "yes", "phone": "+30 251 251 1373", "shop": "pastry", "website": "https://sotos.business.site/"}}, {"type": "node", "id": 5540925729, "lat": 40.9349298, "lon": 24.1388753, "tags": {"amenity": "restaurant", "cuisine": "greek", "delivery": "no", "name": "Kastanies", "outdoor_seating": "yes", "phone": "00306974824938", "takeaway": "no", "website": "http://www.taverna-kastanies.gr/"}}, {"type": "node", "id": 5586296421, "lat": 40.8672975, "lon": 24.1141271, "tags": {"amenity": "restaurant", "name": "\u039c\u03c0\u03bf\u03c3\u03c4\u03ac\u03bd\u03b9", "name:el": "\u039c\u03c0\u03bf\u03c3\u03c4\u03ac\u03bd\u03b9", "name:en": "Bostani", "opening_hours": "Fr 17:30-22:30; Sa 12:00-22:30; Su 12:00-18:30", "phone": "+302592093526"}}, {"type": "node", "id": 5834311186, "lat": 40.8943526, "lon": 24.2239048, "tags": {"amenity": "restaurant", "name": "\u0394\u03cd\u03bf \u0392\u03c1\u03cd\u03c3\u03b5\u03c2", "name:el": "\u0394\u03cd\u03bf \u0392\u03c1\u03cd\u03c3\u03b5\u03c2", "name:en": "Dio Vrises"}}, {"type": "node", "id": 5861033625, "lat": 40.868066, "lon": 24.3143585}, {"type": "node", "id": 5861033626, "lat": 40.8680375, "lon": 24.3140691}, {"type": "node", "id": 5861033627, "lat": 40.8686008, "lon": 24.313719}, {"type": "node", "id": 6318002968, "lat": 40.9364283, "lon": 24.413811, "tags": {"addr:city": "\u039a\u03b1\u03b2\u03ac\u03bb\u03b1", "addr:housenumber": "4", "addr:postcode": "65302", "addr:street": "\u0391\u03b3\u03af\u03bf\u03c5 \u039d\u03b9\u03ba\u03bf\u03bb\u03ac\u03bf\u03c5", "amenity": "restaurant", "name": "\u0395\u03bb\u03bb\u03b7\u03bd\u03b9\u03ba\u03cc\u03bd \u0393\u03b5\u03c5\u03c3\u03b9\u03c0\u03c9\u03bb\u03b5\u03af\u03bf\u03bd", "phone": "+302510220873"}}, {"type": "node", "id": 6333824728, "lat": 40.9354212, "lon": 24.3992266, "tags": {"addr:city": "\u039a\u03b1\u03b2\u03ac\u03bb\u03b1", "addr:housenumber": "8", "addr:postcode": "65403", "addr:street": "\u03a7\u03c1\u03c5\u03c3\u03bf\u03c3\u03c4\u03cc\u03bc\u03bf\u03c5 \u03a3\u03bc\u03cd\u03c1\u03bd\u03b7\u03c2", "amenity": "cafe", "name": "Caffeine", "opening_hours": "6:00-22:00", "phone": "+302510244434"}}, {"type": "node", "id": 6334080198, "lat": 40.9366339, "lon": 24.4099635, "tags": {"addr:city": "\u039a\u03b1\u03b2\u03ac\u03bb\u03b1", "addr:housenumber": "16", "addr:postcode": "65403", "addr:street": "\u0395\u03c1\u03c5\u03b8\u03c1\u03bf\u03cd \u03a3\u03c4\u03b1\u03c5\u03c1\u03bf\u03cd", "amenity": "restaurant", "cuisine": "seafood", "name": "\u03a0\u03b5\u03c1\u03b4\u03af\u03ba\u03b7\u03c2", "phone": "+302510222303"}}, {"type": "node", "id": 6334094865, "lat": 40.9365164, "lon": 24.410748, "tags": {"addr:city": "\u039a\u03b1\u03b2\u03ac\u03bb\u03b1", "addr:housenumber": "8", "addr:street": "\u0395\u03c1\u03c5\u03b8\u03c1\u03bf\u03cd \u03a3\u03c4\u03b1\u03c5\u03c1\u03bf\u03cd", "amenity": "restaurant", "name": "Epicure", "opening_hours": "Mo-Su 10:00-24:00", "phone": "+302511104700", "website": "https://epicure.gr/"}}, {"type": "node", "id": 6343440929, "lat": 40.8105544, "lon": 24.2135173}, {"type": "node", "id": 6343440930, "lat": 40.8105641, "lon": 24.2136551}, {"type": "node", "id": 6343440931, "lat": 40.8106456, "lon": 24.213645}, {"type": "node", "id": 6343440932, "lat": 40.8106359, "lon": 24.2135073}, {"type": "node", "id": 6404324441, "lat": 40.8668207, "lon": 24.3153899}, {"type": "node", "id": 6404324442, "lat": 40.8667223, "lon": 24.3154499}, {"type": "node", "id": 6404324443, "lat": 40.866521, "lon": 24.3151247}, {"type": "node", "id": 6404324444, "lat": 40.8666716, "lon": 24.3150107}, {"type": "node", "id": 6404355573, "lat": 40.8654092, "lon": 24.316218, "tags": {"amenity": "cafe", "internet_access": "yes", "name": "\u03a3\u03b5\u03c1\u03c1\u03b1\u03af\u03bf\u03c2", "opening_hours": "06:00-22:00", "phone": "+302594022751"}}, {"type": "node", "id": 6412719483, "lat": 40.9354485, "lon": 24.4074423, "tags": {"amenity": "cafe", "check_date": "2023-06-12", "internet_access": "wlan", "name": "Aparto", "opening_hours": "8:00-2:00", "outdoor_seating": "yes", "phone": "+302510211910", "smoking": "outside"}}, {"type": "node", "id": 6419511866, "lat": 40.9272887, "lon": 24.3904948}, {"type": "node", "id": 6419511867, "lat": 40.9273205, "lon": 24.3906035}, {"type": "node", "id": 6419511868, "lat": 40.927255, "lon": 24.390637}, {"type": "node", "id": 6419511869, "lat": 40.9272232, "lon": 24.3905284}, {"type": "node", "id": 6428410990, "lat": 40.9362591, "lon": 24.4063734, "tags": {"addr:postcode": "65403", "addr:street": "\u0395\u03c1\u03c5\u03b8\u03c1\u03bf\u03cd \u03a3\u03c4\u03b1\u03c5\u03c1\u03bf\u03cd", "amenity": "cafe", "name": "Naughty Beans", "phone": "+302510211729", "takeaway": "yes"}}, {"type": "node", "id": 6428410991, "lat": 40.9340484, "lon": 24.4064686, "tags": {"addr:housenumber": "1", "addr:postcode": "65403", "addr:street": "\u0395\u03b8\u03bd\u03b9\u03ba\u03ae\u03c2 \u0391\u03bd\u03c4\u03b9\u03c3\u03c4\u03ac\u03c3\u03b5\u03c9\u03c2", "amenity": "cafe", "name": "FRIENDS CAFE"}}, {"type": "node", "id": 6429156034, "lat": 40.8653962, "lon": 24.3190804}, {"type": "node", "id": 6429156035, "lat": 40.8654033, "lon": 24.3189637}, {"type": "node", "id": 6429156036, "lat": 40.8654961, "lon": 24.3189736}, {"type": "node", "id": 6429156037, "lat": 40.865489, "lon": 24.3190902}, {"type": "node", "id": 6431379184, "lat": 40.9379297, "lon": 24.4124137, "tags": {"addr:city": "\u039a\u03b1\u03b2\u03ac\u03bb\u03b1", "addr:housenumber": "2", "addr:postcode": "65403", "addr:street": "\u0391' \u03a0\u03ac\u03c1\u03bf\u03b4\u03bf\u03c2 \u039f\u03bc\u03bf\u03bd\u03bf\u03af\u03b1\u03c2", "amenity": "restaurant", "cuisine": "regional", "name": "\u039c\u03c0\u03b1\u03b3\u03b9\u03b1\u03bd\u03c4\u03ad\u03c1\u03b1", "phone": "+302510232344"}}, {"type": "node", "id": 6431379491, "lat": 40.9377445, "lon": 24.4087644, "tags": {"entrance": "main"}}, {"type": "node", "id": 6431379492, "lat": 40.9378091, "lon": 24.4088051}, {"type": "node", "id": 6431379493, "lat": 40.9377565, "lon": 24.4088222}, {"type": "node", "id": 6431379494, "lat": 40.9377372, "lon": 24.4087273}, {"type": "node", "id": 6431379495, "lat": 40.9377869, "lon": 24.4087092}, {"type": "node", "id": 6431982660, "lat": 40.9388101, "lon": 24.4053715, "tags": {"amenity": "cafe"}}, {"type": "node", "id": 6432839873, "lat": 40.9218505, "lon": 24.3843959}, {"type": "node", "id": 6432839874, "lat": 40.9216387, "lon": 24.3841009}, {"type": "node", "id": 6432839875, "lat": 40.9217007, "lon": 24.384023}, {"type": "node", "id": 6432839876, "lat": 40.9219125, "lon": 24.384318}, {"type": "node", "id": 6436435859, "lat": 40.9399022, "lon": 24.3938099, "tags": {"addr:housenumber": "82", "addr:postcode": "65403", "addr:street": "7\u03b7\u03c2 \u039c\u03b5\u03c1\u03b1\u03c1\u03c7\u03af\u03b1\u03c2", "amenity": "cafe", "name": "LAMB New School Coffee", "phone": "+302510240880", "takeaway": "yes"}}, {"type": "node", "id": 6438060715, "lat": 40.9357505, "lon": 24.4078995, "tags": {"amenity": "cafe"}}, {"type": "node", "id": 6438087708, "lat": 40.9360676, "lon": 24.4090684, "tags": {"amenity": "cafe"}}, {"type": "node", "id": 6438188627, "lat": 40.935507, "lon": 24.4090768, "tags": {"amenity": "cafe", "name": "Notica"}}, {"type": "node", "id": 6470106769, "lat": 40.935405, "lon": 24.4066161, "tags": {"addr:postcode": "65403", "addr:street": "\u0395\u03b8\u03bd\u03b9\u03ba\u03ae\u03c2 \u0391\u03bd\u03c4\u03b9\u03c3\u03c4\u03ac\u03c3\u03b5\u03c9\u03c2", "amenity": "cafe", "name": "La Joconda", "outdoor_seating": "yes", "phone": "+302510231860"}}, {"type": "node", "id": 6476614130, "lat": 40.9365873, "lon": 24.406482, "tags": {"addr:housenumber": "28", "addr:street": "\u0395\u03c1\u03c5\u03b8\u03c1\u03bf\u03cd \u03a3\u03c4\u03b1\u03c5\u03c1\u03bf\u03cd", "amenity": "cafe", "delivery": "yes", "name": "Cocco shop", "opening_hours": "Mo-Sa 06:30-22:00; Su 07:00-22:00", "outdoor_seating": "yes", "phone": "+302510211670", "takeaway": "yes"}}, {"type": "node", "id": 6578349924, "lat": 40.821043, "lon": 24.2400588, "tags": {"amenity": "restaurant", "cuisine": "barbecue", "name": "\u03a4\u03bf \u03c6\u03b1\u03b3\u03bf\u03c0\u03cc\u03c4\u03b9 \u03c4\u03bf\u03c5 \u039a\u03c9\u03c3\u03c4\u03ac\u03ba\u03b7", "phone": "+302594093597"}}, {"type": "node", "id": 6616939255, "lat": 40.9366359, "lon": 24.4097985, "tags": {"amenity": "cafe", "name": "\u039d\u03b1\u03c5\u03c4\u03af\u03bb\u03bf\u03c2"}}, {"type": "node", "id": 6623004495, "lat": 40.935445, "lon": 24.4072203, "tags": {"addr:housenumber": "12", "addr:street": "\u0395\u03b8\u03bd\u03b9\u03ba\u03ae\u03c2 \u0391\u03bd\u03c4\u03b9\u03c3\u03c4\u03ac\u03c3\u03b5\u03c9\u03c2", "amenity": "cafe", "check_date": "2023-06-12", "cuisine": "yes", "name": "Paseo", "opening_hours": "08:00-02:00", "outdoor_seating": "yes", "phone": "+302510834378"}}, {"type": "node", "id": 6681510600, "lat": 40.9331102, "lon": 24.4141826, "tags": {"addr:housenumber": "33", "addr:postcode": "65201", "addr:street": "\u03a0\u03bf\u03c5\u03bb\u03af\u03b4\u03bf\u03c5", "amenity": "restaurant", "cuisine": "greek", "name": "\u03a4\u03bf \u0391\u03c1\u03b1\u03bb\u03af\u03ba\u03b9", "opening_hours": "Mo-Su 12:00-24:00", "outdoor_seating": "yes", "phone": "+306984718521"}}, {"type": "node", "id": 6690947300, "lat": 40.8650184, "lon": 24.320308, "tags": {"amenity": "restaurant", "name": "Frog Beach Lounge & Grill", "outdoor_seating": "yes", "phone": "+306972992004"}}, {"type": "node", "id": 6695685293, "lat": 40.9261863, "lon": 24.3880391, "tags": {"addr:housenumber": "40", "addr:street": "\u03a3\u03bf\u03c6\u03bf\u03ba\u03bb\u03ae \u0392\u03b5\u03bd\u03b9\u03b6\u03ad\u03bb\u03bf\u03c5", "amenity": "restaurant", "cuisine": "regional", "name": "\u03a4\u03bf \u039f\u03c5\u03b6\u03b5\u03c1\u03af \u03a4\u03b7\u03c2 \u03a6\u03c9\u03c4\u03b5\u03b9\u03bd\u03ae\u03c2", "opening_hours": "Mo-Su 08:00-23:45", "phone": "+302510247056"}}, {"type": "node", "id": 6732084440, "lat": 40.9215557, "lon": 24.2132161, "tags": {"amenity": "cafe", "cuisine": "sandwich;coffee_shop;greek;ice_cream;pizza", "internet_access": "wlan", "internet_access:fee": "no", "name": "\u0394\u03b1\u03c3\u03b9\u03ba\u03cc \u03c7\u03c9\u03c1\u03b9\u03cc \u03a0\u03b1\u03b3\u03b3\u03b1\u03af\u03bf\u03c5", "outdoor_seating": "yes"}}, {"type": "node", "id": 6813892666, "lat": 40.9374457, "lon": 24.4132073, "tags": {"amenity": "cafe", "name": "Mini pancake cafe", "opening_hours": "Mo 08:30-14:00; Tu 08:30-14:00, 18:30-21:30; We 08:30-14:00; Th, Fr 08:30-14:00, 18:30-21:30; Sa 08:30-14:00"}}, {"type": "node", "id": 6814143028, "lat": 40.9377465, "lon": 24.4122487, "tags": {"amenity": "cafe", "name": "stretto"}}, {"type": "node", "id": 6944951136, "lat": 40.8644332, "lon": 24.0823263, "tags": {"amenity": "restaurant", "name": "\u039a\u03bb\u03b1\u03b4\u03af \u0395\u03bb\u03b9\u03ac\u03c2", "name:el": "\u039a\u03bb\u03b1\u03b4\u03af \u0395\u03bb\u03b9\u03ac\u03c2", "name:en": "Kladi Elias", "operator": "\u0392\u03cd\u03c1\u03c9\u03bd \u039c\u03c0\u03b1\u03c1\u03bc\u03c0\u03b1\u03c3\u03b1\u03ba\u03ac\u03bb\u03b7\u03c2", "phone": "+302592093293; +306973306955", "website": "https://www.kladielias.gr/"}}, {"type": "node", "id": 6944977385, "lat": 40.8569286, "lon": 24.0835279, "tags": {"amenity": "restaurant", "cuisine": "greek", "name": "\u039a\u03cc\u03bb\u03b9\u03b1\u03c2"}}, {"type": "node", "id": 7272753185, "lat": 40.9268916, "lon": 24.3873893, "tags": {"amenity": "restaurant", "cuisine": "greek;grill", "name": "\u03a4\u03b1\u03b2\u03ad\u03c1\u03bd\u03b1 \u03c4\u03bf \u039b\u03b1\u03ca\u03ba\u03bf\u03bd"}}, {"type": "node", "id": 7274814785, "lat": 40.9357428, "lon": 24.4124578, "tags": {"amenity": "cafe", "name": "\u039a\u03b1\u03c6\u03b5\u03c0\u03bf\u03c4\u03b5\u03af\u03bf \u0399\u03ce\u03b4\u03b9\u03bf"}}, {"type": "node", "id": 7629497286, "lat": 40.9374705, "lon": 24.410818, "tags": {"amenity": "restaurant", "name:de": "Souvlaki"}}, {"type": "node", "id": 7643864813, "lat": 40.9113559, "lon": 24.2491624, "tags": {"amenity": "restaurant", "name": "\u03a0\u03b5\u03c5\u03ba\u03cc\u03c1\u03b1\u03bc\u03b1", "phone": "+302592021221"}}, {"type": "node", "id": 7757622539, "lat": 40.810553, "lon": 24.2822474, "tags": {"amenity": "restaurant", "cuisine": "greek", "name": "\u03a6\u03bf\u03af\u03bd\u03b9\u03ba\u03b1\u03c2", "outdoor_seating": "yes"}}, {"type": "node", "id": 8252189214, "lat": 40.9363115, "lon": 24.4134688}, {"type": "node", "id": 8252189215, "lat": 40.9363601, "lon": 24.4134353}, {"type": "node", "id": 8252189216, "lat": 40.9363865, "lon": 24.4135118}, {"type": "node", "id": 8252200817, "lat": 40.936349, "lon": 24.4135413}, {"type": "node", "id": 9041429785, "lat": 40.9291084, "lon": 24.2406658, "tags": {"addr:city": "Chortokopi", "addr:country": "GR", "amenity": "restaurant", "cuisine": "greek", "level": "0", "name": "Ta Platania", "reservation": "yes", "takeaway": "yes"}}, {"type": "node", "id": 9066013702, "lat": 40.9410533, "lon": 24.4251567, "tags": {"addr:city": "\u039a\u03b1\u03b2\u03ac\u03bb\u03b1", "addr:housenumber": "3", "addr:postcode": "65201", "addr:street": "\u0398\u03ac\u03c3\u03bf\u03c5", "amenity": "restaurant", "cuisine": "greek;local;seafood;fish", "name": "\u039c\u03b5\u03bb\u03c4\u03ad\u03bc\u03b9", "name:el": "\u039c\u03b5\u03bb\u03c4\u03ad\u03bc\u03b9", "name:en": "Meltemi", "opening_hours": "Mo-Su 11:00-01:30", "phone": "+30 251 023 2510", "website": "https://www.tavernameltemi.com/"}}, {"type": "node", "id": 9207071572, "lat": 40.935408, "lon": 24.4066771, "tags": {"addr:housenumber": "16", "addr:postcode": "65403", "addr:street": "\u0395\u03b8\u03bd\u03b9\u03ba\u03ae\u03c2 \u0391\u03bd\u03c4\u03b9\u03c3\u03c4\u03ac\u03c3\u03b5\u03c9\u03c2", "amenity": "restaurant", "cuisine": "regional", "name": "\u0392\u03bf\u03cd\u03ba\u03b1", "phone": "+302511514264"}}, {"type": "node", "id": 9207104242, "lat": 40.936525, "lon": 24.4142242, "tags": {"addr:housenumber": "18", "addr:postcode": "65302", "addr:street": "\u0394\u03b1\u03c1\u03b4\u03b1\u03bd\u03b5\u03bb\u03bb\u03af\u03c9\u03bd", "amenity": "restaurant", "cuisine": "mexican", "name": "Pecado", "phone": "+306947591008"}}, {"type": "node", "id": 9207104243, "lat": 40.9365073, "lon": 24.4138225, "tags": {"addr:housenumber": "13", "addr:postcode": "65302", "addr:street": "\u0391\u03b3\u03af\u03bf\u03c5 \u039d\u03b9\u03ba\u03bf\u03bb\u03ac\u03bf\u03c5", "amenity": "restaurant", "cuisine": "steak_house", "name": "Charcoal", "phone": "+302510233554"}}, {"type": "node", "id": 9307522170, "lat": 40.9023131, "lon": 24.3464082}, {"type": "node", "id": 9307522171, "lat": 40.9023802, "lon": 24.3465411}, {"type": "node", "id": 9307522172, "lat": 40.9025132, "lon": 24.3464236}, {"type": "node", "id": 9307522173, "lat": 40.9024461, "lon": 24.3462907}, {"type": "node", "id": 9802531079, "lat": 40.894386, "lon": 24.2238497}, {"type": "node", "id": 9802531080, "lat": 40.894397, "lon": 24.2239155}, {"type": "node", "id": 9802531081, "lat": 40.8943303, "lon": 24.223935}, {"type": "node", "id": 9802531082, "lat": 40.8943193, "lon": 24.2238691}, {"type": "node", "id": 9947470061, "lat": 40.7559354, "lon": 23.915781, "tags": {"amenity": "cafe", "name": "Caf\u00e9 Shorty"}}, {"type": "node", "id": 9947851917, "lat": 40.7644769, "lon": 23.9010773, "tags": {"amenity": "restaurant", "internet_access:ssid": "AITHRION", "name": "AITHRION", "website": "https://www.ikies-aithron.com"}}, {"type": "node", "id": 10086765569, "lat": 40.9295861, "lon": 24.3077873, "tags": {"amenity": "restaurant", "name": "\u03a4\u03bf\u03bc\u03ac\u03c2"}}, {"type": "node", "id": 10293193188, "lat": 40.9362621, "lon": 24.413508, "tags": {"addr:city": "\u039a\u03b1\u03b2\u03ac\u03bb\u03b1", "addr:housenumber": "27", "addr:street": "\u03a3\u03c0\u03b5\u03c4\u03c3\u03ce\u03bd", "amenity": "restaurant", "cuisine": "regional", "name": "\u0392\u03b1\u03c1\u03ad\u03bb\u03b9\u03b1", "wheelchair": "limited"}}, {"type": "node", "id": 10970954363, "lat": 40.7577378, "lon": 23.9112014, "tags": {"amenity": "restaurant", "check_date": "2023-06-11", "name": "Enjoy"}}, {"type": "node", "id": 11211480906, "lat": 40.9210245, "lon": 24.3824053, "tags": {"addr:housenumber": "118", "addr:street": "\u03a4\u03b5\u03bd\u03ad\u03b4\u03bf\u03c5", "amenity": "cafe", "name": "Blueberry Coffee and Breakfast", "opening_hours": "Mo-Sa 07:00-20:00; Su 08:00-20:00", "payment:mastercard": "yes", "payment:visa": "yes", "wheelchair": "limited"}}, {"type": "node", "id": 11212634691, "lat": 40.9419883, "lon": 24.4250238, "tags": {"addr:city": "\u039a\u03b1\u03b2\u03ac\u03bb\u03b1", "addr:housenumber": "15", "addr:street": "\u0398\u03ac\u03c3\u03bf\u03c5", "amenity": "restaurant", "contact:phone": "+30 251 022 2495", "cuisine": "balkan;greek;seafood", "internet_access": "wlan", "internet_access:fee": "no", "name": "Taverna \"Epinio\"", "opening_hours": "Mo-Su 12:00-24:00; 09:00-17:00; PH open", "outdoor_seating": "yes", "payment:mastercard": "yes", "payment:visa_electron": "yes", "reservation": "recommended", "smoking": "outside", "takeaway": "yes", "toilets": "no", "toilets:access": "customers", "wheelchair": "limited"}}, {"type": "node", "id": 11252911670, "lat": 40.942133, "lon": 24.4250781}, {"type": "node", "id": 11252911671, "lat": 40.9420827, "lon": 24.4251764}, {"type": "node", "id": 11252911672, "lat": 40.9421499, "lon": 24.4252367}, {"type": "node", "id": 11252911673, "lat": 40.9422002, "lon": 24.4251384}, {"type": "node", "id": 11252954996, "lat": 40.942229, "lon": 24.4252316}, {"type": "node", "id": 11252954997, "lat": 40.9422047, "lon": 24.4252825}, {"type": "node", "id": 11252954998, "lat": 40.942274, "lon": 24.4253405}, {"type": "node", "id": 11252954999, "lat": 40.9423221, "lon": 24.4252398}, {"type": "node", "id": 11252955000, "lat": 40.9422598, "lon": 24.4251876}, {"type": "node", "id": 11252955001, "lat": 40.9422359, "lon": 24.4252374}, {"type": "node", "id": 11285848028, "lat": 40.9238326, "lon": 23.8719206}, {"type": "node", "id": 11285848029, "lat": 40.9237273, "lon": 23.8719614}, {"type": "node", "id": 11285848030, "lat": 40.9237665, "lon": 23.8718551}, {"type": "node", "id": 11285848034, "lat": 40.9237851, "lon": 23.8720349}, {"type": "node", "id": 11304039669, "lat": 40.8372969, "lon": 24.2963479, "tags": {"addr:housenumber": "44", "amenity": "cafe", "contact:instagram": "artoskygeia", "name": "Artoskygeia"}}, {"type": "node", "id": 11982621276, "lat": 40.8659847, "lon": 24.0823761}, {"type": "node", "id": 11982621277, "lat": 40.8659039, "lon": 24.0823144}, {"type": "node", "id": 11982621278, "lat": 40.8658956, "lon": 24.0824334}, {"type": "node", "id": 11982621279, "lat": 40.8659805, "lon": 24.0824257}, {"type": "node", "id": 11982621289, "lat": 40.8657926, "lon": 24.0821971}, {"type": "node", "id": 11982621290, "lat": 40.8657625, "lon": 24.0822557}, {"type": "node", "id": 11982621291, "lat": 40.8656899, "lon": 24.082191}, {"type": "node", "id": 11982621292, "lat": 40.8657186, "lon": 24.0821322}, {"type": "node", "id": 12737448533, "lat": 40.9293483, "lon": 24.3799647, "tags": {"addr:city": "\u039a\u03b1\u03b2\u03ac\u03bb\u03b1", "addr:postcode": "65404", "air_conditioning": "yes", "amenity": "restaurant", "name": "\u03a6\u03bf\u03b9\u03c4\u03b9\u03c4\u03b9\u03ba\u03cc \u0395\u03c3\u03c4\u03b9\u03b1\u03c4\u03cc\u03c1\u03b9\u03bf", "opening_hours": "Mo-Su 08:00-09:30,12:30-16:00,18:00-21:00", "smoking": "no", "toilets": "yes", "wheelchair": "no"}}, {"type": "node", "id": 12880346980, "lat": 40.9137708, "lon": 24.2521081}, {"type": "node", "id": 12880346984, "lat": 40.9137229, "lon": 24.2522504}, {"type": "node", "id": 12880346986, "lat": 40.9137964, "lon": 24.2522212}, {"type": "node", "id": 12880346987, "lat": 40.9136972, "lon": 24.2521373}, {"type": "way", "id": 231254406, "nodes": [2396602535, 2396602514, 2396602540, 2396602537, 2396602512, 2396602529, 2396602541, 2396602539, 2396602535], "tags": {"addr:city": "\u039d\u03ad\u03b1 \u03a0\u03ad\u03c1\u03b1\u03bc\u03bf\u03c2", "addr:housenumber": "3", "addr:postcode": "64007", "addr:street": "\u0391\u03b9\u03b3\u03b1\u03af\u03bf\u03c5", "amenity": "restaurant", "building": "yes", "cuisine": "regional", "int_name": "Apomero", "name": "\u0391\u03c0\u03cc\u03bc\u03b5\u03c1\u03bf", "phone": "+302594022522"}}, {"type": "way", "id": 254822278, "nodes": [2606202972, 2606202973, 2606202974, 2606202975, 2606202972], "tags": {"amenity": "restaurant", "building": "yes", "name": "\u03a7\u03c1\u03c5\u03c3\u03b1\u03bd\u03b8\u03af\u03b4\u03b7\u03c2"}}, {"type": "way", "id": 254822279, "nodes": [2606202976, 2606202977, 2606202978, 2606202979, 2606202976], "tags": {"amenity": "restaurant", "building": "yes"}}, {"type": "way", "id": 298281099, "nodes": [3021899952, 3021899953, 3021899954, 3021899955, 3021899952], "tags": {"addr:city": "\u039d\u03ad\u03b1 \u03a0\u03ad\u03c1\u03b1\u03bc\u03bf\u03c2", "addr:housenumber": "1", "addr:postcode": "64007", "addr:street": "\u0398\u03b5\u03c3\u03c3\u03ac\u03bb\u03b9\u03b1\u03c2", "amenity": "restaurant", "building": "yes", "cuisine": "greek", "name": "\u03a4\u03b1 \u03a4\u03c1\u03b9\u03b1 \u03a0\u03c5\u03b8\u03b1\u03c1\u03b9\u03b1", "name:el": "\u03a4\u03b1 \u03a4\u03c1\u03b9\u03b1 \u03a0\u03c5\u03b8\u03b1\u03c1\u03b9\u03b1", "name:en": "Ta Tria Pitharia"}}, {"type": "way", "id": 298283780, "nodes": [3021923732, 3021925533, 3021925534, 3021925535, 3021923732], "tags": {"addr:city": "\u039d\u03ad\u03b1 \u03a0\u03ad\u03c1\u03b1\u03bc\u03bf\u03c2", "addr:housenumber": "41", "addr:postcode": "64007", "addr:street": "\u039c\u03b5\u03b3\u03ac\u03bb\u03bf\u03c5 \u0391\u03bb\u03b5\u03be\u03ac\u03bd\u03b4\u03c1\u03bf\u03c5", "amenity": "restaurant", "cuisine": "regional", "name": "\u03a4\u03bf\u03c5 \u039a\u03c9\u03c3\u03c4\u03b1\u03bd\u03c4\u03ac\u03ba\u03b7", "name:el": "\u03a4\u03bf\u03c5 \u039a\u03c9\u03c3\u03c4\u03b1\u03bd\u03c4\u03ac\u03ba\u03b7", "name:en": "Tou Kostantaki", "phone": "+302594021339"}}, {"type": "way", "id": 320202170, "nodes": [3267034126, 3267034127, 3267034128, 3267034129, 3267034126], "tags": {"addr:city": "\u039a\u03b1\u03b2\u03ac\u03bb\u03b1", "addr:housenumber": "76", "addr:postcode": "65201", "addr:street": "\u03a0\u03bf\u03c5\u03bb\u03af\u03b4\u03bf\u03c5", "amenity": "cafe", "building": "yes", "name": "\u03a4\u03bf \u039c\u03c0\u03c1\u03af\u03ba\u03b9", "phone": "+306944333220"}}, {"type": "way", "id": 320215573, "nodes": [3267149109, 3267149110, 3267149111, 3267149112, 3267149113, 3267149114, 3267149115, 3267149116, 3267149109], "tags": {"addr:city": "\u039a\u03b1\u03b2\u03ac\u03bb\u03b1", "addr:housenumber": "3", "addr:postcode": "65404", "addr:street": "\u03a7\u03c1\u03c5\u03c3\u03bf\u03c3\u03c4\u03cc\u03bc\u03bf\u03c5 \u03a3\u03bc\u03cd\u03c1\u03bd\u03b7\u03c2", "amenity": "restaurant", "building": "yes", "cuisine": "mediterranean", "name": "Yalos", "opening_hours": "08:00-3:00", "phone": "+306940530358"}}, {"type": "way", "id": 320726421, "nodes": [3282402414, 3273634432, 3273634433, 3273634434, 3282402414], "tags": {"addr:city": "\u039a\u03b1\u03b2\u03ac\u03bb\u03b1", "addr:housenumber": "42", "addr:postcode": "65404", "addr:street": "\u03a7\u03c1\u03c5\u03c3\u03bf\u03c3\u03c4\u03cc\u03bc\u03bf\u03c5 \u03a3\u03bc\u03cd\u03c1\u03bd\u03b7\u03c2", "amenity": "cafe", "building": "yes", "name": "\u03a0\u03b5\u03c1\u03b9\u03c3\u03c4\u03ad\u03c1\u03b9", "opening_hours": "08:00-02:00"}}, {"type": "way", "id": 322751649, "nodes": [3295251488, 3655763811, 3295251489, 3295251490, 3295251491, 3295251488], "tags": {"addr:city": "\u039a\u03b1\u03b2\u03ac\u03bb\u03b1", "addr:housenumber": "4", "addr:street": "\u0395\u03c1\u03c5\u03b8\u03c1\u03bf\u03cd \u03a3\u03c4\u03b1\u03c5\u03c1\u03bf\u03cd", "amenity": "restaurant", "building": "yes", "cuisine": "regional", "name": "\u03a0\u03b1\u03bb\u03bb\u03ac\u03b4\u03b9\u03bf", "name:el": "\u03a0\u03b1\u03bb\u03bb\u03ac\u03b4\u03b9\u03bf", "phone": "+302510222082"}}, {"type": "way", "id": 437022743, "nodes": [4348527093, 5861033625, 4348527090, 4348527100, 5861033626, 5861033627, 4348527093], "tags": {"amenity": "cafe", "cuisine": "coffee_shop"}}, {"type": "way", "id": 677472576, "nodes": [6343440932, 6343440931, 6343440930, 6343440929, 6343440932], "tags": {"amenity": "restaurant", "building": "yes", "cuisine": "regional", "internet_access": "yes", "name": "\u03a4\u03bf \u039a\u03c4\u03ae\u03bc\u03b1", "outdoor_seating": "yes", "phone": "+302594092052"}}, {"type": "way", "id": 683709114, "nodes": [6404324444, 6404324443, 6404324442, 6404324441, 6404324444], "tags": {"addr:city": "\u039d\u03ad\u03b1 \u0397\u03c1\u03b1\u03ba\u03bb\u03af\u03c4\u03c3\u03b1", "addr:housenumber": "8", "addr:postcode": "64007", "addr:street": "\u039c. \u0391\u03bb\u03ad\u03be\u03b1\u03bd\u03b4\u03c1\u03bf\u03c5", "amenity": "restaurant", "cuisine": "pizza", "name": "Defacto", "opening_hours": "Mo-Su 13:00-12:00", "outdoor_seating": "yes", "phone": "+302594022888", "website": "https://www.pizzadefacto.gr/site"}}, {"type": "way", "id": 685107543, "nodes": [6419511869, 6419511868, 6419511867, 6419511866, 6419511869], "tags": {"addr:city": "\u039a\u03b1\u03b2\u03ac\u03bb\u03b1", "addr:country": "GR", "addr:housenumber": "54", "addr:street": "\u03a4\u03b5\u03bd\u03ad\u03b4\u03bf\u03c5", "amenity": "restaurant", "building": "yes", "cuisine": "regional", "name": "\u03a4\u03bf \u039a\u03b1\u03c0\u03b7\u03bb\u03b9\u03cc", "phone": "+302513008212"}}, {"type": "way", "id": 685963690, "nodes": [6429156037, 6429156034, 6429156035, 6429156036, 6429156037], "tags": {"addr:postcode": "64007", "amenity": "restaurant", "building": "yes", "name": "\u03a3\u03c4\u03bf\u03c5 \u03a3\u03b1\u03c1\u03c1\u03ae", "phone": "+302594022400"}}, {"type": "way", "id": 686156313, "nodes": [6431379495, 6431379494, 6431379491, 6431379493, 6431379492, 6431379495], "tags": {"addr:city": "\u039a\u03b1\u03b2\u03ac\u03bb\u03b1", "addr:housenumber": "4", "addr:postcode": "65403", "addr:street": "\u039a\u03cd\u03c0\u03c1\u03bf\u03c5", "amenity": "cafe", "building": "yes", "name": "\u0397 \u039c\u03b9\u03ba\u03c1\u03ae \u0392\u03bf\u03c5\u03bb\u03ae", "outdoor_seating": "yes"}}, {"type": "way", "id": 686314802, "nodes": [6432839876, 6432839873, 6432839874, 6432839875, 6432839876], "tags": {"amenity": "restaurant", "building": "yes", "name": "Ostria", "operator": "\u039c\u03c5\u03bb\u03c9\u03b8\u03c1\u03af\u03b4\u03b7\u03c2 \u0398\u03c9\u03bc\u03ac\u03c2", "outdoor_seating": "yes", "phone": "+302510250660", "website": "https://www.ostriakavala.gr/"}}, {"type": "way", "id": 887573375, "nodes": [8252189214, 8252189215, 8252189216, 8252200817, 8252189214], "tags": {"addr:city": "\u039a\u03b1\u03b2\u03ac\u03bb\u03b1", "addr:postcode": "65302", "addr:street": "\u0391\u03b3\u03af\u03bf\u03c5 \u039d\u03b9\u03ba\u03bf\u03bb\u03ac\u03bf\u03c5", "amenity": "cafe", "building": "yes", "cuisine": "coffee_shop", "internet_access": "wlan", "internet_access:fee": "customers", "name": "Key Bar", "opening_hours": "Mo-Su 08:00-22:00", "phone": "+30 2513010035", "website": "https://keybar-cafe.business.site"}}, {"type": "way", "id": 1008754648, "nodes": [9307522170, 9307522171, 9307522172, 9307522173, 9307522170], "tags": {"amenity": "restaurant", "building": "yes"}}, {"type": "way", "id": 1067717122, "nodes": [9802531079, 9802531080, 9802531081, 9802531082, 9802531079], "tags": {"amenity": "restaurant", "building": "yes", "cuisine": "greek", "name": "\u0394\u03cd\u03bf \u0392\u03c1\u03cd\u03c3\u03b5\u03c2"}}, {"type": "way", "id": 1214544881, "nodes": [11252911670, 11252911671, 11252911672, 11252911673, 11252911670], "tags": {"amenity": "restaurant", "building": "yes", "name": "\u039c\u03c0\u03b1\u03bb\u03b1\u03bf\u03cd\u03c1\u03bf", "source": "microsoft/BuildingFootprints"}}, {"type": "way", "id": 1214549383, "nodes": [11252954996, 11252954997, 11252954998, 11252954999, 11252955000, 11252955001, 11252954996], "tags": {"amenity": "restaurant", "building": "yes", "name": "\u03a8\u03b1\u03c1\u03bf\u03c4\u03b1\u03b2\u03ad\u03c1\u03bd\u03b1 \u03bf \u03a3\u03ac\u03b2\u03b2\u03b1\u03c2", "source": "microsoft/BuildingFootprints"}}, {"type": "way", "id": 1217992426, "nodes": [11285848029, 11285848030, 11285848028, 11285848034, 11285848029], "tags": {"amenity": "restaurant", "building": "yes"}}, {"type": "way", "id": 1292584548, "nodes": [11982621276, 11982621277, 11982621278, 11982621279, 11982621276], "tags": {"amenity": "cafe", "building": "yes"}}, {"type": "way", "id": 1292584551, "nodes": [11982621289, 11982621290, 11982621291, 11982621292, 11982621289], "tags": {"amenity": "cafe", "building": "yes"}}, {"type": "way", "id": 1391517048, "nodes": [12880346986, 12880346984, 12880346987, 12880346980, 12880346986], "tags": {"amenity": "cafe", "building": "yes", "indoor_seating": "yes", "level": "0", "name": "L'OCCIO", "outdoor_seating": "yes", "wheelchair": "yes"}}]}