{"version": 0.6, "generator": "Overpass API 0.7.62.7 375dc00a", "osm3s": {"timestamp_osm_base": "2025-06-14T13:19:00Z", "copyright": "The data included in this document is from www.openstreetmap.org. The data is made available under ODbL."}, "elements": [{"type": "node", "id": 2451951754, "lat": 13.7995938, "lon": 8.9810785, "tags": {"amenity": "restaurant", "project:mappingforniger": "yes", "source": "survey"}}, {"type": "node", "id": 2763708362, "lat": 13.8435227, "lon": 8.9866722, "tags": {"amenity": "restaurant", "name": "Restaurant UZ"}}, {"type": "node", "id": 4305141606, "lat": 13.8008574, "lon": 8.9621721, "tags": {"amenity": "restaurant", "internet_access": "yes", "internet_access:fee": "no", "name": "Restaurant Midi Chaud", "project:pdevii": "yes", "smoking": "yes", "source": "survey", "takeaway": "yes"}}, {"type": "node", "id": 4307057116, "lat": 13.8027834, "lon": 8.9838457, "tags": {"amenity": "restaurant", "internet_access": "no", "name": "Restaurant Maggi", "project:pdevii": "yes", "source": "survey"}}, {"type": "node", "id": 4308481872, "lat": 13.7989392, "lon": 8.9999174, "tags": {"amenity": "restaurant", "name": "Restaurant El Ali", "phone": "00227 96705664", "project:pdevii": "yes", "source": "survey"}}, {"type": "node", "id": 4311479962, "lat": 13.806155, "lon": 8.9926487, "tags": {"amenity": "restaurant", "name": "Restaurant Ataba", "project:pdevii": "yes", "source": "survey"}}, {"type": "node", "id": 4857315222, "lat": 13.8057432, "lon": 8.9911143, "tags": {"amenity": "restaurant", "name": "Restaurant r\u00e9gal du sahel", "phone": "99225686"}}, {"type": "node", "id": 5282869821, "lat": 13.8226043, "lon": 8.9667994, "tags": {"amenity": "cafe", "internet_access": "wlan"}}]}