{"version": 0.6, "generator": "Overpass API 0.7.62.7 375dc00a", "osm3s": {"timestamp_osm_base": "2025-06-14T15:07:54Z", "copyright": "The data included in this document is from www.openstreetmap.org. The data is made available under ODbL."}, "elements": [{"type": "node", "id": 1862991644, "lat": 37.8773172, "lon": 32.4824245, "tags": {"addr:city": "Konya", "addr:housename": "K\u00fcc\u00fck ihsaniye Mahallesi Dr.Hulusi Baybal Caddesi", "addr:housenumber": "7\\B", "addr:postcode": "42060", "addr:street": "Sitre Sokak", "alt_name": "Ayas Ali Baba F\u0131r\u0131n Kebap", "amenity": "restaurant", "cuisine": "kebab", "designation": "ottoman", "int_name": "Ali Baba 2 Firin Kebap", "name": "Ali Baba 2 Firin Kebap", "source": "www.konyafirinkebabi.com", "website": "www.konyafirinkebabi.com"}}, {"type": "node", "id": 1877760076, "lat": 37.9297646, "lon": 32.5276055}, {"type": "node", "id": 1877760097, "lat": 37.9298894, "lon": 32.5273056}, {"type": "node", "id": 1877760108, "lat": 37.9300009, "lon": 32.5277634}, {"type": "node", "id": 1877760127, "lat": 37.9301257, "lon": 32.5274635}, {"type": "node", "id": 2639727161, "lat": 37.8952743, "lon": 32.4776323, "tags": {"addr:city": "Konya", "amenity": "restaurant", "name": "Sille Cafe Restorant"}}, {"type": "node", "id": 2723479190, "lat": 38.109786, "lon": 32.7341408, "tags": {"amenity": "restaurant"}}, {"type": "node", "id": 2923300021, "lat": 37.8058802, "lon": 32.4274459, "tags": {"amenity": "cafe"}}, {"type": "node", "id": 2974036506, "lat": 37.9494605, "lon": 32.5557555, "tags": {"amenity": "restaurant"}}, {"type": "node", "id": 2995588637, "lat": 37.9040378, "lon": 32.5311397, "tags": {"addr:city": "Konya", "amenity": "restaurant", "name": "Devtat Restaurant"}}, {"type": "node", "id": 3055507605, "lat": 37.9839728, "lon": 32.4887492, "tags": {"amenity": "restaurant", "capacity": "48", "cuisine": "etli_ekmek", "name": "Sevim Etli Ekmek", "smoking": "no"}}, {"type": "node", "id": 3056141027, "lat": 37.984958, "lon": 32.4921536, "tags": {"amenity": "restaurant"}}, {"type": "node", "id": 3158027671, "lat": 37.9831473, "lon": 32.4922791, "tags": {"amenity": "cafe"}}, {"type": "node", "id": 3166379023, "lat": 38.009779, "lon": 32.5263268, "tags": {"addr:city": "Bosna Mah. Sel\u00e7uklu / Konya", "addr:street": "Osmanl\u0131 Cd", "amenity": "cafe", "name": "Kocatepe Kahve Evi"}}, {"type": "node", "id": 3652728548, "lat": 37.9027648, "lon": 32.4953856, "tags": {"addr:city": "Sel\u00e7uklu/Konya", "amenity": "restaurant", "name": "Misplaza Restorant"}}, {"type": "node", "id": 3658927126, "lat": 38.0106152, "lon": 32.5262439, "tags": {"addr:city": "Sel\u00e7uklu/Konya", "amenity": "cafe", "name": "Kahve Diyar\u0131"}}, {"type": "node", "id": 3659836951, "lat": 37.9832646, "lon": 32.4920833, "tags": {"addr:city": "Sel\u00e7uklu/Konya", "amenity": "restaurant", "name": "Mutfak Restorant"}}, {"type": "node", "id": 3693227590, "lat": 37.8664834, "lon": 32.4878622, "tags": {"addr:city": "Meram/Konya", "addr:street": "Karaman Cad.", "amenity": "cafe", "name": "Polen Pastanesi"}}, {"type": "node", "id": 3702632680, "lat": 37.862301, "lon": 32.4459171, "tags": {"amenity": "restaurant"}}, {"type": "node", "id": 3702770094, "lat": 37.8657063, "lon": 32.4581825, "tags": {"amenity": "cafe", "name": "Cafe"}}, {"type": "node", "id": 3702854304, "lat": 37.8848666, "lon": 32.4573245, "tags": {"addr:city": "Sel\u00e7uklu/Konya", "addr:street": "Saray Caddesi", "amenity": "restaurant", "name": "Kent Lokantas\u0131"}}, {"type": "node", "id": 3704159294, "lat": 37.8799863, "lon": 32.4924425, "tags": {"addr:city": "Sel\u00e7uklu/Konya", "addr:street": "Ula\u015fbaba Caddesi", "amenity": "restaurant", "name": "Has Pa\u00e7a Lokantas\u0131"}}, {"type": "node", "id": 3706163840, "lat": 37.8932499, "lon": 32.4958972, "tags": {"addr:city": "Sel\u00e7uklu/Konya", "addr:street": "G\u00fcrz Sokak", "amenity": "restaurant", "name": "Harani Etliekmek"}}, {"type": "node", "id": 3706163841, "lat": 37.8932142, "lon": 32.4960208, "tags": {"amenity": "cafe", "name": "X-Ray Cafe"}}, {"type": "node", "id": 3713373800, "lat": 37.8239829, "lon": 32.4642786, "tags": {"amenity": "restaurant", "name": "Canlar Etliekmek"}}, {"type": "node", "id": 3751478363, "lat": 37.8813843, "lon": 32.4359141, "tags": {"amenity": "restaurant", "name": "Atl\u0131han"}}, {"type": "node", "id": 3792994698, "lat": 37.8710975, "lon": 32.4715942}, {"type": "node", "id": 3792994699, "lat": 37.8709419, "lon": 32.4716096}, {"type": "node", "id": 3792994700, "lat": 37.8709637, "lon": 32.4719732}, {"type": "node", "id": 3792994701, "lat": 37.8711145, "lon": 32.4719516}, {"type": "node", "id": 3793140493, "lat": 37.8886994, "lon": 32.4937507, "tags": {"amenity": "cafe", "brand": "Starbucks", "brand:wikidata": "Q37158", "brand:wikipedia": "en:Starbucks", "cuisine": "coffee_shop", "name": "Starbucks", "official_name": "Starbucks Coffee", "takeaway": "yes"}}, {"type": "node", "id": 3793140494, "lat": 37.9049118, "lon": 32.4949614, "tags": {"amenity": "cafe", "brand": "Starbucks", "brand:wikidata": "Q37158", "brand:wikipedia": "en:Starbucks", "cuisine": "coffee_shop", "name": "Starbucks", "official_name": "Starbucks Coffee", "takeaway": "yes"}}, {"type": "node", "id": 3919397486, "lat": 37.8706099, "lon": 32.4922279, "tags": {"addr:city": "Meram/Konya", "amenity": "restaurant", "name": "\u00d6zel Ci\u011ferci"}}, {"type": "node", "id": 4034158280, "lat": 37.8542533, "lon": 32.4389307, "tags": {"addr:city": "Meram/Konya", "addr:street": "Eski Meram Cad.", "amenity": "restaurant", "name": "Sarn\u0131\u00e7 Etli Ekmek Salonu", "phone": "0536 310 32 74"}}, {"type": "node", "id": 4034264269, "lat": 37.9102536, "lon": 32.454608, "tags": {"addr:city": "Sel\u00e7uklu/Konya", "amenity": "restaurant", "name": "K\u00f6\u015fem Etli Ekmek"}}, {"type": "node", "id": 4451503190, "lat": 37.8725667, "lon": 32.4998428, "tags": {"amenity": "restaurant", "check_date": "2022-09-28", "cuisine": "kebab", "internet_access": "no", "name": "Ali Baba Firin Kebab", "name:en": "Ali Baba Firin Kebab", "wheelchair": "yes"}}, {"type": "node", "id": 4465501091, "lat": 37.8886336, "lon": 32.4939047, "tags": {"amenity": "cafe", "brand": "Mado", "brand:wikidata": "Q17116336", "brand:wikipedia": "en:Mado (food company)", "cuisine": "coffee_shop", "name": "Mado", "name:en": "Mado", "takeaway": "yes"}}, {"type": "node", "id": 4664375109, "lat": 37.9468198, "lon": 32.5092348}, {"type": "node", "id": 4664375110, "lat": 37.9468177, "lon": 32.5091275}, {"type": "node", "id": 4664375111, "lat": 37.9470228, "lon": 32.5091275}, {"type": "node", "id": 4664375112, "lat": 37.9470249, "lon": 32.5092375}, {"type": "node", "id": 5103598238, "lat": 37.9337576, "lon": 32.5371592}, {"type": "node", "id": 5103598695, "lat": 37.9336538, "lon": 32.5373269}, {"type": "node", "id": 5103598696, "lat": 37.9335365, "lon": 32.5369392}, {"type": "node", "id": 5103598700, "lat": 37.9334327, "lon": 32.5371069}, {"type": "node", "id": 5111477122, "lat": 37.8906555, "lon": 32.4655827, "tags": {"amenity": "restaurant", "name": "Ekrem Co\u015fkun D\u00f6ner"}}, {"type": "node", "id": 5113630887, "lat": 37.8748934, "lon": 32.4888261}, {"type": "node", "id": 5113630888, "lat": 37.8749384, "lon": 32.4888751}, {"type": "node", "id": 5113630889, "lat": 37.874943, "lon": 32.4889501}, {"type": "node", "id": 5113630890, "lat": 37.8749568, "lon": 32.4892102}, {"type": "node", "id": 5113631015, "lat": 37.8749452, "lon": 32.4888993}, {"type": "node", "id": 5113631016, "lat": 37.8748174, "lon": 32.4888463}, {"type": "node", "id": 5113631017, "lat": 37.874752, "lon": 32.4889205}, {"type": "node", "id": 5113631022, "lat": 37.8748533, "lon": 32.4888233}, {"type": "node", "id": 5113631023, "lat": 37.8749116, "lon": 32.4888372}, {"type": "node", "id": 5113631277, "lat": 37.8749398, "lon": 32.4889585}, {"type": "node", "id": 5113631278, "lat": 37.8748341, "lon": 32.4888318}, {"type": "node", "id": 5113631279, "lat": 37.8748735, "lon": 32.4888213}, {"type": "node", "id": 5113631280, "lat": 37.874927, "lon": 32.4888539}, {"type": "node", "id": 5113631281, "lat": 37.8749467, "lon": 32.4889249}, {"type": "node", "id": 5113631282, "lat": 37.8750461, "lon": 32.4891089}, {"type": "node", "id": 5114905626, "lat": 37.8815791, "lon": 32.4319488, "tags": {"amenity": "restaurant", "name": "G\u00fcven Bal\u0131k Restoran"}}, {"type": "node", "id": 5117551022, "lat": 37.8736619, "lon": 32.4900748, "tags": {"amenity": "restaurant", "name": "Asya Lahmacun"}}, {"type": "node", "id": 5117551023, "lat": 37.8734925, "lon": 32.4890462, "tags": {"amenity": "restaurant", "name": "\u015eampiyon Kokore\u00e7"}}, {"type": "node", "id": 5117561421, "lat": 37.8851335, "lon": 32.4874691, "tags": {"amenity": "restaurant", "name": "Asya Lahmacun"}}, {"type": "node", "id": 5117564023, "lat": 37.8739957, "lon": 32.486294, "tags": {"amenity": "restaurant", "name": "Me\u015fhur Tirit\u00e7i Kabak\u00e7\u0131 Ali", "name:en": "Kabak\u00e7\u0131 Ali Restaurant"}}, {"type": "node", "id": 5117583722, "lat": 37.8719378, "lon": 32.4848847, "tags": {"amenity": "restaurant"}}, {"type": "node", "id": 5117583725, "lat": 37.8719226, "lon": 32.495223, "tags": {"amenity": "restaurant", "name": "Konya Lezzet Lokantas\u0131"}}, {"type": "node", "id": 5117599029, "lat": 37.8707145, "lon": 32.4860212, "tags": {"amenity": "restaurant", "name": "Tavuk D\u00fcnyas\u0131", "name:en": "Chicken Restaurant"}}, {"type": "node", "id": 5117607123, "lat": 37.871762, "lon": 32.4849457, "tags": {"amenity": "restaurant"}}, {"type": "node", "id": 5119291416, "lat": 38.023584, "lon": 32.5119213}, {"type": "node", "id": 5119297067, "lat": 38.0233875, "lon": 32.5118677}, {"type": "node", "id": 5119299913, "lat": 38.0235111, "lon": 32.5120179}, {"type": "node", "id": 5119299941, "lat": 38.0234604, "lon": 32.5117711}, {"type": "node", "id": 5119816221, "lat": 37.8868115, "lon": 32.4602053, "tags": {"amenity": "restaurant", "name": "A\u011fabey D\u00f6ner"}}, {"type": "node", "id": 5119877811, "lat": 38.025383, "lon": 32.5048937}, {"type": "node", "id": 5119881060, "lat": 38.0253541, "lon": 32.5049537}, {"type": "node", "id": 5119881061, "lat": 38.0254019, "lon": 32.5048941}, {"type": "node", "id": 5119881062, "lat": 38.0254468, "lon": 32.504873}, {"type": "node", "id": 5119881063, "lat": 38.0253973, "lon": 32.5052025}, {"type": "node", "id": 5119881064, "lat": 38.0253512, "lon": 32.5051526}, {"type": "node", "id": 5119881065, "lat": 38.0256154, "lon": 32.5051338}, {"type": "node", "id": 5119881066, "lat": 38.025575, "lon": 32.5051936}, {"type": "node", "id": 5119881067, "lat": 38.0255113, "lon": 32.5052051}, {"type": "node", "id": 5119881068, "lat": 38.0256068, "lon": 32.5049346}, {"type": "node", "id": 5119888664, "lat": 38.0253545, "lon": 32.5049288}, {"type": "node", "id": 5119888665, "lat": 38.0254021, "lon": 32.5048811}, {"type": "node", "id": 5119888666, "lat": 38.0254417, "lon": 32.5052126}, {"type": "node", "id": 5119888667, "lat": 38.0253975, "lon": 32.5051895}, {"type": "node", "id": 5119888668, "lat": 38.0253515, "lon": 32.5051277}, {"type": "node", "id": 5119888669, "lat": 38.0256038, "lon": 32.5051336}, {"type": "node", "id": 5119888670, "lat": 38.0255561, "lon": 32.5051931}, {"type": "node", "id": 5119888671, "lat": 38.0255112, "lon": 32.5052142}, {"type": "node", "id": 5119888672, "lat": 38.0255162, "lon": 32.5048746}, {"type": "node", "id": 5119888673, "lat": 38.0255607, "lon": 32.5048847}, {"type": "node", "id": 5119888674, "lat": 38.0256064, "lon": 32.5049595}, {"type": "node", "id": 5119888750, "lat": 38.0253425, "lon": 32.5049534}, {"type": "node", "id": 5119888751, "lat": 38.0254466, "lon": 32.5048822}, {"type": "node", "id": 5119888752, "lat": 38.0254419, "lon": 32.5052036}, {"type": "node", "id": 5119888753, "lat": 38.0253786, "lon": 32.5051891}, {"type": "node", "id": 5119888754, "lat": 38.02534, "lon": 32.5051274}, {"type": "node", "id": 5119888755, "lat": 38.0256035, "lon": 32.5051584}, {"type": "node", "id": 5119888756, "lat": 38.0255559, "lon": 32.5052061}, {"type": "node", "id": 5119888757, "lat": 38.0255794, "lon": 32.5048982}, {"type": "node", "id": 5119888758, "lat": 38.0255161, "lon": 32.5048837}, {"type": "node", "id": 5119888759, "lat": 38.0255605, "lon": 32.5048977}, {"type": "node", "id": 5119888760, "lat": 38.025618, "lon": 32.5049598}, {"type": "node", "id": 5119959016, "lat": 38.0265016, "lon": 32.5098428}, {"type": "node", "id": 5119961365, "lat": 38.026668, "lon": 32.5096387}, {"type": "node", "id": 5119961366, "lat": 38.026836, "lon": 32.5098595}, {"type": "node", "id": 5119967638, "lat": 38.0266696, "lon": 32.5100636}, {"type": "node", "id": 5122247287, "lat": 37.9852868, "lon": 32.5764504, "tags": {"amenity": "cafe", "cuisine": "burger", "internet_access": "yes", "name": "Alkan Pehlivan Kafe"}}, {"type": "node", "id": 5137884628, "lat": 37.886414, "lon": 32.4930254}, {"type": "node", "id": 5137919339, "lat": 37.88647, "lon": 32.4932084}, {"type": "node", "id": 5137920123, "lat": 37.8863649, "lon": 32.4931212}, {"type": "node", "id": 5137920225, "lat": 37.8865381, "lon": 32.4930924}, {"type": "node", "id": 5209939726, "lat": 37.8687861, "lon": 32.4818918, "tags": {"addr:housenumber": "9 c", "addr:postcode": "42040", "addr:street": "Turguto\u011flu Sokak", "amenity": "cafe", "email": "abdullahkuccukturk@gmail.com", "name": "Konevi \u00c7ay Evi", "opening_hours": "Mo-Su 06:00-18:00", "phone": "0332 3213112"}}, {"type": "node", "id": 5331756022, "lat": 37.8627289, "lon": 32.4706611, "tags": {"amenity": "restaurant", "cuisine": "turkish"}}, {"type": "node", "id": 5333661121, "lat": 37.860109, "lon": 32.4694031, "tags": {"amenity": "restaurant", "cuisine": "burger", "name": "VAV Burger (Homemade Burgers)"}}, {"type": "node", "id": 5532864524, "lat": 37.9049707, "lon": 32.5023995, "tags": {"amenity": "restaurant", "name": "Tuba F\u0131r\u0131n Kebap"}}, {"type": "node", "id": 5674842824, "lat": 37.8678891, "lon": 32.5044903, "tags": {"amenity": "restaurant", "name:zh": "MUTFAK KITCHEN"}}, {"type": "node", "id": 5908014621, "lat": 37.8797047, "lon": 32.4944534, "tags": {"addr:street": "Ankara Cad.", "amenity": "restaurant", "name": "Taka Restaurant", "opening_hours": "Mo-Su 07:00-23:00"}}, {"type": "node", "id": 5913780585, "lat": 37.8885789, "lon": 32.4940196, "tags": {"addr:street": "Ahmet Hilmi Nal\u00e7ac\u0131 Cad.", "amenity": "cafe", "name": "Simit Saray\u0131", "opening_hours": "Mo-Su 09:00-23:00"}}, {"type": "node", "id": 5991406159, "lat": 37.9543843, "lon": 32.3616089, "tags": {"amenity": "cafe"}}, {"type": "node", "id": 6090469487, "lat": 37.836119, "lon": 32.5257738, "tags": {"amenity": "restaurant", "name": "Hanedan Etli Ekmek"}}, {"type": "node", "id": 6090469587, "lat": 37.9518222, "lon": 32.5081863, "tags": {"amenity": "restaurant", "name": "\u00c7obano\u011flu Lokantas\u0131"}}, {"type": "node", "id": 6174683086, "lat": 37.8719044, "lon": 32.5020279, "tags": {"amenity": "restaurant", "name": "Yavuz Doner"}}, {"type": "node", "id": 6174689185, "lat": 37.8719297, "lon": 32.5017376, "tags": {"amenity": "restaurant", "name": "Doner Evi"}}, {"type": "node", "id": 6174689190, "lat": 37.8710203, "lon": 32.501532, "tags": {"amenity": "restaurant"}}, {"type": "node", "id": 6192113694, "lat": 37.8694087, "lon": 32.4847355, "tags": {"addr:street": "Amber Reis Caddesi", "amenity": "cafe", "name": "Cadde \u0130stasyon"}}, {"type": "node", "id": 6276688671, "lat": 37.8672766, "lon": 32.4636885, "tags": {"amenity": "cafe", "name": "Kocatepe Meram"}}, {"type": "node", "id": 6579747187, "lat": 37.9054836, "lon": 32.5301259, "tags": {"amenity": "cafe", "name": "BARANLAR", "phone": "+9003323422484"}}, {"type": "node", "id": 6632047486, "lat": 37.9848801, "lon": 32.5763248, "tags": {"amenity": "cafe", "name": "\u015eahin Cafe"}}, {"type": "node", "id": 6796545285, "lat": 37.8706569, "lon": 32.501163, "tags": {"amenity": "restaurant", "cuisine": "turkish", "name": "Tiritci Mithat"}}, {"type": "node", "id": 6865424885, "lat": 37.7654314, "lon": 32.360639, "tags": {"addr:housenumber": "181", "addr:postcode": "42005", "addr:street": "\u00c7ay\u0131rba\u011f\u0131 Caddesi", "amenity": "restaurant", "cuisine": "fish", "name": "Bizim Dedenin Yeri \u00c7ay\u0131rba\u011f\u0131", "opening_hours": "Mo-Su 10:00-23:30", "phone": "00903323791366"}}, {"type": "node", "id": 6955013787, "lat": 37.95056, "lon": 32.5091061, "tags": {"amenity": "cafe", "name": "K\u00f6\u015fk Kafeterya"}}, {"type": "node", "id": 7010885085, "lat": 37.9165036, "lon": 32.52264, "tags": {"amenity": "cafe", "cuisine": "bagel;turkish", "name": "\u00c7\u0131t\u0131r Simit", "opening_hours": "Mo-Su 09:00-18:00", "phone": "4448312", "website": "https://www.meramcitirsimit.com/"}}, {"type": "node", "id": 7271596130, "lat": 37.954722, "lon": 32.3619521, "tags": {"amenity": "cafe"}}, {"type": "node", "id": 7666518478, "lat": 37.8802071, "lon": 32.4503129, "tags": {"addr:city": "Konya", "addr:district": "SEL\u00c7UKLU", "addr:housenumber": "130/F", "addr:neighbourhood": "Hocacihan Mahallesi Cihan Caddesi NO: 130F", "addr:postcode": "42080", "addr:street": "Bey\u015fehir \u00c7evre Yolu", "amenity": "restaurant", "cuisine": "Tatl\u0131;K\u00fcnefe;Dondurma;Baklava", "delivery": "yes", "internet_access": "yes", "name": "K\u00fcnefepark", "outdoor_seating": "yes", "phone": "+903322377665"}}, {"type": "node", "id": 7858773786, "lat": 37.9272523, "lon": 32.4185234, "tags": {"amenity": "restaurant", "name:en": "Tasey"}}, {"type": "node", "id": 7858797085, "lat": 37.9274434, "lon": 32.4183105, "tags": {"amenity": "cafe", "name:en": "YediDeniz"}}, {"type": "node", "id": 7858797986, "lat": 37.9272796, "lon": 32.418109, "tags": {"amenity": "cafe", "name": "Terzioglu"}}, {"type": "node", "id": 7858798086, "lat": 37.927141, "lon": 32.4184578, "tags": {"amenity": "cafe", "name": "Hazinem"}}, {"type": "node", "id": 7876180094, "lat": 37.8676895, "lon": 32.5054098, "tags": {"amenity": "restaurant", "name:en": "Konak Konya Mutfagi"}}, {"type": "node", "id": 7876180291, "lat": 37.8681113, "lon": 32.5050049, "tags": {"amenity": "restaurant", "name:en": "Somatci restaurant"}}, {"type": "node", "id": 8240586908, "lat": 37.9478877, "lon": 32.4936852, "tags": {"addr:city": "Konya", "addr:district": "Sel\u00e7uklu", "addr:housenumber": "27/R", "addr:neighbourhood": "\u015eeyh \u015eamil Mahallesi", "addr:postcode": "42070", "addr:street": "Do\u00e7.Dr. Halil \u00dcr\u00fcn Caddesi", "amenity": "cafe", "contact:phone": "+90 3322 650 169", "cuisine": "cake;dessert", "internet_access": "yes", "internet_access:fee": "no", "name": "Faruk G\u00fcll\u00fco\u011flu Baklava - Sel\u00e7uklu \u015eubesi", "outdoor_seating": "yes"}}, {"type": "node", "id": 8327518817, "lat": 37.8720516, "lon": 32.4896238, "tags": {"amenity": "restaurant", "name:en": "FELICIA PIZZA"}}, {"type": "node", "id": 9132896160, "lat": 37.9415154, "lon": 32.3806261, "tags": {"addr:city": "Konya", "addr:district": "Tatk\u00f6y", "amenity": "restaurant", "name": "\u00d6zkaraka\u015f Tatil K\u00f6y\u00fc ve Restaurant"}}, {"type": "node", "id": 9336621997, "lat": 37.8672903, "lon": 32.4641371, "tags": {"amenity": "cafe", "name": "Osmanl\u0131 Nargile"}}, {"type": "node", "id": 9484203366, "lat": 37.8891705, "lon": 32.4933458, "tags": {"amenity": "restaurant", "name": "Ekrem Co\u015fkun D\u00f6ner"}}, {"type": "node", "id": 9752616102, "lat": 37.8993184, "lon": 32.1749694, "tags": {"amenity": "restaurant"}}, {"type": "node", "id": 9830151018, "lat": 37.8678802, "lon": 32.503903, "tags": {"amenity": "restaurant", "cuisine": "regional;turkish;local", "name": "Somatci Fihi Ma Fih", "phone": "+905365622205", "website": "https://www.somatci.com/"}}, {"type": "node", "id": 9916902105, "lat": 37.8720658, "lon": 32.515095, "tags": {"addr:housenumber": "4/A", "amenity": "restaurant", "cuisine": "kebab", "name": "Hasan \u015een"}}, {"type": "node", "id": 9961090031, "lat": 37.9271854, "lon": 32.4180327, "tags": {"amenity": "restaurant"}}, {"type": "node", "id": 9994218869, "lat": 37.8722183, "lon": 32.5055326, "tags": {"amenity": "restaurant", "name": "Etliekmek"}}, {"type": "node", "id": 10074714819, "lat": 37.8485598, "lon": 32.4718111}, {"type": "node", "id": 10074714820, "lat": 37.848464, "lon": 32.4721403}, {"type": "node", "id": 10074714821, "lat": 37.8479919, "lon": 32.4719395}, {"type": "node", "id": 10074714822, "lat": 37.8480749, "lon": 32.4716033}, {"type": "node", "id": 10074714823, "lat": 37.8481487, "lon": 32.471643}, {"type": "node", "id": 10074714824, "lat": 37.848156, "lon": 32.4716056}, {"type": "node", "id": 10074714825, "lat": 37.8484953, "lon": 32.4717574}, {"type": "node", "id": 10074714826, "lat": 37.8484879, "lon": 32.4717877}, {"type": "node", "id": 10074882224, "lat": 37.8518238, "lon": 32.4734064}, {"type": "node", "id": 10074882225, "lat": 37.8518837, "lon": 32.4735314}, {"type": "node", "id": 10074882226, "lat": 37.8519068, "lon": 32.473682}, {"type": "node", "id": 10074882227, "lat": 37.8518994, "lon": 32.4738011}, {"type": "node", "id": 10074882228, "lat": 37.8518736, "lon": 32.4739108}, {"type": "node", "id": 10074882229, "lat": 37.8518238, "lon": 32.4740054}, {"type": "node", "id": 10074882230, "lat": 37.8517602, "lon": 32.4739458}, {"type": "node", "id": 10074882231, "lat": 37.8518081, "lon": 32.4738349}, {"type": "node", "id": 10074882232, "lat": 37.8518266, "lon": 32.4737392}, {"type": "node", "id": 10074882233, "lat": 37.8518164, "lon": 32.4735909}, {"type": "node", "id": 10074882234, "lat": 37.851762, "lon": 32.4734613}, {"type": "node", "id": 10074882265, "lat": 37.8486694, "lon": 32.4764121}, {"type": "node", "id": 10074882266, "lat": 37.8486191, "lon": 32.4764864}, {"type": "node", "id": 10074882267, "lat": 37.8485073, "lon": 32.4765713}, {"type": "node", "id": 10074882268, "lat": 37.848499, "lon": 32.4765324}, {"type": "node", "id": 10074882269, "lat": 37.8484487, "lon": 32.4765713}, {"type": "node", "id": 10074882270, "lat": 37.8483872, "lon": 32.4764404}, {"type": "node", "id": 10074882271, "lat": 37.8484319, "lon": 32.4764015}, {"type": "node", "id": 10074882272, "lat": 37.8484123, "lon": 32.4763696}, {"type": "node", "id": 10074882273, "lat": 37.8485409, "lon": 32.4762811}, {"type": "node", "id": 10074882274, "lat": 37.8485465, "lon": 32.4763236}, {"type": "node", "id": 10074882275, "lat": 37.8485884, "lon": 32.4762741}, {"type": "node", "id": 10074882359, "lat": 37.8536958, "lon": 32.4723312}, {"type": "node", "id": 10074882360, "lat": 37.8535851, "lon": 32.4724052}, {"type": "node", "id": 10074882361, "lat": 37.8535742, "lon": 32.4723821}, {"type": "node", "id": 10074882362, "lat": 37.8535207, "lon": 32.472416}, {"type": "node", "id": 10074882363, "lat": 37.8535292, "lon": 32.472436}, {"type": "node", "id": 10074882364, "lat": 37.8533358, "lon": 32.4725515}, {"type": "node", "id": 10074882365, "lat": 37.8533309, "lon": 32.4725238}, {"type": "node", "id": 10074882366, "lat": 37.8532932, "lon": 32.4725469}, {"type": "node", "id": 10074882367, "lat": 37.8532494, "lon": 32.4725669}, {"type": "node", "id": 10074882368, "lat": 37.8532579, "lon": 32.472587}, {"type": "node", "id": 10074882369, "lat": 37.8531728, "lon": 32.4726363}, {"type": "node", "id": 10074882370, "lat": 37.8530937, "lon": 32.4724375}, {"type": "node", "id": 10074882371, "lat": 37.8532166, "lon": 32.4723667}, {"type": "node", "id": 10074882372, "lat": 37.853247, "lon": 32.4724499}, {"type": "node", "id": 10074882373, "lat": 37.8532859, "lon": 32.4724221}, {"type": "node", "id": 10074882374, "lat": 37.8532543, "lon": 32.4723359}, {"type": "node", "id": 10074882375, "lat": 37.8534672, "lon": 32.4722249}, {"type": "node", "id": 10074882376, "lat": 37.8534976, "lon": 32.4723189}, {"type": "node", "id": 10074882377, "lat": 37.8535414, "lon": 32.4722958}, {"type": "node", "id": 10074882378, "lat": 37.8535109, "lon": 32.4721911}, {"type": "node", "id": 10074882379, "lat": 37.8536314, "lon": 32.4721263}, {"type": "node", "id": 10076856737, "lat": 37.8484229, "lon": 32.4721022, "tags": {"amenity": "restaurant", "cuisine": "turkish"}}, {"type": "node", "id": 10079850690, "lat": 37.8481566, "lon": 32.4727437, "tags": {"amenity": "restaurant", "name": "Bayp\u0131nar"}}, {"type": "node", "id": 10079850694, "lat": 37.8482759, "lon": 32.4727956, "tags": {"amenity": "restaurant", "name": "Yavuz Etliekmek"}}, {"type": "node", "id": 10163812917, "lat": 37.8717994, "lon": 32.5046019, "tags": {"addr:housenumber": "13", "addr:street": "\u015eehit Naz\u0131m Bey Caddesi", "amenity": "restaurant", "cuisine": "turkish", "email": "bilgi@turbeonu.com", "internet_access": "wlan", "name": "Maruf T\u00fcrbe\u00f6n\u00fc Lokantas\u0131", "name:en": "Maruf Turbeonu Lokantasi", "name:ru": "Maruf Turbeonu Lokantasi", "phone": "+90 (332) 353 08 42", "website": "https://turbeonu.com"}}, {"type": "node", "id": 10259383209, "lat": 37.8716248, "lon": 32.5049808, "tags": {"amenity": "cafe", "name:en": "Mevlevi sofrasi"}}, {"type": "node", "id": 10696815982, "lat": 37.8635508, "lon": 32.4642532}, {"type": "node", "id": 10696815983, "lat": 37.8632026, "lon": 32.4642678}, {"type": "node", "id": 10696815984, "lat": 37.8632691, "lon": 32.4644718}, {"type": "node", "id": 10696815985, "lat": 37.8633469, "lon": 32.4644406}, {"type": "node", "id": 10696815986, "lat": 37.8633465, "lon": 32.4644251}, {"type": "node", "id": 10696815987, "lat": 37.8634528, "lon": 32.4644208}, {"type": "node", "id": 10696815988, "lat": 37.8634526, "lon": 32.4644099}, {"type": "node", "id": 10696815989, "lat": 37.8634986, "lon": 32.4644081}, {"type": "node", "id": 10696815990, "lat": 37.863498, "lon": 32.4643851}, {"type": "node", "id": 10696815991, "lat": 37.863554, "lon": 32.4643829}, {"type": "node", "id": 10731041405, "lat": 37.9182828, "lon": 32.524742, "tags": {"amenity": "restaurant", "name": "Tirit\u00e7i Hac\u0131 Mustafa"}}, {"type": "node", "id": 10737110411, "lat": 37.8633037, "lon": 32.4777444, "tags": {"amenity": "restaurant", "cuisine": "turkish;etliekmek;mevlana;peynirli_b\u00f6rek;ya\u011f_somunu;ramazan_pidesi", "name": "Konevi Etliekmek F\u0131r\u0131n\u0131"}}, {"type": "node", "id": 10761279302, "lat": 37.8632725, "lon": 32.4644381}, {"type": "node", "id": 10761279303, "lat": 37.8632059, "lon": 32.4644764}, {"type": "node", "id": 10770010401, "lat": 37.8596239, "lon": 32.5505084, "tags": {"addr:city": "Konya", "addr:district": "Karatay", "addr:housenumber": "135", "addr:neighbourhood": "Akabe Mahallesi", "addr:postcode": "42020", "addr:street": "Adana \u00c7evre Yolu Caddesi", "amenity": "restaurant", "contact:mobile": "+90 546 464 61 17", "contact:website": "https://www.sehricorba.com/", "cuisine": "soup", "delivery": "yes", "name": "\u015eehr-i \u00c7orba", "opening_hours": "Mo-Su 07:00-24:00", "source": "local knowledge;osm notes;gps", "wheelchair": "yes"}}, {"type": "node", "id": 10959543275, "lat": 37.8688633, "lon": 32.4671743}, {"type": "node", "id": 10959543276, "lat": 37.8686805, "lon": 32.4672647}, {"type": "node", "id": 10959543277, "lat": 37.8687252, "lon": 32.4674221}, {"type": "node", "id": 10959543278, "lat": 37.8689174, "lon": 32.4673339}, {"type": "node", "id": 11012607201, "lat": 37.9520217, "lon": 32.5013755}, {"type": "node", "id": 11012607202, "lat": 37.9519135, "lon": 32.5013719}, {"type": "node", "id": 11012607203, "lat": 37.9519029, "lon": 32.5015885}, {"type": "node", "id": 11012607204, "lat": 37.9520131, "lon": 32.5015848}, {"type": "node", "id": 11085320271, "lat": 37.9066459, "lon": 32.5026501, "tags": {"amenity": "restaurant", "name": "Celal Bey Ya\u011f Somunu & Etli Ekmek"}}, {"type": "node", "id": 11148163973, "lat": 37.8710774, "lon": 32.5024451}, {"type": "node", "id": 11148163974, "lat": 37.8709522, "lon": 32.5024583}, {"type": "node", "id": 11805428069, "lat": 37.9507716, "lon": 32.5004338}, {"type": "node", "id": 11805428070, "lat": 37.9507073, "lon": 32.5004307}, {"type": "node", "id": 11805428071, "lat": 37.9507048, "lon": 32.5005493}, {"type": "node", "id": 11805428072, "lat": 37.9507704, "lon": 32.5005462}, {"type": "node", "id": 11828920889, "lat": 37.8688103, "lon": 32.4688071, "tags": {"addr:city": "Meram/Konya", "addr:district": "Meram", "addr:housenumber": "No:212", "addr:neighbourhood": "Melik\u015fah, Cadde Meram AVM, Yeni Meram Cd. No:212 Kat:2, 42090 Meram/Konya", "addr:postcode": "42090", "addr:street": "Yeni Meram Caddesi", "amenity": "cafe", "cuisine": "coffee_shop", "internet_access": "yes", "internet_access:fee": "no", "name": "Brew Mood Coffee & Tea Konya", "opening_hours": "09:00-00:00", "outdoor_seating": "yes", "phone": "+90 232 502 10 40", "website": "https://www.brewmood.com.tr"}}, {"type": "node", "id": 11834415283, "lat": 37.870286, "lon": 32.5006852, "tags": {"amenity": "restaurant", "description": "Etliekmek", "name": "Celal Bey"}}, {"type": "node", "id": 11835525101, "lat": 37.8802315, "lon": 32.4254062}, {"type": "node", "id": 11835525102, "lat": 37.880133, "lon": 32.4252891}, {"type": "node", "id": 11835525103, "lat": 37.8800941, "lon": 32.4253399}, {"type": "node", "id": 11835525104, "lat": 37.8800308, "lon": 32.4252567}, {"type": "node", "id": 11835525105, "lat": 37.8799019, "lon": 32.425417}, {"type": "node", "id": 11835525106, "lat": 37.8799202, "lon": 32.4254447}, {"type": "node", "id": 11835525107, "lat": 37.8798849, "lon": 32.4254863}, {"type": "node", "id": 11835525108, "lat": 37.8798424, "lon": 32.4255248}, {"type": "node", "id": 11835525109, "lat": 37.8798265, "lon": 32.425494}, {"type": "node", "id": 11835525110, "lat": 37.879767, "lon": 32.4255433}, {"type": "node", "id": 11835525111, "lat": 37.8797803, "lon": 32.4255571}, {"type": "node", "id": 11835525112, "lat": 37.8797645, "lon": 32.4255772}, {"type": "node", "id": 11835525113, "lat": 37.8797767, "lon": 32.4255987}, {"type": "node", "id": 11835525114, "lat": 37.8797609, "lon": 32.4256219}, {"type": "node", "id": 11835525115, "lat": 37.8797816, "lon": 32.4256511}, {"type": "node", "id": 11835525116, "lat": 37.8797567, "lon": 32.4256765}, {"type": "node", "id": 11835525117, "lat": 37.8797962, "lon": 32.4257281}, {"type": "node", "id": 11835525118, "lat": 37.8797664, "lon": 32.4257705}, {"type": "node", "id": 11835525119, "lat": 37.8798655, "lon": 32.4258991}, {"type": "node", "id": 11835525120, "lat": 37.8798753, "lon": 32.4258876}, {"type": "node", "id": 11835525121, "lat": 37.8799245, "lon": 32.4259515}, {"type": "node", "id": 11835525122, "lat": 37.8800273, "lon": 32.4260794}, {"type": "node", "id": 11835525123, "lat": 37.880096, "lon": 32.4260031}, {"type": "node", "id": 11835525124, "lat": 37.8802036, "lon": 32.4261364}, {"type": "node", "id": 11835525125, "lat": 37.8803008, "lon": 32.4260293}, {"type": "node", "id": 11835525126, "lat": 37.8802863, "lon": 32.4260093}, {"type": "node", "id": 11835525127, "lat": 37.8802996, "lon": 32.4259939}, {"type": "node", "id": 11835525128, "lat": 37.8802711, "lon": 32.4259592}, {"type": "node", "id": 11835525129, "lat": 37.8802838, "lon": 32.4259407}, {"type": "node", "id": 11835525130, "lat": 37.88031, "lon": 32.42597}, {"type": "node", "id": 11835525131, "lat": 37.8803282, "lon": 32.4259492}, {"type": "node", "id": 11835525132, "lat": 37.8803379, "lon": 32.4259592}, {"type": "node", "id": 11835525133, "lat": 37.8804224, "lon": 32.4258521}, {"type": "node", "id": 11835525134, "lat": 37.8803969, "lon": 32.4258144}, {"type": "node", "id": 11835525135, "lat": 37.8804498, "lon": 32.4257474}, {"type": "node", "id": 11835525136, "lat": 37.8803695, "lon": 32.4256449}, {"type": "node", "id": 11835525137, "lat": 37.880403, "lon": 32.4255972}, {"type": "node", "id": 11835525138, "lat": 37.8802869, "lon": 32.4254632}, {"type": "node", "id": 11835525139, "lat": 37.8802315, "lon": 32.4255317}, {"type": "node", "id": 11835525140, "lat": 37.8801823, "lon": 32.425474}, {"type": "node", "id": 11850377556, "lat": 37.9374051, "lon": 32.5672191, "tags": {"addr:city": "Konya", "addr:district": "Karatay", "addr:housenumber": "9/A", "addr:neighbourhood": "Fevzi\u00e7akmak Mahallesi", "addr:postcode": "42210", "addr:street": "10762. Sokak", "amenity": "restaurant", "name": "\u00c7a\u011fr\u0131 Mangal Etliekmek Izgara"}}, {"type": "node", "id": 11882056680, "lat": 37.9785343, "lon": 32.5196955}, {"type": "node", "id": 11882056681, "lat": 37.9783548, "lon": 32.5196967}, {"type": "node", "id": 11882056682, "lat": 37.9783557, "lon": 32.5199252}, {"type": "node", "id": 11882056683, "lat": 37.9785352, "lon": 32.5199241}, {"type": "node", "id": 11882056684, "lat": 37.9783551, "lon": 32.5197792}, {"type": "node", "id": 11882056685, "lat": 37.9781415, "lon": 32.5197825}, {"type": "node", "id": 11882056686, "lat": 37.9781427, "lon": 32.5199044}, {"type": "node", "id": 11882056687, "lat": 37.9783556, "lon": 32.519901}, {"type": "node", "id": 11882056688, "lat": 37.978355, "lon": 32.5197513}, {"type": "node", "id": 11882056689, "lat": 37.9785346, "lon": 32.5197742}, {"type": "node", "id": 11882056748, "lat": 37.978436, "lon": 32.5196957}, {"type": "node", "id": 11882056751, "lat": 37.9784781, "lon": 32.5196949}, {"type": "node", "id": 11882056763, "lat": 37.9785349, "lon": 32.5198549}, {"type": "node", "id": 11932770969, "lat": 37.9881085, "lon": 32.5120283, "tags": {"addr:housenumber": "77/\u0412", "addr:postcode": "42060", "addr:street": "\u015eafak Caddesi", "amenity": "restaurant", "cuisine": "japanese", "name": "Rolik sushi Konya", "opening_hours": "Su-Sa 12:00-21:45", "phone": "+90 536 952 18 85", "website": "https://roliksushi.com/"}}, {"type": "node", "id": 12104039101, "lat": 37.9487833, "lon": 32.4925262, "tags": {"addr:street": "Kaleta\u015f Caddesi", "amenity": "cafe", "name": "EspressoLab"}}, {"type": "node", "id": 12291725775, "lat": 37.9939812, "lon": 32.5161482, "tags": {"amenity": "cafe", "cuisine": "simit;i\u0307\u00e7ecek;cips", "internet_access": "no", "name": "Simit Dura\u011f\u0131 3", "opening_hours": "Mo-Su 07:00-22:00", "phone": "05546806265", "website": "http://slcklusimitduragi.wixsite.com/slcklusimitduragi"}}, {"type": "node", "id": 12433286678, "lat": 37.8651547, "lon": 32.4550741, "tags": {"amenity": "cafe", "name": "Kafem - Evliya \u00c7elebi Park\u0131"}}, {"type": "node", "id": 12441739081, "lat": 37.8701249, "lon": 32.5017816, "tags": {"addr:city": "Konya", "addr:district": "Karatay", "addr:housenumber": "41A", "addr:neighbourhood": "Aziziye Mahallesi", "addr:postcode": "42030", "addr:street": "Aziziye Caddesi", "amenity": "cafe", "contact:instagram": "https://www.instagram.com/feracoffee_/", "cuisine": "coffee_shop", "name": "Fera Coffee T\u00fcrbe \u00d6n\u00fc", "opening_hours": "Mo-Su 08:00-00:00", "outdoor_seating": "yes", "phone": "+90 332 351 1168", "takeaway": "yes", "website": "https://www.instagram.com/feracoffee_/", "website:menu": "https://www.konbeltas.com/menuler/fera.pdf"}}, {"type": "node", "id": 12441739082, "lat": 37.8703994, "lon": 32.5021432, "tags": {"addr:city": "Konya", "addr:district": "Karatay", "addr:housenumber": "61C", "addr:neighbourhood": "Aziziye Mahallesi", "addr:postcode": "42030", "addr:street": "T\u00fcrbe Caddesi", "amenity": "restaurant", "contact:instagram": "https://www.instagram.com/hasansendagli/", "cuisine": "turkish;regional", "name": "Hasan \u015eenda\u011fl\u0131 - T\u00fcrbe \u00d6n\u00fc", "opening_hours": "Mo-Su 09:00-20:30", "phone": "+90 332 355 4443", "website": "https://hasansendagli.com/"}}, {"type": "node", "id": 12441739083, "lat": 37.8708251, "lon": 32.502913, "tags": {"addr:city": "Konya", "addr:district": "Karatay", "addr:housenumber": "2C", "addr:neighbourhood": "Aziziye Mahallesi", "addr:postcode": "42030", "addr:street": "M\u00fcze Alan\u0131 Caddesi", "amenity": "cafe", "contact:instagram": "https://www.instagram.com/kirkikindipastane_/", "cuisine": "pastry;coffee_shop", "name": "K\u0131rkikindi Pastane T\u00fcrbe \u00d6n\u00fc", "opening_hours": "Mo-Su 10:00-23:30", "outdoor_seating": "yes", "phone": "+90 332 351 1168", "website": "https://kirkikindi.com.tr/#pastane", "website:menu": "https://www.konbeltas.com/menuler/kirkikindi-pastane.pdf"}}, {"type": "node", "id": 12441739084, "lat": 37.8702213, "lon": 32.5030962, "tags": {"addr:city": "Konya", "addr:district": "Karatay", "addr:neighbourhood": "Aziziye Mahallesi", "addr:postcode": "42030", "addr:street": "T\u00fcrbe Caddesi", "amenity": "cafe", "name": "Osmanl\u0131 Kahvehanesi T\u00fcrbe \u00d6n\u00fc", "opening_hours": "Mo-Su 10:00-23:00", "outdoor_seating": "yes", "website": "https://www.instagram.com/osmanlikahvehanesi/"}}, {"type": "node", "id": 12441781801, "lat": 37.8708875, "lon": 32.502221, "tags": {"addr:city": "Konya", "addr:district": "Karatay", "addr:housenumber": "50AC", "addr:neighbourhood": "Aziziye Mahallesi", "addr:postcode": "42030", "addr:street": "Mevlana Caddesi", "amenity": "cafe", "contact:instagram": "https://www.instagram.com/dudufirin/", "cuisine": "coffee_shop;pastry", "name": "Dudu F\u0131r\u0131n Kahve", "opening_hours": "Mo-Su 09:00-21:00", "website": "https://dudufirin.com/tr", "website:menu": "https://konya.dudufirin.com/"}}, {"type": "node", "id": 12441781802, "lat": 37.8705247, "lon": 32.5028035, "tags": {"addr:city": "Konya", "addr:district": "Karatay", "addr:housenumber": "10", "addr:neighbourhood": "Aziziye Mahallesi", "addr:postcode": "42030", "addr:street": "T\u00fcrbe Caddesi", "amenity": "restaurant", "cuisine": "turkish;regional", "name": "Konya Sufi Restaurant Geleneksel Konya Mutfa\u011f\u0131", "opening_hours": "Mo-Su 08:00-23:00", "phone": "+90 332 353 1919", "website": "https://sufirestoran.com.tr/", "website:menu": "https://qrmenuapp.akinsoft.com.tr/IBSISN/mevlana"}}, {"type": "node", "id": 12606974875, "lat": 37.8687558, "lon": 32.4818563, "tags": {"amenity": "cafe", "name": "Elfo Cafe"}}, {"type": "node", "id": 12606974876, "lat": 37.870205, "lon": 32.4851774, "tags": {"amenity": "cafe", "name": "Narl-\u0131 Dem \u00c7ay Bah\u00e7esi"}}, {"type": "node", "id": 12606978811, "lat": 37.8670726, "lon": 32.481566, "tags": {"amenity": "cafe", "cuisine": "coffee_shop", "name": "Koff Coffee"}}, {"type": "node", "id": 12672678463, "lat": 37.8736691, "lon": 32.489828, "tags": {"amenity": "restaurant", "cuisine": "turkish", "name": "Tarih-i Fuar Etliekmek"}}, {"type": "node", "id": 12673075942, "lat": 37.8703558, "lon": 32.4887561, "tags": {"amenity": "restaurant", "cuisine": "turkish", "name": "Ala\u015f D\u00f6ner"}}, {"type": "node", "id": 12673105676, "lat": 37.8698261, "lon": 32.4875561, "tags": {"amenity": "restaurant", "cuisine": "turkish", "name": "\u015e\u0130R\u0130NHANIM KEBAP & KOKORE\u00c7"}}, {"type": "node", "id": 12673105681, "lat": 37.8695653, "lon": 32.4872226, "tags": {"amenity": "restaurant", "cuisine": "turkish", "name": "SOKAK LEZZETLER\u0130"}}, {"type": "node", "id": 12673105682, "lat": 37.8695338, "lon": 32.4871885, "tags": {"amenity": "restaurant", "cuisine": "turkish", "name": "BUT X D\u00d6NER"}}, {"type": "node", "id": 12710020743, "lat": 37.8601612, "lon": 32.5426604, "tags": {"amenity": "restaurant", "brand": "K\u00f6fteci Yusuf", "brand:wikidata": "Q126125081", "cuisine": "turkish", "name": "K\u00f6fteci Yusuf"}}, {"type": "node", "id": 12710137137, "lat": 37.9075599, "lon": 32.5153221, "tags": {"addr:city": "Konya", "addr:district": "Karatay", "addr:housenumber": "5A", "addr:neighbourhood": "Fevzi\u00e7akmak Mahallesi", "addr:postcode": "42210", "addr:street": "10437. Sokak", "amenity": "restaurant", "brand": "K\u00f6fteci Yusuf", "brand:wikidata": "Q126125081", "cuisine": "turkish", "name": "K\u00f6fteci Yusuf"}}, {"type": "node", "id": 12762141383, "lat": 37.8710746, "lon": 32.5024023}, {"type": "node", "id": 12762141385, "lat": 37.8709454, "lon": 32.5023539}, {"type": "node", "id": 12762141386, "lat": 37.8710064, "lon": 32.5024086}, {"type": "node", "id": 12762141387, "lat": 37.8710027, "lon": 32.5023467}, {"type": "node", "id": 12806222187, "lat": 37.8711098, "lon": 32.505794, "tags": {"amenity": "cafe"}}, {"type": "node", "id": 12806222702, "lat": 37.8701215, "lon": 32.4989096, "tags": {"amenity": "cafe"}}, {"type": "node", "id": 12843789836, "lat": 37.8675123, "lon": 32.4996987, "tags": {"addr:city": "Konya", "addr:district": "Meram", "addr:neighbourhood": "Sahibata", "addr:street": "Sahibata Caddesi", "amenity": "restaurant", "contact:instagram": "palizekahvalti", "cuisine": "breakfast", "email": "bilgi@konbeltas.com.tr", "name": "Palize", "operator": "Konbelta\u015f", "phone": "+90 332 350 5454", "website": "https://palize.com.tr/"}}, {"type": "node", "id": 12911468630, "lat": 38.0034218, "lon": 32.236888, "tags": {"amenity": "cafe"}}, {"type": "node", "id": 12911468631, "lat": 38.0033028, "lon": 32.2367464, "tags": {"amenity": "restaurant", "cuisine": "pizza"}}, {"type": "way", "id": 177322879, "nodes": [1877760108, 1877760076, 1877760097, 1877760127, 1877760108], "tags": {"amenity": "restaurant", "building": "yes", "historic": "caravanserai", "name": "Horozlu Han", "source": "bing", "tourism": "attraction", "wikidata": "Q132752965"}}, {"type": "way", "id": 375963921, "nodes": [3792994698, 3792994699, 3792994700, 3792994701, 3792994698], "tags": {"amenity": "cafe", "building": "yes", "internet_access": "no", "name": "Kantin", "opening_hours": "08:00-20:30", "smoking": "no"}}, {"type": "way", "id": 472224746, "nodes": [4664375109, 4664375110, 4664375111, 4664375112, 4664375109], "tags": {"amenity": "restaurant", "building": "yes"}}, {"type": "way", "id": 524440541, "nodes": [5103598696, 5103598700, 5103598695, 5103598238, 5103598696], "tags": {"amenity": "restaurant", "building": "yes", "cuisine": "turkish", "name": "Qurme Restaurant", "source": "bing"}}, {"type": "way", "id": 525697407, "nodes": [5113631017, 5113630890, 5113631282, 5113631277, 5113630889, 5113631281, 5113631015, 5113630888, 5113631280, 5113631023, 5113630887, 5113631279, 5113631022, 5113631278, 5113631016, 5113631017], "tags": {"amenity": "cafe", "building": "yes", "building:levels": "2", "name": "Dede Bah\u00e7esi Millet K\u0131raathanesi", "source": "maxar"}}, {"type": "way", "id": 526435928, "nodes": [5119291416, 5119299941, 5119297067, 5119299913, 5119291416], "tags": {"amenity": "cafe", "building": "yes", "building:levels": "2", "height": "8", "name": "EspressoLab", "source": "bing"}}, {"type": "way", "id": 526513488, "nodes": [5119888672, 5119888758, 5119888673, 5119888759, 5119888757, 5119881068, 5119888674, 5119888760, 5119881065, 5119888669, 5119888755, 5119881066, 5119888670, 5119888756, 5119881067, 5119888671, 5119888666, 5119888752, 5119881063, 5119888667, 5119888753, 5119881064, 5119888668, 5119888754, 5119888750, 5119881060, 5119888664, 5119877811, 5119881061, 5119888665, 5119888751, 5119881062, 5119888672], "tags": {"amenity": "cafe", "building": "yes", "building:levels": "1", "height": "6", "name": "Sel\u00e7uk \u00dcniversitesi Fen Edebiyat Fak\u00fcltesi Kantini", "source": "bing"}}, {"type": "way", "id": 526522604, "nodes": [5119959016, 5119961365, 5119961366, 5119967638, 5119959016], "tags": {"amenity": "cafe", "building": "yes", "building:levels": "1", "height": "8", "name": "Ay\u0131\u015f\u0131\u011f\u0131", "source": "bing"}}, {"type": "way", "id": 528783797, "nodes": [5137920225, 5137884628, 5137920123, 5137919339, 5137920225], "tags": {"addr:city": "Konya", "addr:district": "Sel\u00e7uklu", "addr:housenumber": "71", "addr:neighbourhood": "Feritpa\u015fa Mah.", "addr:postcode": "42110", "addr:street": "Ahmet Hilmi Nal\u00e7ac\u0131 Caddesi", "amenity": "restaurant", "building": "apartments", "building:flats": "12", "building:levels": "6", "cuisine": "turkish", "name": "Arden \u00c7orba &K\u00f6fte", "source": "local knowledge"}}, {"type": "way", "id": 1100808483, "nodes": [10074714819, 10074714820, 10074714821, 10074714822, 10074714823, 10074714824, 10074714825, 10074714826, 10074714819], "tags": {"amenity": "restaurant", "building": "yes", "name": "Celikkayalar"}}, {"type": "way", "id": 1100827496, "nodes": [10074882224, 10074882225, 10074882226, 10074882227, 10074882228, 10074882229, 10074882230, 10074882231, 10074882232, 10074882233, 10074882234, 10074882224], "tags": {"amenity": "cafe", "building": "yes", "name": "Cafe Meram Yenice"}}, {"type": "way", "id": 1100827500, "nodes": [10074882265, 10074882266, 10074882267, 10074882268, 10074882269, 10074882270, 10074882271, 10074882272, 10074882273, 10074882274, 10074882275, 10074882265], "tags": {"amenity": "cafe", "building": "yes", "name": "Pera Patisserie"}}, {"type": "way", "id": 1100827510, "nodes": [10074882359, 10074882360, 10074882361, 10074882362, 10074882363, 10074882364, 10074882365, 10074882366, 10074882367, 10074882368, 10074882369, 10074882370, 10074882371, 10074882372, 10074882373, 10074882374, 10074882375, 10074882376, 10074882377, 10074882378, 10074882379, 10074882359], "tags": {"amenity": "restaurant", "building": "yes", "name": "Migros"}}, {"type": "way", "id": 1149858694, "nodes": [10696815982, 10696815983, 10761279303, 10696815984, 10761279302, 10696815985, 10696815986, 10696815987, 10696815988, 10696815989, 10696815990, 10696815991, 10696815982], "tags": {"addr:city": "Konya", "addr:district": "Meram", "addr:housenumber": "74", "addr:neighbourhood": "Havzan Mahallesi", "addr:postcode": "42090", "addr:street": "Ebu Suud Efendi Caddesi", "amenity": "cafe", "building": "yes", "internet_access": "yes", "internet_access:fee": "no", "internet_access:ssid": "Divane Kahve Evi", "name": "Divane Kahve Evi", "outdoor_seating": "yes", "website": "https://www.divanekahveevi.com"}}, {"type": "way", "id": 1179998955, "nodes": [10959543275, 10959543276, 10959543277, 10959543278, 10959543275], "tags": {"addr:city": "Meram/Konya", "addr:district": "Konya", "addr:housenumber": "63/C", "addr:neighbourhood": "Arma\u011fan, Melik\u015fah Mahallesi", "addr:postcode": "42090", "addr:street": "Melik\u015fah Caddesi", "amenity": "cafe", "building": "yes", "internet_access": "wlan", "internet_access:fee": "yes", "name": "Mikel Coffee Meram", "opening_hours": "Mo-Su 08:00-24:00", "outdoor_seating": "yes", "website": "https://mikelcoffee.com"}}, {"type": "way", "id": 1185549267, "nodes": [11012607201, 11012607202, 11012607203, 11012607204, 11012607201], "tags": {"amenity": "restaurant", "building": "yes"}}, {"type": "way", "id": 1271239313, "nodes": [11805428069, 11805428070, 11805428071, 11805428072, 11805428069], "tags": {"amenity": "cafe", "building": "yes"}}, {"type": "way", "id": 1274679858, "nodes": [11835525101, 11835525102, 11835525103, 11835525104, 11835525105, 11835525106, 11835525107, 11835525108, 11835525109, 11835525110, 11835525111, 11835525112, 11835525113, 11835525114, 11835525115, 11835525116, 11835525117, 11835525118, 11835525119, 11835525120, 11835525121, 11835525122, 11835525123, 11835525124, 11835525125, 11835525126, 11835525127, 11835525128, 11835525129, 11835525130, 11835525131, 11835525132, 11835525133, 11835525134, 11835525135, 11835525136, 11835525137, 11835525138, 11835525139, 11835525140, 11835525101], "tags": {"amenity": "restaurant", "building": "yes", "name": "Akyoku\u015f Kasr\u0131"}}, {"type": "way", "id": 1279996907, "nodes": [11882056680, 11882056751, 11882056748, 11882056681, 11882056688, 11882056684, 11882056687, 11882056682, 11882056683, 11882056763, 11882056689, 11882056680], "tags": {"amenity": "restaurant", "building": "yes", "cuisine": "japanese"}}, {"type": "way", "id": 1279996908, "nodes": [11882056684, 11882056685, 11882056686, 11882056687, 11882056684], "tags": {"amenity": "restaurant", "building": "yes", "cuisine": "japanese"}}, {"type": "way", "id": 1378315756, "nodes": [11148163973, 12762141383, 12762141386, 12762141387, 12762141385, 11148163974, 11148163973], "tags": {"addr:city": "Konya", "addr:district": "Karatay", "addr:housenumber": "50J", "addr:neighbourhood": "Aziziye Mahallesi", "addr:postcode": "42030", "addr:street": "Mevlana Caddesi", "amenity": "cafe", "building": "yes", "cuisine": "coffee_shop;ice_cream;tea", "delivery": "yes", "internet_access": "yes", "name": "Dudu Gelato", "opening_hours": "08:00-24:00", "outdoor_seating": "yes", "toilets": "yes", "website": "https://dudufirin.com"}}]}