{"version": 0.6, "generator": "Overpass API 0.7.62.7 375dc00a", "osm3s": {"timestamp_osm_base": "2025-06-14T13:20:02Z", "copyright": "The data included in this document is from www.openstreetmap.org. The data is made available under ODbL."}, "elements": [{"type": "node", "id": 7132268630, "lat": 3.968831, "lon": 9.7903033, "tags": {"amenity": "restaurant", "name": "Restaurant queen delice"}}, {"type": "node", "id": 7980120969, "lat": 3.9704821, "lon": 9.791706}, {"type": "node", "id": 7980120970, "lat": 3.9704329, "lon": 9.7916155}, {"type": "node", "id": 7980120971, "lat": 3.9704865, "lon": 9.7915276}, {"type": "node", "id": 7980120972, "lat": 3.9705892, "lon": 9.7915301}, {"type": "node", "id": 7980120973, "lat": 3.9706384, "lon": 9.7916206}, {"type": "node", "id": 7980120974, "lat": 3.9705849, "lon": 9.7917086}, {"type": "node", "id": 8397798817, "lat": 4.0044516, "lon": 9.8102706, "tags": {"amenity": "restaurant", "cuisine": "african;barbecue;deli", "name": "Greed&Garden", "opening_hours": "Mo-Su 09:00-21:00", "phone": "00237693690387"}}, {"type": "node", "id": 12737643192, "lat": 3.9997424, "lon": 9.8029447, "tags": {"amenity": "restaurant", "description": "Haut standing, r\u00e9servation", "name": "La Fourchette d'Or", "phone": "+237675127076"}}, {"type": "way", "id": 855780466, "nodes": [7980120974, 7980120973, 7980120972, 7980120971, 7980120970, 7980120969, 7980120974], "tags": {"amenity": "restaurant", "name": "R\u00e9fectoire"}}]}