{"version": 0.6, "generator": "Overpass API 0.7.62.7 375dc00a", "osm3s": {"timestamp_osm_base": "2025-06-14T13:55:30Z", "copyright": "The data included in this document is from www.openstreetmap.org. The data is made available under ODbL."}, "elements": [{"type": "node", "id": 708538230, "lat": 40.2861198, "lon": 14.9475871, "tags": {"amenity": "cafe", "created_by": "Vespucci 0.6.3", "name": "Belleville"}}, {"type": "node", "id": 708538275, "lat": 40.2671955, "lon": 14.9391144, "tags": {"amenity": "restaurant", "cuisine": "pizza", "name": "Da Mario"}}, {"type": "node", "id": 708538515, "lat": 40.2904131, "lon": 14.9505129, "tags": {"amenity": "cafe", "cuisine": "pizza", "name": "Pibar\u00f2 Bar & Pizza"}}, {"type": "node", "id": 708538605, "lat": 40.2857346, "lon": 14.9480642, "tags": {"amenity": "restaurant", "created_by": "Vespucci 0.6.3", "cuisine": "italian", "name": "Bar Marina"}}, {"type": "node", "id": 708538609, "lat": 40.2739661, "lon": 14.941698, "tags": {"amenity": "restaurant", "cuisine": "seafood", "name": "La Scoglio"}}, {"type": "node", "id": 708538793, "lat": 40.2685519, "lon": 14.9444131, "tags": {"amenity": "cafe", "indoor_seating": "yes", "name": "Caffetteria Torretta", "outdoor_seating": "yes"}}, {"type": "node", "id": 708539353, "lat": 40.2827419, "lon": 14.9461054, "tags": {"amenity": "cafe", "created_by": "Vespucci 0.6.3", "name": "Lido Azzuro"}}, {"type": "node", "id": 708539395, "lat": 40.2853231, "lon": 14.9469766, "tags": {"amenity": "cafe", "cuisine": "pizza", "name": "Peach Pit Bar"}}, {"type": "node", "id": 708598394, "lat": 40.2892908, "lon": 14.9465612, "tags": {"amenity": "restaurant", "name": "Punta dell'Inferno"}}, {"type": "node", "id": 708690022, "lat": 40.2793595, "lon": 14.9523078, "tags": {"amenity": "restaurant", "name": "Ristorante Pizzeria Il Calesse"}}, {"type": "node", "id": 709038032, "lat": 40.2832949, "lon": 14.9460076, "tags": {"amenity": "restaurant", "check_date": "2024-10-12", "created_by": "Vespucci 0.6.3", "name": "1861 Bistr\u00f2"}}, {"type": "node", "id": 709038042, "lat": 40.2850216, "lon": 14.9468875, "tags": {"amenity": "cafe", "created_by": "Vespucci 0.6.3", "name": "Bar L'Ancora"}}, {"type": "node", "id": 709038050, "lat": 40.2846195, "lon": 14.9463946, "tags": {"amenity": "restaurant", "check_date": "2024-10-12", "name": "Ristorante Pizzeria Arlecchino", "wheelchair": "no"}}, {"type": "node", "id": 747002266, "lat": 40.28293, "lon": 14.9460865, "tags": {"amenity": "cafe", "created_by": "Vespucci 0.6.3", "name": "Lido Santa Maria"}}, {"type": "node", "id": 747045599, "lat": 40.284767, "lon": 14.9465782, "tags": {"amenity": "restaurant", "check_date": "2024-10-12", "name": "PerBacco"}}, {"type": "node", "id": 747045639, "lat": 40.2852715, "lon": 14.9471396, "tags": {"amenity": "cafe", "created_by": "Vespucci 0.6.3", "name": "La Yougherteria"}}, {"type": "node", "id": 747045643, "lat": 40.287284, "lon": 14.9461736, "tags": {"amenity": "restaurant", "created_by": "Vespucci 0.6.3", "name": "Da Andrea"}}, {"type": "node", "id": 747164266, "lat": 40.2867157, "lon": 14.9474369, "tags": {"amenity": "restaurant", "check_date": "2024-10-12", "cuisine": "fish", "name": "Ristorante del Corso"}}, {"type": "node", "id": 748857270, "lat": 40.2874061, "lon": 14.9479045, "tags": {"amenity": "restaurant", "created_by": "Vespucci 0.6.3", "name": "La Marina"}}, {"type": "node", "id": 758369386, "lat": 40.2914959, "lon": 14.9509774, "tags": {"amenity": "cafe", "check_date": "2024-10-12", "created_by": "Vespucci 0.6.3", "name": "Italian Caf\u00e8"}}, {"type": "node", "id": 1813501803, "lat": 40.3136447, "lon": 15.1084293, "tags": {"amenity": "restaurant", "cuisine": "sandwich", "name": "Sosta Mediterranea"}}, {"type": "node", "id": 1861294038, "lat": 40.2797347, "lon": 14.9516298, "tags": {"amenity": "restaurant", "cuisine": "italian", "name": "Cantina Belvedere"}}, {"type": "node", "id": 1861294039, "lat": 40.2857686, "lon": 14.9661817, "tags": {"amenity": "restaurant", "cuisine": "italian;pizza", "name": "Mon Amour"}}, {"type": "node", "id": 1975594696, "lat": 40.3165627, "lon": 15.0616024, "tags": {"amenity": "cafe"}}, {"type": "node", "id": 1988187900, "lat": 40.3530585, "lon": 14.9862151, "tags": {"amenity": "restaurant", "check_date": "2024-10-11", "cuisine": "italian", "name": "La Barbanera", "source": "survey", "wheelchair": "no"}}, {"type": "node", "id": 2518801247, "lat": 40.2891388, "lon": 14.9736156, "tags": {"amenity": "restaurant", "name": "Ristorante Il Capriccio"}}, {"type": "node", "id": 2660967527, "lat": 40.2760817, "lon": 14.9716106, "tags": {"amenity": "restaurant", "name": "Il Parnaso"}}, {"type": "node", "id": 2750030747, "lat": 40.1758276, "lon": 15.0344046, "tags": {"addr:housename": "Agriturismo", "addr:housenumber": "1", "addr:postcode": "84068", "addr:street": "Via Torre La Macchia", "amenity": "restaurant", "cuisine": "regional", "name": "Mare e monti", "website": "www.agriturismomareemonti.com"}}, {"type": "node", "id": 2761519341, "lat": 40.2340163, "lon": 14.9491263, "tags": {"amenity": "restaurant", "cuisine": "regional", "name": "Lo Scoglio"}}, {"type": "node", "id": 2806177689, "lat": 40.324185, "lon": 15.0298537, "tags": {"amenity": "restaurant", "name": "Margherita"}}, {"type": "node", "id": 2806177698, "lat": 40.3229171, "lon": 15.0432004, "tags": {"amenity": "restaurant", "name": "Il Falco del Cilento"}}, {"type": "node", "id": 2806177700, "lat": 40.3241604, "lon": 15.0224401, "tags": {"amenity": "restaurant", "name": "Il Melograno"}}, {"type": "node", "id": 2806178504, "lat": 40.3237842, "lon": 15.0214209, "tags": {"amenity": "restaurant", "name": "La Passolara"}}, {"type": "node", "id": 2806178508, "lat": 40.3251174, "lon": 15.0191034, "tags": {"amenity": "restaurant", "name": "Il Lampione"}}, {"type": "node", "id": 2806220268, "lat": 40.3228251, "lon": 15.0544255, "tags": {"amenity": "cafe", "name": "La villa"}}, {"type": "node", "id": 2806220272, "lat": 40.3236962, "lon": 15.0520034, "tags": {"amenity": "restaurant", "name": "La Torre"}}, {"type": "node", "id": 2806220289, "lat": 40.32332, "lon": 15.052049, "tags": {"amenity": "restaurant", "name": "Terramia"}}, {"type": "node", "id": 2806220294, "lat": 40.3236267, "lon": 15.0521778, "tags": {"amenity": "cafe", "name": "La Torre"}}, {"type": "node", "id": 2806634152, "lat": 40.3164093, "lon": 15.0613757, "tags": {"amenity": "cafe"}}, {"type": "node", "id": 2806634156, "lat": 40.32025, "lon": 15.0609707, "tags": {"amenity": "cafe", "name": "Fratelli Piccirillo"}}, {"type": "node", "id": 2806634158, "lat": 40.316213, "lon": 15.0618424, "tags": {"amenity": "cafe"}}, {"type": "node", "id": 2806634178, "lat": 40.3186262, "lon": 15.0689851, "tags": {"amenity": "restaurant", "name": "Agriturismo San Lio"}}, {"type": "node", "id": 2806634179, "lat": 40.3136115, "lon": 15.0650852, "tags": {"amenity": "cafe"}}, {"type": "node", "id": 2806642347, "lat": 40.307091, "lon": 15.0652837, "tags": {"amenity": "cafe", "name": "Crazy Bar"}}, {"type": "node", "id": 2869124066, "lat": 40.3119421, "lon": 14.9457014}, {"type": "node", "id": 2869124067, "lat": 40.3118071, "lon": 14.9457631}, {"type": "node", "id": 2869124068, "lat": 40.3118398, "lon": 14.9458435}, {"type": "node", "id": 2869124069, "lat": 40.3119646, "lon": 14.9457497}, {"type": "node", "id": 3021914148, "lat": 40.3834454, "lon": 15.0691406, "tags": {"amenity": "cafe"}}, {"type": "node", "id": 3035073386, "lat": 40.3357176, "lon": 15.0030682, "tags": {"amenity": "cafe", "indoor_seating": "yes", "name": "ZanZiBar", "outdoor_seating": "yes"}}, {"type": "node", "id": 4063175544, "lat": 40.2674938, "lon": 14.93892, "tags": {"amenity": "restaurant", "cuisine": "regional", "name": "'K"}}, {"type": "node", "id": 4190593221, "lat": 40.3091362, "lon": 14.9760324, "tags": {"addr:city": "Castellabate (loc. Alano)", "addr:postcode": "84048", "addr:street": "Via Alberico Guariglia", "amenity": "restaurant", "cuisine": "regional", "name": "Da Giovana - ristorante/pizzeria", "phone": "+39 0974 632004"}}, {"type": "node", "id": 4215752078, "lat": 40.3108257, "lon": 14.9783555, "tags": {"addr:city": "Castellabate (loc. Alano)", "addr:housenumber": "22", "addr:postcode": "84048", "addr:street": "Via Alberico Guariglia", "amenity": "restaurant", "cuisine": "regional;italian", "name": "La Fattoria", "phone": "+39 0974 968110"}}, {"type": "node", "id": 4362113090, "lat": 40.3385524, "lon": 15.0110081}, {"type": "node", "id": 4362113091, "lat": 40.3385549, "lon": 15.0109617}, {"type": "node", "id": 4362113092, "lat": 40.3385684, "lon": 15.0109721}, {"type": "node", "id": 4362113093, "lat": 40.3386353, "lon": 15.0110719}, {"type": "node", "id": 4362113094, "lat": 40.3386677, "lon": 15.0107094}, {"type": "node", "id": 4362113095, "lat": 40.3386934, "lon": 15.0108711}, {"type": "node", "id": 4362113096, "lat": 40.338717, "lon": 15.0108892}, {"type": "node", "id": 4362113097, "lat": 40.3387406, "lon": 15.0107655}, {"type": "node", "id": 4369845608, "lat": 40.3062569, "lon": 14.9685495, "tags": {"amenity": "restaurant", "name": "Bar Alano"}}, {"type": "node", "id": 4369845609, "lat": 40.2982682, "lon": 14.9595263, "tags": {"amenity": "restaurant", "name": "I Due Fratelli"}}, {"type": "node", "id": 4812129139, "lat": 40.3599791, "lon": 14.9994492, "tags": {"amenity": "restaurant", "name": "Friggitoria Pesciolino", "name:it": "Friggitoria Pesciolino"}}, {"type": "node", "id": 5743385066, "lat": 40.297338, "lon": 14.9472213, "tags": {"addr:city": "Castellabate", "addr:housenumber": "52", "addr:postcode": "84048", "addr:street": "Lungomare bracale", "amenity": "restaurant", "check_date": "2024-07-24", "cuisine": "pizza;coffee_shop", "delivery": "no", "name": "Bar Blue Eyes", "opening_hours": "Mo-Su 06:30-1:00", "outdoor_seating": "yes", "takeaway": "yes"}}, {"type": "node", "id": 6299023085, "lat": 40.2891933, "lon": 15.0670987, "tags": {"addr:housenumber": "6", "addr:street": "Via Municipio", "amenity": "restaurant", "cuisine": "italian", "internet_access": "wlan", "name": "La Cilentana", "phone": "+393285537709"}}, {"type": "node", "id": 6856196810, "lat": 40.1791137, "lon": 15.0265324, "tags": {"addr:city": "Acciaroli", "addr:country": "IT", "addr:housenumber": "19", "addr:postcode": "84068", "addr:street": "Via Nino Bixio", "amenity": "restaurant", "cuisine": "pizza", "name": "Luca e la Lucciola", "oven": "wood_fired", "phone": "+390974050123"}}, {"type": "node", "id": 6920179374, "lat": 40.3643142, "lon": 15.0002822, "tags": {"amenity": "restaurant", "cuisine": "pizza", "name": "Lido Aurora"}}, {"type": "node", "id": 6920266897, "lat": 40.3571809, "lon": 14.9981018, "tags": {"amenity": "restaurant", "cuisine": "pizza", "name": "Toto Sapore"}}, {"type": "node", "id": 7282721584, "lat": 40.2818473, "lon": 14.9460395, "tags": {"amenity": "restaurant", "name": "Osteria del Pozzillo", "phone": "+39 0974 961001"}}, {"type": "node", "id": 7926101663, "lat": 40.3501825, "lon": 14.989354, "tags": {"amenity": "restaurant", "name": "Ristorante Pizzeria Da Ciccio"}}, {"type": "node", "id": 8125055379, "lat": 40.1932439, "lon": 15.0994783}, {"type": "node", "id": 8125055380, "lat": 40.1931759, "lon": 15.0996278}, {"type": "node", "id": 8125055381, "lat": 40.1929551, "lon": 15.0994558}, {"type": "node", "id": 8125055382, "lat": 40.1929881, "lon": 15.0993832}, {"type": "node", "id": 8125055383, "lat": 40.1931223, "lon": 15.0994878}, {"type": "node", "id": 8125055384, "lat": 40.1931573, "lon": 15.0994108}, {"type": "node", "id": 8612204917, "lat": 40.2866487, "lon": 14.9463381, "tags": {"amenity": "restaurant", "check_date": "2024-10-12", "name": "Le Gatte", "website": "https://www.legatte.it/"}}, {"type": "node", "id": 8760704061, "lat": 40.2676848, "lon": 14.9338169, "tags": {"amenity": "restaurant", "name": "Donna Elvira"}}, {"type": "node", "id": 8836470936, "lat": 40.2873208, "lon": 14.9473045, "tags": {"amenity": "restaurant", "cuisine": "italian", "highchair": "yes", "level": "0", "name": "Da Nello Pasta & Pizza", "toilets": "yes", "toilets:wheelchair": "no"}}, {"type": "node", "id": 8843051553, "lat": 40.2795423, "lon": 14.9520554, "tags": {"amenity": "restaurant", "check_date": "2024-10-12", "cuisine": "italian", "name": "Il Calesse", "opening_hours": "May-Oct Mo-Su,PH 12:00-14:30,19:00-01:00", "outdoor_seating": "yes", "phone": "+39 0974 967254", "takeaway": "yes", "toilets": "yes", "toilets:wheelchair": "no", "wheelchair": "limited"}}, {"type": "node", "id": 9062330621, "lat": 40.2811663, "lon": 14.9514975, "tags": {"amenity": "restaurant", "bar": "yes", "brewery": "various", "check_date": "2024-07-23", "cuisine": "italian;regional;pizza", "diet:vegetarian": "yes", "highchair": "yes", "internet_access": "wlan", "internet_access:fee": "customers", "name": "Bonora Ristorante Pizzeria", "outdoor_seating": "yes", "payment:american_express": "yes", "payment:cash": "yes", "payment:mastercard": "yes", "payment:visa": "yes", "payment:visa_debit": "yes", "phone": "+39 3896697624", "reservation": "recommended", "source": "survey", "takeaway": "no", "toilets": "yes", "website": "https://bonoraristorante.it/"}}, {"type": "node", "id": 9073959207, "lat": 40.1777758, "lon": 15.123383, "tags": {"amenity": "restaurant", "name": "Ristorante Europa"}}, {"type": "node", "id": 9076488389, "lat": 40.1756647, "lon": 15.1244095, "tags": {"amenity": "restaurant", "name": "Barakuda"}}, {"type": "node", "id": 9079205028, "lat": 40.1768377, "lon": 15.1218647, "tags": {"amenity": "restaurant", "name": "Da Roberto"}}, {"type": "node", "id": 9084459503, "lat": 40.1903881, "lon": 15.0553393, "tags": {"amenity": "restaurant", "name": "Made In Terra"}}, {"type": "node", "id": 9130492195, "lat": 40.2924286, "lon": 14.9516459, "tags": {"amenity": "restaurant", "name": "Nautilus", "website": "https://nautilusristorante.it/"}}, {"type": "node", "id": 9195140153, "lat": 40.1902978, "lon": 15.0556567, "tags": {"amenity": "cafe", "name": "Cafeteria della Puazza"}}, {"type": "node", "id": 9195346333, "lat": 40.3516533, "lon": 15.0017898, "tags": {"amenity": "cafe", "name": "Bar T"}}, {"type": "node", "id": 9214980324, "lat": 40.1935321, "lon": 15.1071909}, {"type": "node", "id": 9214980325, "lat": 40.1934462, "lon": 15.1071152}, {"type": "node", "id": 9214980326, "lat": 40.1933648, "lon": 15.1072735}, {"type": "node", "id": 9214980327, "lat": 40.1934507, "lon": 15.1073492}, {"type": "node", "id": 9656368524, "lat": 40.3507284, "lon": 14.9888792, "tags": {"amenity": "restaurant", "cuisine": "pizza", "name": "Dopodich\u00e9 Drink&Pizza"}}, {"type": "node", "id": 9656368529, "lat": 40.3503831, "lon": 14.9902572, "tags": {"addr:city": "Agropoli", "addr:street": "Viale Europa", "amenity": "restaurant", "cuisine": "pizza", "name": "Pizzeria tavola calda \"GIUSY\""}}, {"type": "node", "id": 9656407007, "lat": 40.351947, "lon": 14.9930976, "tags": {"addr:city": "Agropoli", "addr:postcode": "84043", "addr:street": "Via Kennedy", "amenity": "restaurant", "cuisine": "pizza", "name": "Lo Sfizio Della Pizza"}}, {"type": "node", "id": 9664147234, "lat": 40.3398076, "lon": 15.0091814, "tags": {"amenity": "cafe"}}, {"type": "node", "id": 9807090240, "lat": 40.2423971, "lon": 14.9997919, "tags": {"amenity": "cafe", "name": "Bar Galaxy"}}, {"type": "node", "id": 9808163804, "lat": 40.2393606, "lon": 15.0009809}, {"type": "node", "id": 9808163805, "lat": 40.2394559, "lon": 15.0010236}, {"type": "node", "id": 9808163806, "lat": 40.2394067, "lon": 15.0012118}, {"type": "node", "id": 9808163807, "lat": 40.2393403, "lon": 15.001182}, {"type": "node", "id": 9808163808, "lat": 40.2393536, "lon": 15.0011313}, {"type": "node", "id": 9808163809, "lat": 40.2393246, "lon": 15.0011184}, {"type": "node", "id": 9808391946, "lat": 40.2393765, "lon": 15.0016333, "tags": {"amenity": "cafe", "name": "Dell'Assunta"}}, {"type": "node", "id": 9812097091, "lat": 40.2332893, "lon": 14.9850594, "tags": {"amenity": "restaurant", "cuisine": "pizza;regional", "name": "Catania"}}, {"type": "node", "id": 9819511690, "lat": 40.3532545, "lon": 14.9920231, "tags": {"addr:city": "Agropoli", "addr:housenumber": "40", "addr:postcode": "84043", "addr:street": "Corso Armando Diaz", "amenity": "restaurant", "diet:mediterranean": "yes", "name": "Furano - Bahari", "phone": "+39 29996656", "website": "https://www.furanobahari.com/"}}, {"type": "node", "id": 9825055390, "lat": 40.3621293, "lon": 15.0000631, "tags": {"addr:city": "Agropoli", "addr:postcode": "84043", "addr:street": "Via San Marco", "amenity": "cafe", "name": "Gold Caf\u00e8", "outdoor_seating": "yes"}}, {"type": "node", "id": 9825055391, "lat": 40.361385, "lon": 14.9998944, "tags": {"addr:city": "Agropoli", "addr:postcode": "84043", "addr:street": "Via San Marco", "amenity": "restaurant", "cuisine": "seafood", "name": "La Cucina di Cozzechella"}}, {"type": "node", "id": 9825055393, "lat": 40.3592607, "lon": 14.9992275, "tags": {"addr:city": "Agropoli", "addr:postcode": "84043", "addr:street": "Via San Marco", "amenity": "restaurant", "cuisine": "pizza", "name": "VINARTE Pizza & Fuoco"}}, {"type": "node", "id": 9825055397, "lat": 40.3556974, "lon": 14.9972985, "tags": {"amenity": "restaurant", "name": "BEERM\u00c0N\u00ccA"}}, {"type": "node", "id": 9825055401, "lat": 40.354172, "lon": 14.9969978, "tags": {"addr:city": "Agropoli", "addr:postcode": "84043", "addr:street": "Via Risorgimento", "amenity": "restaurant", "cuisine": "pizza", "name": "Pizzeria Fof\u00f2"}}, {"type": "node", "id": 9880852092, "lat": 40.351796, "lon": 14.9872308, "tags": {"addr:city": "Agropoli", "addr:postcode": "84043", "addr:street": "Via Filippo Patella", "amenity": "restaurant", "check_date": "2024-10-11", "cuisine": "italian", "name": "Bruschetteria Pane e Vino", "opening_hours": "Mo-Su 19:30-01:00", "outdoor_seating": "yes", "phone": "+39 3288236518", "wheelchair": "no"}}, {"type": "node", "id": 9880852093, "lat": 40.3515683, "lon": 14.9878305, "tags": {"addr:city": "Agropoli", "addr:postcode": "84043", "addr:street": "Via Filippo Patella", "amenity": "restaurant", "check_date": "2024-10-11", "cuisine": "pizza", "name": "Autentica \u00ae LaPizzaNelRuoto", "outdoor_seating": "yes", "wheelchair": "no"}}, {"type": "node", "id": 9880852094, "lat": 40.3514163, "lon": 14.9878283, "tags": {"addr:city": "Agropoli", "addr:housenumber": "13", "addr:postcode": "84043", "addr:street": "Via Filippo Patella", "amenity": "restaurant", "cuisine": "regional;italian", "name": "Mezza Panella", "opening_hours": "Mo-Su 12:00-00:00", "phone": "+39 3421926170"}}, {"type": "node", "id": 9880867917, "lat": 40.3525095, "lon": 14.9864171, "tags": {"addr:city": "Agropoli", "addr:postcode": "84043", "addr:street": "Scaloni Ennio Balbo", "amenity": "restaurant", "check_date": "2024-10-11", "cuisine": "pizza", "name": "Pizzeria La Piazzetta", "phone": "+39 3284620277", "website": "https://www.facebook.com/facciona"}}, {"type": "node", "id": 9880867918, "lat": 40.3526609, "lon": 14.9866276, "tags": {"addr:city": "Agropoli", "addr:postcode": "84043", "addr:street": "Piazza Mainenti", "amenity": "restaurant", "cuisine": "pizza", "name": "Pizzeria U Suricin dal 1979"}}, {"type": "node", "id": 9893020586, "lat": 40.338013, "lon": 14.9869336}, {"type": "node", "id": 9893020587, "lat": 40.337814, "lon": 14.9870816}, {"type": "node", "id": 9893020588, "lat": 40.3378976, "lon": 14.9872749}, {"type": "node", "id": 9893020589, "lat": 40.33808, "lon": 14.9871391}, {"type": "node", "id": 9893020590, "lat": 40.3380631, "lon": 14.9871001}, {"type": "node", "id": 9893020591, "lat": 40.3380796, "lon": 14.9870878}, {"type": "node", "id": 9893020594, "lat": 40.3511341, "lon": 14.9864608, "tags": {"addr:city": "Agropoli", "addr:housenumber": "12", "addr:postcode": "84043", "addr:street": "Piazza della Mercanzia", "amenity": "restaurant", "cuisine": "italian", "name": "SCALINATELLA Ristorante Vineria", "phone": "+39 3479404279"}}, {"type": "node", "id": 10053393655, "lat": 40.3531438, "lon": 14.9861133, "tags": {"addr:city": "Agropoli", "addr:postcode": "84043", "addr:street": "Piazza Umberto I", "amenity": "restaurant", "check_date": "2024-10-11", "cuisine": "fish", "name": "La Taverna del Tuffatore Ristorante"}}, {"type": "node", "id": 10777809605, "lat": 40.3359011, "lon": 15.0039076, "tags": {"amenity": "cafe", "indoor_seating": "yes", "name": "Moderato", "outdoor_seating": "yes", "shop": "pastry"}}, {"type": "node", "id": 10809069106, "lat": 40.2145134, "lon": 15.0341687, "tags": {"addr:city": "San Mauro Cilento", "addr:postcode": "84070", "addr:street": "Localit\u00e0 Ortale", "amenity": "restaurant", "cuisine": "regional", "name": "Al Frantoio Ristorante", "phone": "+39 0974 903243"}}, {"type": "node", "id": 11132146172, "lat": 40.2918875, "lon": 14.9464381, "tags": {"amenity": "restaurant", "check_date": "2024-07-25", "cuisine": "pizza", "name": "Ci vediamo da Mario"}}, {"type": "node", "id": 11132146173, "lat": 40.291785, "lon": 14.9463874, "tags": {"amenity": "restaurant", "name": "Ristorante U Barone"}}, {"type": "node", "id": 11142389828, "lat": 40.3111749, "lon": 14.9479495, "tags": {"amenity": "restaurant", "name": "Ristorante Angel\u00ec"}}, {"type": "node", "id": 11142389842, "lat": 40.3086008, "lon": 14.9483317, "tags": {"amenity": "restaurant", "name": "Il Papavero Lounge Bar and Food"}}, {"type": "node", "id": 11142389843, "lat": 40.306785, "lon": 14.9491464, "tags": {"air_conditioning": "yes", "amenity": "restaurant", "brewery": "various", "check_date": "2024-07-22", "cuisine": "pizza", "delivery": "yes", "diet:vegetarian": "yes", "name": "Pizzeria La Zagara", "outdoor_seating": "yes", "payment:cash": "yes", "payment:mastercard": "yes", "payment:visa": "yes", "payment:visa_debit": "yes", "reservation": "yes", "source": "survey", "takeaway": "yes", "toilets": "yes"}}, {"type": "node", "id": 11142389890, "lat": 40.2991423, "lon": 14.951077, "tags": {"amenity": "restaurant", "check_date": "2024-07-24", "cuisine": "pizza;regional", "name": "Ristorante Pizzeria Pellicano", "outdoor_seating": "yes"}}, {"type": "node", "id": 11146814195, "lat": 40.2958682, "lon": 14.9576618, "tags": {"amenity": "restaurant", "name": "Hotel Ristorante Pizzeria il Colleverde"}}, {"type": "node", "id": 11179492552, "lat": 40.1787235, "lon": 15.0270254, "tags": {"amenity": "restaurant", "name": "2 su 2", "outdoor_seating": "yes"}}, {"type": "node", "id": 11183392660, "lat": 40.283083, "lon": 14.9618299, "tags": {"amenity": "cafe", "name": "MAnhattan caf\u00e8", "outdoor_seating": "yes"}}, {"type": "node", "id": 11186507444, "lat": 40.3421458, "lon": 14.9966473, "tags": {"amenity": "restaurant", "indoor_seating": "yes", "name": "Il Buttero", "outdoor_seating": "yes", "wheelchair": "yes"}}, {"type": "node", "id": 11200580204, "lat": 40.2336116, "lon": 14.9519205, "tags": {"amenity": "restaurant", "name": "Ristorante pizzeria gelateria Paradise"}}, {"type": "node", "id": 11200580216, "lat": 40.2466436, "lon": 14.9579099, "tags": {"amenity": "cafe", "indoor_seating": "yes", "name": "Green bar", "outdoor_seating": "yes"}}, {"type": "node", "id": 11200580341, "lat": 40.2532235, "lon": 14.9538873, "tags": {"amenity": "restaurant", "cuisine": "meat", "name": "Beef", "survey:date": "2024-03-22"}}, {"type": "node", "id": 11203283195, "lat": 40.2841654, "lon": 14.9649695, "tags": {"amenity": "restaurant", "name": "Ristorante Madonna della Scala"}}, {"type": "node", "id": 11206171966, "lat": 40.1797863, "lon": 15.025346, "tags": {"amenity": "restaurant", "cuisine": "pizza", "name": "Pizza amore e fantasia", "outdoor_seating": "yes"}}, {"type": "node", "id": 11206171969, "lat": 40.1790352, "lon": 15.025629, "tags": {"amenity": "restaurant", "name": "Kalma", "outdoor_seating": "yes"}}, {"type": "node", "id": 11206171971, "lat": 40.1787063, "lon": 15.026105, "tags": {"amenity": "restaurant", "name": "Ristorante il Borgo", "outdoor_seating": "yes"}}, {"type": "node", "id": 11206171972, "lat": 40.1785926, "lon": 15.0269862, "tags": {"amenity": "restaurant", "name": "Ristorante da Claudio", "outdoor_seating": "yes"}}, {"type": "node", "id": 11210540285, "lat": 40.2678313, "lon": 14.9354806, "tags": {"amenity": "restaurant", "cuisine": "pizza", "name": "Bar Pizzeria Petracchione's way"}}, {"type": "node", "id": 11211819382, "lat": 40.2804178, "lon": 14.9546537, "tags": {"amenity": "restaurant", "cuisine": "pizza", "name": "Pizza e Bolle", "outdoor_seating": "yes"}}, {"type": "node", "id": 11211819477, "lat": 40.2685059, "lon": 14.9355188, "tags": {"amenity": "restaurant", "name": "Quasi in Porto", "outdoor_seating": "yes"}}, {"type": "node", "id": 11215147368, "lat": 40.3097595, "lon": 14.9495622, "tags": {"amenity": "cafe"}}, {"type": "node", "id": 11215506819, "lat": 40.2664468, "lon": 15.0171015, "tags": {"amenity": "restaurant", "cuisine": "pizza"}}, {"type": "node", "id": 11215553204, "lat": 40.2992201, "lon": 15.0006321, "tags": {"amenity": "restaurant", "name": "Ristorante da Pasquale cucina tipica"}}, {"type": "node", "id": 11230808908, "lat": 40.2338399, "lon": 14.9432965, "tags": {"amenity": "restaurant"}}, {"type": "node", "id": 11399851134, "lat": 40.1743632, "lon": 15.0906174, "tags": {"addr:city": "Pollica", "addr:postcode": "84068", "addr:street": "Pioppi", "amenity": "cafe", "name": "Pioppi Caf\u00e8", "outdoor_seating": "yes"}}, {"type": "node", "id": 11399858774, "lat": 40.1743776, "lon": 15.0893076, "tags": {"addr:city": "Pollica", "addr:place": "Pioppi", "addr:postcode": "84068", "amenity": "restaurant", "cuisine": "pizza", "name": "lo Sfizio"}}, {"type": "node", "id": 11399860449, "lat": 40.1744145, "lon": 15.0904591, "tags": {"addr:city": "Pollica", "addr:place": "Pioppi", "addr:postcode": "84068", "amenity": "restaurant", "cuisine": "pizza", "name": "U Vuttaro"}}, {"type": "node", "id": 11537676837, "lat": 40.2338701, "lon": 14.9422998, "tags": {"addr:city": "Castellabate (Ogliastro Marina)", "addr:housenumber": "1", "addr:postcode": "84048", "addr:street": "via Monsignor Pietro Passaro", "amenity": "restaurant", "cuisine": "italian;regional;fish", "diet:mediterranean": "yes", "name": "IL Cefalo hotel ristorante bar minimarket", "phone": "+39 0974 963019", "website": "https://www.ilcefalo.it/"}}, {"type": "node", "id": 11752345247, "lat": 40.2257434, "lon": 14.9830314, "tags": {"amenity": "restaurant", "indoor_seating": "yes", "name": "La Tegola", "outdoor_seating": "yes"}}, {"type": "node", "id": 11752495095, "lat": 40.2370559, "lon": 14.9651078, "tags": {"amenity": "cafe", "indoor_seating": "yes", "outdoor_seating": "yes"}}, {"type": "node", "id": 11752533734, "lat": 40.2526213, "lon": 14.9523393, "tags": {"amenity": "restaurant", "name": "La Cantinaccia", "survey:date": "2024-03-22"}}, {"type": "node", "id": 11752627010, "lat": 40.2933331, "lon": 14.954789, "tags": {"amenity": "cafe"}}, {"type": "node", "id": 11753025912, "lat": 40.3442168, "lon": 14.9969534, "tags": {"amenity": "cafe"}}, {"type": "node", "id": 11753061060, "lat": 40.351142, "lon": 14.9977845, "tags": {"amenity": "cafe", "indoor_seating": "yes", "outdoor_seating": "yes"}}, {"type": "node", "id": 11753075203, "lat": 40.351372, "lon": 14.997629, "tags": {"amenity": "restaurant"}}, {"type": "node", "id": 11753080969, "lat": 40.3485622, "lon": 14.9966419, "tags": {"amenity": "cafe"}}, {"type": "node", "id": 11753100333, "lat": 40.3560417, "lon": 14.9973596, "tags": {"amenity": "cafe"}}, {"type": "node", "id": 11753110645, "lat": 40.3568519, "lon": 14.998003, "tags": {"amenity": "restaurant"}}, {"type": "node", "id": 11753112028, "lat": 40.3559312, "lon": 14.9976417, "tags": {"amenity": "restaurant"}}, {"type": "node", "id": 11753115696, "lat": 40.3530563, "lon": 14.997091, "tags": {"amenity": "cafe", "indoor_seating": "yes", "outdoor_seating": "yes"}}, {"type": "node", "id": 11753126057, "lat": 40.3552956, "lon": 14.9974555, "tags": {"amenity": "restaurant"}}, {"type": "node", "id": 11753146481, "lat": 40.3574501, "lon": 14.99825, "tags": {"amenity": "cafe"}}, {"type": "node", "id": 11753148823, "lat": 40.358577, "lon": 14.9985354, "tags": {"amenity": "restaurant"}}, {"type": "node", "id": 11753789386, "lat": 40.3577464, "lon": 14.9985362, "tags": {"amenity": "restaurant", "cuisine": "italian;regional", "email": "giuseppemontillo@hotmail.it", "name": "Monti frutteria bruschetteria", "outdoor_seating": "yes", "phone": "+39 333 499 2451"}}, {"type": "node", "id": 11862711996, "lat": 40.2343632, "lon": 14.9848605}, {"type": "node", "id": 11862711997, "lat": 40.2344925, "lon": 14.9848655}, {"type": "node", "id": 11862711998, "lat": 40.2344892, "lon": 14.9850118}, {"type": "node", "id": 11862711999, "lat": 40.2343599, "lon": 14.9850068}, {"type": "node", "id": 12072072201, "lat": 40.2989621, "lon": 14.9474774, "tags": {"amenity": "restaurant", "check_date": "2024-07-25", "cuisine": "pizza;regional;italian", "name": "Mavi", "outdoor_seating": "yes", "reservation": "yes"}}, {"type": "node", "id": 12074156496, "lat": 40.2913275, "lon": 14.9465349, "tags": {"amenity": "cafe", "check_date": "2024-07-25"}}, {"type": "node", "id": 12074156498, "lat": 40.2905744, "lon": 14.9470447, "tags": {"amenity": "restaurant", "check_date": "2024-07-25", "name": "Duca? Dica!"}}, {"type": "node", "id": 12074156504, "lat": 40.2865907, "lon": 14.9463142, "tags": {"amenity": "restaurant", "check_date": "2024-07-25", "name": "L'Arcata"}}, {"type": "node", "id": 12074156505, "lat": 40.286548, "lon": 14.9463153, "tags": {"amenity": "restaurant", "check_date": "2024-10-12", "name": "Ligea"}}, {"type": "node", "id": 12074156507, "lat": 40.2857859, "lon": 14.9466756, "tags": {"amenity": "restaurant", "check_date": "2024-07-25", "name": "Caverna Del Mare"}}, {"type": "node", "id": 12190081927, "lat": 40.3508624, "lon": 14.9890973, "tags": {"addr:city": "Agropoli", "addr:postcode": "84043", "addr:street": "Corso Giuseppe Garibaldi", "amenity": "restaurant", "name": "QLTY"}}, {"type": "node", "id": 12190096338, "lat": 40.351308, "lon": 14.9882363, "tags": {"addr:city": "Agropoli", "addr:postcode": "84043", "addr:street": "Via Filippo Patella", "amenity": "restaurant", "name": "Mont\u00ec La Pizza Fritta"}}, {"type": "node", "id": 12244891579, "lat": 40.3508858, "lon": 14.9916316, "tags": {"amenity": "restaurant", "check_date": "2024-10-11", "name": "Il Vecchio Bottaio", "operator": "Luca Torre", "wheelchair": "yes"}}, {"type": "node", "id": 12246127985, "lat": 40.353511, "lon": 14.9873818, "tags": {"amenity": "restaurant", "check_date": "2024-10-12", "name": "Zio Tata", "phone": "+39 0974 826940", "wheelchair": "limited"}}, {"type": "node", "id": 12246199503, "lat": 40.2886152, "lon": 14.9486272, "tags": {"amenity": "cafe", "check_date": "2024-10-12", "name": "Di Matteo", "opening_hours": "Mo,We-Fr 07:30-13:30,17:00-21:00; Tu off; Sa-Su 07:30-14:00,17:00-23:00", "outdoor_seating": "yes", "wheelchair": "no"}}, {"type": "node", "id": 12246286205, "lat": 40.2787076, "lon": 14.9519087, "tags": {"amenity": "restaurant", "check_date": "2024-10-12", "name": "Il Chiostro", "phone": "+39 366 875 1879", "wheelchair": "no"}}, {"type": "node", "id": 12914351501, "lat": 40.2501347, "lon": 14.9637301, "tags": {"addr:postcode": "84084", "addr:street": "Via S. Giovanni Alto", "amenity": "restaurant", "cuisine": "fish", "name": "Da Paolo HSE", "phone": "3342464814", "self_service": "no"}}, {"type": "way", "id": 282987746, "nodes": [2869124066, 2869124067, 2869124068, 2869124069, 2869124066], "tags": {"amenity": "restaurant", "building": "yes", "name": "Bar ristorante Self service La Pagliarella"}}, {"type": "way", "id": 438466350, "nodes": [4362113097, 4362113094, 4362113091, 4362113092, 4362113090, 4362113093, 4362113096, 4362113095, 4362113097], "tags": {"addr:city": "Agropoli", "addr:housenumber": "31", "addr:street": "Via Madonna del Carmine", "amenity": "restaurant", "building": "yes", "name": "Il Ceppo", "source": "survey;Bing"}}, {"type": "way", "id": 872360789, "nodes": [8125055379, 8125055380, 8125055381, 8125055382, 8125055383, 8125055384, 8125055379], "tags": {"amenity": "restaurant", "building": "yes", "building:levels": "2", "building:use": "foodservice", "cuisine": "regional", "level": "0", "name": "I Moresani", "toilets": "yes", "website": "https://www.agriturismoimoresani.com/"}}, {"type": "way", "id": 998008723, "nodes": [9214980324, 9214980325, 9214980326, 9214980327, 9214980324], "tags": {"addr:housenumber": "4", "addr:street": "Via Serramarina", "amenity": "restaurant", "building": "yes", "cuisine": "regional", "name": "Chianarini", "phone": "+393468280346"}}, {"type": "way", "id": 1068438176, "nodes": [9808163804, 9808163805, 9808163806, 9808163807, 9808163808, 9808163809, 9808163804], "tags": {"amenity": "cafe", "building": "house", "name": "Centro Assunta"}}, {"type": "way", "id": 1079202767, "nodes": [9893020586, 9893020587, 9893020588, 9893020589, 9893020590, 9893020591, 9893020586], "tags": {"addr:city": "Agropoli", "addr:housenumber": "20", "addr:postcode": "84043", "addr:street": "Via Iscalonga", "amenity": "restaurant", "building": "yes", "description": "Orario check-in: 15:00", "name": "Villa Trentova Pizzeria & Cucina", "phone": "+39 974829382", "website": "http://www.villatrentova.it"}}, {"type": "way", "id": 1277873111, "nodes": [11862711996, 11862711997, 11862711998, 11862711999, 11862711996], "tags": {"amenity": "restaurant", "building": "yes"}}]}