{"version": 0.6, "generator": "Overpass API 0.7.62.7 375dc00a", "osm3s": {"timestamp_osm_base": "2025-06-14T15:17:02Z", "copyright": "The data included in this document is from www.openstreetmap.org. The data is made available under ODbL."}, "elements": [{"type": "node", "id": 460324660, "lat": 32.9275344, "lon": 35.3239738, "tags": {"amenity": "cafe", "brand": "\u05d0\u05e8\u05d5\u05de\u05d4", "brand:en": "Aroma Espresso Bar", "brand:he": "\u05d0\u05e8\u05d5\u05de\u05d4", "brand:wikidata": "Q2909872", "brand:wikipedia": "en:Aroma Espresso Bar", "cuisine": "coffee_shop", "internet_access": "yes", "name": "\u05d0\u05e8\u05d5\u05de\u05d4", "name:en": "Aroma", "name:en1": "Aroma Espresso Bar", "name:he": "\u05d0\u05e8\u05d5\u05de\u05d4", "takeaway": "yes"}}, {"type": "node", "id": 501562508, "lat": 32.7872238, "lon": 35.541554, "tags": {"amenity": "restaurant", "name": "rosa", "name:en": "rosa"}}, {"type": "node", "id": 501562511, "lat": 32.7870578, "lon": 35.5418287, "tags": {"amenity": "restaurant", "name": "laguna", "name:en": "laguna"}}, {"type": "node", "id": 501562512, "lat": 32.7872772, "lon": 35.5417308, "tags": {"amenity": "restaurant", "name": "big ben", "name:en": "big ben"}}, {"type": "node", "id": 501562514, "lat": 32.787187, "lon": 35.5439624, "tags": {"amenity": "restaurant", "name": "\u05e6'\u05d5\u05e7\u05d5 \u05d1\u05e8", "name:he": "\u05e6'\u05d5\u05e7\u05d5 \u05d1\u05e8"}}, {"type": "node", "id": 501562515, "lat": 32.7871372, "lon": 35.541039, "tags": {"amenity": "restaurant"}}, {"type": "node", "id": 746786208, "lat": 32.7228743, "lon": 35.5691625, "tags": {"amenity": "restaurant", "cuisine": "regional", "name": "Sharif", "name:en": "Sharif"}}, {"type": "node", "id": 759317609, "lat": 32.8465677, "lon": 35.167952, "tags": {"addr:city": "\u0637\u0645\u0631\u0629\u200e", "amenity": "restaurant", "name": "\u0645\u0646\u062a\u0632\u0647 \u0637\u0645\u0631\u0629\u200e", "name:ar": "\u0645\u0646\u062a\u0632\u0647 \u0637\u0645\u0631\u0629\u200e", "name:en": "Muntazah Tamra"}}, {"type": "node", "id": 895708933, "lat": 32.8452786, "lon": 35.5167603, "tags": {"amenity": "restaurant", "name": "k. hanahal", "name:en": "k. hanahal", "name:he": "\u05e7\u05e6\u05d4 \u05d4\u05e0\u05d7\u05dc"}}, {"type": "node", "id": 896277943, "lat": 32.7871392, "lon": 35.5411577, "tags": {"amenity": "cafe", "name": "mamamia", "name:en": "mamamia"}}, {"type": "node", "id": 896287008, "lat": 32.7864628, "lon": 35.5439472, "tags": {"amenity": "restaurant", "name": "choc-dee", "name:en": "choc-dee"}}, {"type": "node", "id": 896288084, "lat": 32.7877435, "lon": 35.5429387, "tags": {"amenity": "restaurant", "cuisine": "regional", "name": "lebanese restaurant", "name:en": "lebanese restaurant"}}, {"type": "node", "id": 896333369, "lat": 32.7880773, "lon": 35.5428314, "tags": {"amenity": "restaurant", "name": "Galei Gil Fish", "name:en": "Galei Gil Fish"}}, {"type": "node", "id": 896340007, "lat": 32.7899082, "lon": 35.543046, "tags": {"amenity": "restaurant", "cuisine": "steak_house", "name": "Decks", "name:en": "Decks"}}, {"type": "node", "id": 897004011, "lat": 32.7680607, "lon": 35.548389, "tags": {"amenity": "restaurant", "name": "\u05d2\u05dc\u05d9\u05dc\u05d0\u05d5", "name:en": "Galileo", "name:he": "\u05d2\u05dc\u05d9\u05dc\u05d0\u05d5"}}, {"type": "node", "id": 897608421, "lat": 32.7880773, "lon": 35.5401921, "tags": {"amenity": "restaurant", "name": "Tecca", "name:en": "Tecca"}}, {"type": "node", "id": 940107180, "lat": 32.8430884, "lon": 35.1641832, "tags": {"amenity": "restaurant"}}, {"type": "node", "id": 1056271763, "lat": 32.867457, "lon": 35.2760301, "tags": {"amenity": "restaurant", "cuisine": "steak_house", "name": "\u05d1\u05dc\u05d9\u05e7\u05e8", "name:en": "Bleeker", "name:he": "\u05d1\u05dc\u05d9\u05e7\u05e8", "smoking": "separated"}}, {"type": "node", "id": 1085291868, "lat": 32.7836014, "lon": 35.63621, "tags": {"amenity": "restaurant", "name": "The fish restaurant", "name:ar": "\u0645\u0637\u0639\u0645 \u0627\u0644\u0633\u0645\u0643", "name:en": "The fish restaurant", "name:it": "The Fish"}}, {"type": "node", "id": 1085291882, "lat": 32.7858383, "lon": 35.6368537, "tags": {"amenity": "restaurant", "cuisine": "burger", "name": "The beef restaurant", "name:en": "The beef restaurant"}}, {"type": "node", "id": 1310938879, "lat": 32.7026193, "lon": 35.3218213, "tags": {"amenity": "restaurant", "cuisine": "italian", "name": "Portioli", "name:en": "Portioli", "name:he": "\u05e4\u05d5\u05e8\u05d8\u05d9\u05d5\u05dc\u05d9", "opening_hours": "Mo-Su 09:00-24:00", "operator": "\u05e4\u05d5\u05e8\u05d8\u05d9\u05d5\u05dc\u05d9", "operator:en": "Portioli", "operator:he": "\u05e4\u05d5\u05e8\u05d8\u05d9\u05d5\u05dc\u05d9", "website": "http://www.portioli.co.il"}}, {"type": "node", "id": 1318502385, "lat": 32.7683827, "lon": 35.2211301, "tags": {"amenity": "restaurant"}}, {"type": "node", "id": 1318520860, "lat": 32.7854514, "lon": 35.4980904, "tags": {"amenity": "cafe"}}, {"type": "node", "id": 1339370855, "lat": 32.6590256, "lon": 35.1156001, "tags": {"amenity": "restaurant", "name": "\u05de\u05e1\u05e2\u05d3\u05ea \u05de\u05d5\u05e8\u05d2\u05df", "name:en": "Morgan", "name:he": "\u05de\u05e1\u05e2\u05d3\u05ea \u05de\u05d5\u05e8\u05d2\u05df"}}, {"type": "node", "id": 1339370856, "lat": 32.6516909, "lon": 35.1154285, "tags": {"amenity": "restaurant", "name": "\u05d8\u05e0\u05d3\u05d5\u05e7\u05d4", "name:en": "Tandoka", "name:he": "\u05d8\u05e0\u05d3\u05d5\u05e7\u05d4"}}, {"type": "node", "id": 1346124349, "lat": 32.7837765, "lon": 35.6423248}, {"type": "node", "id": 1346124351, "lat": 32.7840851, "lon": 35.6420929}, {"type": "node", "id": 1346124352, "lat": 32.7837989, "lon": 35.6422115}, {"type": "node", "id": 1346124354, "lat": 32.7837701, "lon": 35.6425163}, {"type": "node", "id": 1346124357, "lat": 32.783726, "lon": 35.642208}, {"type": "node", "id": 1346124359, "lat": 32.7840706, "lon": 35.6425304}, {"type": "node", "id": 1346124361, "lat": 32.7839876, "lon": 35.6418161}, {"type": "node", "id": 1346124366, "lat": 32.7838572, "lon": 35.6418099}, {"type": "node", "id": 1346124371, "lat": 32.7837221, "lon": 35.6423222}, {"type": "node", "id": 1346124373, "lat": 32.7840625, "lon": 35.6418829}, {"type": "node", "id": 1382066657, "lat": 32.5630537, "lon": 35.3210731, "tags": {"amenity": "restaurant", "name": "\u05d7\u05d3\u05e8 \u05d0\u05d5\u05db\u05dc", "name:en": "Lunch Room", "name:he": "\u05d7\u05d3\u05e8 \u05d0\u05d5\u05db\u05dc"}}, {"type": "node", "id": 1382816705, "lat": 32.7905652, "lon": 35.5423795, "tags": {"amenity": "restaurant", "cuisine": "fish", "name": "Fish", "name:en": "Fish"}}, {"type": "node", "id": 1382816731, "lat": 32.7911379, "lon": 35.5427926, "tags": {"amenity": "restaurant", "cuisine": "chinese", "name": "Pagoda", "name:en": "Pagoda", "phone": "+972-4-6725513"}}, {"type": "node", "id": 1382816769, "lat": 32.7910252, "lon": 35.5416714, "tags": {"amenity": "restaurant", "cuisine": "chinese", "name": "The House", "name:en": "The House"}}, {"type": "node", "id": 1390570706, "lat": 32.6039697, "lon": 35.3079713, "tags": {"addr:street": "\u05d9\u05d4\u05d5\u05d0\u05e9 \u05d3\u05d5\u05d1\u05e0\u05d5\u05d1", "amenity": "restaurant", "name": "\u05d7\u05d3\u05e8 \u05d0\u05d5\u05db\u05dc", "name:en": "Lunch Room", "name:he": "\u05d7\u05d3\u05e8 \u05d0\u05d5\u05db\u05dc"}}, {"type": "node", "id": 1425189599, "lat": 32.7561308, "lon": 35.2997438, "tags": {"amenity": "restaurant", "name": "\u05de\u05e1\u05e2\u05d3\u05ea \u05e8\u05d5\u05d1\u05e8\u05d2", "name:en": "Roberg", "name:he": "\u05de\u05e1\u05e2\u05d3\u05ea \u05e8\u05d5\u05d1\u05e8\u05d2"}}, {"type": "node", "id": 1449053619, "lat": 32.7039457, "lon": 35.5858897, "tags": {"amenity": "cafe", "internet_access": "yes", "name": "\u05d0\u05e8\u05d5\u05de\u05d4", "name:en": "Aroma", "name:he": "\u05d0\u05e8\u05d5\u05de\u05d4"}}, {"type": "node", "id": 1449083059, "lat": 32.788192, "lon": 35.6382109, "tags": {"amenity": "cafe", "name": "\u05de\u05d6\u05e0\u05d5\u05df", "name:en": "Buffet", "name:he": "\u05de\u05d6\u05e0\u05d5\u05df"}}, {"type": "node", "id": 1450794123, "lat": 32.5866913, "lon": 35.1862037, "tags": {"amenity": "restaurant"}}, {"type": "node", "id": 1518741331, "lat": 32.7231133, "lon": 35.1309218, "tags": {"amenity": "cafe"}}, {"type": "node", "id": 1636359550, "lat": 32.7101467, "lon": 35.1437107, "tags": {"amenity": "cafe"}}, {"type": "node", "id": 1750043366, "lat": 32.7053429, "lon": 35.589821, "tags": {"amenity": "restaurant"}}, {"type": "node", "id": 1750043368, "lat": 32.705347, "lon": 35.5897322, "tags": {"amenity": "cafe"}}, {"type": "node", "id": 1780618858, "lat": 32.6577673, "lon": 35.5753398, "tags": {"amenity": "restaurant", "contact:facebook": "https://www.facebook.com/tzeltamar/", "email": "ttzeltamar@gmail.com", "fax": "+972 4 675 0214", "name": "\u05e6\u05dc \u05ea\u05de\u05e8", "name:en": "Tzel Tamar", "name:he": "\u05e6\u05dc \u05ea\u05de\u05e8", "opening_hours": "Su-Th 11:30-22:30; Fr-Sa 09:00-23:00", "phone": "+972 53 809 4620;+972 4 996 6226;+972 50 865 1921", "website": "http://www.tzel-tamar.co.il/"}}, {"type": "node", "id": 1804534259, "lat": 32.7118176, "lon": 35.434209, "tags": {"addr:city": "\u0643\u0641\u0631 \u0643\u0645\u0627", "amenity": "restaurant", "name": "\u0645\u0637\u0639\u0645 \u062c\u0628\u0644 \u0637\u0627\u0628\u0648\u0631", "name:ar": "\u0645\u0637\u0639\u0645 \u062c\u0628\u0644 \u0637\u0627\u0628\u0648\u0631", "name:he": "\u05de\u05e1\u05e2\u05d3\u05ea \u05d4\u05e8 \u05d4\u05ea\u05d1\u05d5\u05e8", "source": "Bing"}}, {"type": "node", "id": 1804534264, "lat": 32.717504, "lon": 35.4376395, "tags": {"amenity": "restaurant", "source": "Bing"}}, {"type": "node", "id": 1804534266, "lat": 32.7181892, "lon": 35.438299, "tags": {"amenity": "restaurant", "barrier": "yes", "fixme": "name, name:en mismatch. Flagged by SafwatHalaby_bot-nameCopy", "name": "Laoz restaurant", "name:en": "Lauz Restaurant", "name:he": "\u05de\u05e1\u05e2\u05d3\u05ea \u05dc\u05d0\u05d5\u05d6", "source": "Bing"}}, {"type": "node", "id": 1804534285, "lat": 32.7203536, "lon": 35.4399614, "tags": {"amenity": "restaurant", "cuisine": "turkish", "fixme": "name, name:en mismatch. Flagged by SafwatHalaby_bot-nameCopy", "name": "Anatolia restaurant", "name:en": "Anatolia", "name:he": "\u05d0\u05e0\u05d0\u05d8\u05d5\u05dc\u05d9\u05d4", "source": "Bing"}}, {"type": "node", "id": 1966383482, "lat": 32.7857254, "lon": 35.5433383, "tags": {"amenity": "restaurant"}}, {"type": "node", "id": 1966383483, "lat": 32.7859937, "lon": 35.5433249, "tags": {"amenity": "restaurant"}}, {"type": "node", "id": 2010551685, "lat": 32.7038409, "lon": 35.2962272, "tags": {"addr:city": "\u0627\u0644\u0646\u0627\u0635\u0631\u0629", "amenity": "cafe", "name": "\u0645\u0642\u0647\u0649 \u0623\u0628\u0648 \u0633\u0644\u064a\u0645", "name:ar": "\u0645\u0642\u0647\u0649 \u0623\u0628\u0648 \u0633\u0644\u064a\u0645", "name:en": "Abu Salim Coffee Shop", "operator": "family", "website": "https://www.fauziazarinn.com/nazareth/lang_enself-guided-tourslang_enlang_esself-guided-tours-spanishlang_es/"}}, {"type": "node", "id": 2010551705, "lat": 32.704356, "lon": 35.2991677, "tags": {"addr:city": "\u0627\u0644\u0646\u0627\u0635\u0631\u0629", "amenity": "restaurant", "name": "\u062f\u0627\u0646\u062a\u064a", "name:ar": "\u062f\u0627\u0646\u062a\u064a", "name:en": "Dante"}}, {"type": "node", "id": 2010558868, "lat": 32.7000789, "lon": 35.2974709, "tags": {"addr:city": "\u0627\u0644\u0646\u0627\u0635\u0631\u0629", "amenity": "restaurant", "name": "\u0646\u0648\u0633\u062a\u0627\u0644\u062c\u064a\u0627", "name:ar": "\u0646\u0648\u0633\u062a\u0627\u0644\u062c\u064a\u0627", "name:en": "Nostalgia"}}, {"type": "node", "id": 2044812650, "lat": 32.6491307, "lon": 35.2910615, "tags": {"amenity": "restaurant", "name": "\u05d0\u05dc \u05e0\u05d5\u05e8", "name:ar": "\u0627\u0644\u0646\u0648\u0631", "name:en": "El Noor", "name:he": "\u05d0\u05dc \u05e0\u05d5\u05e8"}}, {"type": "node", "id": 2044852169, "lat": 32.6941224, "lon": 35.3047283, "tags": {"addr:city": "\u05e0\u05e6\u05e8\u05ea \u05e2\u05d9\u05dc\u05d9\u05ea", "amenity": "cafe", "brand": "\u05d0\u05e8\u05d5\u05de\u05d4", "brand:en": "Aroma Espresso Bar", "brand:he": "\u05d0\u05e8\u05d5\u05de\u05d4", "brand:wikidata": "Q2909872", "cuisine": "coffee_shop", "internet_access": "yes", "name": "\u05d0\u05e8\u05d5\u05de\u05d4", "name:ar": "\u0623\u0631\u0648\u0645\u0627", "name:en": "Aroma Espresso Bar", "name:he": "\u05d0\u05e8\u05d5\u05de\u05d4", "name:ru": "\u0410\u0440\u043e\u043c\u0430", "takeaway": "yes"}}, {"type": "node", "id": 2045110084, "lat": 32.7290133, "lon": 35.3244609, "tags": {"addr:city": "\u0627\u0644\u0631\u064a\u0646\u0629", "amenity": "restaurant", "name": "\u0645\u0637\u0639\u0645 \u0627\u0644\u0637\u0646\u0648\u0631", "name:ar": "\u0645\u0637\u0639\u0645 \u0627\u0644\u0637\u0646\u0648\u0631", "name:en": "El Tanoor", "name:he": "\u05de\u05e1\u05e2\u05d3\u05ea \u05d0\u05dc \u05ea\u05e0\u05d5\u05e8"}}, {"type": "node", "id": 2045110110, "lat": 32.7398946, "lon": 35.3342705, "tags": {"addr:city": "\u0643\u0641\u0631 \u0643\u0646\u0627", "amenity": "restaurant", "name": "\u0643\u0631\u064a\u0645", "name:ar": "\u0643\u0631\u064a\u0645", "name:en": "Kareem", "name:he": "\u05db\u05e8\u05d9\u05dd"}}, {"type": "node", "id": 2045110123, "lat": 32.7414512, "lon": 35.3344861, "tags": {"addr:city": "\u0643\u0641\u0631 \u0643\u0646\u0627", "amenity": "restaurant", "name": "\u0623\u0628\u0648 \u0645\u0631\u0627\u062f", "name:ar": "\u0623\u0628\u0648 \u0645\u0631\u0627\u062f", "name:he": "\u05d0\u05d1\u05d5 \u05de\u05d5\u05e8\u05d0\u05d3"}}, {"type": "node", "id": 2045110130, "lat": 32.7425921, "lon": 35.3349532, "tags": {"addr:city": "\u0643\u0641\u0631 \u0643\u0646\u0627", "amenity": "restaurant", "name": "\u0645\u0637\u0639\u0645 \u0627\u0644\u0625\u062e\u0648\u0629", "name:ar": "\u0645\u0637\u0639\u0645 \u0627\u0644\u0625\u062e\u0648\u0629", "name:he": "\u05de\u05e1\u05e2\u05d3\u05ea \u05d4\u05d0\u05d7\u05d9\u05dd"}}, {"type": "node", "id": 2054183977, "lat": 32.7360414, "lon": 35.188752, "tags": {"amenity": "restaurant"}}, {"type": "node", "id": 2061477610, "lat": 32.8675447, "lon": 35.2761392, "tags": {"amenity": "restaurant", "name": "\u05e0\u05d0\u05e9 \u05e0\u05d0\u05e9", "name:en": "Nash Nash", "name:he": "\u05e0\u05d0\u05e9 \u05e0\u05d0\u05e9", "source": "Bing"}}, {"type": "node", "id": 2300582517, "lat": 32.6395421, "lon": 35.3447115}, {"type": "node", "id": 2300582537, "lat": 32.6396077, "lon": 35.3447081}, {"type": "node", "id": 2300582538, "lat": 32.6396062, "lon": 35.3446666}, {"type": "node", "id": 2300582539, "lat": 32.6396884, "lon": 35.3446624}, {"type": "node", "id": 2300582540, "lat": 32.6396961, "lon": 35.3448714}, {"type": "node", "id": 2300582541, "lat": 32.6395042, "lon": 35.3448813}, {"type": "node", "id": 2300582542, "lat": 32.6395017, "lon": 35.3448128}, {"type": "node", "id": 2300582543, "lat": 32.6395458, "lon": 35.3448105}, {"type": "node", "id": 2301804443, "lat": 32.8621788, "lon": 35.2994653, "tags": {"addr:city": "\u0633\u062e\u0646\u064a\u0646", "amenity": "restaurant", "name": "\u063a\u0631\u064a\u0646", "name:ar": "\u063a\u0631\u064a\u0646", "name:en": "Green", "name:he": "\u05d2\u05e8\u05d9\u05df"}}, {"type": "node", "id": 2333571135, "lat": 32.7064923, "lon": 35.30159, "tags": {"addr:city": "\u0627\u0644\u0646\u0627\u0635\u0631\u0629", "addr:housename": "Al Bishara 60 Nazereth", "amenity": "cafe", "cuisine": "italian", "internet_access": "yes", "name": "\u0645\u0642\u0647\u0649 \u0628\u064a\u0627\u062a", "name:ar": "\u0645\u0642\u0647\u0649 \u0628\u064a\u0627\u062a", "name:en": "Caf\u00e9 Bayat", "name:fr": "Caf\u00e9 Bayat"}}, {"type": "node", "id": 2366076828, "lat": 32.7098465, "lon": 35.1438136, "tags": {"amenity": "cafe", "cost:coffee": "$10", "cuisine": "coffee_shop", "internet_access": "wlan", "name": "\u05d0\u05e8\u05e7\u05e4\u05d4", "name:en": "Arcaffe", "name:he": "\u05d0\u05e8\u05e7\u05e4\u05d4", "operator": "Arcaffe", "outdoor_seating": "yes"}}, {"type": "node", "id": 2506391815, "lat": 32.9431641, "lon": 35.3712892}, {"type": "node", "id": 2506391816, "lat": 32.943202, "lon": 35.3712022}, {"type": "node", "id": 2506391818, "lat": 32.9432931, "lon": 35.371369}, {"type": "node", "id": 2506391820, "lat": 32.943331, "lon": 35.371282}, {"type": "node", "id": 2509052837, "lat": 32.6859672, "lon": 35.6030536}, {"type": "node", "id": 2509052838, "lat": 32.6862271, "lon": 35.6031166}, {"type": "node", "id": 2509052839, "lat": 32.6861861, "lon": 35.6033829}, {"type": "node", "id": 2509052840, "lat": 32.6856806, "lon": 35.6033004}, {"type": "node", "id": 2513572788, "lat": 32.7039914, "lon": 35.2980767, "tags": {"addr:city": "\u0627\u0644\u0646\u0627\u0635\u0631\u0629", "amenity": "restaurant", "cuisine": "katayef/pancakes", "name": "\u0623\u0628\u0648 \u0623\u0634\u0631\u0641", "name:ar": "\u0623\u0628\u0648 \u0623\u0634\u0631\u0641", "name:en": "Abu Ashraf"}}, {"type": "node", "id": 2519565048, "lat": 32.7462102, "lon": 35.3377938, "tags": {"addr:city": "\u0643\u0641\u0631 \u0643\u0646\u0627", "amenity": "restaurant", "name": "\u0645\u0637\u0639\u0645 \u0623\u0628\u0648 \u064a\u0648\u0633\u0641", "name:ar": "\u0645\u0637\u0639\u0645 \u0623\u0628\u0648 \u064a\u0648\u0633\u0641", "name:en": "Restaurant Abu Yusuf", "name:he": "\u05d0\u05d1\u05d5 \u05d9\u05d5\u05e1\u05e3"}}, {"type": "node", "id": 2777989855, "lat": 32.7118395, "lon": 35.1245388, "tags": {"amenity": "restaurant", "cuisine": "regional"}}, {"type": "node", "id": 2939671623, "lat": 32.7070047, "lon": 35.1741936, "tags": {"amenity": "cafe", "name": "\u05e7\u05e4\u05d4\u05e7\u05e4\u05d4", "name:en": "Cafe Cafe", "name:en1": "CafeCafe", "name:he": "\u05e7\u05e4\u05d4\u05e7\u05e4\u05d4", "operator": "CafeCafe"}}, {"type": "node", "id": 2939671661, "lat": 32.7066204, "lon": 35.1745624, "tags": {"amenity": "restaurant", "cuisine": "sushi", "name": "\u05d0\u05e6\u05d4", "name:en": "Atza", "name:he": "\u05d0\u05e6\u05d4"}}, {"type": "node", "id": 3095114320, "lat": 32.8953741, "lon": 35.3676549, "tags": {"addr:city": "\u0648\u0627\u062f\u064a \u0633\u0644\u0627\u0645\u0629", "amenity": "restaurant", "name": "\u0645\u0637\u0639\u0645 \u0627\u0644\u062f\u064a\u0648\u0627\u0646", "name:ar": "\u0645\u0637\u0639\u0645 \u0627\u0644\u062f\u064a\u0648\u0627\u0646", "name:en": "aldiwan Restaurant", "name:he": "\u05de\u05e1\u05e2\u05d3\u05ea \u05d0\u05be\u05d3\u05d9\u05d5\u05d5\u05d0\u05df", "operator": "ziad", "phone": "0522846515"}}, {"type": "node", "id": 3124113536, "lat": 32.9372146, "lon": 35.3571974, "tags": {"addr:city": "\u0627\u0644\u0631\u0627\u0645\u0629", "amenity": "restaurant", "cuisine": "regional", "name": "\u0639\u0632\u0628\u0629", "name:ar": "\u0639\u0632\u0628\u0629", "name:en": "Ezba", "name:he": "\u05e2\u05d6\u05d1\u05d4"}}, {"type": "node", "id": 3243585539, "lat": 32.533937, "lon": 35.3571659, "tags": {"amenity": "restaurant", "cuisine": "regional", "name": "\u05d7\u05d5\u05d5\u05ea \u05d4\u05ea\u05d1\u05dc\u05d9\u05e0\u05d9\u05dd", "name:en": "Herb farm", "name:he": "\u05d7\u05d5\u05d5\u05ea \u05d4\u05ea\u05d1\u05dc\u05d9\u05e0\u05d9\u05dd"}}, {"type": "node", "id": 3243597506, "lat": 32.553987, "lon": 35.3337772}, {"type": "node", "id": 3243597507, "lat": 32.5538686, "lon": 35.3336022}, {"type": "node", "id": 3243597508, "lat": 32.5541165, "lon": 35.3336537}, {"type": "node", "id": 3243597509, "lat": 32.5539982, "lon": 35.3334788}, {"type": "node", "id": 3328644164, "lat": 32.722219, "lon": 35.1297065}, {"type": "node", "id": 3328644165, "lat": 32.7221062, "lon": 35.1296726}, {"type": "node", "id": 3328644166, "lat": 32.7221412, "lon": 35.1294954}, {"type": "node", "id": 3328644167, "lat": 32.7221697, "lon": 35.1294985}, {"type": "node", "id": 3328644168, "lat": 32.7222514, "lon": 35.129557}, {"type": "node", "id": 3328644170, "lat": 32.7222243, "lon": 35.1296819}, {"type": "node", "id": 3328644191, "lat": 32.7217968, "lon": 35.1298951}, {"type": "node", "id": 3328644192, "lat": 32.7218539, "lon": 35.1298812}, {"type": "node", "id": 3328644893, "lat": 32.7218837, "lon": 35.1298026}, {"type": "node", "id": 3328644896, "lat": 32.7218473, "lon": 35.1297773}, {"type": "node", "id": 3328644897, "lat": 32.7219152, "lon": 35.1296008}, {"type": "node", "id": 3328644898, "lat": 32.7217715, "lon": 35.1295148}, {"type": "node", "id": 3328644900, "lat": 32.7218119, "lon": 35.1297527}, {"type": "node", "id": 3328644901, "lat": 32.7217577, "lon": 35.1298695}, {"type": "node", "id": 3329113966, "lat": 32.7225997, "lon": 35.1310387}, {"type": "node", "id": 3329113967, "lat": 32.722596, "lon": 35.1311804}, {"type": "node", "id": 3329113968, "lat": 32.7225328, "lon": 35.1311781}, {"type": "node", "id": 3329113969, "lat": 32.7225344, "lon": 35.1311161}, {"type": "node", "id": 3329113970, "lat": 32.7224552, "lon": 35.1311131}, {"type": "node", "id": 3329113971, "lat": 32.7224573, "lon": 35.1310334}, {"type": "node", "id": 3329113978, "lat": 32.7226367, "lon": 35.1300828, "tags": {"amenity": "restaurant", "cuisine": "pizza"}}, {"type": "node", "id": 3333457257, "lat": 32.9152675, "lon": 35.3029843, "tags": {"amenity": "cafe", "name": "\u05d0\u05de\u05e0\u05d5\u05ea \u05d1\u05e7\u05e4\u05d4", "name:en": "Art in Coffee", "name:he": "\u05d0\u05de\u05e0\u05d5\u05ea \u05d1\u05e7\u05e4\u05d4", "opening_hours": "Su-Fr 10:00-00:00, Sa 18:00-00:00", "phone": "+972 4 988 7880"}}, {"type": "node", "id": 3511083403, "lat": 32.7590563, "lon": 35.4113606, "tags": {"amenity": "restaurant", "contact:phone": "+97246769955", "cuisine": "oriental", "name": "\u05de\u05e1\u05e2\u05d3\u05ea \u05d0\u05dc\u05d1\u05ea\u05e8\u05d0", "name:en": "Al Batra", "name:he": "\u05de\u05e1\u05e2\u05d3\u05ea \u05d0\u05dc\u05d1\u05ea\u05e8\u05d0"}}, {"type": "node", "id": 3610765236, "lat": 32.849092, "lon": 35.6649946, "tags": {"amenity": "restaurant", "name": "\u05d4\u05d1\u05d9\u05e7\u05ea\u05d4", "name:en": "Habikta", "name:he": "\u05d4\u05d1\u05d9\u05e7\u05ea\u05d4"}}, {"type": "node", "id": 3622389979, "lat": 32.9195128, "lon": 35.4300595, "tags": {"amenity": "restaurant", "contact:phone": "+97246989680", "contact:phone2": "+972549428691", "contact:website": "http://64227370.rest.co.il/", "description": "\u05d0\u05e8\u05d5\u05d7\u05d5\u05ea \u05d1\u05d5\u05e7\u05e8, \u05d1\u05e8\u05d9\u05d0\u05d5\u05ea, \u05d2\u05d1\u05d9\u05e0\u05d5\u05ea, \u05d2\u05dc\u05d9\u05d3\u05d4, \u05d7\u05dc\u05d1\u05d9, \u05e6\u05de\u05d7\u05d5\u05e0\u05d9", "name": "\u05de\u05e1\u05e2\u05d3\u05ea \u05de\u05e9\u05e7 \u05e2\u05d9\u05df \u05db\u05de\u05d5\u05e0\u05d9\u05dd \u05d1\u05e2\u05d9\u05df \u05db\u05de\u05d5\u05e0\u05d9\u05dd", "name:en": "Ein Kamonim", "name:he": "\u05de\u05e1\u05e2\u05d3\u05ea \u05de\u05e9\u05e7 \u05e2\u05d9\u05df \u05db\u05de\u05d5\u05e0\u05d9\u05dd \u05d1\u05e2\u05d9\u05df \u05db\u05de\u05d5\u05e0\u05d9\u05dd", "opening_hours": "Mo-Su 09:30-20:00; Fr 09:30-22:00", "wheelchair": "yes"}}, {"type": "node", "id": 3718054581, "lat": 32.7081363, "lon": 35.1747142, "tags": {"alt_name": "Burgus Burger Bar", "alt_name:en": "Burgus Burger Bar", "amenity": "restaurant", "brand": "Burgus Burger Bar", "brand:en": "Burgus Burger Bar", "brand:wikidata": "Q64760094", "check_date": "2024-08-30", "cuisine": "burger", "name": "BBB", "name:en": "BBB"}}, {"type": "node", "id": 3718054582, "lat": 32.7059363, "lon": 35.175251, "tags": {"amenity": "restaurant", "name": "\u05e7\u05d9\u05e0\u05d5\u05d7\u05d9 \u05e0\u05d3\u05d1", "name:en": "\"Nadav\" Desserts", "name:he": "\u05e7\u05d9\u05e0\u05d5\u05d7\u05d9 \u05e0\u05d3\u05d1"}}, {"type": "node", "id": 3774033955, "lat": 32.6206333, "lon": 35.3130074, "tags": {"alt_name": "Burgus Burger Bar", "alt_name:en": "Burgus Burger Bar", "amenity": "restaurant", "brand": "Burgus Burger Bar", "brand:en": "Burgus Burger Bar", "brand:wikidata": "Q64760094", "cuisine": "burger", "name": "BBB", "name:en": "BBB"}}, {"type": "node", "id": 3774033956, "lat": 32.6204616, "lon": 35.3130879, "tags": {"amenity": "cafe", "brand": "\u05e7\u05e4\u05d4 \u05dc\u05e0\u05d3\u05d5\u05d5\u05e8", "brand:en": "Landwer Coffee", "brand:he": "\u05e7\u05e4\u05d4 \u05dc\u05e0\u05d3\u05d5\u05d5\u05e8", "brand:wikidata": "Q6485288", "cuisine": "coffee_shop", "name": "\u05dc\u05e0\u05d3\u05d5\u05d5\u05e8", "name:en": "Landwer", "name:he": "\u05dc\u05e0\u05d3\u05d5\u05d5\u05e8", "takeaway": "yes"}}, {"type": "node", "id": 3791067314, "lat": 32.6853968, "lon": 35.4208005, "tags": {"amenity": "cafe", "cuisine": "coffee_shop", "name": "\u05e7\u05e4\u05d4\u05d3\u05e8\u05e6\u05d9\u05d4", "name:en": "Cafederatzia", "name:he": "\u05e7\u05e4\u05d4\u05d3\u05e8\u05e6\u05d9\u05d4"}}, {"type": "node", "id": 3833348925, "lat": 32.8151468, "lon": 35.1502062, "tags": {"addr:city": "\u0634\u0641\u0627 \u0639\u0645\u0631\u0648", "amenity": "restaurant", "name": "\u062d\u062f\u0627\u0626\u0642 \u0634\u0641\u0627 \u0639\u0645\u0631\u0648", "name:ar": "\u062d\u062f\u0627\u0626\u0642 \u0634\u0641\u0627 \u0639\u0645\u0631\u0648", "name:en": "Ganay Shfaram", "name:he": "\u05d2\u05e0\u05d9 \u05e9\u05e4\u05e8\u05e2\u05dd"}}, {"type": "node", "id": 3843389873, "lat": 32.9362115, "lon": 35.4544537, "tags": {"addr:city": "Amirim", "amenity": "restaurant", "diet:vegetarian": "yes", "name": "\u05de\u05d9\u05e8\u05d1 \u05d4\u05de\u05ea\u05d9\u05e7\u05d5\u05ea", "name:en": "Dalia's Restaurant", "name:he": "\u05de\u05d9\u05e8\u05d1 \u05d4\u05de\u05ea\u05d9\u05e7\u05d5\u05ea", "opening_hours": "08:00-20:00"}}, {"type": "node", "id": 3847127864, "lat": 32.9369049, "lon": 35.4538908, "tags": {"amenity": "restaurant", "name": "\u05d1\u05d9\u05ea 77", "name:en": "Bait77", "name:he": "\u05d1\u05d9\u05ea 77", "website": "http://www.bait77.com"}}, {"type": "node", "id": 3896075040, "lat": 32.8284428, "lon": 35.512921, "tags": {"amenity": "restaurant", "level": "1", "name": "Magdala"}}, {"type": "node", "id": 3949834336, "lat": 32.6381514, "lon": 35.3441774, "tags": {"addr:city": "\u0646\u064a\u0646", "amenity": "restaurant", "cuisine": "regional", "name": "\u0627\u062c\u062a\u0645\u0627\u0639 \u0627\u0644\u0642\u0631\u064a\u0629", "name:ar": "\u0627\u062c\u062a\u0645\u0627\u0639 \u0627\u0644\u0642\u0631\u064a\u0629", "name:en": "Mifgash HaKfar", "name:he": "\u05de\u05e4\u05d2\u05e9 \u05d4\u05db\u05e4\u05e8"}}, {"type": "node", "id": 4121964891, "lat": 32.6515293, "lon": 35.1154534, "tags": {"amenity": "restaurant", "name": "\u0445\u043e\u0440\u043e\u0448\u0438\u0439 \u0440\u0435\u0441\u0442\u043e\u0440\u0430\u043d"}}, {"type": "node", "id": 4140816004, "lat": 32.6722134, "lon": 35.1515153, "tags": {"amenity": "cafe", "name": "\u05e2\u05d2\u05dc\u05ea \u05e7\u05e4\u05d4", "name:he": "\u05e2\u05d2\u05dc\u05ea \u05e7\u05e4\u05d4", "outdoor_seating": "yes"}}, {"type": "node", "id": 4225851092, "lat": 32.928319, "lon": 35.3194692, "tags": {"addr:city": "\u0646\u062d\u0641", "amenity": "restaurant", "contact:facebook": "https://www.facebook.com/%D7%9E%D7%A1%D7%A2%D7%93%D7%AA-%D7%9B%D7%95%D7%9B%D7%91-%D7%94%D7%92%D7%9C%D7%99%D7%9C-525446700887652/", "cuisine": "arab", "name": "\u0645\u0637\u0639\u0645 \u0646\u062c\u0645\u0629 \u0627\u0644\u062c\u0644\u064a\u0644", "name:ar": "\u0645\u0637\u0639\u0645 \u0646\u062c\u0645\u0629 \u0627\u0644\u062c\u0644\u064a\u0644", "name:he": "\u05de\u05e1\u05e2\u05d3\u05ea \u05db\u05d5\u05db\u05d1 \u05d4\u05d2\u05dc\u05d9\u05dc", "opening_hours": "Mo-Su 09:30-23:00", "phone": "+972 4 632 5089"}}, {"type": "node", "id": 4304041413, "lat": 32.6821309, "lon": 35.2013689}, {"type": "node", "id": 4304041414, "lat": 32.6821925, "lon": 35.201435}, {"type": "node", "id": 4304041415, "lat": 32.6821925, "lon": 35.2015507}, {"type": "node", "id": 4304041416, "lat": 32.682113, "lon": 35.2016026}, {"type": "node", "id": 4304041417, "lat": 32.6820434, "lon": 35.2015908}, {"type": "node", "id": 4304041418, "lat": 32.6819997, "lon": 35.2015412}, {"type": "node", "id": 4304041419, "lat": 32.6819997, "lon": 35.2014444}, {"type": "node", "id": 4304041420, "lat": 32.6820494, "lon": 35.201376}, {"type": "node", "id": 4341082558, "lat": 32.6011731, "lon": 35.3942049, "tags": {"amenity": "restaurant", "name": "\u062c\u0645\u064a\u0644\u0629", "name:ar": "\u062c\u0645\u064a\u0644\u0629", "name:he": "\u05d2'\u05de\u05d9\u05dc\u05d4"}}, {"type": "node", "id": 4420817817, "lat": 32.917472, "lon": 35.4228116, "tags": {"amenity": "restaurant", "name": "\u05d4\u05d2\u05e8 \u05d1\u05d9\u05e1\u05d8\u05e8\u05d5", "name:en": "Hagar Bistro", "name:he": "\u05d4\u05d2\u05e8 \u05d1\u05d9\u05e1\u05d8\u05e8\u05d5"}}, {"type": "node", "id": 4424957802, "lat": 32.9380145, "lon": 35.6366571, "tags": {"amenity": "restaurant", "name": "\u05d4\u05e4\u05e8\u05d7 \u05d1\u05d2\u05e0\u05d9", "name:en": "Haperach Begani", "name:he": "\u05d4\u05e4\u05e8\u05d7 \u05d1\u05d2\u05e0\u05d9"}}, {"type": "node", "id": 4446297572, "lat": 32.9459001, "lon": 35.3688832, "tags": {"addr:city": "\u0627\u0644\u0631\u0627\u0645\u0629", "amenity": "restaurant", "cuisine": "regional", "name": "\u0627\u0644\u0639\u0631\u064a\u0634", "name:ar": "\u0627\u0644\u0639\u0631\u064a\u0634", "name:en": "El-Arisha", "name:he": "\u05d0\u05dc\u05e2\u05e8\u05d9\u05e9\u05d4"}}, {"type": "node", "id": 4582460899, "lat": 32.8374137, "lon": 35.5183916, "tags": {"amenity": "restaurant", "cuisine": "fish"}}, {"type": "node", "id": 4588139582, "lat": 32.7109554, "lon": 35.570735, "tags": {"amenity": "cafe", "name:it": "Caffe"}}, {"type": "node", "id": 4809849083, "lat": 32.9615474, "lon": 35.3719845, "tags": {"amenity": "cafe", "level": "0", "name": "\u0627\u0644\u0643\u0644 \u0641\u064a \u0665", "name:ar": "\u0627\u0644\u0643\u0644 \u0641\u064a \u0665", "name:he": "\u05d4\u05db\u05d5\u05dc \u05d1-5"}}, {"type": "node", "id": 4818808608, "lat": 32.9134777, "lon": 35.282161, "tags": {"amenity": "cafe", "description": "Sells all kinds of foods except meat. Meat is at the shop next to it. (Kosher)", "diet:kosher": "yes", "name": "\u05e7\u05e4\u05d4 \u05d2\u05e8\u05d2", "name:en": "Cafe Greg", "name:he": "\u05e7\u05e4\u05d4 \u05d2\u05e8\u05d2"}}, {"type": "node", "id": 4834615422, "lat": 32.7056512, "lon": 35.3006021, "tags": {"addr:city": "\u0627\u0644\u0646\u0627\u0635\u0631\u0629", "addr:city:ar": "\u0627\u0644\u0646\u0627\u0635\u0631\u0629", "addr:city:arc": "\u0722\u0728\u072a\u072c", "addr:city:he": "\u05e0\u05e6\u05e8\u05ea", "addr:city:syc": "\u0722\u0728\u072a\u072c", "addr:street": "\u0634\u0627\u0631\u0639 \u0627\u0644\u0628\u0634\u0627\u0631\u0629", "addr:street:ar": "\u0634\u0627\u0631\u0639 \u0627\u0644\u0628\u0634\u0627\u0631\u0629", "amenity": "restaurant", "cuisine": "mediterranean", "internet_access": "wlan", "name": "\u062a\u0634\u0631\u064a\u0646", "name:ar": "\u062a\u0634\u0631\u064a\u0646", "name:en": "Tishreen", "name:pt": "Tishreen", "opening_hours": "Mo-Su 10:00-23:00", "phone": "046084666"}}, {"type": "node", "id": 4838545398, "lat": 32.7153168, "lon": 35.1248854, "tags": {"amenity": "restaurant", "capacity": "40", "name": "\u05d0\u05d7\u05d9\u05dd \u05e2\u05d3\u05d5\u05d5\u05d9", "name:en": "Brothers adawui", "name:he": "\u05d0\u05d7\u05d9\u05dd \u05e2\u05d3\u05d5\u05d5\u05d9"}}, {"type": "node", "id": 4871546903, "lat": 32.9135732, "lon": 35.2819975}, {"type": "node", "id": 4871546904, "lat": 32.9135457, "lon": 35.2819041}, {"type": "node", "id": 4871546905, "lat": 32.9135973, "lon": 35.2818825}, {"type": "node", "id": 4871546906, "lat": 32.9136248, "lon": 35.2819759}, {"type": "node", "id": 4871547036, "lat": 32.9126418, "lon": 35.2825257, "tags": {"amenity": "cafe", "level": "1"}}, {"type": "node", "id": 4871547038, "lat": 32.9127628, "lon": 35.2824882, "tags": {"amenity": "cafe"}}, {"type": "node", "id": 4872018921, "lat": 32.5886326, "lon": 35.2341871, "tags": {"amenity": "restaurant", "cuisine": "arab", "internet_access": "wlan", "name": "\u05e9\u05d5\u05d5\u05d0\u05e8\u05de\u05d4 \u05e2\u05dc \u05d4\u05d0\u05e9 - \u05e4\u05ea\u05d0\u05e4\u05d9\u05ea", "name:ar": "\u0634\u0627\u0648\u0631\u0645\u0627 \u0641\u062a\u0627\u0641\u064a\u062a", "name:en": "Fatafeat Shawarma", "name:he": "\u05e9\u05d5\u05d5\u05d0\u05e8\u05de\u05d4 \u05e2\u05dc \u05d4\u05d0\u05e9 - \u05e4\u05ea\u05d0\u05e4\u05d9\u05ea", "opening_hours": "Mo-Su 08:00-00:00", "operator": "\u0645\u062c\u0645\u0648\u0639\u0629 \u0645\u0644\u0643 \u0627\u0644\u0634\u0627\u0648\u0631\u0645\u0627", "phone": "0504311650"}}, {"type": "node", "id": 4992129024, "lat": 32.9345368, "lon": 35.367194, "tags": {"addr:city": "\u0627\u0644\u0631\u0627\u0645\u0629", "amenity": "restaurant", "cuisine": "arab;local", "name": "\u0634\u0627\u0631\u0627\u0628\u0643", "name:ar": "\u0634\u0627\u0631\u0627\u0628\u0643", "name:en": "Sharabic", "name:he": "\u05e9\u05e8\u05d0\u05d1\u05d9\u05db"}}, {"type": "node", "id": 5008704521, "lat": 32.9486452, "lon": 35.364217, "tags": {"amenity": "restaurant", "name": "\u0628\u0633\u062a\u0627\u0646 \u0641\u0627\u0631\u0633", "name:ar": "\u0628\u0633\u062a\u0627\u0646 \u0641\u0627\u0631\u0633", "name:he": "\u05d1\u05d5\u05e1\u05ea\u05df \u05e9\u05dc \u05e4\u05d0\u05e8\u05e1"}}, {"type": "node", "id": 5115254126, "lat": 32.6082539, "lon": 35.2912788}, {"type": "node", "id": 5115254143, "lat": 32.6081302, "lon": 35.291156}, {"type": "node", "id": 5115254170, "lat": 32.6081287, "lon": 35.2912766}, {"type": "node", "id": 5115254177, "lat": 32.6082554, "lon": 35.2911582}, {"type": "node", "id": 5160827722, "lat": 32.5445436, "lon": 35.4345232, "tags": {"amenity": "restaurant", "name": "\u05de\u05e1\u05e2\u05d3\u05d4 \u05d9\u05e7\u05d9\u05e0\u05d8\u05d5\u05df", "name:en": "Yekinton restaurant", "name:he": "\u05de\u05e1\u05e2\u05d3\u05d4 \u05d9\u05e7\u05d9\u05e0\u05d8\u05d5\u05df"}}, {"type": "node", "id": 5221362302, "lat": 32.7949449, "lon": 35.4044185, "tags": {"amenity": "restaurant", "name": "\u05de\u05e1\u05e2\u05d3\u05ea \u05e0\u05d9\u05de\u05e8", "name:he": "\u05de\u05e1\u05e2\u05d3\u05ea \u05e0\u05d9\u05de\u05e8"}}, {"type": "node", "id": 5247597963, "lat": 32.7031556, "lon": 35.2980976, "tags": {"addr:city": "\u0627\u0644\u0646\u0627\u0635\u0631\u0629", "amenity": "restaurant", "cuisine": "regional;oriental;mediterranean;arab", "diet:vegetarian": "yes", "name": "\u0627\u0644\u0631\u0636\u0627", "name:ar": "\u0627\u0644\u0631\u0636\u0627", "name:en": "Al Reda", "smoking": "yes", "toilets": "yes"}}, {"type": "node", "id": 5258388799, "lat": 32.7088612, "lon": 35.1737413, "tags": {"addr:city": "\u05e8\u05de\u05ea \u05d9\u05e9\u05d9", "addr:housenumber": "14", "addr:street": "\u05d7\u05d5\u05e8\u05e9 \u05d4\u05d0\u05dc\u05d5\u05e0\u05d9\u05dd", "amenity": "restaurant", "check_date": "2024-08-30", "contact:facebook": "98limousine", "contact:instagram": "limousine_rest", "cuisine": "steak_house", "diet:gluten_free": "yes", "diet:kosher": "no", "diet:vegetarian": "yes", "email": "info@limousine98.co.il", "name": "\u05dc\u05d9\u05de\u05d5\u05d6\u05d9\u05df", "name:en": "Limozine", "name:he": "\u05dc\u05d9\u05de\u05d5\u05d6\u05d9\u05df", "opening_hours": "Mo-We 12:00-22:00; Th-Sa 12:00-22:30", "phone": "+972 4 953 3173", "reservation": "yes", "reservation:website": "https://ontopo.com/he/il/page/73184599", "website": "https://limousine98.co.il/", "website:menu": "https://limousine98.co.il/%d7%aa%d7%a4%d7%a8%d7%99%d7%98/"}}, {"type": "node", "id": 5299573486, "lat": 32.9096577, "lon": 35.2925804, "tags": {"amenity": "cafe", "name": "\u05e7\u05e4\u05dc\u05d9\u05d8\u05d5", "name:he": "\u05e7\u05e4\u05dc\u05d9\u05d8\u05d5"}}, {"type": "node", "id": 5302302783, "lat": 32.9086873, "lon": 35.2937996, "tags": {"addr:city": "\u05db\u05e8\u05de\u05d9\u05d0\u05dc", "addr:housenumber": "100", "addr:street": "\u05e9\u05d3\u05e8\u05d5\u05ea \u05e0\u05e9\u05d9\u05d0\u05d9 \u05d9\u05e9\u05e8\u05d0\u05dc", "amenity": "cafe", "name": "\u05e7\u05d5\u05e4\u05d9\u05d6", "name:en": "Cofizz", "name:he": "\u05e7\u05d5\u05e4\u05d9\u05d6", "opening_hours": "Su-Th 05:00-23:00"}}, {"type": "node", "id": 5329320422, "lat": 32.7841936, "lon": 35.5415166, "tags": {"amenity": "restaurant", "name": "Chez Guy", "name:en": "Chez Guy"}}, {"type": "node", "id": 5331566552, "lat": 32.9268738, "lon": 35.3211644, "tags": {"amenity": "cafe", "name": "Greg", "name:en": "Greg", "name:he": "\u05d2\u05e8\u05d2", "opening_hours": "Mo-Su 09:00-22:00"}}, {"type": "node", "id": 5351692095, "lat": 32.7035279, "lon": 35.2995189, "tags": {"addr:city": "\u0627\u0644\u0646\u0627\u0635\u0631\u0629", "addr:housenumber": "103", "addr:street": "\u0637\u0631\u064a\u0642 \u0628\u0648\u0644\u0633 \u0627\u0644\u0633\u0627\u062f\u0633", "amenity": "restaurant", "cuisine": "mediterranean;seafood", "name": "\u0625\u0644\u0649 \u0627\u0644\u0637\u0627\u0628\u0648\u0646", "name:ar": "\u0625\u0644\u0649 \u0627\u0644\u0637\u0627\u0628\u0648\u0646"}}, {"type": "node", "id": 5469374223, "lat": 32.6999737, "lon": 35.5927035, "tags": {"amenity": "cafe"}}, {"type": "node", "id": 5582112480, "lat": 32.863629, "lon": 35.2674038, "tags": {"amenity": "restaurant", "cuisine": "fish;arab", "name": "\u05d0\u05dc\u05e8\u05d5\u05d1\u05d9\u05d0\u05df", "name:ar": "\u0627\u0644\u0631\u0648\u0628\u064a\u0627\u0646", "name:en": "Alrobian", "name:he": "\u05d0\u05dc\u05e8\u05d5\u05d1\u05d9\u05d0\u05df", "opening_hours": "Mo-Su 12:00-24:00", "outdoor_seating": "yes", "smoking": "isolated"}}, {"type": "node", "id": 5600313644, "lat": 32.6425773, "lon": 35.1240565, "tags": {"amenity": "cafe", "name": "\u05d9\u05e2\u05e0\u05e7\u05dc'\u05d4", "name:he": "\u05d9\u05e2\u05e0\u05e7\u05dc'\u05d4", "opening_hours": "Mo-Sa 07:00 -14:00", "outdoor_seating": "yes"}}, {"type": "node", "id": 5613756612, "lat": 32.6093156, "lon": 35.2893864, "tags": {"amenity": "cafe", "name": "\u05e7\u05e4\u05d4 \u05d1\u05db\u05d9\u05db\u05e8", "name:he": "\u05e7\u05e4\u05d4 \u05d1\u05db\u05d9\u05db\u05e8"}}, {"type": "node", "id": 5651751693, "lat": 32.5784133, "lon": 35.1788593, "tags": {"amenity": "restaurant", "cuisine": "pizza;italian", "delivery": "yes", "name": "\u05e1\u05d9\u05d2\u05dc\u05d9\u05e1", "name:en": "Sigalis", "name:he": "\u05e1\u05d9\u05d2\u05dc\u05d9\u05e1", "opening_hours": "Su-Th 16:00-22:00; Fr 10:00-15:00; Sa 19:00-22:00; PH Unknown", "outdoor_seating": "yes", "phone": "+972 4 652 5757", "takeaway": "yes", "wheelchair": "yes"}}, {"type": "node", "id": 5703134021, "lat": 32.7116688, "lon": 35.125805, "tags": {"addr:housenumber": "1", "addr:street": "\u05d0\u05dc\u05db\u05e1\u05e0\u05d3\u05e8 \u05d6\u05d9\u05d9\u05d3", "amenity": "restaurant", "name": "\u05d1\u05d5\u05e6'\u05e8 \u05d8\u05d1\u05e2\u05d5\u05df", "name:he": "\u05d1\u05d5\u05e6'\u05e8 \u05d8\u05d1\u05e2\u05d5\u05df", "phone": "04-613-8080", "website": "http://www.facebook.com/butchertivon"}}, {"type": "node", "id": 5743336920, "lat": 32.609111, "lon": 35.2918266, "tags": {"addr:city": "\u05e2\u05e4\u05d5\u05dc\u05d4", "addr:housenumber": "5", "addr:street": "\u05e9\u05e4\u05e8\u05d9\u05e0\u05e6\u05e7", "amenity": "restaurant", "cuisine": "coffee_shop;french", "diet:kosher": "no", "name": "\u05d4\u05e6\u05e8\u05e4\u05ea\u05d9\u05d4 \u05d4\u05e7\u05d8\u05e0\u05d4", "name:en": "Little France", "name:he": "\u05d4\u05e6\u05e8\u05e4\u05ea\u05d9\u05d4 \u05d4\u05e7\u05d8\u05e0\u05d4", "opening_hours": "Su-Th 08:30-23:00; Fr 08:30-15:00; Sa 18:30-23:00", "outdoor_seating": "yes", "phone": "+972 4 652 6516", "takeaway": "yes", "website": "https://littlefrance.rest.co.il/", "wheelchair": "yes"}}, {"type": "node", "id": 5743440852, "lat": 32.9024544, "lon": 35.6480491}, {"type": "node", "id": 5743440853, "lat": 32.9024004, "lon": 35.6480008}, {"type": "node", "id": 5743440854, "lat": 32.9025017, "lon": 35.6478238}, {"type": "node", "id": 5743440855, "lat": 32.902567, "lon": 35.6478667}, {"type": "node", "id": 5810106039, "lat": 32.6932714, "lon": 35.3156966}, {"type": "node", "id": 5810106040, "lat": 32.6932664, "lon": 35.3158976}, {"type": "node", "id": 5810106041, "lat": 32.6931445, "lon": 35.3157232}, {"type": "node", "id": 5810106042, "lat": 32.6931781, "lon": 35.3158458}, {"type": "node", "id": 5879500249, "lat": 32.7484175, "lon": 35.3378691, "tags": {"addr:city": "\u0643\u0641\u0631 \u0643\u0646\u0627", "amenity": "cafe", "name": "\u0627\u0644\u0645\u0639\u062c\u0632\u0629 \u0627\u0644\u0623\u0648\u0644\u0649 - \u0627\u0644\u062a\u0630\u0643\u0627\u0631 \u0648\u0627\u0644\u0645\u0642\u0647\u0649", "name:ar": "\u0627\u0644\u0645\u0639\u062c\u0632\u0629 \u0627\u0644\u0623\u0648\u0644\u0649 - \u0627\u0644\u062a\u0630\u0643\u0627\u0631 \u0648\u0627\u0644\u0645\u0642\u0647\u0649", "name:en": "The First Miracle - Souvenir & Coffee Shop", "name:he": "\u05d4\u05e0\u05e1 \u05d4\u05e8\u05d0\u05e9\u05d5\u05df", "religion": "christian", "shop": "gift"}}, {"type": "node", "id": 5893516500, "lat": 32.7122553, "lon": 35.3340985}, {"type": "node", "id": 5893516564, "lat": 32.7125379, "lon": 35.3338633}, {"type": "node", "id": 5893516566, "lat": 32.7122652, "lon": 35.3337507}, {"type": "node", "id": 5893516574, "lat": 32.7125219, "lon": 35.3337123}, {"type": "node", "id": 5893516576, "lat": 32.71228, "lon": 35.3338904}, {"type": "node", "id": 5893516577, "lat": 32.7122204, "lon": 35.3345924}, {"type": "node", "id": 5893516697, "lat": 32.7125948, "lon": 35.3338548}, {"type": "node", "id": 5893516709, "lat": 32.7126659, "lon": 35.3345258}, {"type": "node", "id": 5893516744, "lat": 32.7121852, "lon": 35.3342597}, {"type": "node", "id": 5894226228, "lat": 32.6937491, "lon": 35.3036361, "tags": {"alt_name": "Burgus Burger Bar", "alt_name:en": "Burgus Burger Bar", "amenity": "restaurant", "brand": "Burgus Burger Bar", "brand:en": "Burgus Burger Bar", "brand:wikidata": "Q64760094", "cuisine": "burger", "name": "BBB", "name:en": "BBB", "name:ru": "\u0411\u0438\u0411\u0438\u0411\u0438"}}, {"type": "node", "id": 5894722545, "lat": 32.693994, "lon": 35.3032313, "tags": {"amenity": "cafe", "brand": "\u05e7\u05e4\u05d4 \u05dc\u05e0\u05d3\u05d5\u05d5\u05e8", "brand:en": "Landwer Coffee", "brand:he": "\u05e7\u05e4\u05d4 \u05dc\u05e0\u05d3\u05d5\u05d5\u05e8", "brand:wikidata": "Q6485288", "cuisine": "coffee_shop", "name": "\u05dc\u05e0\u05d3\u05d5\u05d5\u05e8", "name:en": "Landwer", "name:he": "\u05dc\u05e0\u05d3\u05d5\u05d5\u05e8", "takeaway": "yes"}}, {"type": "node", "id": 5894722547, "lat": 32.6943912, "lon": 35.303419, "tags": {"amenity": "restaurant", "name": "Tishreen", "name:en": "Tishreen"}}, {"type": "node", "id": 5894722548, "lat": 32.694477, "lon": 35.3036014, "tags": {"amenity": "cafe", "name": "Kakao", "name:en": "Kakao"}}, {"type": "node", "id": 5894737894, "lat": 32.699424, "lon": 35.3110723, "tags": {"amenity": "cafe", "name": "Greg Coffee", "name:en": "Greg Coffee"}}, {"type": "node", "id": 5894747646, "lat": 32.6991986, "lon": 35.318991, "tags": {"amenity": "cafe", "name": "\u05d4\u05e9\u05e0\u05d9\u05e6\u05dc \u05e9\u05dc \u05db\u05d5\u05e9\u05d9 \u05e4\u05dc\u05d0\u05e4\u05dc", "name:he": "\u05d4\u05e9\u05e0\u05d9\u05e6\u05dc \u05e9\u05dc \u05db\u05d5\u05e9\u05d9 \u05e4\u05dc\u05d0\u05e4\u05dc"}}, {"type": "node", "id": 5894747647, "lat": 32.7026356, "lon": 35.32122, "tags": {"amenity": "restaurant", "name": "Italian restaurant", "name:en": "Italian restaurant"}}, {"type": "node", "id": 5894747665, "lat": 32.7034301, "lon": 35.3228454, "tags": {"amenity": "restaurant", "name": "\u05d3\u05d5\u05d3 \u05e7\u05e8\u05de\u05d5\u05e0\u05d4", "name:he": "\u05d3\u05d5\u05d3 \u05e7\u05e8\u05de\u05d5\u05e0\u05d4"}}, {"type": "node", "id": 5894747666, "lat": 32.703591, "lon": 35.3221223, "tags": {"amenity": "restaurant", "name": "\u05e9\u05e0\u05d9\u05e6\u05dc\u05d9\u05d4 \u05d4\u05d0\u05d7\u05d9\u05dd \u05db\u05d4\u05df", "name:he": "\u05e9\u05e0\u05d9\u05e6\u05dc\u05d9\u05d4 \u05d4\u05d0\u05d7\u05d9\u05dd \u05db\u05d4\u05df"}}, {"type": "node", "id": 5894747668, "lat": 32.7031914, "lon": 35.3219098, "tags": {"amenity": "restaurant", "name": "\u05de\u05e1\u05e2\u05d3\u05ea \u05e1\u05d9\u05dc\u05d1\u05d9", "name:he": "\u05de\u05e1\u05e2\u05d3\u05ea \u05e1\u05d9\u05dc\u05d1\u05d9"}}, {"type": "node", "id": 5894766654, "lat": 32.7058739, "lon": 35.3207218, "tags": {"amenity": "restaurant", "name": "\u05de\u05e1\u05e2\u05d3\u05ea \u05d0\u05d9\u05e8\u05d5\u05e4\u05d4 - \u05de\u05e1\u05e2\u05d3\u05d4 \u05e8\u05d5\u05de\u05e0\u05d9\u05ea", "name:en": "Romanian Restaurant", "name:he": "\u05de\u05e1\u05e2\u05d3\u05ea \u05d0\u05d9\u05e8\u05d5\u05e4\u05d4 - \u05de\u05e1\u05e2\u05d3\u05d4 \u05e8\u05d5\u05de\u05e0\u05d9\u05ea", "name:ru": "\u0420\u0443\u043c\u044b\u043d\u0441\u043a\u0438\u0439 \u0440\u0435\u0441\u0442\u043e\u0440\u0430\u043d"}}, {"type": "node", "id": 5894774471, "lat": 32.7047973, "lon": 35.3183556, "tags": {"amenity": "restaurant", "cuisine": "ice_cream", "name": "\u05dc\u05d4 \u05d2\u05d5\u05e4\u05e8\u05d4 \u05d2\u05dc\u05d9\u05d3\u05e8\u05d9\u05d4", "name:en": "La Gofre'", "name:he": "\u05dc\u05d4 \u05d2\u05d5\u05e4\u05e8\u05d4 \u05d2\u05dc\u05d9\u05d3\u05e8\u05d9\u05d4"}}, {"type": "node", "id": 5894774472, "lat": 32.7034169, "lon": 35.3184206, "tags": {"amenity": "cafe", "name": "\u05e7\u05e4\u05d4 \u05e7\u05e4\u05d4 \u05de\u05ea\u05d7\u05dd \u05de\u05d5\u05dc \u05d4\u05e8\u05d9\u05dd \u05e0\u05e6\u05e8\u05ea \u05e2\u05d9\u05dc\u05d9\u05ea", "name:en": "Cafe Cafe", "name:he": "\u05e7\u05e4\u05d4 \u05e7\u05e4\u05d4 \u05de\u05ea\u05d7\u05dd \u05de\u05d5\u05dc \u05d4\u05e8\u05d9\u05dd \u05e0\u05e6\u05e8\u05ea \u05e2\u05d9\u05dc\u05d9\u05ea", "name:ru": "\u041a\u0430\u0444\u044d \u041a\u0430\u0444\u044d"}}, {"type": "node", "id": 5894774473, "lat": 32.7036322, "lon": 35.3185546, "tags": {"amenity": "restaurant", "name": "Atza Sushi Bar", "name:en": "Atza Sushi Bar"}}, {"type": "node", "id": 5894774475, "lat": 32.7046846, "lon": 35.3182094, "tags": {"amenity": "restaurant", "cuisine": "pizza", "name": "\u05e4\u05d9\u05e6\u05d4 \u05e2\u05d2\u05d1\u05e0\u05d9\u05d4 \u05e0\u05e6\u05e8\u05ea \u05e2\u05d9\u05dc\u05d9\u05ea", "name:en": "Tomatto Pizza", "name:he": "\u05e4\u05d9\u05e6\u05d4 \u05e2\u05d2\u05d1\u05e0\u05d9\u05d4 \u05e0\u05e6\u05e8\u05ea \u05e2\u05d9\u05dc\u05d9\u05ea"}}, {"type": "node", "id": 5894774476, "lat": 32.7029839, "lon": 35.3159898, "tags": {"amenity": "restaurant", "name": "\u05e8\u05d5\u05ea\u05d9\u05dc'\u05d4 (\u05de\u05d0\u05e4\u05d9\u05d9\u05d4 \u05db\u05e9\u05e8\u05d4 \u05dc\u05de\u05d4\u05d3\u05e8\u05d9\u05df)", "name:he": "\u05e8\u05d5\u05ea\u05d9\u05dc'\u05d4 (\u05de\u05d0\u05e4\u05d9\u05d9\u05d4 \u05db\u05e9\u05e8\u05d4 \u05dc\u05de\u05d4\u05d3\u05e8\u05d9\u05df)"}}, {"type": "node", "id": 5894792096, "lat": 32.7142157, "lon": 35.3346258, "tags": {"amenity": "restaurant", "name": "\u05de\u05e1\u05e2\u05d3\u05ea \u05de\u05d9\u05e8\u05d9", "name:he": "\u05de\u05e1\u05e2\u05d3\u05ea \u05de\u05d9\u05e8\u05d9"}}, {"type": "node", "id": 5894792098, "lat": 32.714711, "lon": 35.3346303, "tags": {"amenity": "restaurant", "name": "La Viola", "name:en": "La Viola"}}, {"type": "node", "id": 5894792104, "lat": 32.7147129, "lon": 35.3367189, "tags": {"amenity": "restaurant", "name": "\u05e9\u05d5\u05d5\u05d0\u05e8\u05de\u05d4 \u05e8\u05de\u05d9", "name:he": "\u05e9\u05d5\u05d5\u05d0\u05e8\u05de\u05d4 \u05e8\u05de\u05d9"}}, {"type": "node", "id": 5894802838, "lat": 32.7157399, "lon": 35.3368324, "tags": {"amenity": "restaurant"}}, {"type": "node", "id": 5933877685, "lat": 32.6630452, "lon": 35.2562475}, {"type": "node", "id": 5933877686, "lat": 32.6630446, "lon": 35.2561331}, {"type": "node", "id": 5933877687, "lat": 32.6630986, "lon": 35.2561327}, {"type": "node", "id": 5933877688, "lat": 32.6630983, "lon": 35.2560674}, {"type": "node", "id": 5933877689, "lat": 32.6632128, "lon": 35.2560666}, {"type": "node", "id": 5933877690, "lat": 32.6632131, "lon": 35.2561324}, {"type": "node", "id": 5933877691, "lat": 32.6632588, "lon": 35.2561321}, {"type": "node", "id": 5933877692, "lat": 32.6632595, "lon": 35.2562822}, {"type": "node", "id": 5933877693, "lat": 32.6633129, "lon": 35.2562818}, {"type": "node", "id": 5933877694, "lat": 32.6633137, "lon": 35.2564297}, {"type": "node", "id": 5933877695, "lat": 32.6632334, "lon": 35.2564303}, {"type": "node", "id": 5933877696, "lat": 32.663235, "lon": 35.2567612}, {"type": "node", "id": 5933877697, "lat": 32.6630272, "lon": 35.2567627}, {"type": "node", "id": 5933877698, "lat": 32.6630279, "lon": 35.2569003}, {"type": "node", "id": 5933877699, "lat": 32.6629938, "lon": 35.2569005}, {"type": "node", "id": 5933877700, "lat": 32.6629927, "lon": 35.256674}, {"type": "node", "id": 5933877701, "lat": 32.6630482, "lon": 35.2566736}, {"type": "node", "id": 5933877702, "lat": 32.6630476, "lon": 35.2565584}, {"type": "node", "id": 5933877703, "lat": 32.6630151, "lon": 35.2565587}, {"type": "node", "id": 5933877704, "lat": 32.6630136, "lon": 35.2562477}, {"type": "node", "id": 6036271620, "lat": 32.7073764, "lon": 35.1728427, "tags": {"amenity": "restaurant", "cuisine": "italian", "name": "\u05d2\u05d5\u05e1\u05d8\u05d9\u05e0\u05d5", "name:en": "Gustino", "name:he": "\u05d2\u05d5\u05e1\u05d8\u05d9\u05e0\u05d5"}}, {"type": "node", "id": 6036271623, "lat": 32.7072928, "lon": 35.1737827, "tags": {"addr:city": "\u05e8\u05de\u05ea \u05d9\u05e9\u05d9", "addr:housenumber": "3", "addr:street": "\u05d0\u05e7\u05dc\u05d9\u05e4\u05d8\u05d5\u05e1", "amenity": "cafe", "brand": "\u05e7\u05e4\u05d4 \u05dc\u05e0\u05d3\u05d5\u05d5\u05e8", "brand:en": "Landwer Coffee", "brand:he": "\u05e7\u05e4\u05d4 \u05dc\u05e0\u05d3\u05d5\u05d5\u05e8", "brand:wikidata": "Q6485288", "check_date": "2024-08-30", "contact:facebook": "LandwerRamatIshay", "contact:instagram": "landwerramatishay", "cuisine": "coffee_shop", "delivery": "yes", "diet:kosher": "no", "name": "\u05dc\u05e0\u05d3\u05d5\u05d5\u05e8", "name:en": "Landwer", "name:he": "\u05dc\u05e0\u05d3\u05d5\u05d5\u05e8", "opening_hours": "Su-Th 09:00-23:00; Fr 08:30-23:00; Sa 09:00-23:00", "phone": "+972 4 654 3321", "reservation": "yes", "reservation:website": "https://ontopo.com/he/il/page/76009771", "takeaway": "yes"}}, {"type": "node", "id": 6036271624, "lat": 32.7079986, "lon": 35.1741106, "tags": {"amenity": "restaurant", "cuisine": "sushi;asian", "name": "\u05d2'\u05e4\u05e0\u05d9\u05e7\u05d4", "name:en": "Japanika", "name:he": "\u05d2'\u05e4\u05e0\u05d9\u05e7\u05d4"}}, {"type": "node", "id": 6163499188, "lat": 32.8913006, "lon": 35.5935269}, {"type": "node", "id": 6192298572, "lat": 32.6459201, "lon": 35.1250803, "tags": {"amenity": "restaurant", "name": "\u05d0\u05dc \u05e2\u05d3\u05d0\u05d5\u05d5\u05d9", "name:he": "\u05d0\u05dc \u05e2\u05d3\u05d0\u05d5\u05d5\u05d9"}}, {"type": "node", "id": 6269697186, "lat": 32.768344, "lon": 35.39173, "tags": {"amenity": "cafe", "name": "Cafe Snack", "name:en": "Cafe Snack"}}, {"type": "node", "id": 6325416460, "lat": 32.606694, "lon": 35.2873972}, {"type": "node", "id": 6325416461, "lat": 32.6067098, "lon": 35.2873593}, {"type": "node", "id": 6325416462, "lat": 32.606649, "lon": 35.2873235}, {"type": "node", "id": 6325416464, "lat": 32.6066332, "lon": 35.2873615}, {"type": "node", "id": 6325809685, "lat": 32.78516, "lon": 35.5435371, "tags": {"amenity": "restaurant", "cuisine": "arab;regional", "name:en": "Hermitage"}}, {"type": "node", "id": 6426143197, "lat": 32.6199594, "lon": 35.3133638, "tags": {"amenity": "cafe", "brand": "\u05d0\u05e8\u05d5\u05de\u05d4", "brand:en": "Aroma Espresso Bar", "brand:he": "\u05d0\u05e8\u05d5\u05de\u05d4", "brand:wikidata": "Q2909872", "brand:wikipedia": "en:Aroma Espresso Bar", "cuisine": "coffee_shop", "description:he": "\u05e7\u05e4\u05d4", "name": "\u05d0\u05e8\u05d5\u05de\u05d4", "name:en": "Aroma", "name:en1": "Aroma Espresso Bar", "name:he": "\u05d0\u05e8\u05d5\u05de\u05d4", "takeaway": "yes"}}, {"type": "node", "id": 6431172985, "lat": 32.7020625, "lon": 35.2966753, "tags": {"addr:city": "\u0627\u0644\u0646\u0627\u0635\u0631\u0629", "amenity": "restaurant", "name": "\u0645\u0637\u0639\u0645 \u0627\u0644\u0623\u0631\u0636 \u0627\u0644\u0645\u0642\u062f\u0633\u0629 \u0627\u0644\u0646\u0627\u0635\u0631\u0629", "name:ar": "\u0645\u0637\u0639\u0645 \u0627\u0644\u0623\u0631\u0636 \u0627\u0644\u0645\u0642\u062f\u0633\u0629 \u0627\u0644\u0646\u0627\u0635\u0631\u0629", "name:en": "Nazareth Terrasanta Restaurant"}}, {"type": "node", "id": 6508955386, "lat": 32.8619287, "lon": 35.4588736, "tags": {"amenity": "restaurant", "cuisine": "lebanese", "description:he": "\u05e0\u05d7\u05dc\u05d4 \u05d1\u05d8\u05d1\u05e2 \u05d4\u05d9\u05d0 \u05d7\u05d5\u05d5\u05d4 \u05d7\u05e7\u05dc\u05d0\u05d9\u05ea \u05de\u05d4\u05de\u05d5\u05e8\u05e9\u05ea \u05d4\u05d3\u05e8\u05d5\u05d6\u05d9\u05ea \u05d4\u05de\u05e9\u05dc\u05d1\u05ea \u05d0\u05d9\u05e8\u05d5\u05d7 \u05d3\u05e8\u05d5\u05d6\u05d9 \u05db\u05d9\u05d3 \u05d4\u05de\u05dc\u05da \u05e2\u05dd \u05de\u05d8\u05e2\u05de\u05d9\u05dd \u05d1\u05d9\u05ea\u05d9\u05d9\u05dd \u05d5\u05d0\u05e4\u05e9\u05e8\u05d5\u05d9\u05d5\u05ea \u05dc\u05d9\u05e0\u05d4 \u05d1\u05d0\u05d5\u05d4\u05dc \u05e2\u05dc \u05d1\u05e1\u05d9\u05e1 \u05d0. \u05e2\u05e8\u05d1 \u05d5\u05d0. \u05d1\u05d5\u05e7\u05e8", "name": "\u05e0\u05d7\u05dc\u05d4 \u05d1\u05d8\u05d1\u05e2", "name:en": "Nahala BaTeva", "name:he": "\u05e0\u05d7\u05dc\u05d4 \u05d1\u05d8\u05d1\u05e2", "opening_hours": "24/7", "phone": "+972-50-309-5250", "website": "https://www.facebook.com/nahalabateva"}}, {"type": "node", "id": 6547410090, "lat": 32.9280868, "lon": 35.3255703, "tags": {"addr:city": "\u05db\u05e8\u05de\u05d9\u05d0\u05dc", "addr:street": "\u05de\u05e2\u05dc\u05d4 \u05db\u05de\u05d5\u05df", "amenity": "restaurant", "brand": "Pizza Hut", "brand:wikidata": "Q191615", "brand:wikipedia": "en:Pizza Hut", "contact:facebook": "https://www.facebook.com/PizzaHut.Israel/", "contact:instagram": "https://www.instagram.com/pizza_hut_israel/", "cuisine": "pizza", "name": "Pizza Hut", "name:en": "Pizza Hut", "name:he": "\u05e4\u05d9\u05e6\u05d4 \u05d4\u05d0\u05d8", "opening_hours": "Sa, Su 21:00-23:59; Mo-We 11:00-22:59; Th 11:00-23:59; Fr 11:00-14:30", "phone": "+972 1 700 506 070", "website": "https://pizzahut.co.il/"}}, {"type": "node", "id": 6547411049, "lat": 32.928012, "lon": 35.3256863, "tags": {"addr:city": "\u05db\u05e8\u05de\u05d9\u05d0\u05dc", "addr:street": "\u05de\u05e2\u05dc\u05d4 \u05db\u05de\u05d5\u05df", "alt_name:en": "Roladin Bakery & Caf\u00e9", "amenity": "cafe", "brand": "\u05e8\u05d5\u05dc\u05d3\u05d9\u05df", "brand:wikidata": "Q18390972", "brand:wikipedia": "en:Roladin", "contact:facebook": "https://www.facebook.com/roladin/", "contact:instagram": "https://www.instagram.com/roladin_il/", "cuisine": "coffee_shop", "diet:kosher": "yes", "internet_access": "wlan", "name": "\u05e8\u05d5\u05dc\u05d3\u05d9\u05df", "name:en": "Roladin", "name:he": "\u05e8\u05d5\u05dc\u05d3\u05d9\u05df", "opening_hours": "Su-Th 07:00-22:30; Fr 07:00-14:30; Sa (sunset+01:30)-22:30", "outdoor_seating": "yes", "phone": "+972 4 851 6383", "website": "https://www.roladin.co.il/"}}, {"type": "node", "id": 6547498087, "lat": 32.7599158, "lon": 35.3596045, "tags": {"amenity": "cafe", "brand": "Greg Cafe", "brand:en": "Greg Cafe", "brand:he": "\u05e7\u05e4\u05d4 \u05d2\u05e8\u05d2", "brand:wikidata": "Q43295499", "brand:wikipedia": "he:\u05e7\u05e4\u05d4 \u05d2\u05e8\u05d2", "name": "Greg Cafe", "name:en": "Greg Cafe", "name:he": "\u05e7\u05e4\u05d4 \u05d2\u05e8\u05d2", "takeaway": "yes", "website": "https://gregcafe.co.il/"}}, {"type": "node", "id": 6567714554, "lat": 32.6569137, "lon": 35.4174298}, {"type": "node", "id": 6567714555, "lat": 32.6567337, "lon": 35.417636}, {"type": "node", "id": 6567714556, "lat": 32.6565752, "lon": 35.4176411}, {"type": "node", "id": 6567714557, "lat": 32.6564273, "lon": 35.4175469}, {"type": "node", "id": 6567714558, "lat": 32.6562456, "lon": 35.4170633}, {"type": "node", "id": 6567714559, "lat": 32.6563729, "lon": 35.4169519}, {"type": "node", "id": 6567714560, "lat": 32.6567852, "lon": 35.4171473}, {"type": "node", "id": 6727134185, "lat": 32.8287511, "lon": 35.5104575, "tags": {"amenity": "restaurant", "name": "Tanureen restaurant", "name:en": "Tanureen restaurant", "name:he": "\u05de\u05e1\u05e2\u05d3\u05ea \u05ea\u05e0\u05d5\u05e8\u05d9\u05df", "name:it": "Ristorante Tanureen"}}, {"type": "node", "id": 6852462243, "lat": 32.5711254, "lon": 35.1836695, "tags": {"amenity": "restaurant", "name": "\u05de\u05e1\u05e2\u05d3\u05ea \u05d4\u05e0\u05d7\u05dc", "name:ar": "\u0645\u0637\u0639\u0645 \u0627\u0644\u0646\u0647\u0631", "name:en": "Restaurant HaNahal", "name:he": "\u05de\u05e1\u05e2\u05d3\u05ea \u05d4\u05e0\u05d7\u05dc"}}, {"type": "node", "id": 6854232709, "lat": 32.7858622, "lon": 35.5407616, "tags": {"amenity": "restaurant", "name:en": "Little Tiberia"}}, {"type": "node", "id": 6915422237, "lat": 32.6566059, "lon": 35.4169276}, {"type": "node", "id": 6942735685, "lat": 32.6956411, "lon": 35.3000658, "tags": {"amenity": "restaurant", "name:en": "Luna"}}, {"type": "node", "id": 6948925647, "lat": 32.8911193, "lon": 35.5937123}, {"type": "node", "id": 6948925648, "lat": 32.8912004, "lon": 35.5939023}, {"type": "node", "id": 6948925649, "lat": 32.8913043, "lon": 35.5939008}, {"type": "node", "id": 6948925650, "lat": 32.8911998, "lon": 35.5938443}, {"type": "node", "id": 6948925651, "lat": 32.8911476, "lon": 35.593845}, {"type": "node", "id": 6948925652, "lat": 32.8911451, "lon": 35.5935893}, {"type": "node", "id": 6948925653, "lat": 32.8911973, "lon": 35.5935885}, {"type": "node", "id": 6948925654, "lat": 32.8911967, "lon": 35.5935283}, {"type": "node", "id": 6984150165, "lat": 32.7003649, "lon": 35.5758197, "tags": {"amenity": "restaurant", "self_service": "yes"}}, {"type": "node", "id": 6985075784, "lat": 32.8639038, "lon": 35.5380121, "tags": {"amenity": "restaurant", "cuisine": "fish", "name": "Ali's Restaurant", "name:en": "Ali's Restaurant"}}, {"type": "node", "id": 6986687851, "lat": 32.686443, "lon": 35.3907694, "tags": {"amenity": "cafe", "name": "La tenda di Elia", "name:en": "La tenda di Elia"}}, {"type": "node", "id": 7175506657, "lat": 32.6185319, "lon": 35.3137083, "tags": {"addr:city": "\u05e2\u05e4\u05d5\u05dc\u05d4", "addr:housenumber": "18", "addr:street": "\u05e9\u05d3\u05e8\u05d5\u05ea \u05d9\u05e6\u05d7\u05e7 \u05e8\u05d1\u05d9\u05df", "amenity": "cafe", "brand": "\u05e7\u05e4\u05d4 \u05d2\u05e8\u05d2", "brand:en": "Greg Cafe", "brand:he": "\u05e7\u05e4\u05d4 \u05d2\u05e8\u05d2", "brand:wikidata": "Q43295499", "brand:wikipedia": "he:\u05e7\u05e4\u05d4 \u05d2\u05e8\u05d2", "cuisine": "coffee_shop", "name": "\u05e7\u05e4\u05d4 \u05d2\u05e8\u05d2", "name:en": "Cafe Greg", "name:he": "\u05e7\u05e4\u05d4 \u05d2\u05e8\u05d2", "opening_hours": "Mo-Tu 09:00-17:00", "takeaway": "yes"}}, {"type": "node", "id": 7196025144, "lat": 32.7037851, "lon": 35.5846445, "tags": {"amenity": "cafe", "brand": "\u05e7\u05e4\u05d4 \u05d2\u05e8\u05d2", "brand:en": "Greg Cafe", "brand:he": "\u05e7\u05e4\u05d4 \u05d2\u05e8\u05d2", "brand:wikidata": "Q43295499", "cuisine": "coffee_shop", "name": "\u05e7\u05e4\u05d4 \u05d2\u05e8\u05d2", "name:en": "Greg Cafe", "name:he": "\u05e7\u05e4\u05d4 \u05d2\u05e8\u05d2", "opening_hours": "Su-Sa 08:00-23:00", "takeaway": "yes"}}, {"type": "node", "id": 7198404527, "lat": 32.6093276, "lon": 35.2883048, "tags": {"addr:city": "\u05e2\u05e4\u05d5\u05dc\u05d4", "addr:housenumber": "4", "addr:street": "\u05d4\u05e8\u05d1 \u05e0\u05d7\u05d5\u05dd \u05dc\u05d5\u05d9\u05df", "amenity": "restaurant", "name": "\u05d0\u05de\u05e8\u05d9\u05e7\u05e0\u05d5", "name:he": "\u05d0\u05de\u05e8\u05d9\u05e7\u05e0\u05d5", "opening_hours": "Su 09:00-14:00,16:00-19:30; Mo 09:00-14:00,16:00-19:30; Tu 09:00-14:00; We 09:00-14:00,16:00-19:30; Th 09:00-14:00,16:00-19:30; Fr 09:00-14:00", "phone": "+972 4-652-8699"}}, {"type": "node", "id": 7238386556, "lat": 32.7217382, "lon": 35.1295935}, {"type": "node", "id": 7238386561, "lat": 32.7218637, "lon": 35.1297224}, {"type": "node", "id": 7238386581, "lat": 32.7217991, "lon": 35.1296837}, {"type": "node", "id": 7238393494, "lat": 32.7218173, "lon": 35.1296408}, {"type": "node", "id": 7288541813, "lat": 32.9135812, "lon": 35.2813907, "tags": {"amenity": "restaurant", "name": "Hdudh", "name:en": "Hdudh"}}, {"type": "node", "id": 7385732144, "lat": 32.9042791, "lon": 35.5226457}, {"type": "node", "id": 7385732145, "lat": 32.9042262, "lon": 35.5225364}, {"type": "node", "id": 7385732146, "lat": 32.9041086, "lon": 35.5226172}, {"type": "node", "id": 7385732147, "lat": 32.9041616, "lon": 35.5227265}, {"type": "node", "id": 7385755052, "lat": 32.9165756, "lon": 35.5456349}, {"type": "node", "id": 7385755053, "lat": 32.9165724, "lon": 35.545422}, {"type": "node", "id": 7385755054, "lat": 32.9163888, "lon": 35.545426}, {"type": "node", "id": 7385755056, "lat": 32.9163938, "lon": 35.5457609}, {"type": "node", "id": 7385755057, "lat": 32.9164852, "lon": 35.5457589}, {"type": "node", "id": 7385755058, "lat": 32.9164834, "lon": 35.5456369}, {"type": "node", "id": 7385758847, "lat": 32.9195262, "lon": 35.429866}, {"type": "node", "id": 7385758848, "lat": 32.9193753, "lon": 35.4298683}, {"type": "node", "id": 7385758849, "lat": 32.9193831, "lon": 35.4302209}, {"type": "node", "id": 7385758850, "lat": 32.9195341, "lon": 35.4302186}, {"type": "node", "id": 7655993350, "lat": 32.7766621, "lon": 35.4134259, "tags": {"amenity": "restaurant", "contact:facebook": "elmuhtarrest", "name": "\u05de\u05e1\u05e2\u05d3\u05ea \u05d0\u05dc \u05de\u05d5\u05db\u05ea\u05d0\u05e8", "name:en": "El Muhtar", "name:he": "\u05de\u05e1\u05e2\u05d3\u05ea \u05d0\u05dc \u05de\u05d5\u05db\u05ea\u05d0\u05e8"}}, {"type": "node", "id": 7885070686, "lat": 32.9376195, "lon": 35.3770544, "tags": {"addr:street": "https://www.tripadvisor.ru/Restaurant_Review-g2642404-d12908119-Reviews-Rai_Winery_Restaurant-Rameh_Northern_District.html#MAPVIEW", "amenity": "restaurant", "name:en": "Rai Winery & Restaurant", "phone": "+972 54-745-3734"}}, {"type": "node", "id": 8495948617, "lat": 32.8533365, "lon": 35.2404948, "tags": {"amenity": "cafe", "description": "\u05d7\u05e0\u05d5\u05ea \u05d4\u05e1\u05e4\u05d5\u05e8\u05d8 \u05e9\u05dc \u05de\u05e9\u05d2\u05d1, \u05d9\u05e6\u05d9\u05d0\u05d4 \u05dc\u05e8\u05db\u05d9\u05d1\u05ea \u05e9\u05d8\u05d7. \u05d0\u05e1\u05e4\u05e8\u05e1\u05d5 \u05d1\u05e8 \u05e2\u05dc \u05d4\u05d4\u05e8.", "description:he": "\u05d7\u05e0\u05d5\u05ea \u05d4\u05e1\u05e4\u05d5\u05e8\u05d8 \u05e9\u05dc \u05de\u05e9\u05d2\u05d1, \u05d9\u05e6\u05d9\u05d0\u05d4 \u05dc\u05e8\u05db\u05d9\u05d1\u05ea \u05e9\u05d8\u05d7. \u05d0\u05e1\u05e4\u05e8\u05e1\u05d5 \u05d1\u05e8 \u05e2\u05dc \u05d4\u05d4\u05e8.", "image": "https://upload.wikimedia.org/wikipedia/commons/7/78/IHM_\u05e2\u05de\u05d9\u05ea_\u05dc\u05e1\u05e4\u05d5\u05e8\u05d8_\u05e7\u05e4\u05d4_\u05e1\u05d1\u05dc\u05d4.jpeg", "image1": "https://upload.wikimedia.org/wikipedia/commons/a/aa/IHM_\u05e2\u05de\u05d9\u05ea_\u05dc\u05e1\u05e4\u05d5\u05e8\u05d8_\u05e7\u05e4\u05d4_\u05e1\u05d1\u05dc\u05d4_1.jpeg", "image2": "https://upload.wikimedia.org/wikipedia/commons/a/a5/IHM_\u05e2\u05de\u05d9\u05ea_\u05dc\u05e1\u05e4\u05d5\u05e8\u05d8_\u05e7\u05e4\u05d4_\u05e1\u05d1\u05dc\u05d4_2.jpeg", "name": "\u05e2\u05de\u05d9\u05ea \u05dc\u05e1\u05e4\u05d5\u05e8\u05d8/\u05e7\u05e4\u05d4 \u05e1\u05d1\u05dc\u05d4", "name:he": "\u05e2\u05de\u05d9\u05ea \u05dc\u05e1\u05e4\u05d5\u05e8\u05d8/\u05e7\u05e4\u05d4 \u05e1\u05d1\u05dc\u05d4", "shop": "sports", "website": "https://www.amitlasport.com/"}}, {"type": "node", "id": 8513503817, "lat": 32.6656626, "lon": 35.4513822, "tags": {"addr:street": "HaTe'ena", "amenity": "restaurant", "name": "\u05e1\u05d9\u05e8\u05d9\u05df", "name:en": "Sirin", "name:he": "\u05e1\u05d9\u05e8\u05d9\u05df", "name:ru": "\u0421\u0438\u0440\u0438\u043d", "opening_hours": "Mo-Su 12:00-02:00", "phone": "046760976", "website": "https://sirin.rest.co.il/"}}, {"type": "node", "id": 8513863320, "lat": 32.6860095, "lon": 35.427365, "tags": {"addr:street": "\u05e9\u05d3\u05e8\u05d5\u05ea \u05e7\u05e7\u05dc", "amenity": "restaurant", "name": "\u05e7\u05d9\u05d0\u05e0\u05d5", "name:en": "Kiano", "name:he": "\u05e7\u05d9\u05d0\u05e0\u05d5", "opening_hours": "Mo-Fr 17:00-02:00; Sa 12:00-02:00", "phone": "0506942842"}}, {"type": "node", "id": 8684749559, "lat": 32.9375781, "lon": 35.4543006, "tags": {"amenity": "restaurant", "cuisine": "regional", "diet:vegan": "yes", "diet:vegetarian": "yes", "name": "\u05d0\u05dc \u05d2\u05dc\u05d9\u05dc", "name:he": "\u05d0\u05dc \u05d2\u05dc\u05d9\u05dc", "website": "https://www.amirim-home.co.il/Amirim/Templates/showpage.asp?DBID=1&LNGID=2&TMID=10880101&FID=1519&IID=1884"}}, {"type": "node", "id": 8927406646, "lat": 32.772859, "lon": 35.3936463}, {"type": "node", "id": 8927406647, "lat": 32.7730579, "lon": 35.3936301}, {"type": "node", "id": 8927406648, "lat": 32.7730735, "lon": 35.3939008}, {"type": "node", "id": 8927406649, "lat": 32.7728746, "lon": 35.3939169}, {"type": "node", "id": 8928518687, "lat": 32.9255563, "lon": 35.5432432, "tags": {"amenity": "cafe", "brand": "\u05d0\u05e8\u05d5\u05de\u05d4", "brand:en": "Aroma Espresso Bar", "brand:he": "\u05d0\u05e8\u05d5\u05de\u05d4", "cuisine": "coffee_shop", "name": "\u05d0\u05e8\u05d5\u05de\u05d4", "name:en": "Aroma", "name:en1": "Aroma Espresso Bar", "name:he": "\u05d0\u05e8\u05d5\u05de\u05d4", "takeaway": "yes"}}, {"type": "node", "id": 8942375219, "lat": 32.8371464, "lon": 35.4011195, "tags": {"addr:city": "\u0639\u064a\u0644\u0628\u0648\u0646", "amenity": "restaurant", "name": "\u0634\u0648\u0628\u0643 Shobak", "name:en": "Shobak", "name:he": "\u05e9\u05d5\u05d1\u05e7", "source": "local knowledge"}}, {"type": "node", "id": 8942375221, "lat": 32.70452, "lon": 35.2974455, "tags": {"amenity": "cafe", "name:en": "Amani"}}, {"type": "node", "id": 8942375222, "lat": 32.7019179, "lon": 35.2991927, "tags": {"amenity": "cafe", "name:en": "Caffe Vero"}}, {"type": "node", "id": 8942375223, "lat": 32.7051301, "lon": 35.3059223, "tags": {"amenity": "restaurant", "name:en": "Ronen"}}, {"type": "node", "id": 8942407418, "lat": 32.7047466, "lon": 35.3070726, "tags": {"amenity": "restaurant", "name:en": "Corner"}}, {"type": "node", "id": 8974874298, "lat": 32.8364115, "lon": 35.4014634, "tags": {"addr:city": "\u0639\u064a\u0644\u0628\u0648\u0646", "amenity": "cafe", "cuisine": "coffee_shop", "name": "Coffee House", "source": "local knowledge"}}, {"type": "node", "id": 8974874307, "lat": 32.8382189, "lon": 35.3980787, "tags": {"addr:city": "\u0639\u064a\u0644\u0628\u0648\u0646", "amenity": "restaurant", "name": "Juvani", "source": "local knowledge"}}, {"type": "node", "id": 9120713990, "lat": 32.8530127, "lon": 35.6644472, "tags": {"addr:city": "\u05e8\u05de\u05d5\u05ea", "air_conditioning": "yes", "amenity": "restaurant", "contact:facebook": "https://www.facebook.com/Moshbutz/", "contact:instagram": "https://www.instagram.com/moshbutz/", "diet:kosher": "no", "email": "office@moshbutz.co.il", "name": "\u05de\u05d5\u05e9\u05d1\u05d5\u05e6", "name:en": "Moshbutz", "name:he": "\u05de\u05d5\u05e9\u05d1\u05d5\u05e6", "opening_hours": "Su-We 09:00-20:00; Th-Sa 09:00-21:00", "outdoor_seating": "yes", "phone": "+972 4 679 5095", "reservation": "yes", "reservation:website": "https://tabitisrael.co.il/online-reservations/create-reservation?step=search&orgId=592a7b3f2cf4732200496a6d", "takeaway": "yes", "website": "https://moshbutz.co.il/"}}, {"type": "node", "id": 9339840517, "lat": 32.7502513, "lon": 35.2427831, "tags": {"amenity": "cafe", "image": "https://upload.wikimedia.org/wikipedia/commons/2/27/IHM_\u05e7\u05e4\u05d4_79.jpeg", "name": "\u05e7\u05e4\u05d4 79", "name:he": "\u05e7\u05e4\u05d4 79", "outdoor_seating": "yes"}}, {"type": "node", "id": 9521460261, "lat": 32.7136707, "lon": 35.5467254}, {"type": "node", "id": 9521460262, "lat": 32.7134189, "lon": 35.5470054}, {"type": "node", "id": 9521460263, "lat": 32.7134405, "lon": 35.5470379}, {"type": "node", "id": 9521460264, "lat": 32.7134917, "lon": 35.5470441}, {"type": "node", "id": 9521460265, "lat": 32.7135192, "lon": 35.5470165}, {"type": "node", "id": 9521460266, "lat": 32.7135455, "lon": 35.547047}, {"type": "node", "id": 9521460267, "lat": 32.7135701, "lon": 35.5470264}, {"type": "node", "id": 9521460268, "lat": 32.71361, "lon": 35.5470792}, {"type": "node", "id": 9521460269, "lat": 32.713655, "lon": 35.5470393}, {"type": "node", "id": 9521460270, "lat": 32.7136189, "lon": 35.5469847}, {"type": "node", "id": 9521460271, "lat": 32.7137497, "lon": 35.5468488}, {"type": "node", "id": 9623507217, "lat": 32.9635343, "lon": 35.3792454, "tags": {"amenity": "restaurant", "name": "\u05d1\u05d5\u05e8\u05e7\u05e1 \u05d4\u05db\u05e4\u05e8", "name:he": "\u05d1\u05d5\u05e8\u05e7\u05e1 \u05d4\u05db\u05e4\u05e8", "survey:date": "2022-03-30"}}, {"type": "node", "id": 9788191479, "lat": 32.8332577, "lon": 35.4021337, "tags": {"addr:city": "\u0639\u064a\u0644\u0628\u0648\u0646", "amenity": "restaurant", "name": "Texas Burger"}}, {"type": "node", "id": 9790966518, "lat": 32.7015121, "lon": 35.2988696, "tags": {"amenity": "cafe", "name:en": "Kav\u00e9"}}, {"type": "node", "id": 9836031256, "lat": 32.6857406, "lon": 35.6033345}, {"type": "node", "id": 9836031257, "lat": 32.6857119, "lon": 35.603376}, {"type": "node", "id": 9836031258, "lat": 32.6859764, "lon": 35.6036549}, {"type": "node", "id": 9836031259, "lat": 32.6860698, "lon": 35.6030821}, {"type": "node", "id": 9836031260, "lat": 32.6860818, "lon": 35.6030322}, {"type": "node", "id": 9836031261, "lat": 32.6859766, "lon": 35.6030073}, {"type": "node", "id": 9836031262, "lat": 32.6858072, "lon": 35.6030081}, {"type": "node", "id": 9855230263, "lat": 32.7838538, "lon": 35.6419121}, {"type": "node", "id": 9855230264, "lat": 32.783809, "lon": 35.64191}, {"type": "node", "id": 9855230265, "lat": 32.7840556, "lon": 35.6420916}, {"type": "node", "id": 9855230266, "lat": 32.7839854, "lon": 35.6418793}, {"type": "node", "id": 9874070518, "lat": 32.921749, "lon": 35.3080051, "tags": {"amenity": "restaurant", "cuisine": "italian;italian_pizza;pasta", "name": "\u05d5\u05d9\u05d5\u05d9\u05e0\u05d5", "name:en": "Vivino", "name:he": "\u05d5\u05d9\u05d5\u05d9\u05e0\u05d5"}}, {"type": "node", "id": 9896224617, "lat": 32.9430626, "lon": 35.1864937, "tags": {"amenity": "restaurant", "name:en": "Pizza Biennale"}}, {"type": "node", "id": 10134814917, "lat": 32.9046506, "lon": 35.5502682, "tags": {"amenity": "restaurant", "contact:facebook": "tibisveredhagalil", "contact:instagram": "tibis_rest", "diet:kosher": "no", "name": "Tibi\u2019s", "name:en": "Tibi\u2019s", "name:he": "\u05d8\u05d9\u05d1\u05d9\u05e1", "opening_hours": "Su-Sa 12:30-23:00", "phone": "04-6330885", "reservation": "yes"}}, {"type": "node", "id": 10157765703, "lat": 32.7151994, "lon": 35.1251773, "tags": {"amenity": "restaurant", "brand": "\u05d1\u05d5\u05e8\u05d2\u05e8 \u05e1\u05d0\u05dc\u05d5\u05df", "brand:en": "Burger Saloon", "brand:he": "\u05d1\u05d5\u05e8\u05d2\u05e8 \u05e1\u05d0\u05dc\u05d5\u05df", "cuisine": "burger", "name": "\u05d1\u05d5\u05e8\u05d2\u05e8 \u05e1\u05d0\u05dc\u05d5\u05df", "name:en": "Burger Saloon", "name:he": "\u05d1\u05d5\u05e8\u05d2\u05e8 \u05e1\u05d0\u05dc\u05d5\u05df"}}, {"type": "node", "id": 10589363033, "lat": 32.9336722, "lon": 35.4323178, "tags": {"amenity": "restaurant", "name": "Pizza Bomba"}}, {"type": "node", "id": 10779307256, "lat": 32.8281097, "lon": 35.512246, "tags": {"amenity": "restaurant", "name": "Pizza Hut"}}, {"type": "node", "id": 10779323642, "lat": 32.8269724, "lon": 35.5132319, "tags": {"amenity": "cafe"}}, {"type": "node", "id": 10779331517, "lat": 32.8280525, "lon": 35.5126901, "tags": {"amenity": "restaurant", "self_service": "yes"}}, {"type": "node", "id": 10779334239, "lat": 32.8286059, "lon": 35.5120615, "tags": {"amenity": "restaurant", "name": "Angus"}}, {"type": "node", "id": 10779348998, "lat": 32.8279873, "lon": 35.5128349, "tags": {"amenity": "restaurant"}}, {"type": "node", "id": 10814801855, "lat": 32.8608029, "lon": 35.2584246, "tags": {"amenity": "cafe", "name": "\u05e2\u05d2\u05dc\u05ea \u05e7\u05e4\u05d4 \u05e6\u05f3\u05e6\u05f3\u05d5", "name:he": "\u05e2\u05d2\u05dc\u05ea \u05e7\u05e4\u05d4 \u05e6\u05f3\u05e6\u05f3\u05d5"}}, {"type": "node", "id": 11866235011, "lat": 32.6069635, "lon": 35.3328271, "tags": {"amenity": "restaurant", "name": "\u0645\u0637\u0639\u0645 \u0627\u0644\u0628\u0631\u0646\u0633"}}, {"type": "node", "id": 11987121069, "lat": 32.7043863, "lon": 35.2978959, "tags": {"addr:housenumber": "22-24", "addr:postcode": "1600", "addr:street": "6132", "amenity": "cafe", "contact:facebook": "liwannazareth", "cuisine": "arab", "name": "\u0644\u064a\u0648\u0627\u0646", "name:en": "Liwan Cultural Cafe", "opening_hours": "Mo-Th 10:00-17:00; Fr-Sa 09:30-17:30"}}, {"type": "node", "id": 12002697569, "lat": 32.7212547, "lon": 35.4431372, "tags": {"amenity": "cafe", "contact:instagram": "danul_bakery", "name:en": "Danul Caf\u00e9 & Bakery", "opening_hours": "Mo-Th 08:00-20:00; Fr-Sa 09:00-20:00"}}, {"type": "node", "id": 12042648350, "lat": 32.9215034, "lon": 35.3073659, "tags": {"addr:city": "\u05db\u05e8\u05de\u05d9\u05d0\u05dc", "addr:housenumber": "1", "addr:street": "\u05e7\u05e0\u05d9\u05d5\u05df \u05d2\u05df \u05d4\u05e2\u05d9\u05e8", "amenity": "cafe", "brand": "\u05e7\u05e4\u05d4 \u05dc\u05e0\u05d3\u05d5\u05d5\u05e8", "brand:en": "Landwer Coffee", "brand:he": "\u05e7\u05e4\u05d4 \u05dc\u05e0\u05d3\u05d5\u05d5\u05e8", "brand:wikidata": "Q6485288", "contact:facebook": "https://delivery.landwercafe.co.il", "contact:instagram": "https://www.instagram.com/landwer_cafe/", "contact:youtube": "https://www.youtube.com/channel/UCGVo3RgqAVfjMVPVgeIQmyQ", "cuisine": "coffee_shop", "diet:kosher": "no", "drinking_water": "yes", "email": "office@landwercafe.co.il", "internet_access": "wlan", "internet_access:fee": "no", "name": "\u05dc\u05e0\u05d3\u05d5\u05d5\u05e8", "name:en": "Landwer", "name:he": "\u05dc\u05e0\u05d3\u05d5\u05d5\u05e8", "opening_hours": "Su-Sa 08:00-23:00", "outdoor_seating": "yes", "phone": "04-9977236", "takeaway": "yes", "toilets": "yes", "website": "https://www.landwercafe.co.il/"}}, {"type": "node", "id": 12146589680, "lat": 32.7073283, "lon": 35.1740002, "tags": {"addr:city": "\u05e8\u05de\u05ea \u05d9\u05e9\u05d9", "addr:housenumber": "3", "addr:street": "\u05d0\u05e7\u05dc\u05d9\u05e4\u05d8\u05d5\u05e1", "amenity": "restaurant", "brand": "Pizza Hut", "brand:wikidata": "Q191615", "check_date": "2024-08-30", "cuisine": "pizza", "delivery": "yes", "diet:kosher": "only", "diet:vegetarian": "yes", "internet_access": "wlan", "name": "Pizza Hut", "opening_hours": "Su-Th 11:00-22:30; Fr 11:00-14:00; Sa 20:15-23:00", "outdoor_seating": "yes", "phone": "1-700-50-60-70", "takeaway": "yes", "website": "https://www.pizzahut.co.il/branch/ramat-ishay/"}}, {"type": "node", "id": 12252522601, "lat": 32.7700043, "lon": 35.1522074, "tags": {"amenity": "cafe", "description": "\u05e8\u05d0\u05e1 \u05e2\u05dc\u05d9, \u05d1\u05d9\u05ea \u05e7\u05e4\u05d4 \u05de\u05d3\u05d4\u05d9\u05dd \u05d5\u05ea\u05e6\u05e4\u05d9\u05ea \u05de\u05d3\u05d4\u05d9\u05de\u05d4", "description:he": "\u05e8\u05d0\u05e1 \u05e2\u05dc\u05d9, \u05d1\u05d9\u05ea \u05e7\u05e4\u05d4 \u05de\u05d3\u05d4\u05d9\u05dd +++ \u05ea\u05e6\u05e4\u05d9\u05ea \u05de\u05d3\u05d4\u05d9\u05de\u05d4", "image": "https://upload.wikimedia.org/wikipedia/commons/c/cf/IHM_\u05d1\u05d9\u05ea_\u05e7\u05e4\u05d4_\u05e1\u05d0\u05de\u05d5\u05e0\u05d4.jpeg", "image1": "https://upload.wikimedia.org/wikipedia/commons/b/bf/IHM_\u05d1\u05d9\u05ea_\u05e7\u05e4\u05d4_\u05e1\u05d0\u05de\u05d5\u05e0\u05d4_1.jpeg", "image2": "https://upload.wikimedia.org/wikipedia/commons/6/6b/IHM_\u05d1\u05d9\u05ea_\u05e7\u05e4\u05d4_\u05e1\u05d0\u05de\u05d5\u05e0\u05d4_2.jpeg", "image3": "https://upload.wikimedia.org/wikipedia/commons/0/02/IHM_\u05d1\u05d9\u05ea_\u05e7\u05e4\u05d4_\u05e1\u05d0\u05de\u05d5\u05e0\u05d4_3.jpeg", "name": "\u05d1\u05d9\u05ea \u05e7\u05e4\u05d4 \u05e1\u05d0\u05de\u05d5\u05e0\u05d4", "name:he": "\u05d1\u05d9\u05ea \u05e7\u05e4\u05d4 \u05e1\u05d0\u05de\u05d5\u05e0\u05d4"}}, {"type": "node", "id": 12385769124, "lat": 32.5112452, "lon": 35.5012709, "tags": {"amenity": "restaurant", "cuisine": "asian", "name": "Atza Sushi Bar"}}, {"type": "node", "id": 12385769127, "lat": 32.5115879, "lon": 35.5023345, "tags": {"amenity": "cafe", "brand": "\u05d0\u05e8\u05d5\u05de\u05d4", "brand:en": "Aroma Espresso Bar", "brand:he": "\u05d0\u05e8\u05d5\u05de\u05d4", "brand:wikidata": "Q2909872", "cuisine": "coffee_shop", "name": "\u05d0\u05e8\u05d5\u05de\u05d4", "name:en": "Aroma Espresso Bar", "name:he": "\u05d0\u05e8\u05d5\u05de\u05d4", "takeaway": "yes"}}, {"type": "node", "id": 12388468210, "lat": 32.7031668, "lon": 35.5859722, "tags": {"amenity": "cafe", "brand": "\u05e7\u05e4\u05d4 \u05dc\u05e0\u05d3\u05d5\u05d5\u05e8", "brand:en": "Landwer Coffee", "brand:he": "\u05e7\u05e4\u05d4 \u05dc\u05e0\u05d3\u05d5\u05d5\u05e8", "brand:wikidata": "Q6485288", "cuisine": "coffee_shop", "name": "\u05dc\u05e0\u05d3\u05d5\u05d5\u05e8", "name:en": "Landwer", "name:he": "\u05dc\u05e0\u05d3\u05d5\u05d5\u05e8", "takeaway": "yes"}}, {"type": "node", "id": 12388468216, "lat": 32.7041178, "lon": 35.5854188, "tags": {"alt_name": "Burgus Burger Bar", "alt_name:en": "Burgus Burger Bar", "amenity": "restaurant", "brand": "Burgus Burger Bar", "brand:en": "Burgus Burger Bar", "brand:wikidata": "Q64760094", "cuisine": "burger", "name": "BBB", "name:en": "BBB"}}, {"type": "node", "id": 12388468218, "lat": 32.5446905, "lon": 35.4341635, "tags": {"alt_name": "\u05e1\u05d9 \u05d0\u05e1\u05e4\u05e8\u05e1\u05d5", "alt_name:en": "Si Espresso", "alt_name:he": "\u05e1\u05d9 \u05d0\u05e1\u05e4\u05e8\u05e1\u05d5", "amenity": "cafe", "brand": "\u05e1\u05d9 \u05e7\u05e4\u05d4", "brand:en": "Si Cafe", "brand:he": "\u05e1\u05d9 \u05e7\u05e4\u05d4", "brand:wikidata": "Q64606227", "cuisine": "coffee_shop", "name": "\u05e1\u05d9 \u05e7\u05e4\u05d4", "name:en": "Si Cafe", "name:he": "\u05e1\u05d9 \u05e7\u05e4\u05d4", "takeaway": "yes"}}, {"type": "node", "id": 12402712201, "lat": 32.5115359, "lon": 35.5013665, "tags": {"amenity": "restaurant", "brand": "Pizza Hut", "brand:wikidata": "Q191615", "cuisine": "pizza", "name": "Pizza Hut"}}, {"type": "node", "id": 12406107867, "lat": 32.5149986, "lon": 35.488509, "tags": {"amenity": "cafe", "name": "\u05e7\u05e4\u05d4 \u05e2\u05dc\u05d9\u05ea"}}, {"type": "node", "id": 12565774537, "lat": 32.6863459, "lon": 35.428439, "tags": {"addr:street": "\u05e9\u05d3\u05e8\u05d5\u05ea \u05e7\u05e7\u05dc", "amenity": "cafe", "cuisine": "coffee_shop;sandwich", "internet_access": "yes", "name": "Reut", "name:he": "\u05e8\u05e2\u05d5\u05ea - \u05de\u05e7\u05d5\u05dd \u05e9\u05dc \u05e7\u05e4\u05d4", "website": "https://reutroasters.co.il"}}, {"type": "node", "id": 12601661102, "lat": 32.9040182, "lon": 35.5225457, "tags": {"amenity": "cafe", "name": "\u05de\u05e7\u05d5\u05dd \u05d9\u05e4\u05d4 \u05dc\u05e7\u05e4\u05d4"}}, {"type": "way", "id": 119948521, "nodes": [1346124351, 1346124359, 1346124354, 1346124349, 1346124371, 1346124357, 1346124352, 9855230264, 9855230263, 1346124366, 1346124361, 9855230266, 1346124373, 9855230265, 1346124351], "tags": {"amenity": "restaurant", "building": "yes", "contact:facebook": "https://www.facebook.com/Marinadoshop", "cuisine": "meat", "diet:kosher": "no", "email": "shirly@marinado.co.il", "name": "\u05de\u05e8\u05d9\u05e0\u05d3\u05d5", "name:en": "Merinado", "name:he": "\u05de\u05e8\u05d9\u05e0\u05d3\u05d5", "opening_hours": "Su-Sa 12:00-21:30+", "outdoor_seating": "yes", "phone": "+972 4 665 8555", "takeaway": "yes", "wheelchair": "yes"}}, {"type": "way", "id": 221000333, "nodes": [2300582517, 2300582543, 2300582542, 2300582541, 2300582540, 2300582539, 2300582538, 2300582537, 2300582517], "tags": {"addr:city": "\u0646\u064a\u0646", "amenity": "restaurant", "cuisine": "mediterranean", "name": "\u0627\u0644\u0635\u062d\u0631\u0627\u0621", "name:ar": "\u0627\u0644\u0635\u062d\u0631\u0627\u0621", "name:en": "Sahara", "name:he": "\u05e1\u05d4\u05e8\u05d4"}}, {"type": "way", "id": 243220161, "nodes": [2506391818, 2506391820, 2506391816, 2506391815, 2506391818], "tags": {"addr:city": "\u0627\u0644\u0631\u0627\u0645\u0629", "amenity": "restaurant", "building": "yes"}}, {"type": "way", "id": 243510927, "nodes": [2509052837, 9836031261, 9836031260, 9836031259, 2509052838, 2509052839, 9836031258, 9836031257, 9836031256, 2509052840, 9836031262, 2509052837], "tags": {"amenity": "restaurant", "building": "yes", "name": "\u05d7\u05d3\u05e8 \u05d0\u05d5\u05db\u05dc", "name:en": "Dining Hall", "name:he": "\u05d7\u05d3\u05e8 \u05d0\u05d5\u05db\u05dc"}}, {"type": "way", "id": 318007165, "nodes": [3243597508, 3243597509, 3243597507, 3243597506, 3243597508], "tags": {"amenity": "restaurant", "building": "yes", "name": "\u05e7\u05d9\u05de\u05dc \u05d1\u05d2\u05dc\u05d1\u05d5\u05e2", "name:he": "\u05e7\u05d9\u05de\u05dc \u05d1\u05d2\u05dc\u05d1\u05d5\u05e2", "website": "https://kimmelbagilboa.co.il/"}}, {"type": "way", "id": 326242645, "nodes": [3328644164, 3328644165, 3328644166, 3328644167, 3328644168, 3328644170, 3328644164], "tags": {"amenity": "restaurant", "building": "yes"}}, {"type": "way", "id": 326242649, "nodes": [3328644898, 7238386556, 7238393494, 7238386581, 7238386561, 3328644897, 3328644898], "tags": {"amenity": "restaurant", "building": "yes", "cuisine": "burger"}}, {"type": "way", "id": 326242650, "nodes": [3328644900, 3328644901, 3328644191, 3328644192, 3328644893, 3328644896, 3328644900], "tags": {"amenity": "cafe", "building": "yes"}}, {"type": "way", "id": 326286022, "nodes": [3329113966, 3329113967, 3329113968, 3329113969, 3329113970, 3329113971, 3329113966], "tags": {"amenity": "cafe", "building": "yes", "name": "Cafe Cafe", "name:en": "Cafe Cafe"}}, {"type": "way", "id": 431156253, "nodes": [4304041413, 4304041414, 4304041415, 4304041416, 4304041417, 4304041418, 4304041419, 4304041420, 4304041413], "tags": {"amenity": "restaurant", "building": "yes", "name": "\u05d0\u05d5\u05e7\u05d8\u05d2\u05d5\u05df", "name:en": "Octagon", "name:he": "\u05d0\u05d5\u05e7\u05d8\u05d2\u05d5\u05df"}}, {"type": "way", "id": 495398744, "nodes": [4871546906, 4871546905, 4871546904, 4871546903, 4871546906], "tags": {"amenity": "cafe", "description": "Sells meat-only foods. The shop next to it sells all the rest. (Kosher)", "diet:kosher": "meat", "name": "Greg", "name:en": "Greg", "name:he": "\u05d2\u05e8\u05d9\u05d2"}}, {"type": "way", "id": 525902879, "nodes": [5115254177, 5115254143, 5115254170, 5115254126, 5115254177], "tags": {"amenity": "cafe", "building": "yes", "building:levels": "0", "name": "cofiz", "name:en": "cofiz", "outdoor_seating": "yes"}}, {"type": "way", "id": 605590426, "nodes": [5743440855, 5743440854, 5743440853, 5743440852, 5743440855], "tags": {"amenity": "cafe"}}, {"type": "way", "id": 614192444, "nodes": [5810106039, 5810106040, 5810106042, 5810106041, 5810106039], "tags": {"amenity": "cafe", "building": "yes"}}, {"type": "way", "id": 624128066, "nodes": [5893516697, 5893516564, 5893516574, 5893516566, 5893516576, 5893516500, 5893516744, 5893516577, 5893516709, 5893516697], "tags": {"amenity": "restaurant", "building": "yes", "name": "New Grand Palace", "name:en": "New Grand Palace"}}, {"type": "way", "id": 628539148, "nodes": [5933877685, 5933877686, 5933877687, 5933877688, 5933877689, 5933877690, 5933877691, 5933877692, 5933877693, 5933877694, 5933877695, 5933877696, 5933877697, 5933877698, 5933877699, 5933877700, 5933877701, 5933877702, 5933877703, 5933877704, 5933877685], "tags": {"amenity": "restaurant", "building": "yes", "capacity": "400", "delivery": "no", "name": "\u05d7\u05d3\u05e8 \u05d0\u05d5\u05db\u05dc", "name:he": "\u05d7\u05d3\u05e8 \u05d0\u05d5\u05db\u05dc", "opening_hours": "Su-Fr 11:00-13:30", "outdoor_seating": "no", "smoking": "outside", "takeaway": "yes"}}, {"type": "way", "id": 675434945, "nodes": [6325416461, 6325416462, 6325416464, 6325416460, 6325416461], "tags": {"amenity": "cafe", "brand": "\u05d0\u05e8\u05d5\u05de\u05d4", "brand:en": "Aroma Espresso Bar", "brand:wikidata": "Q2909872", "brand:wikipedia": "en:Aroma Espresso Bar", "name": "\u05d0\u05e8\u05d5\u05de\u05d4", "name:en": "Aroma", "name:he": "\u05d0\u05e8\u05d5\u05de\u05d4", "outdoor_seating": "yes", "takeaway": "yes", "wheelchair": "yes"}}, {"type": "way", "id": 699406969, "nodes": [6567714554, 6567714555, 6567714556, 6567714557, 6567714558, 6567714559, 6915422237, 6567714560, 6567714554], "tags": {"amenity": "restaurant", "building": "yes", "name": "Dining room", "name:en": "Dining room"}}, {"type": "way", "id": 742242034, "nodes": [6163499188, 6948925654, 6948925653, 6948925652, 6948925647, 6948925651, 6948925650, 6948925648, 6948925649, 6163499188], "tags": {"amenity": "restaurant", "building": "yes", "cuisine": "mediterranean", "name": "St. Peter Restaurant", "name:en": "St. Peter Restaurant", "name:ro": "Restaurantul sf. Petru", "opening_hours": "11:30-15:30", "website": "https://st-peters-restaurant.business.site"}}, {"type": "way", "id": 789963907, "nodes": [7385755052, 7385755053, 7385755054, 7385755056, 7385755057, 7385755058, 7385755052], "tags": {"addr:city": "\u05e6\u05d5\u05de\u05ea \u05e2\u05de\u05d9\u05e2\u05d3", "amenity": "restaurant", "building": "yes", "contact:instagram": "abo_saleh.resturant", "cuisine": "meat;arab", "diet:kosher": "no", "name": "\u05de\u05e1\u05e2\u05d3\u05ea \u05d0\u05d1\u05d5 \u05e1\u05dc\u05d0\u05d7", "name:en": "Abu Salah", "name:he": "\u05de\u05e1\u05e2\u05d3\u05ea \u05d0\u05d1\u05d5 \u05e1\u05dc\u05d0\u05d7", "opening_hours": "08:30-22:00", "phone": "+972 4 680 1356", "reservation": "yes", "toilets": "yes"}}, {"type": "way", "id": 789965657, "nodes": [7385732144, 7385732145, 7385732146, 7385732147, 7385732144], "tags": {"addr:city": "\u05db\u05d7\u05dc", "amenity": "cafe", "building": "yes", "name": "\u05db\u05d7\u05dc\u05d5\u05dd", "name:he": "\u05db\u05d7\u05dc\u05d5\u05dd"}}, {"type": "way", "id": 789966922, "nodes": [7385758847, 7385758848, 7385758849, 7385758850, 7385758847], "tags": {"amenity": "restaurant", "building": "yes", "name": "\u05e2\u05d9\u05df \u05db\u05de\u05d5\u05e0\u05d9\u05dd", "name:he": "\u05e2\u05d9\u05df \u05db\u05de\u05d5\u05e0\u05d9\u05dd"}}, {"type": "way", "id": 965044703, "nodes": [8927406646, 8927406647, 8927406648, 8927406649, 8927406646], "tags": {"amenity": "restaurant", "building": "yes", "name": "\u064a\u0648\u0646\u0633", "name:he": "\u05de\u05e1\u05e2\u05d3\u05ea \u05d9\u05d5\u05e0\u05e1"}}, {"type": "way", "id": 1033458839, "nodes": [9521460261, 9521460262, 9521460263, 9521460264, 9521460265, 9521460266, 9521460267, 9521460268, 9521460269, 9521460270, 9521460271, 9521460261], "tags": {"amenity": "restaurant", "building": "yes", "name": "\u05de\u05e1\u05e2\u05d3\u05ea \u05d4\u05de\u05d2\u05d3\u05dc", "name:he": "\u05de\u05e1\u05e2\u05d3\u05ea \u05d4\u05de\u05d2\u05d3\u05dc"}}]}