{"version": 0.6, "generator": "Overpass API 0.7.62.7 375dc00a", "osm3s": {"timestamp_osm_base": "2025-06-14T13:57:32Z", "copyright": "The data included in this document is from www.openstreetmap.org. The data is made available under ODbL."}, "elements": [{"type": "node", "id": 289143741, "lat": 41.7220939, "lon": 16.0909202, "tags": {"amenity": "restaurant", "name": "Belvedere"}}, {"type": "node", "id": 289641776, "lat": 41.7526871, "lon": 16.0275845, "tags": {"amenity": "restaurant", "name": "Agriturismo Monte Sacro", "tourism": "guest_house"}}, {"type": "node", "id": 291656867, "lat": 41.7653505, "lon": 15.9765938, "tags": {"amenity": "restaurant", "name": "Agriturismo Parco del Barone"}}, {"type": "node", "id": 291658465, "lat": 41.7116782, "lon": 15.8084007, "tags": {"amenity": "restaurant", "name": "Masseria Agropolis"}}, {"type": "node", "id": 298446766, "lat": 41.6127846, "lon": 15.8876034, "tags": {"amenity": "restaurant", "name": "Ristorante Crysalis"}}, {"type": "node", "id": 338063224, "lat": 41.627938, "lon": 15.9158662, "tags": {"amenity": "restaurant", "cuisine": "regional", "name": "Il Baracchio"}}, {"type": "node", "id": 338919546, "lat": 41.3588213, "lon": 16.0819503, "tags": {"amenity": "cafe", "indoor_seating": "yes", "name": "Bar Loreto", "outdoor_seating": "no", "wheelchair": "yes"}}, {"type": "node", "id": 339508246, "lat": 41.6362281, "lon": 15.7342507, "tags": {"amenity": "restaurant", "cuisine": "regional", "name": "Montecatini"}}, {"type": "node", "id": 339542642, "lat": 41.78011, "lon": 15.8337613, "tags": {"agritourism": "yes", "amenity": "restaurant", "contact:mobile": "+39-347-1599271", "contact:phone": "+39 0884 8238", "cuisine": "regional", "name": "Agriturismo Falcare", "tourism": "guest_house"}}, {"type": "node", "id": 339887022, "lat": 41.3989452, "lon": 15.6525823, "tags": {"amenity": "restaurant", "name": "Trattoria Bellavista"}}, {"type": "node", "id": 559232686, "lat": 41.7072504, "lon": 16.0537935, "tags": {"amenity": "cafe", "name": "Shanti Cafe", "phone": "+39884559811"}}, {"type": "node", "id": 559232690, "lat": 41.7497477, "lon": 16.1385118, "tags": {"amenity": "restaurant", "cuisine": "italian", "name": "Monte Barone"}}, {"type": "node", "id": 634698354, "lat": 41.6798649, "lon": 15.8613325, "tags": {"amenity": "restaurant", "cuisine": "pizza", "name": "Pizzeria da Rosa"}}, {"type": "node", "id": 650737919, "lat": 41.6321855, "lon": 15.91755, "tags": {"addr:city": "Manfredonia", "addr:country": "IT", "addr:housenumber": "1d", "addr:postcode": "71043", "addr:street": "Via Pasubio", "amenity": "restaurant", "name": "Calafuria"}}, {"type": "node", "id": 651903636, "lat": 41.6373178, "lon": 15.9288655, "tags": {"addr:city": "Manfredonia", "addr:country": "IT", "addr:housenumber": "6", "addr:postcode": "71043", "addr:street": "Via Cala del Fico", "amenity": "cafe", "contact:phone": "+39 0884 516617", "name": "Bar Ungaretti"}}, {"type": "node", "id": 806505337, "lat": 41.7056483, "lon": 15.9633261, "tags": {"addr:city": "Monte Sant'Angelo", "addr:country": "IT", "addr:housenumber": "19/C-D", "addr:postcode": "71037", "addr:street": "Via Manfredi", "amenity": "cafe", "name": "Byron Caff\u00e9", "operator": "Azzarone, R."}}, {"type": "node", "id": 917316847, "lat": 41.7059509, "lon": 15.9520262, "tags": {"amenity": "restaurant", "cuisine": "italian", "name": "L'Osteria del Corso", "operator": "Roberto Vaira"}}, {"type": "node", "id": 964938161, "lat": 41.7622402, "lon": 16.1352419, "tags": {"amenity": "restaurant", "name": "Bar Trattoria La Montagna"}}, {"type": "node", "id": 1010398946, "lat": 41.6755597, "lon": 15.5865228, "tags": {"amenity": "cafe", "cuisine": "italian", "internet_access": "no", "internet_access:fee": "no", "name": "Bar Gaggiano", "opening_hours": "Tu-Su 08:00-15:00;Sa 08:00-12:00", "operator": "Gaggiano Claudio", "smoking": "yes", "wheelchair": "yes", "wifi": "no"}}, {"type": "node", "id": 1285024601, "lat": 41.3823706, "lon": 15.6419394, "tags": {"amenity": "cafe", "cuisine": "coffee_shop;ice_cream;italian", "name": "Bar De Angelis", "operator": "De Angelis, Angelina"}}, {"type": "node", "id": 1422428880, "lat": 41.5415384, "lon": 15.8904691, "tags": {"addr:street": "SP141 delle Saline", "amenity": "restaurant", "bar": "yes", "changing_table": "yes", "changing_table:count": "1", "check_date": "2024-10-06", "cuisine": "italian;pasta;seafood;pie", "drink:coffee": "yes", "drink:wine": "yes", "information": "office", "name": "Oasi Lago Salso", "toilets": "yes", "toilets:wheelchair": "yes", "tourism": "information", "wheelchair": "yes"}}, {"type": "node", "id": 1488664094, "lat": 41.4028902, "lon": 15.654958, "tags": {"addr:city": "Foggia", "addr:hamlet": "Centro Incoronata", "addr:postcode": "71121", "addr:street": "Localit\u00e0 La Torretta", "amenity": "restaurant", "check_date": "2024-10-02", "contact:phone": "+39 0881 810009", "cuisine": "italian", "name": "Rotarott"}}, {"type": "node", "id": 1877370516, "lat": 41.3940691, "lon": 15.651318, "tags": {"amenity": "restaurant", "name": "L'antico feudo"}}, {"type": "node", "id": 1877415352, "lat": 41.3836996, "lon": 15.6425485, "tags": {"amenity": "restaurant"}}, {"type": "node", "id": 2126706677, "lat": 41.6353309, "lon": 15.9287171, "tags": {"addr:city": "Manfredonia", "addr:country": "IT", "addr:housenumber": "43", "addr:postcode": "71043", "addr:street": "Via Dante Alighieri", "amenity": "cafe", "name": "Bar Autuori", "phone": "+39 0884 511222"}}, {"type": "node", "id": 2162690023, "lat": 41.6352113, "lon": 15.9306835, "tags": {"addr:city": "Manfredonia", "addr:country": "IT", "addr:housenumber": "49, 50, 51, 52", "addr:postcode": "71043", "addr:street": "Viale Palmiro Togliatti", "amenity": "cafe", "internet_access": "yes", "name": "Albatros", "phone": "+39 0884 514508"}}, {"type": "node", "id": 2167213822, "lat": 41.6367058, "lon": 15.9257822, "tags": {"addr:city": "Manfredonia", "addr:country": "IT", "addr:housenumber": "120", "addr:postcode": "71043", "addr:street": "Via Gargano", "amenity": "cafe", "name": "Bar Pace", "phone": "+39 0884 582569"}}, {"type": "node", "id": 2173927273, "lat": 41.6269374, "lon": 15.9120175, "tags": {"addr:city": "Manfredonia", "addr:country": "IT", "addr:housenumber": "1h", "addr:postcode": "71043", "addr:street": "Via della Croce", "amenity": "cafe", "name": "Caf\u00e8 Carpe Diem", "opening_hours": "Tu-Sa 04:30-22:00; Su 05:00-13:00", "phone": "+39 0884 530070"}}, {"type": "node", "id": 2219291660, "lat": 41.3976865, "lon": 15.6571546, "tags": {"amenity": "cafe", "name": "Oasi Bar sas", "operator": "Perrella A. e Ruberto", "ref:vatin": "IT03576220713"}}, {"type": "node", "id": 2293620748, "lat": 41.7115401, "lon": 15.6370335, "tags": {"amenity": "cafe", "name": "La Rotonda"}}, {"type": "node", "id": 2293620749, "lat": 41.7117166, "lon": 15.6348208, "tags": {"amenity": "cafe", "name": "Noir"}}, {"type": "node", "id": 2293620750, "lat": 41.7118976, "lon": 15.6400889, "tags": {"amenity": "cafe", "denomination": "catholic", "name": "Caffetteria", "religion": "christian"}}, {"type": "node", "id": 2293620751, "lat": 41.7130154, "lon": 15.6357605, "tags": {"amenity": "cafe", "denomination": "catholic", "name": "Caffetteria", "religion": "christian"}}, {"type": "node", "id": 2293620752, "lat": 41.7135584, "lon": 15.6340449, "tags": {"amenity": "cafe", "denomination": "catholic", "name": "Caffetteria", "religion": "christian"}}, {"type": "node", "id": 2431124578, "lat": 41.7058166, "lon": 15.7013941, "tags": {"amenity": "restaurant", "name": "Bar Trattoria Le More"}}, {"type": "node", "id": 2834535925, "lat": 41.7343305, "lon": 16.1174731}, {"type": "node", "id": 2834535928, "lat": 41.7344039, "lon": 16.1175333}, {"type": "node", "id": 2834535929, "lat": 41.7344143, "lon": 16.1173046}, {"type": "node", "id": 2834535930, "lat": 41.7344862, "lon": 16.1173467}, {"type": "node", "id": 2909452441, "lat": 41.6588288, "lon": 15.9831051, "tags": {"amenity": "restaurant", "name": "Lido Macchia"}}, {"type": "node", "id": 3366561745, "lat": 41.7622381, "lon": 15.7272314, "tags": {"addr:city": "San Marco in lamis", "addr:housename": "Le Chiancate", "addr:housenumber": "sn", "addr:postcode": "71014", "addr:street": "Contrada Micaletti", "amenity": "restaurant", "capacity": "100", "cuisine": "regional", "description": "Agriturismo nel cuore del Parco Nazionale del Gargano con camere confortevoli e cucina tipica locale. Dispone di 6 camere con tutti i cimforts e un piccolo ristorante a conduzione famigliare.", "ele": "845", "email": "info@agriturismonelgargano.it", "fax": "+39 0882 663114", "name": "Azienda Agricola le Chiancate", "opening_hours": "12:00-21:00", "phone": "+39 0882 1995666", "smoking": "outside", "source": "Paolo Cappucci", "takeaway": "no", "website": "https://www.agriturismonelgargano.it/", "wheelchair": "limited"}}, {"type": "node", "id": 3732137193, "lat": 41.5122277, "lon": 15.5973022, "tags": {"addr:housenumber": "SS89 Km. 196+200", "addr:street": "SS89 - Garganica", "amenity": "restaurant", "name": "Agriturismo Posta Bassi", "opening_hours": "Tu-Su, PH 12:30-15:00, 19:30-23:30; Mo off", "phone": "+39 0881 700155", "website": "http://www.postabassi.it/"}}, {"type": "node", "id": 4078807840, "lat": 41.7127094, "lon": 15.6596578}, {"type": "node", "id": 4078807868, "lat": 41.7127205, "lon": 15.6596602}, {"type": "node", "id": 4078807881, "lat": 41.712728, "lon": 15.659597}, {"type": "node", "id": 4078812933, "lat": 41.7126982, "lon": 15.659752}, {"type": "node", "id": 4078812996, "lat": 41.7127335, "lon": 15.6595504}, {"type": "node", "id": 4078813004, "lat": 41.7127351, "lon": 15.6595368}, {"type": "node", "id": 4078813020, "lat": 41.7127416, "lon": 15.659845}, {"type": "node", "id": 4078813046, "lat": 41.7127513, "lon": 15.6597631}, {"type": "node", "id": 4078813121, "lat": 41.7127865, "lon": 15.6595608}, {"type": "node", "id": 4078813123, "lat": 41.712788, "lon": 15.659548}, {"type": "node", "id": 4078813172, "lat": 41.7128126, "lon": 15.65986}, {"type": "node", "id": 4078813201, "lat": 41.7128277, "lon": 15.6597327}, {"type": "node", "id": 4078813223, "lat": 41.7128338, "lon": 15.6596815}, {"type": "node", "id": 4078813247, "lat": 41.7128437, "lon": 15.6595729}, {"type": "node", "id": 4078813261, "lat": 41.7128485, "lon": 15.6595329}, {"type": "node", "id": 4078813294, "lat": 41.7128613, "lon": 15.6596873}, {"type": "node", "id": 4078813536, "lat": 41.7129364, "lon": 15.6597031}, {"type": "node", "id": 4078813559, "lat": 41.7129472, "lon": 15.6596114}, {"type": "node", "id": 4078813572, "lat": 41.7129539, "lon": 15.6595552}, {"type": "node", "id": 4079069402, "lat": 41.6231578, "lon": 15.7337968}, {"type": "node", "id": 4079069407, "lat": 41.623208, "lon": 15.7343299}, {"type": "node", "id": 4079069412, "lat": 41.6233298, "lon": 15.7340479}, {"type": "node", "id": 4079069413, "lat": 41.6233415, "lon": 15.7337658}, {"type": "node", "id": 4079069414, "lat": 41.6233541, "lon": 15.7343052}, {"type": "node", "id": 4079069416, "lat": 41.6233675, "lon": 15.7340416}, {"type": "node", "id": 4079145865, "lat": 41.7064627, "lon": 15.7015775}, {"type": "node", "id": 4079146429, "lat": 41.7065407, "lon": 15.7016774}, {"type": "node", "id": 4079146441, "lat": 41.7065368, "lon": 15.7013862}, {"type": "node", "id": 4079146479, "lat": 41.706542, "lon": 15.7014662}, {"type": "node", "id": 4079146873, "lat": 41.7065912, "lon": 15.7014768}, {"type": "node", "id": 4079146889, "lat": 41.7066044, "lon": 15.7013784}, {"type": "node", "id": 4079146900, "lat": 41.7066354, "lon": 15.7015446}, {"type": "node", "id": 4079146916, "lat": 41.7066092, "lon": 15.7014518}, {"type": "node", "id": 4079158708, "lat": 41.7079932, "lon": 15.7010216}, {"type": "node", "id": 4079165266, "lat": 41.7089675, "lon": 15.7029026}, {"type": "node", "id": 4079165291, "lat": 41.7089731, "lon": 15.7029445}, {"type": "node", "id": 4079165302, "lat": 41.7089765, "lon": 15.7029696}, {"type": "node", "id": 4079165310, "lat": 41.7089792, "lon": 15.7029898}, {"type": "node", "id": 4079165316, "lat": 41.7089803, "lon": 15.702998}, {"type": "node", "id": 4079165388, "lat": 41.7089976, "lon": 15.7029939}, {"type": "node", "id": 4079165422, "lat": 41.7090038, "lon": 15.7030402}, {"type": "node", "id": 4079165677, "lat": 41.7090573, "lon": 15.7028588}, {"type": "node", "id": 4079165689, "lat": 41.7090602, "lon": 15.7028806}, {"type": "node", "id": 4079165783, "lat": 41.7090857, "lon": 15.7029494}, {"type": "node", "id": 4079165808, "lat": 41.7090897, "lon": 15.7029485}, {"type": "node", "id": 4079165831, "lat": 41.7090949, "lon": 15.7030185}, {"type": "node", "id": 4079165862, "lat": 41.709104, "lon": 15.7028477}, {"type": "node", "id": 4079165870, "lat": 41.7091062, "lon": 15.7028601}, {"type": "node", "id": 4079165877, "lat": 41.7091081, "lon": 15.7028751}, {"type": "node", "id": 4079165910, "lat": 41.7091167, "lon": 15.7029421}, {"type": "node", "id": 4089133335, "lat": 41.7066829, "lon": 15.9311772}, {"type": "node", "id": 4089133364, "lat": 41.7066913, "lon": 15.9315937}, {"type": "node", "id": 4089133760, "lat": 41.7068091, "lon": 15.9311727}, {"type": "node", "id": 4089133795, "lat": 41.7068176, "lon": 15.9315892}, {"type": "node", "id": 4089134126, "lat": 41.7069276, "lon": 15.9504559}, {"type": "node", "id": 4089134135, "lat": 41.70693, "lon": 15.9504355}, {"type": "node", "id": 4089134150, "lat": 41.706937, "lon": 15.9504388}, {"type": "node", "id": 4089134174, "lat": 41.7069469, "lon": 15.9502937}, {"type": "node", "id": 4089134305, "lat": 41.7069917, "lon": 15.9504744}, {"type": "node", "id": 4089134439, "lat": 41.7070293, "lon": 15.9503326}, {"type": "node", "id": 4089173398, "lat": 41.7013622, "lon": 16.0655401, "tags": {"amenity": "restaurant", "name": "Il Giardino di Monsignore"}}, {"type": "node", "id": 4089190583, "lat": 41.7107146, "lon": 16.0733536}, {"type": "node", "id": 4089191278, "lat": 41.7105143, "lon": 16.0730672}, {"type": "node", "id": 4089191321, "lat": 41.7105449, "lon": 16.0730203}, {"type": "node", "id": 4089191344, "lat": 41.7105587, "lon": 16.0729991}, {"type": "node", "id": 4089191467, "lat": 41.7106367, "lon": 16.0732093}, {"type": "node", "id": 4089191484, "lat": 41.7106462, "lon": 16.0732484}, {"type": "node", "id": 4089191526, "lat": 41.7106811, "lon": 16.0731412}, {"type": "node", "id": 4089191540, "lat": 41.710689, "lon": 16.0731989}, {"type": "node", "id": 4089191662, "lat": 41.7107573, "lon": 16.0733042}, {"type": "node", "id": 4089191829, "lat": 41.710879, "lon": 16.0783816}, {"type": "node", "id": 4089191847, "lat": 41.7108905, "lon": 16.0783361}, {"type": "node", "id": 4089191849, "lat": 41.7108916, "lon": 16.0784394}, {"type": "node", "id": 4089191860, "lat": 41.7108998, "lon": 16.0783298}, {"type": "node", "id": 4089191861, "lat": 41.7109007, "lon": 16.0733695}, {"type": "node", "id": 4089191910, "lat": 41.7109256, "lon": 16.0734592}, {"type": "node", "id": 4089191911, "lat": 41.7109259, "lon": 16.0783122}, {"type": "node", "id": 4089191918, "lat": 41.7109322, "lon": 16.0734561}, {"type": "node", "id": 4089191936, "lat": 41.7109406, "lon": 16.0735109}, {"type": "node", "id": 4089191963, "lat": 41.7109551, "lon": 16.0735298}, {"type": "node", "id": 4089191969, "lat": 41.7109581, "lon": 16.0783989}, {"type": "node", "id": 4089191992, "lat": 41.7109732, "lon": 16.0733197}, {"type": "node", "id": 4089192002, "lat": 41.7109777, "lon": 16.0735592}, {"type": "node", "id": 4089192015, "lat": 41.7109823, "lon": 16.0736001}, {"type": "node", "id": 4089192018, "lat": 41.7109856, "lon": 16.0736085}, {"type": "node", "id": 4089192023, "lat": 41.7109898, "lon": 16.073432}, {"type": "node", "id": 4089192034, "lat": 41.7109972, "lon": 16.0734818}, {"type": "node", "id": 4089192050, "lat": 41.7110072, "lon": 16.0735609}, {"type": "node", "id": 4089192064, "lat": 41.711014, "lon": 16.0735817}, {"type": "node", "id": 4089192071, "lat": 41.7110188, "lon": 16.0735339}, {"type": "node", "id": 4089192131, "lat": 41.7110671, "lon": 16.0735259}, {"type": "node", "id": 4089192132, "lat": 41.7110674, "lon": 16.0738171}, {"type": "node", "id": 4089192152, "lat": 41.7110791, "lon": 16.0738129}, {"type": "node", "id": 4089192166, "lat": 41.7110914, "lon": 16.0738085}, {"type": "node", "id": 4089192175, "lat": 41.7110995, "lon": 16.0738056}, {"type": "node", "id": 4089192240, "lat": 41.7111462, "lon": 16.0737785}, {"type": "node", "id": 4101133935, "lat": 41.366423, "lon": 16.1726872, "tags": {"amenity": "restaurant", "name": "La porta dei Leoni"}}, {"type": "node", "id": 4312340017, "lat": 41.7111908, "lon": 16.0513393, "tags": {"amenity": "cafe", "name": "Coppadicuoco"}}, {"type": "node", "id": 4826446624, "lat": 41.709242, "lon": 15.7293347, "tags": {"amenity": "restaurant", "name": "Osteria Antica Torre", "name:it": "Osteria Antica Torre"}}, {"type": "node", "id": 4826446625, "lat": 41.7086014, "lon": 15.7278325, "tags": {"amenity": "restaurant", "name": "Trattoria Chiazza Ranna", "name:it": "Trattoria Chiazza Ranna"}}, {"type": "node", "id": 4832284023, "lat": 41.7058309, "lon": 15.6545309, "tags": {"amenity": "restaurant", "name": "Sombrero", "name:it": "Sombrero"}}, {"type": "node", "id": 4836268021, "lat": 41.7083432, "lon": 16.0508651, "tags": {"amenity": "cafe", "brand": "Illy", "name": "Illy Caf\u00e9"}}, {"type": "node", "id": 4995228889, "lat": 41.7060454, "lon": 15.7189656, "tags": {"amenity": "restaurant", "cuisine": "pizza", "name": "Pizzeria da Vincenzo O'Napoletano"}}, {"type": "node", "id": 4995228899, "lat": 41.7072313, "lon": 15.7219657, "tags": {"amenity": "cafe", "name": "Open Gallery"}}, {"type": "node", "id": 4995228905, "lat": 41.7073658, "lon": 15.7231966, "tags": {"amenity": "cafe", "name": "Voga"}}, {"type": "node", "id": 4995228906, "lat": 41.707402, "lon": 15.7235151, "tags": {"amenity": "cafe", "name": "Coffee House"}}, {"type": "node", "id": 4995229452, "lat": 41.7051727, "lon": 15.7172213, "tags": {"amenity": "restaurant", "name": "La Lanterna"}}, {"type": "node", "id": 4995229453, "lat": 41.7051926, "lon": 15.7173412, "tags": {"amenity": "restaurant", "name": "La Chimera"}}, {"type": "node", "id": 4995229469, "lat": 41.7071141, "lon": 15.72141, "tags": {"amenity": "cafe", "name": "Bar Tiffany"}}, {"type": "node", "id": 4995229477, "lat": 41.7073736, "lon": 15.7232827, "tags": {"amenity": "restaurant", "name": "Lo Sfizio"}}, {"type": "node", "id": 5402507721, "lat": 41.6287432, "lon": 15.9146571, "tags": {"amenity": "restaurant", "name": "Pizzeria del Largo"}}, {"type": "node", "id": 5402542021, "lat": 41.7064334, "lon": 15.956139, "tags": {"amenity": "restaurant", "name": "Borgo Antico"}}, {"type": "node", "id": 5857397204, "lat": 41.702254, "lon": 15.720529, "tags": {"amenity": "restaurant", "name": "Ristorante Trepuntozero"}}, {"type": "node", "id": 6046501712, "lat": 41.7057847, "lon": 15.9561855, "tags": {"amenity": "restaurant", "name": "Templari Ristorante"}}, {"type": "node", "id": 6046511839, "lat": 41.7070186, "lon": 15.9556972, "tags": {"amenity": "restaurant", "name": "Ristorante Pizzeria Le Clarisse"}}, {"type": "node", "id": 6046519994, "lat": 41.7073478, "lon": 15.9556536, "tags": {"amenity": "restaurant", "name": "Al Barone - Ristorante Pizzeria"}}, {"type": "node", "id": 6046520836, "lat": 41.7075182, "lon": 15.9557332, "tags": {"amenity": "restaurant", "name": "Ristorante San Michele", "website": "https://www.ristsanmichele.it/"}}, {"type": "node", "id": 6049526626, "lat": 41.7075885, "lon": 15.7066787, "tags": {"addr:city": "San Giovanni Rotondo", "addr:housenumber": "10", "addr:postcode": "71013", "addr:street": "Piazzale Forgione", "amenity": "restaurant", "contact:phone": "+39 0882 456116", "name": "I Santi", "opening_hours": "07:00-22:30", "payment:debit_cards": "yes"}}, {"type": "node", "id": 6420852353, "lat": 41.7095571, "lon": 16.051522, "tags": {"amenity": "restaurant", "cuisine": "pizza", "name": "Dal Saraceno", "outdoor_seating": "yes", "website": "https://www.tripadvisor.com/Restaurant_Review-g194820-d3346735-Reviews-Dal_Saraceno-Mattinata_Province_of_Foggia_Puglia.html"}}, {"type": "node", "id": 6435878991, "lat": 41.7062193, "lon": 15.9530705, "tags": {"amenity": "restaurant", "cuisine": "pizza;italian", "name": "Belvedere"}}, {"type": "node", "id": 6435904942, "lat": 41.7075622, "lon": 15.9549081, "tags": {"amenity": "restaurant", "cuisine": "regional", "name": "Ristorante Al Battistero", "website": "http://www.ristorantealbattistero.it"}}, {"type": "node", "id": 6435926866, "lat": 41.7071356, "lon": 15.9581628, "tags": {"amenity": "restaurant", "cuisine": "regional", "name": "Ristorante il Grottino"}}, {"type": "node", "id": 6485048272, "lat": 41.7080678, "lon": 15.7085142, "tags": {"amenity": "restaurant"}}, {"type": "node", "id": 6485051777, "lat": 41.7083103, "lon": 15.7132204, "tags": {"amenity": "restaurant", "name": "Antica Trattoria"}}, {"type": "node", "id": 6485052502, "lat": 41.7079257, "lon": 15.7065579, "tags": {"amenity": "cafe", "name": "Bar Bianco", "phone": "+39 0882 456249"}}, {"type": "node", "id": 6485052503, "lat": 41.7082739, "lon": 15.7115025, "tags": {"amenity": "restaurant", "name": "Gaggiano"}}, {"type": "node", "id": 6488128542, "lat": 41.706307, "lon": 15.9596124, "tags": {"amenity": "restaurant", "cuisine": "pizza", "name": "Il Balconcino"}}, {"type": "node", "id": 6488141949, "lat": 41.707584, "lon": 15.9568256, "tags": {"amenity": "restaurant", "name": "Ristorante Pizzeria Tr\u00e8s Chic"}}, {"type": "node", "id": 6584654586, "lat": 41.7075926, "lon": 15.9540206, "tags": {"addr:housenumber": "21", "addr:street": "Via Castello", "amenity": "restaurant", "cuisine": "regional;italian", "name": "Ristorante Medievo"}}, {"type": "node", "id": 6584665885, "lat": 41.7070933, "lon": 15.9553662, "tags": {"addr:housenumber": "5", "addr:street": "Piazza De Galganis", "amenity": "restaurant", "cuisine": "regional;italian", "name": "Li Jalantu\u00f9mene"}}, {"type": "node", "id": 6700145320, "lat": 41.7133949, "lon": 15.6325332, "tags": {"amenity": "cafe", "name": "Mille959", "outdoor_seating": "yes"}}, {"type": "node", "id": 6712644584, "lat": 41.7111221, "lon": 15.6391614, "tags": {"amenity": "restaurant", "name": "La Fracchia"}}, {"type": "node", "id": 6742942358, "lat": 41.6966167, "lon": 16.0648117, "tags": {"amenity": "restaurant", "name": "Lido Monte Saraceno"}}, {"type": "node", "id": 6779145811, "lat": 41.7079474, "lon": 15.9508119, "tags": {"amenity": "restaurant", "name": "Ristorante Ristoro degli Angeli", "phone": "+39 0884561800"}}, {"type": "node", "id": 6833316132, "lat": 41.7068367, "lon": 15.7205168, "tags": {"addr:housenumber": "13", "addr:street": "Via Santa Croce", "amenity": "cafe", "brand": "Illy", "contact:phone": "+36 0882 451682", "cuisine": "ice_cream", "name": "Pasteus", "toilets": "yes", "wheelchair": "yes"}}, {"type": "node", "id": 6834350458, "lat": 41.707463, "lon": 15.9566929, "tags": {"addr:housenumber": "186", "addr:street": "Corso Vittorio Emanuele", "amenity": "cafe", "name": "Piccolo bar"}}, {"type": "node", "id": 6834459529, "lat": 41.7066231, "lon": 15.958965, "tags": {"amenity": "cafe", "name": "Bar Caff\u00e9 Centrale"}}, {"type": "node", "id": 7237526081, "lat": 41.7071064, "lon": 15.9583241, "tags": {"amenity": "cafe"}}, {"type": "node", "id": 7237526082, "lat": 41.7065915, "lon": 15.953578, "tags": {"amenity": "cafe", "name": "Torrefazione"}}, {"type": "node", "id": 7237526084, "lat": 41.7068872, "lon": 15.9584848, "tags": {"amenity": "cafe", "cuisine": "ice_cream", "name": "Caf\u00e8 Twins"}}, {"type": "node", "id": 7237537986, "lat": 41.7063369, "lon": 15.953259, "tags": {"amenity": "cafe", "contact:facebook": "lekomontesantangelo", "contact:website": "https://le-ko.it/", "name": "Leko"}}, {"type": "node", "id": 7237537987, "lat": 41.7077374, "lon": 15.9543293, "tags": {"amenity": "cafe", "cuisine": "ice_cream", "name": "Cibus"}}, {"type": "node", "id": 7237537989, "lat": 41.706265, "lon": 15.9531258, "tags": {"amenity": "cafe", "name": "Sfiziosa"}}, {"type": "node", "id": 7237537990, "lat": 41.7064307, "lon": 15.9534485, "tags": {"amenity": "cafe", "name": "Lime Out Lounge Bar"}}, {"type": "node", "id": 7548351297, "lat": 41.420137, "lon": 15.7098185, "tags": {"amenity": "cafe", "tobacco": "yes"}}, {"type": "node", "id": 7548351302, "lat": 41.4203452, "lon": 15.709073, "tags": {"amenity": "cafe"}}, {"type": "node", "id": 7548884373, "lat": 41.3547949, "lon": 15.6981839, "tags": {"amenity": "cafe", "tobacco": "yes"}}, {"type": "node", "id": 7864434734, "lat": 41.6113976, "lon": 15.8949342, "tags": {"addr:country": "IT", "addr:hamlet": "Siponto", "addr:housenumber": "10b", "addr:place": "Siponto", "addr:street": "Piazza Santa Maria di Siponto", "amenity": "restaurant", "cuisine": "italian", "name": "Trattoria Pizzeria Regina", "outdoor_seating": "yes", "phone": "+39 0884541949", "takeaway": "yes"}}, {"type": "node", "id": 8313331587, "lat": 41.7031273, "lon": 15.7303647, "tags": {"amenity": "restaurant", "name": "Ristorante Al Soppalco"}}, {"type": "node", "id": 8313370381, "lat": 41.7031167, "lon": 15.7303418, "tags": {"amenity": "restaurant", "name": "Ristorante Al Soppalco"}}, {"type": "node", "id": 9001177217, "lat": 41.3746842, "lon": 16.1539376, "tags": {"amenity": "restaurant", "name": "Al Vicoletto"}}, {"type": "node", "id": 9891935589, "lat": 41.7062348, "lon": 15.7056066, "tags": {"amenity": "restaurant", "name": "Trattoria - Bar Le Campane"}}, {"type": "node", "id": 9894824754, "lat": 41.708708, "lon": 15.7012593, "tags": {"amenity": "cafe", "name": "Bar del Viale"}}, {"type": "node", "id": 9964026432, "lat": 41.7067304, "lon": 16.0699288, "tags": {"amenity": "restaurant", "email": "info@dallanonna.it", "fax": "+39 0884 559205", "name": "Trattoria dalla Nonna", "phone": "+39 0884 559205", "website": "https://www.dallanonna.it/"}}, {"type": "node", "id": 9964363645, "lat": 41.644713, "lon": 15.9387001, "tags": {"amenity": "restaurant", "cuisine": "pizza", "name": "Lo Sfizietto", "opening_hours": "Mo-Sa 09:00-21:00; Su 10:00-21:00", "phone": "+39 0884 602457"}}, {"type": "node", "id": 9964363659, "lat": 41.6447558, "lon": 15.9380316, "tags": {"amenity": "restaurant", "name": "Sarni", "opening_hours": "Mo-Sa 09:00-21:00; Su 10:00-21:00", "phone": "+39 0884 584472", "website": "https://www.sarniristorazione.it/"}}, {"type": "node", "id": 9964363660, "lat": 41.6448591, "lon": 15.9382043, "tags": {"amenity": "cafe", "name": "C&C", "opening_hours": "Mo-Sa 09:00-21:00; Su 10:00-21:00", "phone": "+39 0884 195 1188", "website": "https://www.cialdeecapsule.it/"}}, {"type": "node", "id": 9964394271, "lat": 41.6991845, "lon": 15.7197214, "tags": {"amenity": "cafe", "email": "vogacafeimandorli@gmail.com", "name": "Voga Caf\u00e9", "opening_hours": "Mo-Sa 09:00-20:30; Su 10:00-20:30", "phone": "+39 328 456 0887", "website": "https://m.facebook.com/vogaimandorli/"}}, {"type": "node", "id": 10976357651, "lat": 41.7094864, "lon": 16.0511656, "tags": {"amenity": "cafe", "cuisine": "ice_cream", "name": "Barretto", "outdoor_seating": "yes", "toilets": "yes", "toilets:access": "customers"}}, {"type": "node", "id": 11001381232, "lat": 41.6351944, "lon": 15.9307966, "tags": {"amenity": "restaurant", "name": "La Perla del Golfo"}}, {"type": "node", "id": 11046644000, "lat": 41.6276463, "lon": 15.9167773, "tags": {"addr:housenumber": "73", "addr:street": "Via Maddalena", "amenity": "restaurant", "changing_table": "yes", "changing_table:count": "1", "changing_table:fee": "no", "changing_table:location": "wheelchair_toilet", "contact:mobile": "+39 340 8969026", "cuisine": "italian;seafood;regional", "highchair": "2", "name": "Baciati dal mare", "outdoor_seating": "yes", "phone": "+39 0884 511609", "toilets:wheelchair": "designated", "wheelchair": "limited"}}, {"type": "node", "id": 11048279008, "lat": 41.7355815, "lon": 16.1185849, "tags": {"amenity": "cafe", "name": "La Falesia", "opening_hours": "09:00-19:00"}}, {"type": "node", "id": 11048334144, "lat": 41.7345365, "lon": 16.1174557, "tags": {"amenity": "restaurant", "contact:mobile": "+39 340 966 86 18", "name": "Ristorante Azzurro", "outdoor_seating": "yes", "phone": "+39 0884 22 63 45"}}, {"type": "node", "id": 11051647779, "lat": 41.7086724, "lon": 16.0505958, "tags": {"amenity": "restaurant", "name": "Locanda del Maniscalco", "outdoor_seating": "yes", "wheelchair": "no"}}, {"type": "node", "id": 11052791005, "lat": 41.7110336, "lon": 16.0519867, "tags": {"amenity": "restaurant", "name": "Barboni di Lusso", "outdoor_seating": "yes", "toilets:wheelchair": "no", "wheelchair": "no"}}, {"type": "node", "id": 11141021950, "lat": 41.7076452, "lon": 16.0647003, "tags": {"amenity": "restaurant", "name": "Ristorante Masseria Liberatore"}}, {"type": "node", "id": 11143763490, "lat": 41.7023483, "lon": 16.0677646, "tags": {"amenity": "restaurant", "name": "Ristorante Al Ciringuito"}}, {"type": "node", "id": 11148968195, "lat": 41.7095677, "lon": 16.050842, "tags": {"amenity": "restaurant", "name": "Ristorante Del Capriccio"}}, {"type": "node", "id": 11157613715, "lat": 41.7023425, "lon": 16.0674237, "tags": {"amenity": "restaurant", "name": "Ristorante Panta Rei"}}, {"type": "node", "id": 11302814916, "lat": 41.635704, "lon": 15.9104941, "tags": {"amenity": "cafe", "name": "Paradise caff\u00e8", "survey:date": "2023-10-31"}}, {"type": "node", "id": 11366184875, "lat": 41.3586944, "lon": 16.0825485, "tags": {"amenity": "cafe", "indoor_seating": "yes", "outdoor_seating": "yes"}}, {"type": "node", "id": 11366200253, "lat": 41.3580648, "lon": 16.0868711, "tags": {"amenity": "restaurant"}}, {"type": "node", "id": 11366200254, "lat": 41.3580492, "lon": 16.086974, "tags": {"amenity": "restaurant"}}, {"type": "node", "id": 11366208220, "lat": 41.3570644, "lon": 16.0905519, "tags": {"amenity": "cafe"}}, {"type": "node", "id": 11366255069, "lat": 41.3529865, "lon": 16.1076748, "tags": {"amenity": "cafe", "indoor_seating": "yes", "outdoor_seating": "yes"}}, {"type": "node", "id": 11371785354, "lat": 41.619081, "lon": 15.9112589, "tags": {"amenity": "restaurant", "name": "Ai due dottori"}}, {"type": "node", "id": 11375144223, "lat": 41.6260695, "lon": 15.9145539, "tags": {"amenity": "restaurant", "name": "Torre del Fico"}}, {"type": "node", "id": 11375778868, "lat": 41.6292427, "lon": 15.9167801, "tags": {"amenity": "restaurant", "name": "Moody"}}, {"type": "node", "id": 11375793812, "lat": 41.6293584, "lon": 15.9165645, "tags": {"amenity": "restaurant", "name": "Bottega Signorini"}}, {"type": "node", "id": 11380177801, "lat": 41.6229153, "lon": 15.9133661, "tags": {"amenity": "restaurant", "name": "Al molo 20"}}, {"type": "node", "id": 11380295421, "lat": 41.628893, "lon": 15.9191433, "tags": {"amenity": "restaurant", "name": "Pizza in piazza"}}, {"type": "node", "id": 11380318497, "lat": 41.6278246, "lon": 15.9170379, "tags": {"amenity": "restaurant", "name": "Tucson Saloon"}}, {"type": "node", "id": 11657909744, "lat": 41.4561249, "lon": 15.9557708, "tags": {"addr:city": "Zapponeta", "addr:housenumber": "8", "addr:place": "Piazza Aldo Moro", "addr:postcode": "71030", "amenity": "cafe", "cuisine": "coffee_shop;snackbar;pizza;italian;dessert;donut;juice;ice_cream", "name": "Medusa Caf\u00e9", "opening_hours": "Mo-Su 07:00-13:00, Mo-Fr 16:00-22:00, Sa-Su 16:00-23:00", "outdoor_seating": "yes", "payment:cash": "yes", "payment:contactless": "yes", "phone": "+39 328 0859994", "takeaway": "yes", "toilets": "yes", "website": "https://m.facebook.com/p/Medusa-caf%C3%A8-Zapponeta-100062706831173/"}}, {"type": "node", "id": 11663716280, "lat": 41.4571762, "lon": 15.9556416, "tags": {"addr:city": "Zapponeta", "addr:housenumber": "7", "addr:postcode": "71030", "addr:street": "Vicolo Macall\u00e8", "amenity": "restaurant", "cuisine": "pizza;italian;hot_dog;juice", "diet:mediterranean": "yes", "name": "Pizzeria del Vicolo", "opening_hours": "Mo-Fr 17:30-22:30, Sa-Su 17:30-23:00", "outdoor_seating": "yes", "payment:cash": "yes", "payment:contactless": "yes", "phone": "+39 329 2741915", "reservation": "recommended", "takeaway": "yes", "toilets": "yes", "website": "https://www.facebook.com/p/Pizzeria-del-vicolo-100063721441822/?locale=IT"}}, {"type": "node", "id": 11668948130, "lat": 41.4589117, "lon": 15.9587495, "tags": {"addr:city": "Zapponeta", "addr:housenumber": "80", "addr:postcode": "71030", "addr:street": "Via Nettuno", "air_conditioning": "yes", "amenity": "restaurant", "bar": "yes", "cuisine": "italian;chicken;fish;pasta;steak_house;cake;dessert;chocolate;juice;ice_cream;coffee_shop", "diet:mediterranean": "yes", "mobile": "+39 320 8793397", "name": "Ristorante Il Giaguaro", "opening_hours": "Sa 19:00-00:30, Su 12:00-14:00, Su 19:00-00:30", "outdoor_seating": "yes", "payment:cash": "yes", "payment:contactless": "yes", "reservation": "recommended", "toilets": "yes", "wheelchair": "yes"}}, {"type": "node", "id": 11682242686, "lat": 41.4564272, "lon": 15.9564773, "tags": {"addr:city": "Zapponeta", "addr:housenumber": "3", "addr:postcode": "71030", "addr:street": "Via Margherita di Savoia", "amenity": "restaurant", "cuisine": "pizza;italian;burger;hot_dog;juice", "diet:mediterranean": "yes", "email": "mat.dema96@gmail.com", "mobile": "+39 351 8857764", "name": "Central Pizzeria", "opening_hours": "Mo-Su 18:00-23:30", "outdoor_seating": "yes", "payment:cash": "yes", "payment:contactless": "yes", "reservation": "recommended", "takeaway": "yes", "website": "https://central-pizzeria-zapponeta.business.site/"}}, {"type": "node", "id": 11694846000, "lat": 41.4568066, "lon": 15.9560985, "tags": {"addr:city": "Zapponeta", "addr:housenumber": "1", "addr:place": "Piazza Aldo Moro", "addr:postcode": "71030", "amenity": "cafe", "bar": "yes", "cuisine": "coffee_shop;donut;chocolate;italian;burger;sandwich;pizza;juice;ice_cream", "mobile": "+39 388 8913882", "name": "Dreamer Caf\u00e9", "opening_hours": "Mo-Su 07:00-13:00, Mo-Su 16:00-23:00", "outdoor_seating": "yes", "payment:cash": "yes", "payment:contactless": "yes", "reservation": "recommended", "toilets": "yes", "website": "https://m.facebook.com/profile.php?id=100090737225827&_rdr", "wheelchair": "yes"}}, {"type": "node", "id": 11694859373, "lat": 41.4538144, "lon": 15.9600258, "tags": {"addr:city": "Zapponeta", "addr:housenumber": "160", "addr:postcode": "71030", "addr:street": "Corso Manfredonia", "amenity": "cafe", "bar": "yes", "brand": "Illy Caff\u00e8", "cuisine": "coffee_shop;donut;chocolate;pizza;italian;sandwich;burger;steak_house;salad;juice;bubble_tea;dessert;ice_cream", "diet:mediterranean": "yes", "mobile": "+39 328 0859994", "name": "Jambo Club", "opening_hours": "Mo-Su 06:30-13:00, Mo-Su 17:00-00:30", "outdoor_seating": "yes", "payment:cash": "yes", "payment:contactless": "yes", "reservation": "recommended", "toilets": "yes", "website": "https://exoticajambo.wordpress.com/", "wheelchair": "yes"}}, {"type": "node", "id": 11708931619, "lat": 41.4543626, "lon": 15.9607676, "tags": {"addr:city": "Zapponeta", "addr:housenumber": "113", "addr:postcode": "71030", "addr:street": "Corso Manfredonia", "amenity": "cafe", "bar": "yes", "cuisine": "coffee_shop;donut;pancake;juice;bubble_tea;pizza;italian", "email": "bar_new_york@libero.it", "mobile": "+39 342 3788402", "name": "Bar New York", "opening_hours": "Tu-Su 04:00-22:00", "outdoor_seating": "yes", "payment:cash": "yes", "payment:contactless": "yes", "phone": "+39 0884 520478", "reservation": "recommended", "takeaway": "yes", "toilets": "yes", "website": "https://www.facebook.com/people/BAR-NEW-YORK/100063716875849/"}}, {"type": "node", "id": 11747836064, "lat": 41.4536431, "lon": 15.959868, "tags": {"addr:city": "Zapponeta", "addr:housenumber": "172", "addr:postcode": "71030", "addr:street": "Corso Manfredonia", "amenity": "restaurant", "cuisine": "italian;regional;pizza", "diet:mediterranean": "yes", "email": "anna_riontino@libero.it", "mobile": "+39 333 6591300", "name": "E c' t' meng !", "opening_hours": "Mo-Fr 12:00-14:30; Mo-Fr 19:00-21:30; Sa-Su 12:00-15:00; Sa-Su 19:00-22:00", "outdoor_seating": "yes", "payment:cash": "yes", "payment:contactless": "yes", "reservation": "recommended", "toilets": "yes", "website": "https://www.facebook.com/Trattoria.ectmeng.AR.65/?locale=it_IT"}}, {"type": "node", "id": 11753764571, "lat": 41.456914, "lon": 15.9563629, "tags": {"addr:city": "Zapponeta", "addr:housenumber": "16", "addr:postcode": "71030", "addr:street": "Corso Manfredonia", "amenity": "cafe", "bar": "yes", "brand": "Caff\u00e8 Vergnano", "contact:facebook": "https://m.facebook.com/people/Meeting-Caf%C3%A8/100039501591137/", "cuisine": "coffee_shop;donut;pancake;italian;pizza;burger;sandwich;hot_dog;salad;chocolate;bubble_tea;juice", "diet:mediterranean": "yes", "mobile": "+39 380 3810859", "name": "Meeting Caf\u00e8", "opening_hours": "Mo-Su 06:00-00:00", "outdoor_seating": "yes", "payment:cash": "yes", "payment:contactless": "yes", "reservation": "recommended", "takeaway": "yes", "toilets": "yes", "wheelchair": "yes"}}, {"type": "node", "id": 11761747229, "lat": 41.7080336, "lon": 15.7012343}, {"type": "node", "id": 11761747259, "lat": 41.7073021, "lon": 15.701916, "tags": {"amenity": "restaurant", "contact:phone": "+39 14815584;+39 11176427", "name": "Taverna Panorama"}}, {"type": "node", "id": 11761773975, "lat": 41.7081637, "lon": 15.7009636}, {"type": "node", "id": 11761773996, "lat": 41.7089293, "lon": 15.7004824, "tags": {"amenity": "restaurant", "name": "Ristorante San Francesco"}}, {"type": "node", "id": 11761774014, "lat": 41.708204, "lon": 15.7011763}, {"type": "node", "id": 11831794736, "lat": 41.6634357, "lon": 15.9507376, "tags": {"amenity": "restaurant", "name": "Trattoria Pizzeria Tre mariti"}}, {"type": "node", "id": 11831794737, "lat": 41.6582146, "lon": 15.9456977, "tags": {"amenity": "cafe"}}, {"type": "node", "id": 11881086817, "lat": 41.7083232, "lon": 16.0510506, "tags": {"amenity": "restaurant", "name": "Terrazzo Matino", "outdoor_seating": "yes"}}, {"type": "node", "id": 11881089830, "lat": 41.7097227, "lon": 16.0512495, "tags": {"amenity": "restaurant", "outdoor_seating": "yes"}}, {"type": "node", "id": 11881093382, "lat": 41.7096985, "lon": 16.0514443, "tags": {"amenity": "restaurant", "cuisine": "italian", "name": "Vineria"}}, {"type": "node", "id": 11881093383, "lat": 41.7097082, "lon": 16.0517463, "tags": {"amenity": "restaurant", "cuisine": "italian", "name": "Osteria Del Borgo", "outdoor_seating": "yes", "website": "https://www.tripadvisor.com/Restaurant_Review-g194820-d21184746-Reviews-Osteria_Del_Borgo-Mattinata_Province_of_Foggia_Puglia.html"}}, {"type": "node", "id": 12163518442, "lat": 41.7063624, "lon": 15.9528244, "tags": {"amenity": "cafe", "name": "La Ferrarelle"}}, {"type": "node", "id": 12163518443, "lat": 41.7072349, "lon": 15.9530251, "tags": {"amenity": "cafe", "name": "Bar Turista", "wheelchair": "no"}}, {"type": "node", "id": 12163676708, "lat": 41.7061629, "lon": 15.7038449, "tags": {"amenity": "cafe"}}, {"type": "node", "id": 12163677366, "lat": 41.7071646, "lon": 15.9518738, "tags": {"amenity": "restaurant", "name": "Millennium Bar Ristorante"}}, {"type": "node", "id": 12193992269, "lat": 41.5554277, "lon": 15.8954742, "tags": {"amenity": "restaurant"}}, {"type": "node", "id": 12229932996, "lat": 41.3747033, "lon": 16.1507223, "tags": {"addr:city": "Margherita di Savoia", "addr:place": "Piazza Guglielmo Marconi", "addr:postcode": "76016", "amenity": "cafe", "cuisine": "coffee_shop;ice_cream", "name": "Marconi"}}, {"type": "node", "id": 12229932997, "lat": 41.3753235, "lon": 16.1495315, "tags": {"addr:city": "Margherita di Savoia", "addr:postcode": "76016", "addr:street": "Via Africa Orientale", "amenity": "cafe", "name": "Garden Caf\u00e8"}}, {"type": "node", "id": 12229971602, "lat": 41.3655822, "lon": 16.165469, "tags": {"addr:city": "Margherita di Savoia", "addr:postcode": "76016", "addr:street": "Via Barletta", "amenity": "restaurant", "cuisine": "pizza;chicken", "name": "Ciccibacco"}}, {"type": "node", "id": 12278044980, "lat": 41.7079844, "lon": 16.0662792, "tags": {"amenity": "cafe"}}, {"type": "node", "id": 12278433612, "lat": 41.3836938, "lon": 16.1382114, "tags": {"amenity": "restaurant"}}, {"type": "node", "id": 12280863527, "lat": 41.7058171, "lon": 15.6972733, "tags": {"amenity": "restaurant", "name": "Trattoria Il casale"}}, {"type": "node", "id": 12280863563, "lat": 41.7067426, "lon": 15.6975192, "tags": {"amenity": "restaurant", "name": "Lo Chalet"}}, {"type": "node", "id": 12294251650, "lat": 41.4152835, "lon": 15.6528541, "tags": {"amenity": "restaurant", "check_date": "2024-10-28", "cuisine": "poke", "level": "0", "name": "I Love Poke"}}, {"type": "node", "id": 12294251655, "lat": 41.4155772, "lon": 15.6514353, "tags": {"amenity": "cafe", "check_date": "2025-03-07", "cuisine": "ice_cream", "level": "0", "mobile": "+39 345 8466643", "name": "Sarni Caf\u00e8", "operator": "Trignoest", "ref:vatin": "IT02184880694", "shop": "bakery", "website": "https://www.sarniristorazione.it/"}}, {"type": "node", "id": 12294251656, "lat": 41.4152071, "lon": 15.6530499, "tags": {"amenity": "restaurant", "brand": "Old Wild West", "brand:wikidata": "Q25402475", "check_date": "2024-10-28", "cuisine": "american", "level": "0", "name": "Old Wild West"}}, {"type": "node", "id": 12294251657, "lat": 41.4155168, "lon": 15.6531358, "tags": {"amenity": "restaurant", "check_date": "2024-10-28", "level": "0", "mobile": "+39 345 8469777", "name": "Sarni Bistr\u00f2", "operator": "Trignoest", "ref:vatin": "IT02184880694", "website": "https://www.sarniristorazione.it/"}}, {"type": "node", "id": 12386612724, "lat": 41.4152126, "lon": 15.6528488, "tags": {"amenity": "restaurant", "cafe": "yes", "check_date": "2024-11-22", "name": "Vesuvya Napoli Eat", "ref:vatin": "IT04419010717"}}, {"type": "node", "id": 12730758462, "lat": 41.3771481, "lon": 16.1463917, "tags": {"addr:city": "Margherita di Savoia", "addr:housenumber": "50", "addr:postcode": "76016", "addr:street": "Via Africa Orientale", "amenity": "cafe", "cuisine": "bistro", "email": "info@portasalina.com", "name": "Porta Salina", "outdoor_seating": "yes", "phone": "+39 0883 1716414", "ref:vatin": "IT08421110720", "website": "https://www.portasalina.com/"}}, {"type": "node", "id": 12819324285, "lat": 41.7071519, "lon": 16.0700397, "tags": {"amenity": "restaurant", "name": "La Rotonda"}}, {"type": "way", "id": 279218126, "nodes": [2834535929, 2834535930, 2834535928, 2834535925, 2834535929], "tags": {"amenity": "restaurant", "cuisine": "italian", "name": "Lorenzo", "phone": "+39 0884 559478"}}, {"type": "way", "id": 405731390, "nodes": [4078813536, 4078813294, 4078813223, 4078813201, 4078813172, 4078813020, 4078813046, 4078812933, 4078807840, 4078807868, 4078807881, 4078812996, 4078813004, 4078813123, 4078813121, 4078813247, 4078813261, 4078813572, 4078813559, 4078813536], "tags": {"amenity": "restaurant", "building": "yes", "name": "Edera"}}, {"type": "way", "id": 405757015, "nodes": [4079165316, 4079165310, 4079165302, 4079165291, 4079165266, 4079165689, 4079165677, 4079165862, 4079165870, 4079165877, 4079165910, 4079165808, 4079165783, 4079165831, 4079165422, 4079165388, 4079165316], "tags": {"amenity": "restaurant", "building": "yes"}}, {"type": "way", "id": 405764115, "nodes": [4079069416, 4079069412, 4079069414, 4079069407, 4079069402, 4079069413, 4079069416], "tags": {"amenity": "restaurant", "building": "yes", "cuisine": "regional", "name": "Tenuta Chianchito", "website": "https://www.tenutachianchito.it/"}}, {"type": "way", "id": 405765584, "nodes": [4079146429, 4079145865, 4079146479, 4079146441, 4079146889, 4079146916, 4079146873, 4079146900, 4079146429], "tags": {"amenity": "restaurant", "building": "yes", "name": "Fra Daniele"}}, {"type": "way", "id": 406860239, "nodes": [4089133364, 4089133335, 4089133760, 4089133795, 4089133364], "tags": {"amenity": "restaurant", "building": "yes", "name": "Villa Regina del Monte", "website": "http://www.villareginadelmonte.com"}}, {"type": "way", "id": 406861032, "nodes": [4089134305, 4089134126, 4089134135, 4089134150, 4089134174, 4089134439, 4089134305], "tags": {"amenity": "restaurant", "building": "yes", "name": "La Rocca"}}, {"type": "way", "id": 406866462, "nodes": [4089191992, 4089192023, 4089192034, 4089192071, 4089192002, 4089191963, 4089191936, 4089191910, 4089191918, 4089191861, 4089191992], "tags": {"amenity": "restaurant", "building": "yes", "name": "Le Casette"}}, {"type": "way", "id": 406867419, "nodes": [4089191540, 4089191662, 4089190583, 4089191484, 4089191540], "tags": {"amenity": "restaurant", "building": "yes", "cuisine": "italian;fish;mediterranean;pizza", "layer": "1", "name": "Caratino", "phone": "+39 0884 559243"}}, {"type": "way", "id": 406869227, "nodes": [4089191321, 4089191344, 4089191526, 4089191467, 4089191278, 4089191321], "tags": {"amenity": "restaurant", "building": "retail", "layer": "1", "name": "Conca del Faro"}}, {"type": "way", "id": 406870021, "nodes": [4089191969, 4089191849, 4089191829, 4089191847, 4089191860, 4089191911, 4089191969], "tags": {"amenity": "restaurant", "building": "yes", "layer": "1"}}, {"type": "way", "id": 1087503167, "nodes": [4089192131, 4089192050, 4089192064, 4089192015, 4089192018, 4089192132, 4089192152, 4089192166, 4089192175, 4089192240, 4089192131], "tags": {"amenity": "restaurant", "cuisine": "italian", "name": "La Veranda", "phone": "+39 339 596 4767"}}, {"type": "way", "id": 1266229409, "nodes": [11761773975, 11761774014, 11761747229, 4079158708, 11761773975], "tags": {"amenity": "restaurant", "building": "retail", "name": "Trattoria il Passante"}}]}