{"version": 0.6, "generator": "Overpass API 0.7.62.7 375dc00a", "osm3s": {"timestamp_osm_base": "2025-06-14T14:43:30Z", "copyright": "The data included in this document is from www.openstreetmap.org. The data is made available under ODbL."}, "elements": [{"type": "node", "id": 1631673750, "lat": 37.3498341, "lon": 23.4666334, "tags": {"amenity": "restaurant", "cuisine": "fish"}}, {"type": "node", "id": 3034312777, "lat": 37.3487656, "lon": 23.4681499, "tags": {"amenity": "restaurant", "cuisine": "greek", "name": "\u039e\u03b5\u03c1\u03ae \u0395\u03bb\u03b9\u03ac", "operator": "\u039d\u03c4\u03bf\u03cd\u03c3\u03ba\u03bf\u03c2"}}, {"type": "node", "id": 3034856933, "lat": 37.3514311, "lon": 23.4644868, "tags": {"amenity": "restaurant", "name": "\u038c\u03bc\u03b9\u03bb\u03bf\u03c2", "name:el": "\u038c\u03bc\u03b9\u03bb\u03bf\u03c2", "name:en": "Omilos"}}, {"type": "node", "id": 3035151881, "lat": 37.3496955, "lon": 23.4657258, "tags": {"amenity": "cafe", "cuisine": "coffee_shop", "name": "\u039a\u03b1\u03c6\u03ad \u03c4\u03b7\u03c2 \u0393\u03c9\u03b3\u03ce\u03c2", "source": "survey"}}, {"type": "node", "id": 3035262712, "lat": 37.3482782, "lon": 23.4676745, "tags": {"addr:city": "\u038e\u03b4\u03c1\u03b1", "amenity": "restaurant", "cuisine": "greek", "name": "\u0393\u03b5\u03b9\u03c4\u03bf\u03bd\u03b9\u03ba\u03cc\u03bd", "name:el": "\u0393\u03b5\u03b9\u03c4\u03bf\u03bd\u03b9\u03ba\u03cc\u03bd", "name:en": "Geitonikon", "operator": "\u03a7\u03c1\u03b9\u03c3\u03c4\u03af\u03bd\u03b1 \u039f\u03b9\u03ba\u03bf\u03bd\u03cc\u03bc\u03bf\u03c5", "phone": "+30 2298053615"}}, {"type": "node", "id": 3256579039, "lat": 37.2957158, "lon": 23.1845775, "tags": {"amenity": "restaurant", "contact:website": "http://www.epavlisresort.gr/", "name": "\u0388\u03c0\u03b1\u03c5\u03bb\u03b9\u03c2"}}, {"type": "node", "id": 3256579041, "lat": 37.3751517, "lon": 23.2240725, "tags": {"amenity": "restaurant", "name": "\u03a0\u03bf\u03bb\u03af\u03c4\u03b7\u03c2"}}, {"type": "node", "id": 3473952662, "lat": 37.3831635, "lon": 23.2507337, "tags": {"amenity": "restaurant", "cuisine": "greek", "int_name": "Taverna Tsieris", "internet_access": "wlan", "internet_access:fee": "no", "lastcheck": "2016-09-02", "name": "\u03a4\u03b6\u03b9\u03b5\u03c1\u03b7\u03c3", "old_name": "\u0395\u03c3\u03c4\u03b9\u03b1\u03c4\u03bf\u03c1\u03b9\u03bf", "old_name:en": "Estiatorio"}}, {"type": "node", "id": 4251151992, "lat": 37.3491143, "lon": 23.4658465, "tags": {"addr:city": "Hydra", "addr:street": "Andreas Miaoulis Street", "amenity": "restaurant", "cuisine": "greek", "name": "Taverna Lulus"}}, {"type": "node", "id": 4266497927, "lat": 37.3476712, "lon": 23.4661479, "tags": {"amenity": "restaurant", "name": "Gefyria"}}, {"type": "node", "id": 4266530118, "lat": 37.349381, "lon": 23.467375, "tags": {"amenity": "restaurant", "name": "Paradosiako"}}, {"type": "node", "id": 4266679996, "lat": 37.3492872, "lon": 23.4659249, "tags": {"amenity": "restaurant"}}, {"type": "node", "id": 4266680297, "lat": 37.3480619, "lon": 23.4582867, "tags": {"amenity": "restaurant", "diet:vegetarian": "no", "name": "Pefkaki Taverna"}}, {"type": "node", "id": 4266709290, "lat": 37.3485978, "lon": 23.4673768, "tags": {"amenity": "restaurant", "name": "Kryfo Limani"}}, {"type": "node", "id": 4377610194, "lat": 37.3828225, "lon": 23.2493076, "tags": {"amenity": "restaurant", "int_name": "Kabos", "internet_access": "wlan", "internet_access:fee": "no", "lastcheck": "2016-08-31", "name": "\u039a\u03b1\u03b2\u03bf\u03c3"}}, {"type": "node", "id": 4377670173, "lat": 37.3834479, "lon": 23.2480842, "tags": {"amenity": "restaurant", "int_name": "Korali", "name": "\u039a\u03bf\u03c1\u03b1\u03bb\u03b9"}}, {"type": "node", "id": 4380354592, "lat": 37.3846895, "lon": 23.2503937, "tags": {"amenity": "cafe", "name": "\u03bf \u03a6\u03b1\u03c1\u03bf\u03c3"}}, {"type": "node", "id": 4380363390, "lat": 37.3849576, "lon": 23.2496244, "tags": {"amenity": "restaurant", "int_name": "Spirandreas", "name": "\u03a3\u03c0\u03c5\u03c1\u03b1\u03bd\u03b4\u03c1\u03b5\u03b1\u03c3"}}, {"type": "node", "id": 4380384789, "lat": 37.3847757, "lon": 23.2501359, "tags": {"amenity": "cafe", "name": "Yacht Caf\u00e9"}}, {"type": "node", "id": 4381867435, "lat": 37.3832788, "lon": 23.2532431, "tags": {"amenity": "restaurant", "name": "\u039c\u03c0\u03af\u03c3\u03c4\u03b9"}}, {"type": "node", "id": 4679741738, "lat": 37.3527816, "lon": 23.4835933}, {"type": "node", "id": 4679741739, "lat": 37.3526841, "lon": 23.4835171}, {"type": "node", "id": 4679741740, "lat": 37.352657, "lon": 23.483572}, {"type": "node", "id": 4679741741, "lat": 37.3527545, "lon": 23.4836482}, {"type": "node", "id": 4681801094, "lat": 37.2608868, "lon": 23.1643893, "tags": {"amenity": "restaurant", "cuisine": "mediterranean", "email": "giorgosqsis@yahoo.gr", "internet_access": "wlan", "name": "\u03a4\u03bf \u039b\u03b9\u03bf\u03c4\u03c1\u03af\u03b2\u03b9", "name:el": "\u03a4\u03bf \u039b\u03b9\u03bf\u03c4\u03c1\u03af\u03b2\u03b9", "name:en": "The olive press", "phone": "2298072269"}}, {"type": "node", "id": 5068786454, "lat": 37.3499541, "lon": 23.4610531, "tags": {"amenity": "restaurant", "name": "techne restaurant & social"}}, {"type": "node", "id": 5076636522, "lat": 37.3497922, "lon": 23.4661851, "tags": {"amenity": "cafe", "name:en": "Bandera Coffee & Food"}}, {"type": "node", "id": 5076658221, "lat": 37.3504823, "lon": 23.4669361, "tags": {"amenity": "restaurant", "cuisine": "souvlaki", "name": "Yamas", "name:en": "Prima"}}, {"type": "node", "id": 5076658321, "lat": 37.3503519, "lon": 23.4669622, "tags": {"amenity": "cafe", "name:en": "Isalos"}}, {"type": "node", "id": 5076709528, "lat": 37.3501096, "lon": 23.4671222, "tags": {"amenity": "cafe", "name": "Nereid", "name:en": "Hydra's Corner"}}, {"type": "node", "id": 5076709529, "lat": 37.3494059, "lon": 23.4659385, "tags": {"amenity": "cafe", "name:en": "Break Time"}}, {"type": "node", "id": 5076719223, "lat": 37.3502455, "lon": 23.4669979, "tags": {"amenity": "cafe", "name:en": "Skipper"}}, {"type": "node", "id": 5076719224, "lat": 37.3501192, "lon": 23.4670309, "tags": {"amenity": "cafe", "cuisine": "coffee;food;drinks", "name": "Hydra's corner"}}, {"type": "node", "id": 5076719225, "lat": 37.3495087, "lon": 23.4658974, "tags": {"amenity": "cafe", "cuisine": "breakfast;coffee_shop;greek;pasta;pizza;crepe", "internet_access": "wlan", "name:en": "Ciao Cafe"}}, {"type": "node", "id": 5076731422, "lat": 37.3493203, "lon": 23.4652449, "tags": {"amenity": "restaurant", "name:en": "Ostria Restaurant"}}, {"type": "node", "id": 5076731423, "lat": 37.3517014, "lon": 23.462686, "tags": {"amenity": "restaurant", "name:en": "Sunset Restaurant"}}, {"type": "node", "id": 5076734621, "lat": 37.3496311, "lon": 23.4652038, "tags": {"amenity": "cafe", "cuisine": "ice_cream,burger,crepe", "internet_access": "wlan", "internet_access:fee": "no", "name": "Cafe Tassos", "name:en": "Tassos Cafe", "takeaway": "no", "wheelchair": "yes"}}, {"type": "node", "id": 5077195669, "lat": 37.3497469, "lon": 23.465154, "tags": {"amenity": "restaurant", "cuisine": "greek;mediterranean;seafood", "name:en": "Psaropoula Restaurant"}}, {"type": "node", "id": 5077195670, "lat": 37.3494295, "lon": 23.466378, "tags": {"amenity": "cafe", "cuisine": "breakfast;greek;seafood", "name:en": "Cafe Hydra"}}, {"type": "node", "id": 5077198143, "lat": 37.3498606, "lon": 23.4671488, "tags": {"amenity": "restaurant", "cuisine": "greek", "name:en": "Psinesai Grill House"}}, {"type": "node", "id": 5077198324, "lat": 37.3492223, "lon": 23.4676414, "tags": {"amenity": "restaurant", "name:en": "Bratsera Restaurant Bar"}}, {"type": "node", "id": 5077229821, "lat": 37.3496594, "lon": 23.4672541, "tags": {"amenity": "restaurant", "cuisine": "italian", "name:en": "Gatto Nero"}}, {"type": "node", "id": 5077420132, "lat": 37.3497128, "lon": 23.4674303, "tags": {"amenity": "restaurant", "cuisine": "greek;international", "name:en": "Manna Cook House"}}, {"type": "node", "id": 5077420523, "lat": 37.3494663, "lon": 23.4673102, "tags": {"amenity": "restaurant", "cuisine": "greek", "name": "\u039a\u03ac\u03b9 \u039a\u03c1\u03b5\u03bc\u03bc\u03af\u03bd\u03c4\u03b9", "name:el": "\u039a\u03cc\u03ba\u03ba\u03b9\u03bd\u03bf \u03ba\u03c1\u03b5\u03bc\u03bc\u03cd\u03b4\u03b9", "name:en": "And Onion"}}, {"type": "node", "id": 5078507926, "lat": 37.3470282, "lon": 23.4579681, "tags": {"amenity": "restaurant", "cuisine": "greek", "name": "\u03a4\u03b1\u03b2\u03ad\u03c1\u03bd\u03b1 \u03a7\u03c1\u03b9\u03c3\u03c4\u03af\u03bd\u03b1", "name:el": "\u03a4\u03b1\u03b2\u03ad\u03c1\u03bd\u03b1 \u03a7\u03c1\u03b9\u03c3\u03c4\u03af\u03bd\u03b1", "name:en": "Taverna Christina"}}, {"type": "node", "id": 5078507927, "lat": 37.3464682, "lon": 23.4554586, "tags": {"amenity": "restaurant", "name:en": "Castello"}}, {"type": "node", "id": 5078536528, "lat": 37.3478036, "lon": 23.4577136, "tags": {"amenity": "restaurant", "cuisine": "greek", "name": "Kodylenia's", "name:en": "Kodylenia's"}}, {"type": "node", "id": 5078536531, "lat": 37.3429972, "lon": 23.4464015, "tags": {"amenity": "cafe", "name:en": "Antigone's"}}, {"type": "node", "id": 5078549221, "lat": 37.3436534, "lon": 23.4464048, "tags": {"amenity": "restaurant", "cuisine": "greek", "name:en": "Marina Taverna"}}, {"type": "node", "id": 5190439057, "lat": 37.3515295, "lon": 23.4623086, "tags": {"amenity": "cafe", "name": "Hydronetta"}}, {"type": "node", "id": 5224551423, "lat": 37.2608712, "lon": 23.165063, "tags": {"amenity": "restaurant", "name": "\u039d\u03c5\u03c7\u03b8\u03b7\u03bc\u03b5\u03c1\u03cc\u03bd"}}, {"type": "node", "id": 5224551424, "lat": 37.2605574, "lon": 23.1657202, "tags": {"amenity": "restaurant", "cuisine": "seafood;greek", "name": "\u03a4\u03b1\u03c1\u03c3\u03b1\u03bd\u03ac\u03c2", "phone": "0030 22980 74490", "reservation": "yes", "website": "https://www.tarsanasrestaurant.com"}}, {"type": "node", "id": 5677765121, "lat": 37.2608183, "lon": 23.1648707, "tags": {"amenity": "restaurant", "cuisine": "greek;italian_pizza", "name": "NIXOHMEPON", "name:el": "NIXOHMEPON"}}, {"type": "node", "id": 6398680085, "lat": 37.3492379, "lon": 23.4649428, "tags": {"amenity": "restaurant", "name:en": "Veranda Restaurant"}}, {"type": "node", "id": 7300290285, "lat": 37.349897, "lon": 23.4664321, "tags": {"amenity": "restaurant", "name": "\u0397 \u03c9\u03c1\u03b1\u03af\u03b1 \u03a5\u03b4\u03c1\u03b1", "opening_hours": "15:30-22:30"}}, {"type": "node", "id": 10162000032, "lat": 37.3490394, "lon": 23.4649052, "tags": {"amenity": "restaurant", "name": "Veranda Portview"}}, {"type": "node", "id": 10162116947, "lat": 37.3488328, "lon": 23.4654629, "tags": {"amenity": "restaurant"}}, {"type": "node", "id": 11004106614, "lat": 37.3500379, "lon": 23.4647231, "tags": {"amenity": "cafe", "name": "Argis"}}, {"type": "node", "id": 11013202837, "lat": 37.3485547, "lon": 23.4653065, "tags": {"entrance": "yes"}}, {"type": "node", "id": 11013202842, "lat": 37.3485989, "lon": 23.4650681}, {"type": "node", "id": 11013202843, "lat": 37.3485833, "lon": 23.4653094}, {"type": "node", "id": 11013202844, "lat": 37.3485322, "lon": 23.4653042}, {"type": "node", "id": 11013202845, "lat": 37.3485478, "lon": 23.4650628}, {"type": "node", "id": 11207352392, "lat": 37.3839382, "lon": 23.2473765, "tags": {"amenity": "cafe", "check_date": "2023-09-19", "name": "Cafe Bar Ermioni"}}, {"type": "node", "id": 11971810213, "lat": 37.3436705, "lon": 23.4468609, "tags": {"amenity": "restaurant", "cuisine": "greek", "name": "Enalion"}}, {"type": "node", "id": 12603707501, "lat": 37.3493199, "lon": 23.4674437, "tags": {"amenity": "cafe", "name": "\u03bb\u03b1\u03b2\u03b5\u0129\u03bd"}}, {"type": "way", "id": 473942232, "nodes": [4679741738, 4679741739, 4679741740, 4679741741, 4679741738], "tags": {"amenity": "restaurant", "building": "yes", "cuisine": "icecream;greek;seafood", "name": "Mandriki", "note": "established 1800", "opening_hours": "Mo-Su 13:00-22:00; PH closed", "outdoor_seating": "yes", "toilets": "yes", "toilets:access": "permissive", "wheelchair": "no"}}, {"type": "way", "id": 1185613567, "nodes": [11013202845, 11013202842, 11013202843, 11013202837, 11013202844, 11013202845], "tags": {"amenity": "restaurant", "building": "yes", "cuisine": "greek;Salad", "internet_access": "wlan", "internet_access:fee": "yes", "name": "Annita's", "outdoor_seating": "yes", "source": "survey", "toilets": "yes", "toilets:access": "customers", "toilets:wheelchair": "no", "wheelchair": "limited"}}]}