{"version": 0.6, "generator": "Overpass API 0.7.62.7 375dc00a", "osm3s": {"timestamp_osm_base": "2025-06-14T15:32:14Z", "copyright": "The data included in this document is from www.openstreetmap.org. The data is made available under ODbL."}, "elements": [{"type": "node", "id": 2325999032, "lat": 24.0176405, "lon": 38.1974186}, {"type": "node", "id": 2325999033, "lat": 24.0174599, "lon": 38.1974401}, {"type": "node", "id": 2325999034, "lat": 24.0174756, "lon": 38.197655}, {"type": "node", "id": 2325999035, "lat": 24.0176601, "lon": 38.1976421}, {"type": "node", "id": 3353626684, "lat": 24.0835954, "lon": 38.0588261, "tags": {"amenity": "cafe"}}, {"type": "node", "id": 3353626685, "lat": 24.0876212, "lon": 38.0557955, "tags": {"amenity": "cafe"}}, {"type": "node", "id": 4317532955, "lat": 24.0803173, "lon": 38.0547684, "tags": {"addr:street": "\u0639\u0645\u0631 \u0628\u0646 \u0627\u0644\u062e\u0637\u0627\u0628", "amenity": "restaurant", "name": "\u0645\u0637\u0627\u0639\u0645 \u062c\u062d\u0627", "opening_hours": "Mo-Su 16:30-22:00"}}, {"type": "node", "id": 4880863423, "lat": 24.0013844, "lon": 38.2152408, "tags": {"amenity": "restaurant", "name": "\u0645\u0637\u0639\u0645 \u0634\u0627\u0647\u064a\u0646", "name:ar": "\u0645\u0637\u0639\u0645 \u0634\u0627\u0647\u064a\u0646"}}, {"type": "node", "id": 6935060240, "lat": 24.1546039, "lon": 37.9577263, "tags": {"amenity": "cafe", "cuisine": "\u0645\u0639\u0633\u0644", "internet_access": "yes", "internet_access:fee": "no", "name": "\u0645\u0642\u0647\u0649 \u0627\u0644\u0646\u062c\u0645\u0629", "outdoor_seating": "yes"}}, {"type": "node", "id": 7129714730, "lat": 24.163017, "lon": 37.9792134, "tags": {"amenity": "cafe", "name": "\u0643\u0627\u0641\u064a\u0647"}}, {"type": "node", "id": 7129734489, "lat": 24.1650623, "lon": 37.9820611, "tags": {"amenity": "cafe", "name": "\u0643\u0627\u0641\u064a\u0647 (\u0645\u0642\u0647\u0649)"}}, {"type": "node", "id": 11558092446, "lat": 24.0744753, "lon": 38.0852789}, {"type": "node", "id": 11558092447, "lat": 24.0748017, "lon": 38.0854153}, {"type": "node", "id": 11558092448, "lat": 24.0749224, "lon": 38.0850929}, {"type": "node", "id": 11558092449, "lat": 24.0746092, "lon": 38.08494}, {"type": "node", "id": 11558092450, "lat": 24.0746036, "lon": 38.0849172}, {"type": "node", "id": 11802828992, "lat": 24.0065639, "lon": 38.1689259, "tags": {"amenity": "cafe", "name": "\u0645\u0642\u0647\u0649 \u0623\u0648\u0631\u0648\u0633", "name:en": "Oros Cafe"}}, {"type": "node", "id": 11805834930, "lat": 24.0117606, "lon": 38.2079709, "tags": {"amenity": "restaurant", "brand": "TGI Fridays", "brand:wikidata": "Q1524184", "cuisine": "american", "name": "TGI Fridays", "name:en": "TGI Fridays", "website": "https://tgifridaysme.com/ar/"}}, {"type": "node", "id": 11809565012, "lat": 24.0347258, "lon": 38.1936049, "tags": {"amenity": "cafe", "brand": "\u0633\u062a\u0627\u0631\u0628\u0643\u0633", "brand:ar": "\u0633\u062a\u0627\u0631\u0628\u0643\u0633", "brand:en": "Starbucks", "brand:wikidata": "Q37158", "cuisine": "coffee_shop", "name": "\u0633\u062a\u0627\u0631\u0628\u0643\u0633", "name:ar": "\u0633\u062a\u0627\u0631\u0628\u0643\u0633", "name:en": "Starbucks", "official_name": "\u0633\u062a\u0627\u0631\u0628\u0643\u0633 \u0643\u0627\u0641\u064a\u0629", "official_name:ar": "\u0633\u062a\u0627\u0631\u0628\u0643\u0633 \u0643\u0627\u0641\u064a\u0629", "official_name:en": "Starbucks Coffee", "takeaway": "yes", "website": "https://www.starbucks.sa/en"}}, {"type": "node", "id": 11862501911, "lat": 24.0227856, "lon": 38.1477284, "tags": {"amenity": "cafe", "name": "\u0625\u064a\u0645\u064a", "name:en": "Emmy's", "website": "https://emmys-ksa.com/"}}, {"type": "node", "id": 11881448164, "lat": 24.1085911, "lon": 38.0259266, "tags": {"amenity": "cafe", "brand": "\u0633\u062a\u0627\u0631\u0628\u0643\u0633", "brand:ar": "\u0633\u062a\u0627\u0631\u0628\u0643\u0633", "brand:en": "Starbucks", "brand:wikidata": "Q37158", "cuisine": "coffee_shop", "drive_through": "yes", "name": "\u0633\u062a\u0627\u0631\u0628\u0643\u0633", "name:ar": "\u0633\u062a\u0627\u0631\u0628\u0643\u0633", "name:en": "Starbucks", "official_name": "\u0633\u062a\u0627\u0631\u0628\u0643\u0633 \u0643\u0627\u0641\u064a\u0629", "official_name:ar": "\u0633\u062a\u0627\u0631\u0628\u0643\u0633 \u0643\u0627\u0641\u064a\u0629", "official_name:en": "Starbucks Coffee", "takeaway": "yes", "website": "https://www.starbucks.sa/ar"}}, {"type": "node", "id": 11881448166, "lat": 24.1084148, "lon": 38.0256075, "tags": {"amenity": "cafe", "name": "\u0625\u0645\u0636\u0627\u0621", "name:en": "Signature"}}, {"type": "node", "id": 11881488171, "lat": 24.1080011, "lon": 38.025232, "tags": {"amenity": "restaurant", "brand": "Pizza Hut", "brand:wikidata": "Q191615", "cuisine": "pizza", "name": "\u0628\u064a\u062a\u0632\u0627 \u0647\u062a", "name:en": "Pizza Hut", "website": "https://saudi.pizzahut.me/en/home"}}, {"type": "node", "id": 11902072735, "lat": 24.0057087, "lon": 38.1972353, "tags": {"amenity": "cafe", "name": "\u0645\u0642\u0647\u0649 \u0633\u064a\u0644\u0648", "name:en": "celo cafe"}}, {"type": "node", "id": 11911869117, "lat": 24.0022662, "lon": 38.1987467, "tags": {"amenity": "restaurant", "name": "\u0627\u0644\u0623\u0633\u0637\u0648\u0631\u0629", "name:en": "Al Ostoura"}}, {"type": "node", "id": 11911869228, "lat": 24.1071179, "lon": 38.048822, "tags": {"amenity": "cafe", "name": "Everest"}}, {"type": "node", "id": 11935257470, "lat": 24.0833423, "lon": 38.1010446, "tags": {"amenity": "restaurant", "name": "\u0627\u0628\u0648 \u0632\u064a\u062f", "name:en": "Abu Zaid"}}, {"type": "node", "id": 11935257644, "lat": 24.0838761, "lon": 38.0827063, "tags": {"amenity": "cafe", "name": "\u0642\u0647\u0648\u0629 \u0643\u0627\u0633\u062a\u064a\u0644\u0648", "name:en": "Castello coffee", "website": "https://castello-coffee.com/en/"}}, {"type": "node", "id": 11935257645, "lat": 24.0837757, "lon": 38.0826607, "tags": {"amenity": "restaurant", "name": "\u0645\u0634\u0631\u0627\u0642", "name:en": "Meshraq", "website": "https://www.meshraq.com.sa/"}}, {"type": "node", "id": 11962307735, "lat": 24.0853845, "lon": 38.0564797, "tags": {"amenity": "restaurant", "cuisine": "shawarma;broast;juice", "name": "\u0644\u0641\u0627\u062a \u0645\u062a\u0645\u0648\u062c\u0629", "name:en": "crispy rolls"}}, {"type": "node", "id": 11982965075, "lat": 24.0151981, "lon": 38.2160872, "tags": {"amenity": "restaurant", "name": "\u0634\u0648\u0627\u064a\u0629 \u0627\u0644\u0633\u0644\u0637\u0627\u0646", "name:en": "Sultan grill"}}, {"type": "node", "id": 11987104400, "lat": 24.0908204, "lon": 38.0497305, "tags": {"amenity": "restaurant", "name": "\u0639\u0632\u0629", "name:en": "Taza", "survey:date": "2024-06-17"}}, {"type": "node", "id": 11989819815, "lat": 24.1008242, "lon": 38.0873274, "tags": {"amenity": "cafe", "name": "NRG", "survey:date": "2024-06-18"}}, {"type": "node", "id": 11989819831, "lat": 24.077309, "lon": 38.054172, "tags": {"amenity": "restaurant", "name": "\u0633\u0631 \u0627\u0644\u0633\u0648\u0634\u064a", "name:en": "sushi secret", "survey:date": "2024-06-18"}}, {"type": "node", "id": 11989819832, "lat": 24.0773298, "lon": 38.0534481, "tags": {"amenity": "cafe", "name": "\u0646\u0633\u0628\u0629", "name:en": "Ratio coffee", "survey:date": "2024-06-18"}}, {"type": "node", "id": 11989819833, "lat": 24.0776735, "lon": 38.0537036, "tags": {"amenity": "cafe", "name": "\u0645\u0642\u0647\u0649 \u0647\u0648\u0631\u0627", "name:en": "Hora cafe", "survey:date": "2024-06-18"}}, {"type": "node", "id": 11989819838, "lat": 24.0841475, "lon": 38.0495026, "tags": {"amenity": "restaurant", "name": "\u0637\u0639\u0645 \u062f\u0645\u0634\u0642", "name:en": "Taste of Damascus", "survey:date": "2024-06-18"}}, {"type": "node", "id": 11989819842, "lat": 24.0945979, "lon": 38.0384854, "tags": {"amenity": "restaurant", "name": "\u0627\u0644\u0634\u0631\u0641\u0629", "name:en": "The Porch", "survey:date": "2024-06-18"}}, {"type": "node", "id": 11993412603, "lat": 24.106498, "lon": 38.0977396, "tags": {"amenity": "cafe", "name": "Emmy's", "survey:date": "2024-06-20"}}, {"type": "node", "id": 11993412622, "lat": 24.0919287, "lon": 38.090859, "tags": {"amenity": "cafe", "name": "NEXT", "survey:date": "2024-08-13"}}, {"type": "node", "id": 11994916170, "lat": 24.1091465, "lon": 38.0783642, "tags": {"amenity": "cafe", "name": "\u0643\u064a\u0627\u0646", "name:en": "kyan", "survey:date": "2024-06-21"}}, {"type": "node", "id": 11998752393, "lat": 24.0851715, "lon": 38.0904105, "tags": {"amenity": "restaurant", "name": "\u0645\u0627\u0632\u0627", "name:en": "maza", "survey:date": "2024-06-22"}}, {"type": "node", "id": 11998752397, "lat": 24.091223, "lon": 38.0939523, "tags": {"amenity": "cafe", "name": "\u0627\u0644\u0646\u062d\u0627\u0633", "name:en": "Tea House", "survey:date": "2024-06-21"}}, {"type": "node", "id": 11998752404, "lat": 24.0833139, "lon": 38.1011451, "tags": {"amenity": "restaurant", "name": "\u0627\u0628\u0648 \u0632\u064a\u062f", "name:en": "Abu Zaid", "survey:date": "2024-06-21"}}, {"type": "node", "id": 11998799515, "lat": 24.0767171, "lon": 38.0978091, "tags": {"amenity": "restaurant", "name": "\u0643\u0627\u0641\u062a\u064a\u0631\u064a\u0627 \u0645\u0634\u0627\u0648\u0631", "name:en": "cafeteria mushawar", "survey:date": "2024-09-18"}}, {"type": "node", "id": 12001059042, "lat": 24.1283107, "lon": 38.0092527, "tags": {"amenity": "restaurant", "survey:date": "2024-06-22"}}, {"type": "node", "id": 12001826375, "lat": 24.0887323, "lon": 38.1023583, "tags": {"amenity": "restaurant", "name": "\u0645\u0627\u0632\u0627", "name:en": "maza", "survey:date": "2024-06-23"}}, {"type": "node", "id": 12001902956, "lat": 24.0757687, "lon": 38.0925611, "tags": {"amenity": "restaurant", "cuisine": "indian;pakistani", "survey:date": "2024-06-23"}}, {"type": "node", "id": 12001902958, "lat": 24.0761427, "lon": 38.0927324, "tags": {"amenity": "restaurant", "name": "\u0628\u0648\u0641\u064a\u0627 \u0623\u062f\u064a\u0628\u0627 \u064a\u0646\u0628\u0639", "name:en": "Boofia Adeeba yanbu", "survey:date": "2024-06-23"}}, {"type": "node", "id": 12002169645, "lat": 24.0001392, "lon": 38.1847021, "tags": {"amenity": "cafe", "name": "morrocan taste", "survey:date": "2024-06-23"}}, {"type": "node", "id": 12002169652, "lat": 24.0084187, "lon": 38.2074709, "tags": {"amenity": "restaurant", "name": "kabsa badia", "survey:date": "2024-06-23"}}, {"type": "node", "id": 12008958535, "lat": 24.0758713, "lon": 38.1013805, "tags": {"amenity": "cafe", "name": "barns", "survey:date": "2024-06-25"}}, {"type": "node", "id": 12008958542, "lat": 24.0714557, "lon": 38.1103103, "tags": {"amenity": "cafe", "drive_through": "yes", "name": "next coffee", "survey:date": "2024-06-25"}}, {"type": "node", "id": 12008958544, "lat": 24.0714546, "lon": 38.1105395, "tags": {"amenity": "cafe", "survey:date": "2024-06-25"}}, {"type": "node", "id": 12009173528, "lat": 24.0566688, "lon": 38.1454126, "tags": {"amenity": "cafe", "name": "\u062f\u0645\u0634\u0642", "name:en": "Damasc", "survey:date": "2024-06-25"}}, {"type": "node", "id": 12009173538, "lat": 24.0157233, "lon": 38.2287017, "tags": {"amenity": "cafe", "name": "\u0627\u0644\u062d\u0638\u0627\u0626\u0631", "name:en": "barns", "survey:date": "2024-06-25"}}, {"type": "node", "id": 12014873075, "lat": 24.0863291, "lon": 38.0644533, "tags": {"amenity": "cafe", "check_date": "2024-06-27", "name": "\u0627\u0644\u0633\u064a\u062f. \u0642\u0647\u0648\u0629", "name:en": "mr. coffee"}}, {"type": "node", "id": 12021852259, "lat": 24.07054, "lon": 38.1122921, "tags": {"amenity": "restaurant", "check_date": "2024-06-30", "name": "\u0647\u0648 \u0644\u0628\u0646\u0627\u0646", "name:en": "Hawa Lebnan"}}, {"type": "node", "id": 12024678745, "lat": 24.0851156, "lon": 38.0951836, "tags": {"amenity": "cafe", "check_date": "2024-07-01", "cuisine": "coffee_shop", "name": "\u0627\u0644\u0642\u0627\u0648\u0629 \u0627\u0644\u062a\u0627\u0644\u064a", "name:en": "Next", "takeaway": "yes"}}, {"type": "node", "id": 12026042378, "lat": 24.0837357, "lon": 38.1012856, "tags": {"amenity": "restaurant", "check_date": "2024-07-01", "name": "pro diet"}}, {"type": "node", "id": 12030737580, "lat": 24.0691544, "lon": 38.1048525}, {"type": "node", "id": 12030739304, "lat": 24.0693292, "lon": 38.1049592}, {"type": "node", "id": 12030739980, "lat": 24.0692997, "lon": 38.1050305}, {"type": "node", "id": 12033799559, "lat": 24.0025806, "lon": 38.2197498, "tags": {"amenity": "cafe", "name": "\u0627\u0644\u0634\u0627\u064a \u0627\u0644\u0645\u063a\u0631\u0628\u064a", "name:en": "moroccan tea"}}, {"type": "node", "id": 12040283903, "lat": 24.0914786, "lon": 38.0838035, "tags": {"amenity": "restaurant"}}, {"type": "node", "id": 12040283907, "lat": 24.1212489, "lon": 38.0624077, "tags": {"amenity": "cafe", "name": "\u0627\u0644\u0645\u0639\u0627\u062f\u0644", "name:en": "equalizer", "survey:date": "2024-07-15"}}, {"type": "node", "id": 12043476891, "lat": 24.0681467, "lon": 38.104847, "tags": {"amenity": "restaurant", "cuisine": "indian", "survey:date": "2024-07-09"}}, {"type": "node", "id": 12043476892, "lat": 24.0682738, "lon": 38.1042446, "tags": {"amenity": "restaurant", "survey:date": "2024-07-09"}}, {"type": "node", "id": 12043476893, "lat": 24.068352, "lon": 38.1041628, "tags": {"amenity": "restaurant", "survey:date": "2024-07-09"}}, {"type": "node", "id": 12043476909, "lat": 24.0634716, "lon": 38.0914734, "tags": {"amenity": "restaurant", "cuisine": "indian", "name": "\u0631\u0627\u064a\u0648 \u062e\u0627\u0646", "name:en": "Raju khan", "survey:date": "2024-07-09"}}, {"type": "node", "id": 12045015169, "lat": 24.05955, "lon": 38.1389722, "tags": {"amenity": "restaurant", "cuisine": "indian", "name": "\u0645\u0637\u0639\u0645 \u0627\u0644\u0645\u0646\u0627\u0631 \u0627\u0644\u0647\u0646\u062f\u064a", "name:en": "Al manar indian restaurant", "survey:date": "2024-07-10"}}, {"type": "node", "id": 12058466047, "lat": 24.2514956, "lon": 37.8664824, "tags": {"amenity": "restaurant", "cuisine": "indian", "survey:date": "2024-07-17"}}, {"type": "node", "id": 12061437310, "lat": 24.1286876, "lon": 38.0088415, "tags": {"amenity": "restaurant", "cuisine": "indian", "survey:date": "2024-07-18"}}, {"type": "node", "id": 12061437347, "lat": 24.1064755, "lon": 38.0173716, "tags": {"amenity": "restaurant", "survey:date": "2024-07-18"}}, {"type": "node", "id": 12061437351, "lat": 24.1077297, "lon": 38.0265648, "tags": {"amenity": "cafe", "name": "\u062f\u064a\u0641\u0648\u064a", "name:en": "Devoy", "survey:date": "2024-07-18"}}, {"type": "node", "id": 12061437352, "lat": 24.1070001, "lon": 38.0252698, "tags": {"amenity": "cafe", "name": "\u0642\u0647\u0648\u0629 \u0635\u0641\u064a\u0631 \u0645\u062a\u062e\u0635\u0635\u0629", "name:en": "hyacinth specialty coffee", "survey:date": "2024-07-18"}}, {"type": "node", "id": 12090437187, "lat": 24.0100606, "lon": 38.2208836, "tags": {"amenity": "restaurant", "survey:date": "2024-08-03"}}, {"type": "node", "id": 12092274695, "lat": 24.0871526, "lon": 38.0454356, "tags": {"amenity": "cafe", "name": "dose", "survey:date": "2024-08-04"}}, {"type": "node", "id": 12097497604, "lat": 24.1152441, "lon": 37.9987859, "tags": {"amenity": "cafe", "name": "\u0646\u0633\u0628\u0629 \u0627\u0644\u062a\u0639\u0628\u064a\u0631", "name:en": "ratio express", "survey:date": "2024-08-07"}}, {"type": "node", "id": 12097497607, "lat": 24.1123303, "lon": 37.9967241, "tags": {"amenity": "restaurant", "survey:date": "2024-08-07"}}, {"type": "node", "id": 12117969024, "lat": 24.0634051, "lon": 38.0914047, "tags": {"amenity": "restaurant", "name": "\u0627\u0644\u062a\u062d\u0645\u064a\u0644 \u0627\u0644\u0632\u0627\u0626\u062f", "name:en": "overload", "survey:date": "2024-08-18"}}, {"type": "node", "id": 12135372342, "lat": 24.078925, "lon": 38.0925863, "tags": {"amenity": "restaurant", "name": "\u0628\u0648\u0641\u064a\u0647 \u062c\u062f\u0647", "name:en": "boofia jeddah", "survey:date": "2024-08-25"}}, {"type": "node", "id": 12140199561, "lat": 24.0966058, "lon": 38.1874398, "tags": {"amenity": "cafe", "name": "barns", "survey:date": "2024-08-27"}}, {"type": "node", "id": 12140199562, "lat": 24.0969154, "lon": 38.1873947, "tags": {"amenity": "cafe", "name": "lavena", "survey:date": "2024-08-27"}}, {"type": "node", "id": 12145961798, "lat": 24.0956328, "lon": 38.0650353, "tags": {"amenity": "cafe", "name": "next coffee", "survey:date": "2024-08-29"}}, {"type": "node", "id": 12151189416, "lat": 24.0850961, "lon": 38.0583079, "tags": {"amenity": "cafe", "name": "snack it", "survey:date": "2024-09-02"}}, {"type": "node", "id": 12151192825, "lat": 24.104761, "lon": 38.0474559, "tags": {"amenity": "restaurant", "name": "\u0643\u0628\u0633\u0629 \u0627\u0644\u0634\u0627\u0645\u062e", "name:en": "kabsuh al-shamik", "survey:date": "2024-09-02"}}, {"type": "node", "id": 12153800295, "lat": 24.0838695, "lon": 38.0822239, "tags": {"amenity": "cafe", "name": "next coffee", "survey:date": "2024-09-03"}}, {"type": "node", "id": 12153800298, "lat": 24.0954961, "lon": 38.0856788, "tags": {"amenity": "restaurant", "name": "\u0628\u0644\u062f\u064a \u0627\u0644\u062a\u0627\u0648\u0646", "name:en": "balady altawwn", "survey:date": "2024-09-03"}}, {"type": "node", "id": 12153800299, "lat": 24.1117828, "lon": 38.0606735, "tags": {"amenity": "restaurant", "name": "\u0645\u0637\u0627\u0639\u0645 \u0648\u0645\u0637\u0627\u0628\u062e \u0627\u0644\u062f\u0641\u0629", "name:en": "aldafah restaurant & kitchens", "survey:date": "2024-09-03"}}, {"type": "node", "id": 12163643576, "lat": 24.0635987, "lon": 38.0907868, "tags": {"amenity": "restaurant", "cuisine": "pizza", "name": "\u0628\u064a\u062a\u0632\u0627 \u0648 \u0628\u0627\u0633\u062a\u0627 \u0644\u064a\u0632\u0648\u0627\u0646", "name:en": "lezwan pizza & pasta", "survey:date": "2024-09-08"}}, {"type": "node", "id": 12219115252, "lat": 24.0777257, "lon": 38.0362979, "tags": {"amenity": "cafe", "name": "ethemam cafe", "survey:date": "2024-10-03"}}, {"type": "node", "id": 12230126758, "lat": 24.0756274, "lon": 38.0442655, "tags": {"amenity": "cafe", "name": "calimaro", "survey:date": "2024-10-06"}}, {"type": "node", "id": 12247904515, "lat": 24.0972789, "lon": 38.1877287, "tags": {"amenity": "restaurant", "name": "\u0632\u0627\u062f \u0627\u0644\u0645\u062f\u064a\u0646\u0629", "name:en": "zad al medina", "survey:date": "2024-10-13"}}, {"type": "node", "id": 12810424578, "lat": 24.0692489, "lon": 38.1049077}, {"type": "node", "id": 12810502101, "lat": 24.0691218, "lon": 38.1049126, "tags": {"addr:city": "Yanbu City", "addr:housenumber": "8352", "addr:postcode": "46431", "addr:street": "Almajed", "amenity": "cafe", "cuisine": "tea", "internet_access": "no", "name": "Red Deer", "opening_hours": "24/7", "outdoor_seating": "yes", "phone": "054 259 0246", "website": "https://www.instagram.com/__red_deer__?igsh=OWp5ZG9rMmV6ZW1n"}}, {"type": "way", "id": 223717933, "nodes": [2325999032, 2325999033, 2325999034, 2325999035, 2325999032], "tags": {"amenity": "restaurant", "building": "yes", "cuisine": "regional", "name": "\u0643\u0648\u062f\u0648", "name:en": "kudu"}}, {"type": "way", "id": 1243593630, "nodes": [11558092446, 11558092447, 11558092448, 11558092449, 11558092450, 11558092446], "tags": {"addr:city": "Yanbu", "addr:place": "Mer Rouge / \u1240\u12ed\u1215 \u1263\u1215\u122a / \u0627\u0644\u0628\u062d\u0631 \u0627\u0644\u0623\u062d\u0645\u0631", "addr:postcode": "4142", "amenity": "restaurant", "branch": "Till 2 PM", "brand": "Kaylah", "building": "yes", "capacity": "100", "check_date": "2024-01-28", "cuisine": "coffee_shop;breakfast;brunch;cake;chocolate;french_toast", "delivery": "yes", "description": "Authentic Saudi Lounge Serving Breakfast, Brunch and all-day Pastries and Primum Specialty Coffee", "email": "Kaylahlounge@gmail.com", "highchair": "yes", "name": "Kaylah Lounge", "opening_hours": "Mo-Su 06:00-23:00", "outdoor_seating": "yes", "payment:apple_pay": "yes", "payment:cash": "yes", "payment:contactless": "yes", "payment:mastercard": "yes", "payment:visa": "yes", "phone": "+966583018191", "smoking": "outside", "start_date": "2021-03-19", "toilets": "no", "website": "https://www.instagram.com/kaylah_ksa/?hl=en", "website:menu": "https://qr.finedinemenu.com/ka-y-la-h-lawn-j-or-kaylah-lounge?menu=true&fbclid=PAAaY-zbtaeqNe9nvEdFGnLGsSr1IxiTWV0r6NE2OEVnRtK1ACSaE0poxecD4"}}, {"type": "way", "id": 1298728065, "nodes": [12030737580, 12810502101, 12030739980, 12030739304, 12810424578, 12030737580], "tags": {"addr:city": "Yanbu City", "addr:postcode": "46452", "addr:street": "Almajed", "amenity": "cafe", "building": "yes", "cuisine": "coffee_shop;sandwich;tea", "internet_access": "no", "name": "Red Deer", "opening_hours": "Mo-Su 06:00-23:00", "phone": "054 259 0246", "source": "microsoft/BuildingFootprints", "takeaway": "yes", "toilets": "yes", "website": "https://www.instagram.com/__red_deer__?igsh=OWp5ZG9rMmV6ZW1n"}}]}