{"version": 0.6, "generator": "Overpass API 0.7.62.7 375dc00a", "osm3s": {"timestamp_osm_base": "2025-06-14T15:15:01Z", "copyright": "The data included in this document is from www.openstreetmap.org. The data is made available under ODbL."}, "elements": [{"type": "node", "id": 1972017234, "lat": 15.2370634, "lon": 32.4920316, "tags": {"amenity": "restaurant", "cuisine": "regional"}}, {"type": "node", "id": 2142312829, "lat": 15.4689356, "lon": 32.4829689, "tags": {"amenity": "restaurant", "name": "\u0643\u0641\u062a\u0631\u064a\u0627 \u062d\u0627\u062a\u064a\u0643\u0645", "smoking": "no", "takeaway": "yes"}}, {"type": "node", "id": 4331953299, "lat": 15.4257602, "lon": 32.4994718, "tags": {"addr:housenumber": "213", "addr:street": "\u0634\u0627\u0631\u0639 \u062c\u0628\u0644 \u0623\u0648\u0644\u064a\u0627\u0621", "amenity": "cafe", "name": "3bdalla Corner", "opening_hours": "Mo-Su 06:00-22:00"}}, {"type": "node", "id": 5494632421, "lat": 15.4800582, "lon": 32.4822286, "tags": {"addr:street": "\u0634\u0627\u0631\u0639 \u062c\u0628\u0644 \u0623\u0648\u0644\u064a\u0627\u0621", "amenity": "restaurant", "name": "\u0645\u0637\u0639\u0645 \u0648\u0627\u064a\u0633\u0643\u0631\u064a\u0645 \u062f\u0631\u064a\u0645"}}, {"type": "node", "id": 5660953039, "lat": 15.4480729, "lon": 32.5062272, "tags": {"amenity": "cafe", "name": "\u0628\u0637\u0629 \u0644\u0644\u062c\u0628\u0646\u0629"}}, {"type": "node", "id": 6833721513, "lat": 15.4885107, "lon": 32.6397266, "tags": {"amenity": "restaurant", "name": "\u0645\u0637\u0639\u0645 \u0627\u0644\u0645\u0644\u062a\u0642\u064a \u0627\u0644\u0634\u0639\u0628\u064a", "name:ar": "\u0645\u0637\u0639\u0645 \u0627\u0644\u0645\u0644\u062a\u0642\u064a \u0627\u0644\u0634\u0639\u0628\u064a"}}, {"type": "node", "id": 6833721515, "lat": 15.4917271, "lon": 32.6366958, "tags": {"amenity": "restaurant", "name": "\u0645\u0637\u0639\u0645 \u0627\u0644\u0628\u0631\u0639\u064a", "name:ar": "\u0645\u0637\u0639\u0645 \u0627\u0644\u0628\u0631\u0639\u064a"}}, {"type": "node", "id": 6833721516, "lat": 15.4925441, "lon": 32.6359017, "tags": {"amenity": "restaurant", "name": "\u0645\u0637\u0639\u0645 \u0648\u062f \u0627\u0644\u0628\u0631", "name:ar": "\u0645\u0637\u0639\u0645 \u0648\u062f \u0627\u0644\u0628\u0631"}}, {"type": "node", "id": 7031846734, "lat": 15.5014372, "lon": 32.4963112, "tags": {"amenity": "restaurant", "name": "\u0645\u0637\u0639\u0645 \u0628\u0627\u0628\u0627 \u062d\u0633\u064a\u0646"}}, {"type": "node", "id": 7031846911, "lat": 15.4980621, "lon": 32.4973106, "tags": {"amenity": "restaurant", "name": "\u0645\u0637\u0639\u0645 \u062f\u0639\u0628\u0644"}}, {"type": "node", "id": 7031854518, "lat": 15.4943123, "lon": 32.4985619, "tags": {"amenity": "restaurant", "name": "\u0645\u0637\u0639\u0645 \u0643\u0648\u064a\u0646\u0632 \u0644\u0644\u0627\u0633\u0645\u0627\u0643"}}, {"type": "node", "id": 7032736264, "lat": 15.4924374, "lon": 32.498188, "tags": {"amenity": "restaurant", "name": "\u0645\u0637\u0639\u0645 \u0648\u0645\u0642\u0647\u0649 \u0627\u0644\u0631\u0628\u0627\u0636"}}, {"type": "node", "id": 7032761294, "lat": 15.4910622, "lon": 32.4989357, "tags": {"amenity": "cafe", "name": "\u0628\u0646 \u0627\u0644\u0627\u0645\u064a\u0631"}}, {"type": "node", "id": 7032932662, "lat": 15.4794378, "lon": 32.5004387, "tags": {"amenity": "restaurant", "name": "\u0645\u0637\u0639\u0645 \u0648\u0643\u0627\u0641\u062a\u0631\u064a\u0627 \u0627\u0647\u0644 \u0627\u0644\u0639\u0648\u0636"}}, {"type": "node", "id": 7033042067, "lat": 15.4710627, "lon": 32.5021858, "tags": {"amenity": "cafe", "name": "\u0642\u0647\u0648\u0629 \u0634\u0627\u062f\u064a\u0629"}}, {"type": "node", "id": 7033136517, "lat": 15.4673128, "lon": 32.5010643, "tags": {"amenity": "cafe", "name": "\u0646\u0627\u062f\u064a \u0627\u0644\u0634\u0631\u0648\u0642"}}, {"type": "node", "id": 7033155563, "lat": 15.4638128, "lon": 32.5031891, "tags": {"amenity": "restaurant", "name": "\u0645\u0637\u0639\u0645 \u0645\u0627\u064a\u0633\u062a\u0631\u0648"}}, {"type": "node", "id": 7033315332, "lat": 15.4530621, "lon": 32.5053139, "tags": {"amenity": "restaurant", "name": "\u0645\u0637\u0639\u0645 \u0627\u0644\u0639\u0631\u0628\u064a\u0629 \u0644\u0644\u062f\u0648\u0627\u062c\u0646 \u0648\u0627\u0644\u0645\u0646\u062f\u064a"}}, {"type": "node", "id": 7033320861, "lat": 15.449688, "lon": 32.5055618, "tags": {"amenity": "restaurant", "name": "\u0645\u0637\u0639\u0645 \u0627\u0644\u0639\u0645\u064a\u062f \u0627\u0644\u0634\u0639\u0628\u064a"}}, {"type": "node", "id": 7033321124, "lat": 15.4508123, "lon": 32.5059357, "tags": {"amenity": "restaurant", "name": "\u0633\u0627\u0646\u062f\u0648\u062a\u0634 \u0639\u0644\u0649 \u0627\u0644\u0645\u0627\u0634\u064a"}}, {"type": "node", "id": 7038280027, "lat": 15.5008125, "lon": 32.4835625, "tags": {"amenity": "restaurant", "name": "\u0645\u0637\u0639\u0645 \u0627\u0644\u0645\u064a\u0631\u0643\u0627\u062a\u0648"}}, {"type": "node", "id": 7038285819, "lat": 15.4994373, "lon": 32.4831886, "tags": {"amenity": "restaurant", "name": "\u0645\u0637\u0639\u0645 \u0627\u0648\u0644\u0627\u062f \u0627\u0644\u0627\u0628\u064a\u0636"}}, {"type": "node", "id": 7040822765, "lat": 15.4990625, "lon": 32.4826889, "tags": {"amenity": "restaurant", "name": "\u0645\u0637\u0639\u0645 \u0627\u0628\u0646\u0627\u0621 \u0627\u0644\u0634\u0631\u0642"}}, {"type": "node", "id": 7040836281, "lat": 15.4936876, "lon": 32.4924393, "tags": {"amenity": "restaurant", "name": "\u0643\u0648\u064a\u0643 \u0628\u064a\u0631\u0642\u0631 - \u0627\u0644\u0643\u0644\u0627\u0643\u0644\u0629"}}, {"type": "node", "id": 7040836864, "lat": 15.493063, "lon": 32.4906883, "tags": {"amenity": "restaurant", "name": "\u0647\u0627\u0628\u064a \u0628\u064a\u0647 \u0627\u0642\u0627\u0634\u064a"}}, {"type": "node", "id": 7040846770, "lat": 15.4925623, "lon": 32.4874382, "tags": {"amenity": "restaurant", "name": "\u0628\u0648\u0634 \u0627\u0628\u0648 \u062f\u0642\u0646"}}, {"type": "node", "id": 7040848446, "lat": 15.4949379, "lon": 32.4976883, "tags": {"amenity": "restaurant", "name": "\u0645\u0637\u0639\u0645 \u0627\u0644\u0634\u064a\u062e \u0627\u0644\u0634\u0639\u0628\u064a"}}, {"type": "node", "id": 7040879662, "lat": 15.4940624, "lon": 32.4830627, "tags": {"amenity": "restaurant", "name": "\u0645\u0637\u0639\u0645 \u0627\u0644\u0639\u0637\u0628\u0631\u0627\u0648\u064a"}}, {"type": "node", "id": 7052480239, "lat": 15.4577285, "lon": 32.5041391, "tags": {"amenity": "restaurant", "cuisine": "pizza", "name": "\u0648\u062f \u0627\u0644\u062e\u0627\u062a\u0645 \u0628\u064a\u062a\u0632\u0627"}}, {"type": "node", "id": 7057318385, "lat": 15.4859279, "lon": 32.5913751, "tags": {"addr:postcode": "11111", "addr:street": "\u0627\u0644\u062b\u0644\u0627\u062b\u064a\u0646 \u0627\u0644\u0633\u0648\u0642 \u0627\u0644\u062c\u062f\u064a\u062f", "amenity": "restaurant", "cuisine": "tea;fine_dining;diner;steak_house;beef_bowl;breakfast;coffee_shop", "name": "\u0627\u0628\u0627\u064a", "name:ar": "\u0645\u0637\u0639\u0645 \u0627\u0628\u0627\u064a", "opening_hours": "24/7", "phone": "0910086607"}}, {"type": "node", "id": 7066424030, "lat": 15.4839373, "lon": 32.4823112, "tags": {"amenity": "restaurant", "name": "\u0645\u0637\u0639\u0645 \u0627\u0644\u062f\u0646\u0642\u0644\u0627\u0648\u064a"}}, {"type": "node", "id": 7066424706, "lat": 15.4894371, "lon": 32.4824371, "tags": {"amenity": "restaurant", "name": "\u0645\u0637\u0639\u0645 \u0627\u0644\u0646\u0648\u0631\u0633"}}, {"type": "node", "id": 7066427541, "lat": 15.4881878, "lon": 32.4824371, "tags": {"amenity": "restaurant", "name": "\u0645\u0637\u0639\u0645 \u0627\u0644\u0642\u062f\u0633 \u0627\u0644\u0634\u0639\u0628\u064a"}}, {"type": "node", "id": 7066427797, "lat": 15.4833126, "lon": 32.4821892, "tags": {"amenity": "restaurant", "name": "\u0645\u0637\u0639\u0645 \u0627\u0644\u0631\u062d\u0645\u0647 \u0627\u0644\u0634\u0639\u0628\u064a"}}, {"type": "node", "id": 7066429869, "lat": 15.4775629, "lon": 32.4741859, "tags": {"amenity": "restaurant", "name": "\u0645\u0637\u0639\u0645 \u0648\u062f \u0627\u0644\u0628\u0644\u0629 \u0627\u0644\u0634\u0639\u0628\u064a"}}, {"type": "node", "id": 7066448549, "lat": 15.4696875, "lon": 32.4648132, "tags": {"amenity": "restaurant", "name": "\u0645\u0637\u0639\u0645 \u062e\u0636\u0631"}}, {"type": "node", "id": 7066508531, "lat": 15.413187, "lon": 32.4915619, "tags": {"amenity": "restaurant", "name": "\u0645\u0637\u0639\u0645 \u0627\u0644\u062d\u0627\u062c\u0629 \u0641\u0627\u064a\u0632\u0629"}}, {"type": "node", "id": 7066522246, "lat": 15.4266004, "lon": 32.5069642, "tags": {"amenity": "restaurant", "name": "\u0645\u0637\u0639\u0645 \u0648\u0634\u0648\u0627\u064a\u0629 \u0627\u0644\u062f\u064a\u0627\u0645\u0629"}}, {"type": "node", "id": 7066540364, "lat": 15.4531879, "lon": 32.5189362, "tags": {"amenity": "restaurant", "name": "\u0645\u0637\u0639\u0645 \u0627\u0644\u062d\u0627\u062c"}}, {"type": "node", "id": 7066582759, "lat": 15.4610624, "lon": 32.4894371, "tags": {"amenity": "restaurant", "name": "\u0628\u064a\u062a\u0632\u0627 \u0648\u0641\u0637\u0627\u0626\u0631 \u062d\u0644\u0627"}}, {"type": "node", "id": 7066653704, "lat": 15.4658127, "lon": 32.4864388, "tags": {"amenity": "restaurant", "name": "\u0645\u0637\u0639\u0645 \u0627\u0644\u0645\u0644\u0643"}}, {"type": "node", "id": 7069954582, "lat": 15.4650621, "lon": 32.4933128, "tags": {"amenity": "restaurant", "name": "\u0645\u0637\u0639\u0645 \u0639\u0644\u064a \u0628\u062d\u0631"}}, {"type": "node", "id": 7070032280, "lat": 15.4689379, "lon": 32.4784393, "tags": {"amenity": "restaurant", "name": "\u0627\u0644\u0628\u064a\u0643 \u0628\u0631\u0648\u0633\u062a"}}, {"type": "node", "id": 7079496471, "lat": 15.4691877, "lon": 32.4789391, "tags": {"amenity": "restaurant", "name": "\u0645\u0637\u0639\u0645 \u0648\u0643\u0627\u0641\u062a\u0631\u064a\u0627 \u0645\u0632\u0627\u064a\u0627"}}, {"type": "node", "id": 7079529828, "lat": 15.3980627, "lon": 32.5161858, "tags": {"amenity": "restaurant", "name": "\u0645\u0637\u0639\u0645 \u0645\u0648\u062f\u0629"}}, {"type": "node", "id": 7080568312, "lat": 15.4841871, "lon": 32.5388107, "tags": {"amenity": "restaurant", "name": "\u062d\u064a \u0627\u0644\u0646\u0635\u0631 - \u0645\u0627\u064a\u0648"}}, {"type": "node", "id": 7088777019, "lat": 15.4841871, "lon": 32.5388107, "tags": {"amenity": "restaurant", "name": "\u062d\u064a \u0627\u0644\u0646\u0635\u0631"}}, {"type": "node", "id": 7088889501, "lat": 15.493063, "lon": 32.5511856, "tags": {"amenity": "restaurant", "name": "\u0645\u0637\u0639\u0645 \u0633\u064a\u0644\u0627"}}, {"type": "node", "id": 7095724191, "lat": 15.4915628, "lon": 32.5428123, "tags": {"amenity": "restaurant", "name": "\u0645\u0637\u0639\u0645 \u062d\u0648\u0627\u0621"}}, {"type": "node", "id": 8018242007, "lat": 15.480722, "lon": 32.4875716, "tags": {"amenity": "restaurant", "name": "\u0627\u0644\u0634\u0644\u0628\u0648\u062a \u0644\u0644\u0645\u062e\u0628\u0627\u0632\u0629 \u0648\u0627\u0644\u0633\u0643\u0633\u0627\u0646\u064a\u0629"}}, {"type": "node", "id": 8018294518, "lat": 15.4802309, "lon": 32.4843537, "tags": {"amenity": "cafe", "name": "\u0645\u0643\u062a\u0628\u0629 \u0627\u0644\u062a\u0633\u0627\u0645\u062d \u0644\u0644\u0642\u0631\u0627\u0621\u0629 \u0627\u0644\u0639\u0627\u0645\u0629"}}, {"type": "node", "id": 8021296446, "lat": 15.4764923, "lon": 32.4823384, "tags": {"amenity": "restaurant", "name": "\u0634\u0648\u0627\u064a\u0629 \u0648\u0645\u0644\u062d\u0645\u0629 \u0644\u0624\u064a \u0627\u0645\u062f\u0631\u0645\u0627\u0646"}}, {"type": "node", "id": 8021312554, "lat": 15.4773181, "lon": 32.4822662, "tags": {"amenity": "restaurant", "name": "\u062d\u0644\u0648\u0627\u0646\u064a \u0635\u062f\u0642\u064a"}}, {"type": "node", "id": 8021645593, "lat": 15.4812922, "lon": 32.4932233, "tags": {"amenity": "cafe", "name": "\u0628\u0627\u0646\u0634\u064a \u0643\u0627\u0641\u064a\u0629"}}, {"type": "node", "id": 8025750020, "lat": 15.4706716, "lon": 32.4742577, "tags": {"amenity": "restaurant", "name": "\u0645\u0637\u0639\u0645 \u0645\u0630\u0627\u0642 \u0627\u0644\u0634\u064a\u0648\u062e \u0644\u0644\u0645\u0646\u062f\u064a"}}, {"type": "node", "id": 8027724523, "lat": 15.4769346, "lon": 32.489757, "tags": {"amenity": "restaurant", "name": "\u0645\u0637\u0639\u0645 \u0627\u0644\u0635\u0627\u062f\u0642 \u0627\u0644\u0645\u063a\u0631\u0628\u064a"}}, {"type": "node", "id": 8027806956, "lat": 15.4708775, "lon": 32.4924864, "tags": {"amenity": "cafe", "name": "\u0646\u0627\u062f\u064a \u0645\u062c\u062f\u064a \u0644\u0644\u0645\u0634\u0627\u0647\u062f\u0629"}}, {"type": "node", "id": 8035429084, "lat": 15.4649894, "lon": 32.4958258, "tags": {"amenity": "restaurant", "name": "\u0639\u0645\u0631 \u0628\u062f\u0631\u0627\u0646 \u0644\u0644\u062d\u0644\u0648\u064a\u0627\u062a"}}, {"type": "node", "id": 8035637126, "lat": 15.4599993, "lon": 32.4965447, "tags": {"amenity": "restaurant", "name": "\u0634\u064a\u0643\u0648 \u0628\u064a\u062a\u0632\u0627"}}, {"type": "node", "id": 8035802376, "lat": 15.4597217, "lon": 32.5108618, "tags": {"amenity": "restaurant", "name": "\u0643\u0627\u0641\u062a\u0631\u064a\u0627 \u0645\u0635\u0639\u0628 \u0628\u0646 \u0639\u0645\u064a\u0631"}}, {"type": "node", "id": 8043818654, "lat": 15.4825786, "lon": 32.55636, "tags": {"amenity": "restaurant", "name": "\u0645\u062e\u0628\u0632 \u0627\u0644\u0646\u0647\u0636\u0629 \u0627\u0644\u0628\u0644\u062f\u064a"}}, {"type": "node", "id": 8043887291, "lat": 15.4761011, "lon": 32.5589178, "tags": {"amenity": "restaurant", "name": "\u0645\u062e\u0628\u0632 \u0627\u0644\u062a\u0643\u0627\u0645\u0644"}}, {"type": "node", "id": 8044048735, "lat": 15.4844421, "lon": 32.5662582, "tags": {"amenity": "cafe", "name": "\u0646\u0627\u062f\u064a \u0627\u0644\u062c\u0648\u0643\u0631 \u0627\u0644\u0627\u0635\u0644\u064a"}}, {"type": "node", "id": 8044061136, "lat": 15.4841602, "lon": 32.5661802, "tags": {"amenity": "cafe", "name": "\u0646\u0627\u062f\u064a \u062d\u0645\u0627\u062f\u0629"}}]}