{"version": 0.6, "generator": "Overpass API 0.7.62.7 375dc00a", "osm3s": {"timestamp_osm_base": "2025-06-14T13:55:30Z", "copyright": "The data included in this document is from www.openstreetmap.org. The data is made available under ODbL."}, "elements": [{"type": "node", "id": 778889461, "lat": 41.64088, "lon": 14.5830185}, {"type": "node", "id": 778889464, "lat": 41.6404712, "lon": 14.5824725}, {"type": "node", "id": 778889466, "lat": 41.6407946, "lon": 14.5821762}, {"type": "node", "id": 778889468, "lat": 41.6413222, "lon": 14.5826041}, {"type": "node", "id": 778889470, "lat": 41.6408971, "lon": 14.5822814}, {"type": "node", "id": 778889476, "lat": 41.6409739, "lon": 14.5821775}, {"type": "node", "id": 778889478, "lat": 41.6410877, "lon": 14.582963}, {"type": "node", "id": 876232969, "lat": 41.6963091, "lon": 14.7026879, "tags": {"addr:city": "Petrella Tifernina", "addr:housenumber": "1", "addr:postcode": "86024", "addr:street": "Piazzale Donatori di Sangue", "amenity": "cafe", "contact:facebook": "https://www.facebook.com/373401546150463", "name": "Bar Capocefalo", "outdoor_seating": "yes", "phone": "+39 0874 745430"}}, {"type": "node", "id": 1139828992, "lat": 41.5342842, "lon": 14.8842729, "tags": {"amenity": "restaurant", "cuisine": "regional", "operator": "Iacovelli, Antonio", "phone": "+39 0874 719111", "phone:alt": "+39-0874-713331", "ref:vatin": "IT00739710705"}}, {"type": "node", "id": 1254053384, "lat": 41.522948, "lon": 14.5247332}, {"type": "node", "id": 1254053393, "lat": 41.5228429, "lon": 14.52538}, {"type": "node", "id": 1254053402, "lat": 41.5227733, "lon": 14.5247687}, {"type": "node", "id": 1254053616, "lat": 41.5229301, "lon": 14.5253623}, {"type": "node", "id": 1254064728, "lat": 41.5487035, "lon": 14.5305743}, {"type": "node", "id": 1254064730, "lat": 41.5486575, "lon": 14.5303605}, {"type": "node", "id": 1254064743, "lat": 41.548422, "lon": 14.530451}, {"type": "node", "id": 1254064752, "lat": 41.5484681, "lon": 14.5306648}, {"type": "node", "id": 1371405976, "lat": 41.5020253, "lon": 14.6071018, "tags": {"amenity": "restaurant", "cuisine": "regional", "name": "Trattoria La Quercia"}}, {"type": "node", "id": 1428345734, "lat": 41.3791289, "lon": 14.4986906, "tags": {"amenity": "cafe"}}, {"type": "node", "id": 1904046037, "lat": 41.4882609, "lon": 14.4726741}, {"type": "node", "id": 1904046039, "lat": 41.4881515, "lon": 14.472709}, {"type": "node", "id": 2071973075, "lat": 41.4825956, "lon": 14.4727651, "tags": {"alt_name": "Cianitto", "amenity": "cafe", "internet_access": "no", "name": "Caf\u00e9 Piazza Roma Bistrot", "smoking": "no", "wheelchair": "no"}}, {"type": "node", "id": 2071988272, "lat": 41.4832709, "lon": 14.4716522, "tags": {"amenity": "cafe", "cuisine": "ice_cream", "internet_access": "no", "internet_access:fee": "no", "name": "Bar Scinocca", "smoking": "no", "source": "Bing, Local knowledge", "wheelchair": "no"}}, {"type": "node", "id": 2071988273, "lat": 41.4828818, "lon": 14.4725646, "tags": {"amenity": "cafe", "internet_access": "no", "name": "Gran Caff\u00e9 dello Sport", "smoking": "no", "wheelchair": "no"}}, {"type": "node", "id": 2071988274, "lat": 41.4828061, "lon": 14.4727222, "tags": {"amenity": "cafe", "cuisine": "coffee_shop", "internet_access": "no", "name": "Caff\u00e9 Dell\u2019Orologio", "smoking": "no", "wheelchair": "no"}}, {"type": "node", "id": 2071988275, "lat": 41.482261, "lon": 14.472024, "tags": {"addr:city": "Bojano", "amenity": "cafe", "cuisine": "ice_cream", "drive_through": "no", "internet_access": "wlan", "internet_access:fee": "no", "name": "Caff\u00e9 dei Pentri", "outdoor_seating": "yes", "smoking": "outside", "source": "Bing\u00f3, local knowledge ", "wheelchair": "no"}}, {"type": "node", "id": 2109340665, "lat": 41.5242327, "lon": 14.4649928, "tags": {"amenity": "cafe", "internet_access": "no", "smoking": "no", "wheelchair": "yes"}}, {"type": "node", "id": 2228809195, "lat": 41.282365, "lon": 14.5820623, "tags": {"amenity": "restaurant", "name": "La Vecchia Quercia"}}, {"type": "node", "id": 2286485780, "lat": 41.7074082, "lon": 14.9250032}, {"type": "node", "id": 2286485781, "lat": 41.7074785, "lon": 14.9248255}, {"type": "node", "id": 2286485783, "lat": 41.7075188, "lon": 14.9250817}, {"type": "node", "id": 2286485784, "lat": 41.707589, "lon": 14.9249039}, {"type": "node", "id": 2317042411, "lat": 41.4827258, "lon": 14.4716103, "tags": {"amenity": "cafe", "cuisine": "ice_cream", "internet_access": "no", "internet_access:fee": "no", "name": "Bar Centro", "smoking": "no", "source": "Bing, Local knowledge", "wheelchair": "yes"}}, {"type": "node", "id": 2317049447, "lat": 41.4766938, "lon": 14.4729048, "tags": {"addr:city": "Bojano", "addr:country": "IT", "addr:housenumber": "6", "addr:postcode": "86021", "addr:street": "Via San Giovanni", "amenity": "restaurant", "cuisine": "regional", "internet_access": "no", "internet_access:fee": "no", "name": "Borgo Antico", "phone": "+39 0874 773231", "smoking": "no", "wheelchair": "yes"}}, {"type": "node", "id": 2317049448, "lat": 41.4778131, "lon": 14.4728661, "tags": {"addr:city": "Bojano", "addr:country": "IT", "addr:housenumber": "19", "addr:postcode": "86021", "addr:street": "Via Portella", "amenity": "restaurant", "cuisine": "regional", "internet_access": "no", "internet_access:fee": "no", "name": "Risorta Locanda del Castello", "phone": "+39 0874 778623", "smoking": "no", "wheelchair": "yes"}}, {"type": "node", "id": 2317052014, "lat": 41.4880448, "lon": 14.4540284, "tags": {"addr:city": "Bojano", "addr:country": "IT", "addr:housenumber": "199", "addr:postcode": "86021", "addr:street": "Localita Limpilli", "amenity": "restaurant", "cuisine": "regional", "internet_access": "no", "internet_access:fee": "no", "name": "Trattoria Filomena", "phone": "+39 0874 773078", "smoking": "no", "wheelchair": "yes"}}, {"type": "node", "id": 2323432665, "lat": 41.4416749, "lon": 14.4414793}, {"type": "node", "id": 2323432667, "lat": 41.4416945, "lon": 14.4414404}, {"type": "node", "id": 2323432669, "lat": 41.4417235, "lon": 14.441523}, {"type": "node", "id": 2323432670, "lat": 41.4417284, "lon": 14.4413734}, {"type": "node", "id": 2323432671, "lat": 41.4417809, "lon": 14.4415602}, {"type": "node", "id": 2323432672, "lat": 41.441823, "lon": 14.4414606}, {"type": "node", "id": 2325423097, "lat": 41.4788567, "lon": 14.4858259, "tags": {"addr:city": "Bojano", "addr:country": "IT", "addr:housenumber": "19", "addr:postcode": "86021", "addr:street": "Localit\u00e0 Sant'Antonio Abate", "amenity": "restaurant", "cuisine": "regional", "email": "info@pizzeriadatonino.it", "internet_access": "no", "internet_access:fee": "no", "name": "Ristorante Pizzeria Da Tonino", "phone": "+39 0874 773031", "smoking": "no", "website": "http://www.pizzeriadatonino.it", "wheelchair": "yes"}}, {"type": "node", "id": 2408809904, "lat": 41.5947774, "lon": 14.4576613}, {"type": "node", "id": 2408809905, "lat": 41.5948418, "lon": 14.4578}, {"type": "node", "id": 2408809906, "lat": 41.5948929, "lon": 14.4575506}, {"type": "node", "id": 2408809907, "lat": 41.5949565, "lon": 14.4576815}, {"type": "node", "id": 2415933583, "lat": 41.7026272, "lon": 14.4647747, "tags": {"amenity": "restaurant", "cuisine": "italian", "email": "info@calicerosso.it", "fax": "+39 0874 870994", "name": "Calice Rosso", "opening_hours": "Mo-Su 12:00-14:30,19:30-23:00", "phone": "+39 0874 870993", "website": "https://www.calicerosso.it/"}}, {"type": "node", "id": 2430190257, "lat": 41.5088891, "lon": 14.5180759, "tags": {"amenity": "restaurant", "cuisine": "pizza", "internet_access": "no", "internet_access:fee": "no", "name": "Le Colonne", "phone": "+39 0874 786394", "smoking": "no"}}, {"type": "node", "id": 2430217114, "lat": 41.5074769, "lon": 14.5048794, "tags": {"amenity": "restaurant", "cuisine": "italian", "internet_access": "no", "internet_access:fee": "no", "name": "Il colle dei Duca", "phone": "+39 0874 786262", "smoking": "no"}}, {"type": "node", "id": 2478056615, "lat": 41.4881641, "lon": 14.4727266}, {"type": "node", "id": 2478056617, "lat": 41.4881906, "lon": 14.4727637}, {"type": "node", "id": 2478056621, "lat": 41.4882218, "lon": 14.4726194}, {"type": "node", "id": 2523447035, "lat": 41.522674, "lon": 14.5246183}, {"type": "node", "id": 2523447036, "lat": 41.5226959, "lon": 14.5248106}, {"type": "node", "id": 2523447043, "lat": 41.5227133, "lon": 14.5249631}, {"type": "node", "id": 2523447045, "lat": 41.522763, "lon": 14.5246789}, {"type": "node", "id": 2523447047, "lat": 41.5227482, "lon": 14.52527}, {"type": "node", "id": 2523447049, "lat": 41.5227762, "lon": 14.5247943}, {"type": "node", "id": 2523447051, "lat": 41.5227935, "lon": 14.5249468}, {"type": "node", "id": 2523447053, "lat": 41.5227828, "lon": 14.5251363}, {"type": "node", "id": 2523447055, "lat": 41.5228144, "lon": 14.5251299}, {"type": "node", "id": 2523447056, "lat": 41.5227969, "lon": 14.5252601}, {"type": "node", "id": 2523447065, "lat": 41.5228954, "lon": 14.524522}, {"type": "node", "id": 2523447067, "lat": 41.5229173, "lon": 14.5246118}, {"type": "node", "id": 2523447068, "lat": 41.5229592, "lon": 14.5256145}, {"type": "node", "id": 2523447072, "lat": 41.5230504, "lon": 14.5255991}, {"type": "node", "id": 2668375989, "lat": 41.6194488, "lon": 14.699291}, {"type": "node", "id": 2668375993, "lat": 41.6194863, "lon": 14.699355}, {"type": "node", "id": 2668375994, "lat": 41.6194971, "lon": 14.6992404}, {"type": "node", "id": 2668375999, "lat": 41.6195657, "lon": 14.6994903}, {"type": "node", "id": 2668376004, "lat": 41.6195853, "lon": 14.6995237}, {"type": "node", "id": 2668376008, "lat": 41.6196336, "lon": 14.6994731}, {"type": "node", "id": 2672544424, "lat": 41.560286, "lon": 14.6569971, "tags": {"addr:city": "Campobasso", "addr:country": "IT", "addr:housenumber": "4", "addr:postcode": "86100", "addr:street": "Via Torino", "amenity": "restaurant", "name": "Aciniello", "phone": "+39 0874 94001"}}, {"type": "node", "id": 2672544454, "lat": 41.561351, "lon": 14.6601722, "tags": {"addr:city": "Campobasso", "addr:country": "IT", "addr:housenumber": "23", "addr:postcode": "86100", "addr:street": "Via Isernia", "amenity": "restaurant", "name": "Da Mario", "phone": "+39 0874 311422"}}, {"type": "node", "id": 2672544469, "lat": 41.5578077, "lon": 14.657694, "tags": {"addr:city": "Campobasso", "addr:country": "IT", "addr:housenumber": "92", "addr:postcode": "86100", "addr:street": "Via Roma", "amenity": "restaurant", "name": "I Peccati di Bacco", "phone": "+39 339 4050020"}}, {"type": "node", "id": 2672544472, "lat": 41.5616403, "lon": 14.6607913, "tags": {"addr:city": "Campobasso", "addr:country": "IT", "addr:housenumber": "7", "addr:postcode": "86100", "addr:street": "Via Larino", "amenity": "restaurant", "name": "La Grotta Da Concetta", "phone": "+39 0874 311378"}}, {"type": "node", "id": 2672544476, "lat": 41.5610843, "lon": 14.658766, "tags": {"addr:city": "Campobasso", "addr:country": "IT", "addr:housenumber": "16", "addr:postcode": "86100", "addr:street": "Via Sant'Antonio Abate", "amenity": "restaurant", "name": "Miseria e Nobilt\u00e0", "phone": "+39 0874 94268"}}, {"type": "node", "id": 2672544478, "lat": 41.5608229, "lon": 14.6582909, "tags": {"addr:city": "Campobasso", "addr:country": "IT", "addr:housenumber": "33", "addr:postcode": "86100", "addr:street": "Via Sant'Antonio Abate", "amenity": "restaurant", "name": "Monticelli", "phone": "+39 0874 418460"}}, {"type": "node", "id": 2672544481, "lat": 41.558444, "lon": 14.6582548, "tags": {"addr:city": "Campobasso", "addr:country": "IT", "addr:housenumber": "9", "addr:postcode": "86100", "addr:street": "Via Francesco de Attellis", "amenity": "restaurant", "name": "Osteria Ventotto", "phone": "+39 333 9427699"}}, {"type": "node", "id": 2672552143, "lat": 41.5611997, "lon": 14.6377958}, {"type": "node", "id": 2672552167, "lat": 41.5612136, "lon": 14.6378947}, {"type": "node", "id": 2672552698, "lat": 41.5614364, "lon": 14.6377364}, {"type": "node", "id": 2672552729, "lat": 41.5614503, "lon": 14.6378352}, {"type": "node", "id": 2672558279, "lat": 41.5677938, "lon": 14.6558618}, {"type": "node", "id": 2672558295, "lat": 41.5678682, "lon": 14.6560552}, {"type": "node", "id": 2672558305, "lat": 41.5679627, "lon": 14.6556752}, {"type": "node", "id": 2672558308, "lat": 41.5679945, "lon": 14.6557579}, {"type": "node", "id": 2672558315, "lat": 41.5680181, "lon": 14.6558192}, {"type": "node", "id": 2672558318, "lat": 41.5680356, "lon": 14.6558648}, {"type": "node", "id": 2672558323, "lat": 41.5680586, "lon": 14.6559244}, {"type": "node", "id": 2672561639, "lat": 41.5953218, "lon": 14.6717445}, {"type": "node", "id": 2672561649, "lat": 41.5954788, "lon": 14.671721}, {"type": "node", "id": 2696723196, "lat": 41.4002738, "lon": 14.4656384}, {"type": "node", "id": 2696723197, "lat": 41.4001924, "lon": 14.4658571}, {"type": "node", "id": 2696723198, "lat": 41.4004097, "lon": 14.4657149}, {"type": "node", "id": 2696723199, "lat": 41.400451, "lon": 14.4654988}, {"type": "node", "id": 2696723200, "lat": 41.4004591, "lon": 14.4658424}, {"type": "node", "id": 2696723201, "lat": 41.4005598, "lon": 14.465778}, {"type": "node", "id": 2711532631, "lat": 41.5618635, "lon": 14.6593477, "tags": {"addr:city": "Campobasso", "addr:country": "IT", "addr:housenumber": "1", "addr:postcode": "86100", "addr:street": "Vico Persichillo", "amenity": "restaurant", "cuisine": "italian", "name": "Il Potest\u00e0", "phone": "+39 0874 311101", "website": "https://www.ristoranteilpotesta.com/"}}, {"type": "node", "id": 2711532632, "lat": 41.5609272, "lon": 14.6591202, "tags": {"addr:city": "Campobasso", "addr:country": "IT", "addr:housenumber": "26", "addr:postcode": "86100", "addr:street": "Via Fondaco della Farina", "amenity": "restaurant", "name": "L'Approdo", "phone": "+39 0874 979043"}}, {"type": "node", "id": 2738127753, "lat": 41.4932708, "lon": 14.6213403}, {"type": "node", "id": 2738127762, "lat": 41.4932949, "lon": 14.6214069}, {"type": "node", "id": 2738127770, "lat": 41.4933787, "lon": 14.6216381}, {"type": "node", "id": 2738127776, "lat": 41.4933893, "lon": 14.6216673}, {"type": "node", "id": 2738127783, "lat": 41.4934212, "lon": 14.6212431}, {"type": "node", "id": 2738127796, "lat": 41.4935397, "lon": 14.6215701}, {"type": "node", "id": 2752879530, "lat": 41.5858258, "lon": 14.5850314, "tags": {"amenity": "restaurant", "name": "La Taverna del Duca", "phone": "+39 0874 38112", "website": "https://www.tavernadelduca.net/"}}, {"type": "node", "id": 2752879531, "lat": 41.5839268, "lon": 14.5851769, "tags": {"amenity": "restaurant", "name": "Olmicello", "phone": "+39 0874 38285", "website": "https://www.ristoranteolmicello.com/"}}, {"type": "node", "id": 2768533120, "lat": 41.6381825, "lon": 14.6028927}, {"type": "node", "id": 2768533123, "lat": 41.6381855, "lon": 14.6027983}, {"type": "node", "id": 2768533125, "lat": 41.6382046, "lon": 14.6028071}, {"type": "node", "id": 2768533127, "lat": 41.6382288, "lon": 14.6029141}, {"type": "node", "id": 2768533129, "lat": 41.638252, "lon": 14.602541}, {"type": "node", "id": 2768533130, "lat": 41.6382701, "lon": 14.6029332}, {"type": "node", "id": 2768533131, "lat": 41.638273, "lon": 14.602784}, {"type": "node", "id": 2768533132, "lat": 41.6382757, "lon": 14.6026573}, {"type": "node", "id": 2768533133, "lat": 41.6383, "lon": 14.6025633}, {"type": "node", "id": 2768533134, "lat": 41.6383025, "lon": 14.6026698}, {"type": "node", "id": 2768533135, "lat": 41.6383048, "lon": 14.6027987}, {"type": "node", "id": 2768533137, "lat": 41.647797, "lon": 14.636553}, {"type": "node", "id": 2768533138, "lat": 41.6478781, "lon": 14.6367511}, {"type": "node", "id": 2768533139, "lat": 41.6480058, "lon": 14.6365692}, {"type": "node", "id": 2768533140, "lat": 41.6480163, "lon": 14.6363924}, {"type": "node", "id": 2768533141, "lat": 41.6480337, "lon": 14.6366372}, {"type": "node", "id": 2768533142, "lat": 41.6480696, "lon": 14.6365225}, {"type": "node", "id": 2768533585, "lat": 41.7161302, "lon": 14.6823892}, {"type": "node", "id": 2768533588, "lat": 41.7161512, "lon": 14.6824677}, {"type": "node", "id": 2768533590, "lat": 41.7161587, "lon": 14.682206}, {"type": "node", "id": 2768533603, "lat": 41.7162459, "lon": 14.6828745}, {"type": "node", "id": 2768533605, "lat": 41.7162609, "lon": 14.6821516}, {"type": "node", "id": 2768533612, "lat": 41.7163286, "lon": 14.6824456}, {"type": "node", "id": 2768533614, "lat": 41.7163601, "lon": 14.6825}, {"type": "node", "id": 2768533615, "lat": 41.7163616, "lon": 14.6825724}, {"type": "node", "id": 2768533616, "lat": 41.7163677, "lon": 14.6824698}, {"type": "node", "id": 2768533617, "lat": 41.7163737, "lon": 14.68221}, {"type": "node", "id": 2768533619, "lat": 41.7164052, "lon": 14.682353}, {"type": "node", "id": 2768533621, "lat": 41.7164112, "lon": 14.6826349}, {"type": "node", "id": 2768533622, "lat": 41.7164263, "lon": 14.6825543}, {"type": "node", "id": 2768533623, "lat": 41.7164458, "lon": 14.6828201}, {"type": "node", "id": 2778540581, "lat": 41.4715264, "lon": 14.560264}, {"type": "node", "id": 2778540587, "lat": 41.4715586, "lon": 14.5598304}, {"type": "node", "id": 2778540606, "lat": 41.4716651, "lon": 14.5602823}, {"type": "node", "id": 2778540610, "lat": 41.4716827, "lon": 14.5600445}, {"type": "node", "id": 2778540633, "lat": 41.471785, "lon": 14.560058}, {"type": "node", "id": 2778540635, "lat": 41.4717995, "lon": 14.5598623}, {"type": "node", "id": 2778541053, "lat": 41.4778008, "lon": 14.5768976}, {"type": "node", "id": 2778541055, "lat": 41.4778234, "lon": 14.5770283}, {"type": "node", "id": 2778541057, "lat": 41.4778656, "lon": 14.5770152}, {"type": "node", "id": 2778541059, "lat": 41.4778812, "lon": 14.5771054}, {"type": "node", "id": 2778541063, "lat": 41.4780076, "lon": 14.5768338}, {"type": "node", "id": 2778541066, "lat": 41.4780106, "lon": 14.576851}, {"type": "node", "id": 2778541070, "lat": 41.4781597, "lon": 14.576805}, {"type": "node", "id": 2778541072, "lat": 41.4781702, "lon": 14.5768658}, {"type": "node", "id": 2778541085, "lat": 41.4782815, "lon": 14.5768315}, {"type": "node", "id": 2778541090, "lat": 41.4783063, "lon": 14.5769742}, {"type": "node", "id": 2809852210, "lat": 41.3320154, "lon": 14.6820941}, {"type": "node", "id": 2809852211, "lat": 41.3320823, "lon": 14.6819818}, {"type": "node", "id": 2809852216, "lat": 41.3321937, "lon": 14.6822825}, {"type": "node", "id": 2809852218, "lat": 41.3322606, "lon": 14.6821701}, {"type": "node", "id": 2814504016, "lat": 41.4642683, "lon": 14.653118}, {"type": "node", "id": 2814504018, "lat": 41.4642957, "lon": 14.6529834}, {"type": "node", "id": 2814504019, "lat": 41.4643049, "lon": 14.6531339}, {"type": "node", "id": 2814504020, "lat": 41.4643077, "lon": 14.6531473}, {"type": "node", "id": 2814504021, "lat": 41.464326, "lon": 14.6529981}, {"type": "node", "id": 2814504023, "lat": 41.4643351, "lon": 14.6532158}, {"type": "node", "id": 2814504025, "lat": 41.4643443, "lon": 14.6531669}, {"type": "node", "id": 2814504026, "lat": 41.4643535, "lon": 14.6528232}, {"type": "node", "id": 2814504027, "lat": 41.4643608, "lon": 14.6532843}, {"type": "node", "id": 2814504028, "lat": 41.4643626, "lon": 14.6528294}, {"type": "node", "id": 2814504029, "lat": 41.464391, "lon": 14.65263}, {"type": "node", "id": 2814504031, "lat": 41.4643965, "lon": 14.6532146}, {"type": "node", "id": 2814504032, "lat": 41.4644002, "lon": 14.6532696}, {"type": "node", "id": 2814504037, "lat": 41.4644634, "lon": 14.6527572}, {"type": "node", "id": 2814504038, "lat": 41.4644818, "lon": 14.6526594}, {"type": "node", "id": 2814504039, "lat": 41.4645166, "lon": 14.652778}, {"type": "node", "id": 2832761840, "lat": 41.4733918, "lon": 14.7085889}, {"type": "node", "id": 2832761856, "lat": 41.4735003, "lon": 14.7083348}, {"type": "node", "id": 2832761864, "lat": 41.4735771, "lon": 14.7087298}, {"type": "node", "id": 2832761881, "lat": 41.4736856, "lon": 14.7084756}, {"type": "node", "id": 2838668371, "lat": 41.5924511, "lon": 14.5156984}, {"type": "node", "id": 2838668374, "lat": 41.5924859, "lon": 14.5158382}, {"type": "node", "id": 2838668376, "lat": 41.5925344, "lon": 14.5157106}, {"type": "node", "id": 2838668377, "lat": 41.5925374, "lon": 14.5154919}, {"type": "node", "id": 2838668378, "lat": 41.5925616, "lon": 14.5157916}, {"type": "node", "id": 2838668379, "lat": 41.5925616, "lon": 14.5158074}, {"type": "node", "id": 2838668380, "lat": 41.5925843, "lon": 14.5155951}, {"type": "node", "id": 2838668381, "lat": 41.5925874, "lon": 14.5158074}, {"type": "node", "id": 2838668382, "lat": 41.5926162, "lon": 14.5158422}, {"type": "node", "id": 2838668384, "lat": 41.5926555, "lon": 14.515901}, {"type": "node", "id": 2838668389, "lat": 41.5926783, "lon": 14.5156519}, {"type": "node", "id": 2838668391, "lat": 41.5926904, "lon": 14.5156944}, {"type": "node", "id": 2838668393, "lat": 41.5926979, "lon": 14.5155992}, {"type": "node", "id": 2838668396, "lat": 41.5927479, "lon": 14.5158017}, {"type": "node", "id": 2843048221, "lat": 41.4018985, "lon": 14.5630406}, {"type": "node", "id": 2843048226, "lat": 41.4019655, "lon": 14.5631975}, {"type": "node", "id": 2843048227, "lat": 41.4019658, "lon": 14.5629895}, {"type": "node", "id": 2843048230, "lat": 41.4020328, "lon": 14.5631465}, {"type": "node", "id": 2856939979, "lat": 41.5110867, "lon": 14.8240319}, {"type": "node", "id": 2856939992, "lat": 41.5112715, "lon": 14.8238031}, {"type": "node", "id": 2856939993, "lat": 41.5112716, "lon": 14.8242982}, {"type": "node", "id": 2856939999, "lat": 41.5113265, "lon": 14.8238823}, {"type": "node", "id": 2856940202, "lat": 41.511349, "lon": 14.8238544}, {"type": "node", "id": 2856940205, "lat": 41.5114054, "lon": 14.8239356}, {"type": "node", "id": 2856940209, "lat": 41.5114612, "lon": 14.8238665}, {"type": "node", "id": 2856940213, "lat": 41.5115348, "lon": 14.8239725}, {"type": "node", "id": 2902602444, "lat": 41.4829908, "lon": 14.4723434, "tags": {"amenity": "restaurant", "cuisine": "italian", "name": "Every day"}}, {"type": "node", "id": 2959019835, "lat": 41.5479229, "lon": 14.6967567}, {"type": "node", "id": 2959019836, "lat": 41.5479803, "lon": 14.6965782}, {"type": "node", "id": 2959019838, "lat": 41.5480321, "lon": 14.6968194}, {"type": "node", "id": 2959019840, "lat": 41.5480895, "lon": 14.6966409}, {"type": "node", "id": 2960300795, "lat": 41.5977338, "lon": 14.6456062}, {"type": "node", "id": 2960300802, "lat": 41.5979932, "lon": 14.6450372}, {"type": "node", "id": 2960300805, "lat": 41.5979415, "lon": 14.6458504}, {"type": "node", "id": 2960300808, "lat": 41.5982323, "lon": 14.6457938}, {"type": "node", "id": 2960300811, "lat": 41.5983074, "lon": 14.6452454}, {"type": "node", "id": 2960301861, "lat": 41.6006999, "lon": 14.6445682}, {"type": "node", "id": 2960301865, "lat": 41.6008475, "lon": 14.644406}, {"type": "node", "id": 2960301866, "lat": 41.6009047, "lon": 14.6449015}, {"type": "node", "id": 2960301868, "lat": 41.6010523, "lon": 14.6447394}, {"type": "node", "id": 2981725288, "lat": 41.5439171, "lon": 14.635714}, {"type": "node", "id": 2981725289, "lat": 41.5439232, "lon": 14.6356689}, {"type": "node", "id": 2981725290, "lat": 41.5439246, "lon": 14.6357587}, {"type": "node", "id": 2981725291, "lat": 41.5439418, "lon": 14.6356305}, {"type": "node", "id": 2981725292, "lat": 41.5439443, "lon": 14.6357961}, {"type": "node", "id": 2981725293, "lat": 41.5439653, "lon": 14.6358451}, {"type": "node", "id": 2981725294, "lat": 41.5439701, "lon": 14.6356046}, {"type": "node", "id": 2981725295, "lat": 41.5439734, "lon": 14.6358204}, {"type": "node", "id": 2981725296, "lat": 41.5440036, "lon": 14.6355954}, {"type": "node", "id": 2981725297, "lat": 41.5440373, "lon": 14.6356041}, {"type": "node", "id": 2981725298, "lat": 41.5440513, "lon": 14.6355623}, {"type": "node", "id": 2981725299, "lat": 41.5440821, "lon": 14.6359147}, {"type": "node", "id": 2981725300, "lat": 41.5441, "lon": 14.6355914}, {"type": "node", "id": 2981725301, "lat": 41.5441079, "lon": 14.6355677}, {"type": "node", "id": 2981725302, "lat": 41.544183, "lon": 14.6356124}, {"type": "node", "id": 2981726205, "lat": 41.5534172, "lon": 14.6574195}, {"type": "node", "id": 2981726215, "lat": 41.553448, "lon": 14.657676}, {"type": "node", "id": 2981726218, "lat": 41.5534585, "lon": 14.6577957}, {"type": "node", "id": 2981726221, "lat": 41.5534688, "lon": 14.6574091}, {"type": "node", "id": 2981726226, "lat": 41.5535018, "lon": 14.6577946}, {"type": "node", "id": 2981726233, "lat": 41.5535008, "lon": 14.6574213}, {"type": "node", "id": 2981726239, "lat": 41.5535386, "lon": 14.6574686}, {"type": "node", "id": 2981726244, "lat": 41.5535738, "lon": 14.6577928}, {"type": "node", "id": 2981726245, "lat": 41.5535757, "lon": 14.6577454}, {"type": "node", "id": 2981726266, "lat": 41.5536094, "lon": 14.6577373}, {"type": "node", "id": 3046282841, "lat": 41.5228962, "lon": 14.5253692}, {"type": "node", "id": 3046282846, "lat": 41.5229427, "lon": 14.5254715}, {"type": "node", "id": 3046282849, "lat": 41.5230191, "lon": 14.525335}, {"type": "node", "id": 3046282850, "lat": 41.5230323, "lon": 14.5254464}, {"type": "node", "id": 3067121268, "lat": 41.4173314, "lon": 14.6566867}, {"type": "node", "id": 3067121269, "lat": 41.4173478, "lon": 14.6565894}, {"type": "node", "id": 3067121270, "lat": 41.4174594, "lon": 14.6565192}, {"type": "node", "id": 3067121271, "lat": 41.4174833, "lon": 14.6566298}, {"type": "node", "id": 3067121272, "lat": 41.4174875, "lon": 14.6563515}, {"type": "node", "id": 3067121273, "lat": 41.4174998, "lon": 14.6565313}, {"type": "node", "id": 3067121274, "lat": 41.4175823, "lon": 14.6566014}, {"type": "node", "id": 3067121275, "lat": 41.4176177, "lon": 14.6563903}, {"type": "node", "id": 3067121277, "lat": 41.4176986, "lon": 14.6566361}, {"type": "node", "id": 3067121278, "lat": 41.4177117, "lon": 14.6565579}, {"type": "node", "id": 3067121279, "lat": 41.417718, "lon": 14.656802}, {"type": "node", "id": 3067121280, "lat": 41.4177389, "lon": 14.6566773}, {"type": "node", "id": 3067121281, "lat": 41.4177567, "lon": 14.6565713}, {"type": "node", "id": 3076644689, "lat": 41.4829353, "lon": 14.8361607, "tags": {"amenity": "restaurant", "name": "Sine Qua Non"}}, {"type": "node", "id": 3084843883, "lat": 41.4384044, "lon": 14.8637596}, {"type": "node", "id": 3084843885, "lat": 41.4384777, "lon": 14.863946}, {"type": "node", "id": 3084843888, "lat": 41.4385925, "lon": 14.8636238}, {"type": "node", "id": 3084843890, "lat": 41.4386686, "lon": 14.8638113}, {"type": "node", "id": 3086125955, "lat": 41.4558755, "lon": 14.811454}, {"type": "node", "id": 3086125956, "lat": 41.4559279, "lon": 14.8112244}, {"type": "node", "id": 3086125957, "lat": 41.4559602, "lon": 14.8111999}, {"type": "node", "id": 3086125959, "lat": 41.4559853, "lon": 14.8111333}, {"type": "node", "id": 3086125963, "lat": 41.456034, "lon": 14.8110969}, {"type": "node", "id": 3086125964, "lat": 41.4560476, "lon": 14.8115289}, {"type": "node", "id": 3086125967, "lat": 41.4560889, "lon": 14.8113394}, {"type": "node", "id": 3086125968, "lat": 41.4560897, "lon": 14.8111033}, {"type": "node", "id": 3086125969, "lat": 41.4561326, "lon": 14.8112929}, {"type": "node", "id": 3086125970, "lat": 41.4561331, "lon": 14.8111503}, {"type": "node", "id": 3086125971, "lat": 41.4561493, "lon": 14.8112218}, {"type": "node", "id": 3087970220, "lat": 41.5506738, "lon": 14.6407164}, {"type": "node", "id": 3087972440, "lat": 41.5507354, "lon": 14.6405436}, {"type": "node", "id": 3087972441, "lat": 41.5507402, "lon": 14.6406292}, {"type": "node", "id": 3087972442, "lat": 41.5507451, "lon": 14.6406469}, {"type": "node", "id": 3087972444, "lat": 41.5507475, "lon": 14.6408633}, {"type": "node", "id": 3087972445, "lat": 41.5507572, "lon": 14.640613}, {"type": "node", "id": 3087972449, "lat": 41.550785, "lon": 14.6407018}, {"type": "node", "id": 3087972450, "lat": 41.5508236, "lon": 14.6405}, {"type": "node", "id": 3087972451, "lat": 41.5508273, "lon": 14.6407842}, {"type": "node", "id": 3087972452, "lat": 41.5508635, "lon": 14.6406566}, {"type": "node", "id": 3139191848, "lat": 41.4812287, "lon": 14.5842819}, {"type": "node", "id": 3139191852, "lat": 41.4813286, "lon": 14.5846456}, {"type": "node", "id": 3139191855, "lat": 41.4814048, "lon": 14.5841957}, {"type": "node", "id": 3139191857, "lat": 41.4815047, "lon": 14.5845593}, {"type": "node", "id": 3148017983, "lat": 41.414682, "lon": 14.6348913, "tags": {"addr:city": "Sepino", "addr:housenumber": "34", "addr:street": "SP50", "amenity": "restaurant", "cuisine": "regional", "name": "Da Mamma Roma"}}, {"type": "node", "id": 3186121931, "lat": 41.5185291, "lon": 14.6626613}, {"type": "node", "id": 3186121932, "lat": 41.5185333, "lon": 14.6622508}, {"type": "node", "id": 3186121939, "lat": 41.5186973, "lon": 14.6626643}, {"type": "node", "id": 3186121940, "lat": 41.5187015, "lon": 14.6622539}, {"type": "node", "id": 3206741900, "lat": 41.5159433, "lon": 14.6749097, "tags": {"addr:street": "Salita Chiesa", "amenity": "restaurant", "capacity": "100", "cuisine": "italian", "name": "Le Cantine del Duca", "smoking": "no"}}, {"type": "node", "id": 3206741902, "lat": 41.5170956, "lon": 14.6708133, "tags": {"amenity": "restaurant", "name": "Il Falco"}}, {"type": "node", "id": 3263830012, "lat": 41.5306209, "lon": 14.6710757, "tags": {"amenity": "restaurant", "name": "Loto Bistrot"}}, {"type": "node", "id": 3352882727, "lat": 41.5658351, "lon": 14.6553412}, {"type": "node", "id": 3352882728, "lat": 41.5658729, "lon": 14.6552606}, {"type": "node", "id": 3352882733, "lat": 41.5659092, "lon": 14.6552985}, {"type": "node", "id": 3352882734, "lat": 41.5659168, "lon": 14.6554288}, {"type": "node", "id": 3352882736, "lat": 41.5659342, "lon": 14.6553482}, {"type": "node", "id": 3352882740, "lat": 41.5659412, "lon": 14.6553312}, {"type": "node", "id": 3352882741, "lat": 41.5659477, "lon": 14.6553637}, {"type": "node", "id": 3352883915, "lat": 41.5678434, "lon": 14.6557572}, {"type": "node", "id": 3352883919, "lat": 41.5678649, "lon": 14.655813}, {"type": "node", "id": 3352883923, "lat": 41.5678954, "lon": 14.6557215}, {"type": "node", "id": 3352883927, "lat": 41.5679174, "lon": 14.6560214}, {"type": "node", "id": 3363711198, "lat": 41.4091037, "lon": 14.4418003}, {"type": "node", "id": 3363711202, "lat": 41.4091795, "lon": 14.4418686}, {"type": "node", "id": 3363711204, "lat": 41.4091925, "lon": 14.4416254}, {"type": "node", "id": 3363711206, "lat": 41.4092583, "lon": 14.4419397}, {"type": "node", "id": 3363711210, "lat": 41.4093471, "lon": 14.4417648}, {"type": "node", "id": 3372180677, "lat": 41.5637668, "lon": 14.6744834, "tags": {"addr:city": "Campobasso", "addr:country": "IT", "addr:housenumber": "59", "addr:postcode": "86100", "addr:street": "Via Piave", "amenity": "restaurant", "cuisine": "chinese", "name": "Il Cavalluccio Marino", "phone": "+39 0874 481422", "website": "https://www.ristoranteilcavallucciomarino.net/"}}, {"type": "node", "id": 3372180678, "lat": 41.5636153, "lon": 14.6718663, "tags": {"addr:city": "Campobasso", "addr:country": "IT", "addr:housenumber": "22", "addr:postcode": "86100", "addr:street": "Via Monte Santo", "amenity": "restaurant", "cuisine": "chinese", "name": "La Grande Muraglia", "phone": "+39 0874 484898"}}, {"type": "node", "id": 3389568688, "lat": 41.4693025, "lon": 14.5455721}, {"type": "node", "id": 3389568689, "lat": 41.4693935, "lon": 14.5453608}, {"type": "node", "id": 3389568690, "lat": 41.4693972, "lon": 14.5456447}, {"type": "node", "id": 3389568691, "lat": 41.4693844, "lon": 14.5456743}, {"type": "node", "id": 3389568692, "lat": 41.4695397, "lon": 14.5455427}, {"type": "node", "id": 3389579293, "lat": 41.4695233, "lon": 14.5457807}, {"type": "node", "id": 3389579294, "lat": 41.4695623, "lon": 14.5454901}, {"type": "node", "id": 3389579295, "lat": 41.4696043, "lon": 14.5455923}, {"type": "node", "id": 3499880974, "lat": 41.377244, "lon": 14.8406381, "tags": {"addr:city": "Colle Sannita", "addr:postcode": "82024", "addr:street": "Strada Statale 212 della Val Fortore", "amenity": "restaurant", "building": "yes", "cuisine": "regional;italian;biologic;organic;grill", "name": "Ca' Del Re", "phone": "+39 0824 931533", "website": "https://www.cadelre.com/"}}, {"type": "node", "id": 3526749576, "lat": 41.5662738, "lon": 14.669196}, {"type": "node", "id": 3526749578, "lat": 41.5662976, "lon": 14.6690036}, {"type": "node", "id": 3526749587, "lat": 41.5663774, "lon": 14.6692188}, {"type": "node", "id": 3526749588, "lat": 41.5664011, "lon": 14.6690264}, {"type": "node", "id": 3542194162, "lat": 41.5448793, "lon": 14.4202601}, {"type": "node", "id": 3542194176, "lat": 41.544974, "lon": 14.4202039}, {"type": "node", "id": 3542194178, "lat": 41.5449924, "lon": 14.4206}, {"type": "node", "id": 3542194187, "lat": 41.545087, "lon": 14.4205437}, {"type": "node", "id": 3542194310, "lat": 41.5519263, "lon": 14.4179707}, {"type": "node", "id": 3542194312, "lat": 41.5519366, "lon": 14.4176989}, {"type": "node", "id": 3542194316, "lat": 41.5519833, "lon": 14.4179746}, {"type": "node", "id": 3542194317, "lat": 41.5519841, "lon": 14.4179525}, {"type": "node", "id": 3542194318, "lat": 41.5520244, "lon": 14.4179552}, {"type": "node", "id": 3542194319, "lat": 41.5520339, "lon": 14.4177055}, {"type": "node", "id": 3542194332, "lat": 41.5589172, "lon": 14.4308017}, {"type": "node", "id": 3542194333, "lat": 41.5589905, "lon": 14.4310246}, {"type": "node", "id": 3542194334, "lat": 41.5590062, "lon": 14.4308874}, {"type": "node", "id": 3542194336, "lat": 41.5590231, "lon": 14.4306712}, {"type": "node", "id": 3542194338, "lat": 41.5590345, "lon": 14.4308707}, {"type": "node", "id": 3542194339, "lat": 41.5590415, "lon": 14.4309947}, {"type": "node", "id": 3542194340, "lat": 41.559042, "lon": 14.4307284}, {"type": "node", "id": 3542194341, "lat": 41.559069, "lon": 14.4309757}, {"type": "node", "id": 3542194342, "lat": 41.5590786, "lon": 14.4306386}, {"type": "node", "id": 3542194343, "lat": 41.5590909, "lon": 14.4309176}, {"type": "node", "id": 3542194344, "lat": 41.5591033, "lon": 14.4309555}, {"type": "node", "id": 3542194345, "lat": 41.5591575, "lon": 14.4308784}, {"type": "node", "id": 3592859688, "lat": 41.5669739, "lon": 14.6820311}, {"type": "node", "id": 3592859692, "lat": 41.5670143, "lon": 14.6822337}, {"type": "node", "id": 3592859795, "lat": 41.5670258, "lon": 14.6820126}, {"type": "node", "id": 3592859802, "lat": 41.5670663, "lon": 14.6822152}, {"type": "node", "id": 3664503665, "lat": 41.4386157, "lon": 14.863678}, {"type": "node", "id": 3721386499, "lat": 41.4827383, "lon": 14.4708231, "tags": {"amenity": "cafe", "internet_access": "no", "internet_access:fee": "no", "smoking": "no", "source": "Bing, Local knowledge", "wheelchair": "no"}}, {"type": "node", "id": 3721451996, "lat": 41.4828776, "lon": 14.469291, "tags": {"amenity": "cafe", "internet_access": "no", "internet_access:fee": "no", "smoking": "no", "source": "Bing, Local knowledge", "wheelchair": "no"}}, {"type": "node", "id": 3721656834, "lat": 41.4846817, "lon": 14.4693547, "tags": {"amenity": "cafe", "internet_access": "no", "internet_access:fee": "no", "name": "Bar Calderari", "smoking": "no", "source": "Bing, Local knowledge"}}, {"type": "node", "id": 3721661330, "lat": 41.488562, "lon": 14.4795942, "tags": {"amenity": "cafe", "internet_access": "no", "internet_access:fee": "no", "smoking": "no", "source": "Bing, Local knowledge"}}, {"type": "node", "id": 3824752688, "lat": 41.5963699, "lon": 14.6464737}, {"type": "node", "id": 3824752689, "lat": 41.5963881, "lon": 14.64619}, {"type": "node", "id": 3824752690, "lat": 41.5964285, "lon": 14.6464899}, {"type": "node", "id": 3824752694, "lat": 41.5965396, "lon": 14.6465737}, {"type": "node", "id": 3824752700, "lat": 41.5966569, "lon": 14.6467304}, {"type": "node", "id": 3824752702, "lat": 41.596667, "lon": 14.6454766}, {"type": "node", "id": 3824752707, "lat": 41.5967357, "lon": 14.6453712}, {"type": "node", "id": 3824752714, "lat": 41.5969135, "lon": 14.6471925}, {"type": "node", "id": 3824752746, "lat": 41.5977178, "lon": 14.6456414}, {"type": "node", "id": 3824752752, "lat": 41.5978936, "lon": 14.6465386}, {"type": "node", "id": 3871201047, "lat": 41.5686121, "lon": 14.6294891}, {"type": "node", "id": 3871201049, "lat": 41.5686424, "lon": 14.6292933}, {"type": "node", "id": 3871201052, "lat": 41.5687042, "lon": 14.6295146}, {"type": "node", "id": 3871201053, "lat": 41.5687345, "lon": 14.6293188}, {"type": "node", "id": 3880661047, "lat": 41.5376871, "lon": 14.7202893}, {"type": "node", "id": 3880661048, "lat": 41.5376951, "lon": 14.7201925}, {"type": "node", "id": 3880661051, "lat": 41.537722, "lon": 14.7202624}, {"type": "node", "id": 3880661052, "lat": 41.5377233, "lon": 14.720386}, {"type": "node", "id": 3880661055, "lat": 41.537797, "lon": 14.720343}, {"type": "node", "id": 3880661657, "lat": 41.5378104, "lon": 14.7203788}, {"type": "node", "id": 3880661665, "lat": 41.5378989, "lon": 14.720334}, {"type": "node", "id": 3880661667, "lat": 41.537915, "lon": 14.7202946}, {"type": "node", "id": 3880661669, "lat": 41.5379163, "lon": 14.7200797}, {"type": "node", "id": 3880661676, "lat": 41.5379432, "lon": 14.7201496}, {"type": "node", "id": 3880661803, "lat": 41.5454579, "lon": 14.7300639}, {"type": "node", "id": 3880661804, "lat": 41.5455024, "lon": 14.7299658}, {"type": "node", "id": 3880661807, "lat": 41.5455587, "lon": 14.7300115}, {"type": "node", "id": 3880661810, "lat": 41.5456043, "lon": 14.7299109}, {"type": "node", "id": 3880661811, "lat": 41.5456135, "lon": 14.7301899}, {"type": "node", "id": 3880661816, "lat": 41.5457036, "lon": 14.7299914}, {"type": "node", "id": 3889229135, "lat": 41.5952564, "lon": 14.6716349}, {"type": "node", "id": 3889229136, "lat": 41.5952659, "lon": 14.6716882}, {"type": "node", "id": 3889229137, "lat": 41.5952675, "lon": 14.6708672}, {"type": "node", "id": 3889229138, "lat": 41.5952819, "lon": 14.6717266}, {"type": "node", "id": 3889229150, "lat": 41.5956136, "lon": 14.6717393}, {"type": "node", "id": 3889229156, "lat": 41.5958066, "lon": 14.6707499}, {"type": "node", "id": 3889230258, "lat": 41.5958528, "lon": 14.6711934}, {"type": "node", "id": 3889230261, "lat": 41.5958688, "lon": 14.6717192}, {"type": "node", "id": 3889230263, "lat": 41.5959198, "lon": 14.6711849}, {"type": "node", "id": 3889230267, "lat": 41.5959465, "lon": 14.6717135}, {"type": "node", "id": 3889230271, "lat": 41.5959676, "lon": 14.6717116}, {"type": "node", "id": 3909648054, "lat": 41.5994851, "lon": 14.6575939, "tags": {"amenity": "restaurant", "cuisine": "italian", "name": "Cinecitt\u00e0"}}, {"type": "node", "id": 3936256440, "lat": 41.3853525, "lon": 14.7355096}, {"type": "node", "id": 3936256443, "lat": 41.3853674, "lon": 14.7356026}, {"type": "node", "id": 3936256446, "lat": 41.3853857, "lon": 14.7357422}, {"type": "node", "id": 3936256449, "lat": 41.3853924, "lon": 14.7355916}, {"type": "node", "id": 3936256450, "lat": 41.3854023, "lon": 14.7358021}, {"type": "node", "id": 3936256451, "lat": 41.3854107, "lon": 14.7357356}, {"type": "node", "id": 3936258359, "lat": 41.3854738, "lon": 14.7357267}, {"type": "node", "id": 3936258361, "lat": 41.3854821, "lon": 14.735771}, {"type": "node", "id": 3936258366, "lat": 41.3855303, "lon": 14.735432}, {"type": "node", "id": 3936258379, "lat": 41.3856035, "lon": 14.7354941}, {"type": "node", "id": 3936258384, "lat": 41.3856251, "lon": 14.7356735}, {"type": "node", "id": 3937896878, "lat": 41.388715, "lon": 14.7321703, "tags": {"amenity": "restaurant", "name": "Antica Osteria Mullino 1913"}}, {"type": "node", "id": 3988749325, "lat": 41.3637183, "lon": 14.6792771}, {"type": "node", "id": 3988749326, "lat": 41.3637248, "lon": 14.6791628}, {"type": "node", "id": 3988749327, "lat": 41.3637569, "lon": 14.67926}, {"type": "node", "id": 3988749328, "lat": 41.3637719, "lon": 14.6794486}, {"type": "node", "id": 3988749329, "lat": 41.3638255, "lon": 14.6790914}, {"type": "node", "id": 3988749330, "lat": 41.3638577, "lon": 14.6791743}, {"type": "node", "id": 3988749331, "lat": 41.363907, "lon": 14.6793143}, {"type": "node", "id": 3988749332, "lat": 41.363922, "lon": 14.6791286}, {"type": "node", "id": 3988749333, "lat": 41.363922, "lon": 14.67936}, {"type": "node", "id": 3988749334, "lat": 41.3639714, "lon": 14.6792686}, {"type": "node", "id": 4084672913, "lat": 41.4849341, "lon": 14.4718905, "tags": {"amenity": "cafe", "cuisine": "ice_cream", "internet_access": "no", "internet_access:fee": "no", "smoking": "no", "wheelchair": "limited"}}, {"type": "node", "id": 4241992108, "lat": 41.3246151, "lon": 15.0090856, "tags": {"addr:city": "Montefalcone di Val Fortore", "addr:housenumber": "27", "addr:postcode": "82025", "addr:street": "Via fontana", "amenity": "restaurant", "capacity": "50", "cuisine": "pizza", "delivery": "yes", "description": "Pub - Pizzeria - Cucina italiana", "email": "keynespizzapub@gmail.com", "name": "Keynes Pizza & Pub", "opening_hours": "17:30-21:00", "phone": "+39 0824969000", "takeaway": "yes", "website": "http://www.keynes.eu"}}, {"type": "node", "id": 4269484762, "lat": 41.5655832, "lon": 14.6492238, "tags": {"amenity": "restaurant", "cuisine": "italian", "name": "La Perla del Molise", "phone": "+39 0874 418844", "website": "http://ristorantelaperladelmolise.net"}}, {"type": "node", "id": 4269487350, "lat": 41.5616492, "lon": 14.6600316, "tags": {"addr:city": "Campobasso", "addr:country": "IT", "addr:housenumber": "32", "addr:postcode": "86100", "addr:street": "Via Larino", "amenity": "restaurant", "cuisine": "italian", "name": "Da Nonno Cecchino", "phone": "+39 0874 311778"}}, {"type": "node", "id": 4375510490, "lat": 41.5787934, "lon": 14.6752164, "tags": {"amenity": "restaurant", "cuisine": "italian", "name": "Moren's"}}, {"type": "node", "id": 4430641816, "lat": 41.6412459, "lon": 14.7650533, "tags": {"addr:city": "Campolieto", "addr:country": "IT", "addr:housenumber": "98", "addr:province": "CB", "addr:street": "Contrada Stazione", "amenity": "restaurant", "contact:mobile": "+39 338 3817490", "contact:phone": "+39 0874 52112", "name": "Il Tratturo", "opening_hours": "Mo-Su 07:00-23:00", "operator": "Testa Gianluca", "ref:vatin": "IT01506450707"}}, {"type": "node", "id": 4689589291, "lat": 41.5623712, "lon": 14.6721799, "tags": {"amenity": "cafe", "level": "0"}}, {"type": "node", "id": 4861144849, "lat": 41.5961187, "lon": 14.677027, "tags": {"addr:city": "Ripalimosani", "addr:housenumber": "9", "addr:postcode": "86025", "addr:street": "Contrada Taverna del Cortile", "amenity": "cafe", "cuisine": "regional", "name": "Bar Tabacchi Taverna del Cortile", "outdoor_seating": "yes"}}, {"type": "node", "id": 4883449770, "lat": 41.2675311, "lon": 14.4386781, "tags": {"addr:city": "Faicchio", "addr:postcode": "82030", "addr:street": "Via Cese dei Ceci", "amenity": "restaurant", "capacity": "30", "cuisine": "regional", "delivery": "no", "name": "Vecchia Masseria", "outdoor_seating": "yes", "phone": "+39-328-2505936", "takeaway": "no", "website": "https://www.lavecchiamasseria.it/"}}, {"type": "node", "id": 5000823810, "lat": 41.3827613, "lon": 14.9663222, "tags": {"addr:city": "Baselice", "addr:postcode": "82020", "addr:street": "Strada Provinciale 30", "amenity": "restaurant", "cuisine": "italian;regional;local", "email": "info@ilregiotratturo.it", "name": "Agriturismo Regio Tratturo", "phone": "+39 346 308 2652", "source": "https://www.ilregiotratturo.it/la-cucina/", "website": "https://www.ilregiotratturo.it/"}}, {"type": "node", "id": 5387841222, "lat": 41.3791774, "lon": 14.4985116}, {"type": "node", "id": 5387841223, "lat": 41.3794285, "lon": 14.4987829}, {"type": "node", "id": 5387841224, "lat": 41.3793299, "lon": 14.498945}, {"type": "node", "id": 5387841225, "lat": 41.3790788, "lon": 14.4986736}, {"type": "node", "id": 5580486295, "lat": 41.3488125, "lon": 14.5240917, "tags": {"amenity": "restaurant", "cuisine": "italian", "internet_access": "wlan", "name": "Lo Svago", "outdoor_seating": "yes"}}, {"type": "node", "id": 5723545685, "lat": 41.4850409, "lon": 14.4707892, "tags": {"amenity": "cafe", "cuisine": "italian", "delivery": "no", "name": "Giugiolandia", "outdoor_seating": "yes", "smoking": "no", "source": "Bing, Local knowledge", "takeaway": "no"}}, {"type": "node", "id": 6151959295, "lat": 41.4628402, "lon": 14.6294207}, {"type": "node", "id": 6151959296, "lat": 41.4627658, "lon": 14.6295817}, {"type": "node", "id": 6151959297, "lat": 41.4628888, "lon": 14.629683}, {"type": "node", "id": 6151959298, "lat": 41.4629632, "lon": 14.6295219}, {"type": "node", "id": 6236700958, "lat": 41.5535577, "lon": 14.657547}, {"type": "node", "id": 6236700963, "lat": 41.5535933, "lon": 14.6577412}, {"type": "node", "id": 6241523245, "lat": 41.4265746, "lon": 15.0011474}, {"type": "node", "id": 6241523246, "lat": 41.4265053, "lon": 15.0014401}, {"type": "node", "id": 6241523247, "lat": 41.4268564, "lon": 15.001551}, {"type": "node", "id": 6241523248, "lat": 41.4269118, "lon": 15.0012614}, {"type": "node", "id": 6253604008, "lat": 41.4836565, "lon": 14.4722322, "tags": {"amenity": "cafe", "internet_access": "no", "smoking": "no", "wheelchair": "no"}}, {"type": "node", "id": 6253608736, "lat": 41.4878669, "lon": 14.4743619, "tags": {"amenity": "cafe", "cuisine": "coffee_shop", "internet_access": "no", "smoking": "no", "wheelchair": "yes"}}, {"type": "node", "id": 6468486976, "lat": 41.5738376, "lon": 14.9371523}, {"type": "node", "id": 6468486977, "lat": 41.5734343, "lon": 14.9379449}, {"type": "node", "id": 6468486978, "lat": 41.5740423, "lon": 14.9384853}, {"type": "node", "id": 6468486979, "lat": 41.5743071, "lon": 14.9375117}, {"type": "node", "id": 6531708715, "lat": 41.3120099, "lon": 14.88054, "tags": {"amenity": "restaurant", "name": "Da Chiuppo", "opening_hours": "We-Mo 11:00-23:30"}}, {"type": "node", "id": 6531710887, "lat": 41.3127208, "lon": 14.8840598, "tags": {"amenity": "restaurant", "name": "Il Leone d'oro"}}, {"type": "node", "id": 6531714033, "lat": 41.3087181, "lon": 14.8753769, "tags": {"amenity": "restaurant", "name": "Trattoria U Magazzeo"}}, {"type": "node", "id": 6534219368, "lat": 41.60358, "lon": 14.9387433}, {"type": "node", "id": 6534219369, "lat": 41.6033926, "lon": 14.9385626}, {"type": "node", "id": 6534219370, "lat": 41.6034196, "lon": 14.9385057}, {"type": "node", "id": 6534219371, "lat": 41.6035965, "lon": 14.9386908}, {"type": "node", "id": 7119226602, "lat": 41.4823674, "lon": 14.4706699, "tags": {"amenity": "restaurant", "cuisine": "italian", "email": "info@hosterialuvicpdent.it", "internet_access": "no", "name": "Hosteria lu vic p\u2019 dent", "outdoor_seating": "yes", "phone": "+3908741865959", "reservation": "recommended", "smoking": "no", "source": "Bing, Local knowledge", "website": "https://www.hosterialuvicpdent.it/"}}, {"type": "node", "id": 7252213369, "lat": 41.4002879, "lon": 14.4656894}, {"type": "node", "id": 7252213370, "lat": 41.4001634, "lon": 14.4657777}, {"type": "node", "id": 7257925045, "lat": 41.4004613, "lon": 14.4655251}, {"type": "node", "id": 7257925047, "lat": 41.4005267, "lon": 14.4657992}, {"type": "node", "id": 7748181489, "lat": 41.3386947, "lon": 14.5074547}, {"type": "node", "id": 7748181490, "lat": 41.3387348, "lon": 14.5075514}, {"type": "node", "id": 7748181491, "lat": 41.3386323, "lon": 14.5076153}, {"type": "node", "id": 7748181492, "lat": 41.3385756, "lon": 14.5075252}, {"type": "node", "id": 7767803095, "lat": 41.3048568, "lon": 14.8565753}, {"type": "node", "id": 7767803096, "lat": 41.3047771, "lon": 14.856785}, {"type": "node", "id": 7767803097, "lat": 41.3049254, "lon": 14.856885}, {"type": "node", "id": 7767803098, "lat": 41.3050052, "lon": 14.8566753}, {"type": "node", "id": 7884278789, "lat": 41.2674035, "lon": 14.438885}, {"type": "node", "id": 7884278790, "lat": 41.2673371, "lon": 14.438716}, {"type": "node", "id": 7884278791, "lat": 41.267547, "lon": 14.4385699}, {"type": "node", "id": 7884278792, "lat": 41.2676134, "lon": 14.4387389}, {"type": "node", "id": 7900892612, "lat": 41.3052936, "lon": 14.5625241}, {"type": "node", "id": 7900892613, "lat": 41.3051895, "lon": 14.5622968}, {"type": "node", "id": 7900892614, "lat": 41.3051111, "lon": 14.5623935}, {"type": "node", "id": 7900892615, "lat": 41.3052254, "lon": 14.5626433}, {"type": "node", "id": 7900892616, "lat": 41.3052789, "lon": 14.5625999}, {"type": "node", "id": 7900892617, "lat": 41.3052576, "lon": 14.5625533}, {"type": "node", "id": 8246235686, "lat": 41.3926354, "lon": 14.4396064}, {"type": "node", "id": 8246235687, "lat": 41.3925212, "lon": 14.4395214}, {"type": "node", "id": 8246235688, "lat": 41.3924044, "lon": 14.4397444}, {"type": "node", "id": 8246235689, "lat": 41.3925292, "lon": 14.4398329}, {"type": "node", "id": 8267963317, "lat": 41.5635055, "lon": 14.6667152, "tags": {"amenity": "restaurant", "name": "Osteria o dei Pazzi"}}, {"type": "node", "id": 8268057017, "lat": 41.4395259, "lon": 14.541241, "tags": {"amenity": "restaurant", "name": "Casale Kolidour", "name:it": "Casale Kolidur"}}, {"type": "node", "id": 8569791433, "lat": 41.3275371, "lon": 14.6875236, "tags": {"amenity": "restaurant", "name": "Ristorante Da Mena"}}, {"type": "node", "id": 8640453180, "lat": 41.6378213, "lon": 14.6100971}, {"type": "node", "id": 8640453181, "lat": 41.6377832, "lon": 14.6100569}, {"type": "node", "id": 8640453182, "lat": 41.637713, "lon": 14.6097591}, {"type": "node", "id": 8640453183, "lat": 41.6376188, "lon": 14.6098128}, {"type": "node", "id": 8640453184, "lat": 41.6376709, "lon": 14.6100488}, {"type": "node", "id": 8640453185, "lat": 41.6375627, "lon": 14.6102339}, {"type": "node", "id": 8640453186, "lat": 41.637687, "lon": 14.6103948}, {"type": "node", "id": 8640453187, "lat": 41.637695, "lon": 14.6104941}, {"type": "node", "id": 8640453188, "lat": 41.6377892, "lon": 14.6106014}, {"type": "node", "id": 8640453189, "lat": 41.6379997, "lon": 14.6102741}, {"type": "node", "id": 8640453190, "lat": 41.6379255, "lon": 14.6101803}, {"type": "node", "id": 8640453191, "lat": 41.6379716, "lon": 14.6101025}, {"type": "node", "id": 8640453192, "lat": 41.6378914, "lon": 14.6100193}, {"type": "node", "id": 8678730481, "lat": 41.4008113, "lon": 14.6560192, "tags": {"amenity": "restaurant", "description": "Anche bar e caseificio", "name": "Prozzo"}}, {"type": "node", "id": 8699096206, "lat": 41.3414211, "lon": 14.7510337, "tags": {"amenity": "cafe"}}, {"type": "node", "id": 8699096339, "lat": 41.3449407, "lon": 14.6890294, "tags": {"amenity": "cafe", "name": "Pausa Caff\u00e8"}}, {"type": "node", "id": 8719101892, "lat": 41.3711868, "lon": 14.8409007}, {"type": "node", "id": 8719101893, "lat": 41.371161, "lon": 14.8409637}, {"type": "node", "id": 8719101894, "lat": 41.3712315, "lon": 14.8410149}, {"type": "node", "id": 8719101895, "lat": 41.3712573, "lon": 14.8409519}, {"type": "node", "id": 8719535113, "lat": 41.4013719, "lon": 14.8062242, "tags": {"amenity": "cafe"}}, {"type": "node", "id": 8719546828, "lat": 41.3999279, "lon": 14.8073732, "tags": {"amenity": "cafe"}}, {"type": "node", "id": 8719547057, "lat": 41.3791115, "lon": 14.7974527, "tags": {"amenity": "restaurant", "cuisine": "regional;italian", "name": "Agriturismo Fontana Sant'Eramo"}}, {"type": "node", "id": 8725995739, "lat": 41.3453279, "lon": 14.791978}, {"type": "node", "id": 8725995740, "lat": 41.3452812, "lon": 14.7920999}, {"type": "node", "id": 8725995741, "lat": 41.3452122, "lon": 14.7920523}, {"type": "node", "id": 8725995742, "lat": 41.3452586, "lon": 14.7919313}, {"type": "node", "id": 8766321512, "lat": 41.366984, "lon": 14.5631577, "tags": {"addr:city": "Pietraroja", "addr:postcode": "82030", "addr:street": "Localit\u00e0 Ingera Grande, SP76", "amenity": "restaurant", "cuisine": "regional;italian", "name": "Ristorante Cusanelli", "phone": "+39 338 8051262", "website": "https://www.facebook.com/395430607496294/"}}, {"type": "node", "id": 8766402920, "lat": 41.3461266, "lon": 14.5491145, "tags": {"addr:city": "Pietraroja", "addr:housenumber": "12", "addr:postcode": "82030", "addr:street": "Via Veneto", "amenity": "restaurant", "cuisine": "local;italian", "diet:meat": "yes", "name": "La Prosciutteria", "phone": "+39 338 2207775", "ref:vatin": "IT01169770078", "reservation": "recommended", "website": "https://ilprosciuttodipietraroja.it/"}}, {"type": "node", "id": 8774022304, "lat": 41.4205835, "lon": 14.8747629, "tags": {"addr:city": "Colle Sannita", "addr:postcode": "82024", "amenity": "restaurant", "cuisine": "pizza;italian;italian_pizza;regional;local", "name": "Al Laghetto", "phone": "+39 0824 930245", "website": "https://allaghetto.eu/"}}, {"type": "node", "id": 8831479776, "lat": 41.3703677, "lon": 14.6873315, "tags": {"addr:city": "Morcone", "addr:housenumber": "1", "addr:postcode": "82026", "addr:street": "Contrada Canepino", "amenity": "cafe", "name": "Bar Canepinese", "operator": "Carmine Bollella", "phone": "+39 0824 953023"}}, {"type": "node", "id": 8848610427, "lat": 41.2891431, "lon": 14.9109188, "tags": {"addr:city": "Molinara", "addr:postcode": "82020", "addr:street": "Corso Umberto", "amenity": "restaurant", "cuisine": "pizza;italian;regional", "email": "pizzeriaalborgo@virgilio.it", "name": "Ristorante Pizzeria Al Borgo", "opening_hours": "Mo-Su 12:00-15:00,19:00-23:45", "phone": "+390824994004", "website": "https://digilander.libero.it/pizzeriaalborgo/"}}, {"type": "node", "id": 8932672348, "lat": 41.562457, "lon": 14.659714, "tags": {"addr:city": "Campobasso", "addr:housenumber": "18", "addr:postcode": "86100", "addr:street": "Via Porta Mancina", "amenity": "restaurant", "name": "New Pizza Tony", "phone": "+39 0874 019734", "takeaway": "yes"}}, {"type": "node", "id": 8932672349, "lat": 41.5620856, "lon": 14.6613561, "tags": {"addr:city": "Campobasso", "addr:housenumber": "41", "addr:postcode": "86100", "addr:street": "Via Antonio Cardarelli", "amenity": "restaurant", "cuisine": "italian", "mobile": "+39 347 7745394", "name": "Cora d'Zia"}}, {"type": "node", "id": 9552491035, "lat": 41.3120053, "lon": 14.5201973}, {"type": "node", "id": 9552491036, "lat": 41.3119736, "lon": 14.5202959}, {"type": "node", "id": 9552491037, "lat": 41.3118606, "lon": 14.5202317}, {"type": "node", "id": 9552491038, "lat": 41.3118946, "lon": 14.5201342}, {"type": "node", "id": 9552491039, "lat": 41.3118682, "lon": 14.5202045}, {"type": "node", "id": 9715626688, "lat": 41.5631347, "lon": 14.6586297, "tags": {"addr:city": "Campobasso", "addr:housenumber": "74", "addr:postcode": "86100", "addr:street": "Via Michelangelo Ziccardi", "amenity": "restaurant", "name": "Il Sagittario", "phone": "+39 0874 698413"}}, {"type": "node", "id": 9721223690, "lat": 41.5259598, "lon": 14.5631802}, {"type": "node", "id": 9721223691, "lat": 41.5257546, "lon": 14.563094}, {"type": "node", "id": 9721223693, "lat": 41.5257011, "lon": 14.5633742}, {"type": "node", "id": 9721223694, "lat": 41.5257897, "lon": 14.5634043}, {"type": "node", "id": 9721223695, "lat": 41.5258114, "lon": 14.5632905}, {"type": "node", "id": 9721223696, "lat": 41.525931, "lon": 14.5633312}, {"type": "node", "id": 9773196644, "lat": 41.5589111, "lon": 14.6443959}, {"type": "node", "id": 9773196645, "lat": 41.5590646, "lon": 14.6444736}, {"type": "node", "id": 9773196646, "lat": 41.559183, "lon": 14.6444026}, {"type": "node", "id": 9773196647, "lat": 41.5592844, "lon": 14.6439694}, {"type": "node", "id": 9773196648, "lat": 41.5592121, "lon": 14.6439184}, {"type": "node", "id": 9773196649, "lat": 41.5589923, "lon": 14.6440445}, {"type": "node", "id": 9773196650, "lat": 41.5589381, "lon": 14.6439171}, {"type": "node", "id": 9773196651, "lat": 41.5587926, "lon": 14.644011}, {"type": "node", "id": 9819550091, "lat": 41.6406763, "lon": 14.5827833}, {"type": "node", "id": 9819550092, "lat": 41.640792, "lon": 14.5823094}, {"type": "node", "id": 9819550093, "lat": 41.6405955, "lon": 14.5824838}, {"type": "node", "id": 9819550094, "lat": 41.6406958, "lon": 14.5825964}, {"type": "node", "id": 9819550095, "lat": 41.6408441, "lon": 14.5823751}, {"type": "node", "id": 9819550096, "lat": 41.6406236, "lon": 14.5827225}, {"type": "node", "id": 9819550097, "lat": 41.6406507, "lon": 14.5826836}, {"type": "node", "id": 9819550098, "lat": 41.6405925, "lon": 14.5826179}, {"type": "node", "id": 9819550099, "lat": 41.6405595, "lon": 14.5826514}, {"type": "node", "id": 9819550100, "lat": 41.6404923, "lon": 14.582579}, {"type": "node", "id": 9819550101, "lat": 41.6405264, "lon": 14.5825428}, {"type": "node", "id": 9883671891, "lat": 41.5131019, "lon": 14.7204454}, {"type": "node", "id": 9883671892, "lat": 41.5131178, "lon": 14.7204162}, {"type": "node", "id": 9883671893, "lat": 41.513043, "lon": 14.7203436}, {"type": "node", "id": 9883671894, "lat": 41.5129559, "lon": 14.7205034}, {"type": "node", "id": 9883671895, "lat": 41.5130868, "lon": 14.7206305}, {"type": "node", "id": 9883671896, "lat": 41.5131579, "lon": 14.7204998}, {"type": "node", "id": 9883671897, "lat": 41.5134002, "lon": 14.7196916}, {"type": "node", "id": 9883671898, "lat": 41.5134115, "lon": 14.7196597}, {"type": "node", "id": 9883671899, "lat": 41.5133444, "lon": 14.7196173}, {"type": "node", "id": 9883671900, "lat": 41.5132818, "lon": 14.7197939}, {"type": "node", "id": 9883671901, "lat": 41.5133426, "lon": 14.7198323}, {"type": "node", "id": 9883671902, "lat": 41.5133267, "lon": 14.7198771}, {"type": "node", "id": 9883671903, "lat": 41.5133644, "lon": 14.719901}, {"type": "node", "id": 9883671904, "lat": 41.5133851, "lon": 14.7199599}, {"type": "node", "id": 9883671905, "lat": 41.5134341, "lon": 14.7199451}, {"type": "node", "id": 9883671906, "lat": 41.5134701, "lon": 14.7199678}, {"type": "node", "id": 9883671907, "lat": 41.5135373, "lon": 14.7197783}, {"type": "node", "id": 9970204687, "lat": 41.5258213, "lon": 14.563133}, {"type": "node", "id": 9970204688, "lat": 41.5258242, "lon": 14.5631177}, {"type": "node", "id": 10000056756, "lat": 41.3338052, "lon": 14.535373, "tags": {"amenity": "restaurant", "name": "Da Gizzi"}}, {"type": "node", "id": 10099464162, "lat": 41.2823606, "lon": 14.5818028}, {"type": "node", "id": 10099464163, "lat": 41.2822776, "lon": 14.5821479}, {"type": "node", "id": 10099464164, "lat": 41.2823243, "lon": 14.5821669}, {"type": "node", "id": 10099464165, "lat": 41.2822643, "lon": 14.5824042}, {"type": "node", "id": 10099464166, "lat": 41.2821051, "lon": 14.5823408}, {"type": "node", "id": 10099464167, "lat": 41.2821527, "lon": 14.5821581}, {"type": "node", "id": 10099464168, "lat": 41.2821174, "lon": 14.5821276}, {"type": "node", "id": 10099464169, "lat": 41.2821337, "lon": 14.5820642}, {"type": "node", "id": 10099464170, "lat": 41.2820946, "lon": 14.5820489}, {"type": "node", "id": 10099464171, "lat": 41.2821394, "lon": 14.5818878}, {"type": "node", "id": 10099464172, "lat": 41.2821194, "lon": 14.5818751}, {"type": "node", "id": 10099464173, "lat": 41.2821422, "lon": 14.5818218}, {"type": "node", "id": 10099464174, "lat": 41.2821604, "lon": 14.5817888}, {"type": "node", "id": 10099464175, "lat": 41.2822509, "lon": 14.5818231}, {"type": "node", "id": 10099464176, "lat": 41.28227, "lon": 14.581766}, {"type": "node", "id": 10248830779, "lat": 41.338615, "lon": 14.5075886}, {"type": "node", "id": 10559967884, "lat": 41.3051418, "lon": 14.5623355}, {"type": "node", "id": 10559967885, "lat": 41.3051529, "lon": 14.5623596}, {"type": "node", "id": 10587204922, "lat": 41.5605767, "lon": 14.656126, "tags": {"addr:city": "Campobasso", "addr:housenumber": "154A", "addr:postcode": "86100", "addr:street": "Via Guglielmo Marconi", "amenity": "restaurant", "contact:facebook": "https://www.facebook.com/marefishburger.cb/", "cuisine": "fish;seafood;", "delivery": "yes", "name": "De Mari", "old_name": "Mar\u00e9 Fishburger", "phone": "+39 391 74 888 58", "takeaway": "yes", "website": "https://www.demarifishfood.com/"}}, {"type": "node", "id": 10729476890, "lat": 41.6001179, "lon": 14.4477489, "tags": {"amenity": "cafe", "name": "Caff\u00e8 del Passeggero"}}, {"type": "node", "id": 10729786012, "lat": 41.6388823, "lon": 14.519615, "tags": {"addr:housenumber": "31-35", "addr:street": "Via Garibaldi", "amenity": "cafe", "name": "Dolce Idea"}}, {"type": "node", "id": 10989836469, "lat": 41.611515, "lon": 14.9333726}, {"type": "node", "id": 10989836470, "lat": 41.6114749, "lon": 14.9335257}, {"type": "node", "id": 10989836471, "lat": 41.6114377, "lon": 14.9335091}, {"type": "node", "id": 10989836472, "lat": 41.6114571, "lon": 14.9334556}, {"type": "node", "id": 10989836473, "lat": 41.6113446, "lon": 14.9333742}, {"type": "node", "id": 10989836474, "lat": 41.6113805, "lon": 14.9332845}, {"type": "node", "id": 10989836475, "lat": 41.6114384, "lon": 14.9333288}, {"type": "node", "id": 10989836476, "lat": 41.6114816, "lon": 14.9333649}, {"type": "node", "id": 10989836477, "lat": 41.6114959, "lon": 14.9333643}, {"type": "node", "id": 10989933991, "lat": 41.6017956, "lon": 14.9363698}, {"type": "node", "id": 10989933992, "lat": 41.6017767, "lon": 14.9365267}, {"type": "node", "id": 10989933993, "lat": 41.6015945, "lon": 14.9364816}, {"type": "node", "id": 10989933994, "lat": 41.6016094, "lon": 14.9363626}, {"type": "node", "id": 10989933995, "lat": 41.60172, "lon": 14.9364113}, {"type": "node", "id": 10989933996, "lat": 41.6017254, "lon": 14.9363409}, {"type": "node", "id": 11093294231, "lat": 41.4090912, "lon": 14.4415108, "tags": {"amenity": "cafe"}}, {"type": "node", "id": 11119595964, "lat": 41.4141993, "lon": 14.6599621, "tags": {"addr:city": "Sepino", "addr:housenumber": "3", "addr:postcode": "86017", "addr:street": "Contrada Piana d\u2019Olmo", "amenity": "restaurant", "name": "Antica Taverna del Principe", "rooms": "3", "tourism": "guest_house"}}, {"type": "node", "id": 11152381574, "lat": 41.69593, "lon": 14.4618, "tags": {"addr:city": "Bagnoli del Trigno", "addr:housenumber": "4", "addr:postcode": "86170", "addr:street": "Contrada Valle Soda", "amenity": "restaurant", "bar": "yes", "contact:facebook": "https://www.facebook.com/244717585559629", "cuisine": "pizza", "name": "Ristorante Pizzeria Soda", "phone": "+390874870325", "website": "https://www.ristorantepizzeriasoda.it"}}, {"type": "node", "id": 11155440682, "lat": 41.676013, "lon": 14.619579, "tags": {"addr:city": "Limosano", "addr:housenumber": "87", "addr:postcode": "86022", "addr:street": "Via Regina Margherita", "amenity": "restaurant", "bar": "yes", "contact:facebook": "https://www.facebook.com/1697750990512976", "cuisine": "pizza", "name": "Coste Del Lago", "phone": "+390874701160", "stars": "3", "tourism": "hotel"}}, {"type": "node", "id": 11155442801, "lat": 41.6727243, "lon": 14.5452877, "tags": {"addr:city": "Fossalto", "addr:housenumber": "61", "addr:postcode": "86020", "addr:street": "Via Umberto Primo", "amenity": "cafe", "contact:facebook": "https://www.facebook.com/442120059131841", "name": "SamBAR caffetteria cocktail&aperitivi", "phone": "+39 328 2666247"}}, {"type": "node", "id": 11155473010, "lat": 41.58597, "lon": 14.58449, "tags": {"addr:city": "Oratino", "addr:housenumber": "2", "addr:postcode": "86010", "addr:street": "Via Sotto Giardino", "amenity": "cafe", "contact:facebook": "https://www.facebook.com/1673426556233597", "name": "Bar Zer0,4", "phone": "+39 0874 38604"}}, {"type": "node", "id": 11155692924, "lat": 41.5337556, "lon": 14.8851443, "tags": {"addr:city": "Gambatesa", "addr:housenumber": "2 - Fondovalle del Tappino", "addr:postcode": "86013", "addr:street": "C. da Varana", "amenity": "cafe", "contact:facebook": "https://www.facebook.com/144162082288817", "name": "La Quercia", "phone": "+390874719750"}}, {"type": "node", "id": 11155856826, "lat": 41.6347665, "lon": 14.7660954, "tags": {"addr:city": "Campolieto", "addr:housenumber": "2", "addr:postcode": "86040", "addr:street": "Piazza San Giovanni in Galdo", "amenity": "cafe", "contact:facebook": "https://www.facebook.com/928384387217060", "name": "Bar \"La Piazzetta\"", "phone": "+39 389 0986467"}}, {"type": "node", "id": 11155865368, "lat": 41.690635, "lon": 14.6957967, "tags": {"addr:city": "Petrella Tifernina", "addr:housenumber": "126", "addr:postcode": "86024", "addr:street": "Corso Vittorio Emanuele Terzo", "amenity": "cafe", "contact:facebook": "https://www.facebook.com/517811655066866", "name": "Bar Gelateria Pasticceria Di Biase", "phone": "+39 335 1572472"}}, {"type": "node", "id": 11158621527, "lat": 41.70864, "lon": 14.98289, "tags": {"amenity": "restaurant", "cuisine": "pizza", "name": "Ristorante Pizzeria Il Settimo Specchio"}}, {"type": "node", "id": 11178773221, "lat": 41.559583, "lon": 14.4087112, "tags": {"addr:city": "Macchiagodena", "addr:housenumber": "17", "addr:postcode": "86096", "addr:street": "Via Giuseppe Garibaldi", "amenity": "cafe", "contact:facebook": "https://www.facebook.com/850865845020816", "name": "Garibaldi Caf\u00e8", "outdoor_seating": "yes", "phone": "+39 344 1007063"}}, {"type": "node", "id": 12075499418, "lat": 41.4845231, "lon": 14.475756, "tags": {"amenity": "cafe", "internet_access": "no", "name": "Bar Tazza D\u2019Oro", "smoking": "no", "wheelchair": "no"}}, {"type": "node", "id": 12115891438, "lat": 41.4073208, "lon": 14.6192469, "tags": {"amenity": "cafe", "name": "L'incontro"}}, {"type": "node", "id": 12115891439, "lat": 41.407228, "lon": 14.6191268, "tags": {"amenity": "cafe", "name": "Il Castello"}}, {"type": "node", "id": 12115891441, "lat": 41.4069356, "lon": 14.6183909, "tags": {"amenity": "restaurant", "contact:website": "https://gustusristorante.com/", "cuisine": "italian;regional", "name": "Gustus"}}, {"type": "node", "id": 12117134778, "lat": 41.434944, "lon": 14.6194121, "tags": {"amenity": "restaurant", "cuisine": "regional", "name": "Porta Tammaro", "outdoor_seating": "yes", "smoking": "no", "source": "Bing, Local knowledge", "wheelchair": "limited"}}, {"type": "node", "id": 12290813603, "lat": 41.2794781, "lon": 14.4674791}, {"type": "node", "id": 12290813604, "lat": 41.2793853, "lon": 14.4677634}, {"type": "node", "id": 12290813605, "lat": 41.2794775, "lon": 14.4678166}, {"type": "node", "id": 12290813606, "lat": 41.2795702, "lon": 14.4675323}, {"type": "node", "id": 12290813625, "lat": 41.2777246, "lon": 14.4722529, "tags": {"amenity": "cafe"}}, {"type": "node", "id": 12632866568, "lat": 41.7104353, "lon": 14.7839024, "tags": {"addr:city": "Morrone del Sannio", "addr:housenumber": "37", "addr:postcode": "86040", "addr:street": "Via Cristoforo Colombo", "amenity": "restaurant", "cuisine": "pizza", "name": "Bar Pizzeria Gyros"}}, {"type": "node", "id": 12638442743, "lat": 41.6889492, "lon": 14.8067949, "tags": {"addr:city": "Ripabottoni", "addr:housenumber": "9", "addr:postcode": "86040", "addr:street": "Piazza Marconi", "amenity": "cafe", "name": "Bar Centrale"}}, {"type": "way", "id": 62353645, "nodes": [778889468, 778889478, 778889461, 9819550091, 9819550096, 9819550097, 9819550098, 9819550099, 9819550100, 9819550101, 778889464, 778889466, 778889470, 778889476, 778889468]}, {"type": "way", "id": 109579470, "nodes": [2523447043, 2523447051, 2523447049, 2523447036, 2523447035, 2523447065, 2523447067, 2523447045, 1254053402, 1254053384, 3046282849, 3046282850, 2523447072, 2523447068, 3046282846, 1254053616, 3046282841, 1254053393, 2523447055, 2523447053, 2523447056, 2523447047, 2523447043], "tags": {"addr:city": "Colle d'Anchise", "addr:housenumber": "647", "addr:street": "Fondo Valle del Biferno", "amenity": "restaurant", "building": "yes", "email": "info@lapianadeimulini.it", "generator:output:electricity": "yes", "generator:source": "hydro", "name": "La Piana dei Mulini", "phone": "+39 0874 787330", "power": "generator", "source": "Bing, Local knowledge", "website": "https://www.lapianadeimulini.it/"}}, {"type": "way", "id": 109580716, "nodes": [1254064730, 1254064728, 1254064752, 1254064743, 1254064730], "tags": {"amenity": "restaurant", "building": "yes", "cuisine": "italian", "name": "Martorelli"}}, {"type": "way", "id": 219498237, "nodes": [2286485784, 2286485783, 2286485780, 2286485781, 2286485784], "tags": {"amenity": "restaurant", "building": "yes", "cuisine": "regional"}}, {"type": "way", "id": 223446567, "nodes": [2323432672, 2323432671, 2323432669, 2323432665, 2323432667, 2323432670, 2323432672], "tags": {"amenity": "restaurant", "building": "yes", "cuisine": "regional", "email": "info@campitelloextremeteam.com", "name": "Baita La Gallinola", "phone": "+39 339 1054315", "smoking": "no", "source": "Bing, Local knowledge", "tourism": "chalet", "website": "http://www.campitelloextremeteam.com/web/index/"}}, {"type": "way", "id": 232534017, "nodes": [2408809907, 2408809905, 2408809904, 2408809906, 2408809907], "tags": {"amenity": "restaurant", "building": "yes", "name": "Il Mulino"}}, {"type": "way", "id": 240037083, "nodes": [1904046037, 2478056617, 2478056615, 1904046039, 2478056621, 1904046037], "tags": {"amenity": "cafe", "building": "yes", "internet_access": "no", "internet_access:fee": "no", "smoking": "no", "source": "Bing, Local knowledge", "wheelchair": "no"}}, {"type": "way", "id": 261211668, "nodes": [2668376004, 2668375999, 2668375993, 2668375989, 2668375994, 2668376008, 2668376004], "tags": {"amenity": "restaurant", "building": "yes", "cuisine": "italian", "name": "Al bivio 87", "phone": "+39 329 6617152"}}, {"type": "way", "id": 261652587, "nodes": [2672552698, 2672552729, 2672552167, 2672552143, 2672552698], "tags": {"amenity": "restaurant", "building": "yes", "name": "La Focetta"}}, {"type": "way", "id": 261653240, "nodes": [2672558308, 2672558315, 2672558318, 2672558323, 3352883927, 2672558295, 2672558279, 3352883919, 3352883915, 3352883923, 2672558305, 2672558308], "tags": {"amenity": "restaurant", "building": "yes", "name": "Villa Rosa", "phone": "+39 0874 415174"}}, {"type": "way", "id": 263994104, "nodes": [2696723199, 2696723196, 7252213369, 7252213370, 2696723197, 2696723198, 2696723200, 7257925047, 2696723201, 7257925045, 2696723199], "tags": {"amenity": "restaurant", "cuisine": "italian", "name": "Saloon dell'impiccato", "phone": "+39 330 580 280"}}, {"type": "way", "id": 268474715, "nodes": [2738127783, 2738127796, 2738127776, 2738127770, 2738127762, 2738127753, 2738127783], "tags": {"amenity": "restaurant", "building": "yes", "name": "Le 4 Via Nove"}}, {"type": "way", "id": 271933750, "nodes": [2768533621, 2768533623, 2768533603, 2768533588, 2768533585, 2768533590, 2768533605, 2768533617, 2768533619, 2768533616, 2768533612, 2768533614, 2768533615, 2768533622, 2768533621], "tags": {"amenity": "restaurant", "building": "yes", "cuisine": "italian", "name": "La Baia", "phone": "+39 0874 747393"}}, {"type": "way", "id": 271933751, "nodes": [2768533129, 2768533123, 2768533125, 2768533120, 2768533127, 2768533130, 2768533135, 2768533131, 2768533134, 2768533132, 2768533133, 2768533129], "tags": {"amenity": "restaurant", "building": "yes", "name": "La Cantina dei Compari", "phone": "+39 338 7885435"}}, {"type": "way", "id": 271933755, "nodes": [2768533140, 2768533142, 2768533139, 2768533141, 2768533138, 2768533137, 2768533140], "tags": {"amenity": "restaurant", "building": "yes", "cuisine": "italian", "name": "U' Muline", "phone": "+39 0874 451320"}}, {"type": "way", "id": 272966540, "nodes": [2778541085, 2778541090, 2778541059, 2778541057, 2778541055, 2778541053, 2778541063, 2778541066, 2778541070, 2778541072, 2778541085], "tags": {"amenity": "restaurant", "cuisine": "italian", "name": "Da Netta", "phone": "+39 0874 34287", "website": "http://www.ristorantenetta.com/"}}, {"type": "way", "id": 272966606, "nodes": [2778540635, 2778540633, 2778540610, 2778540606, 2778540581, 2778540587, 2778540635], "tags": {"amenity": "restaurant", "building": "yes", "cuisine": "italian", "internet_access": "wlan", "name": "Le Cupolette", "phone": "+39 0874 340043", "tourism": "hotel", "website": "http://www.lecupolette.com/"}}, {"type": "way", "id": 276398437, "nodes": [2809852211, 2809852218, 2809852216, 2809852210, 2809852211], "tags": {"amenity": "restaurant", "building": "yes", "cuisine": "italian", "name": "4 Ruote", "phone": "+39 0824 957636"}}, {"type": "way", "id": 276884789, "nodes": [2814504038, 2814504029, 2814504026, 2814504028, 2814504021, 2814504018, 2814504016, 2814504019, 2814504020, 2814504025, 2814504023, 2814504027, 2814504032, 2814504031, 2814504039, 2814504037, 2814504038], "tags": {"amenity": "restaurant", "building": "yes", "name": "Agriturismo Cassetta", "phone": "+39 0874 79590"}}, {"type": "way", "id": 279008253, "nodes": [2832761856, 2832761881, 2832761864, 2832761840, 2832761856], "tags": {"amenity": "restaurant", "building": "yes", "cuisine": "local;italian", "name": "La ginestra", "name:it": "La Ginestra", "phone": "+39 0874 799219", "tourism": "guest_house", "website": "https://www.laginestra.info/"}}, {"type": "way", "id": 279660523, "nodes": [2838668391, 2838668396, 2838668384, 2838668382, 2838668374, 2838668371, 2838668377, 2838668393, 2838668389, 2838668380, 2838668376, 2838668378, 2838668379, 2838668381, 2838668391], "tags": {"amenity": "restaurant", "cuisine": "italian", "name": "Casale dei Cerri", "phone": "+39 0874 504003", "tourism": "guest_house", "website": "http://www.casaledeicerri.it"}}, {"type": "way", "id": 280145807, "nodes": [2843048227, 2843048230, 2843048226, 2843048221, 2843048227], "tags": {"addr:city": "Guardiaregia", "addr:postcode": "86014", "amenity": "restaurant", "building": "yes", "cuisine": "regional;organic;italian", "description": "Formaggi tipici", "name": "Rifugio del Massaro", "phone": "+39 339 6934698"}}, {"type": "way", "id": 281717908, "nodes": [2856939992, 2856939979, 2856939993, 2856940213, 2856940209, 2856940205, 2856940202, 2856939999, 2856939992], "tags": {"amenity": "restaurant", "building": "yes", "cuisine": "italian", "name": "Ciocca", "phone": "+39 0874 716153"}}, {"type": "way", "id": 292345102, "nodes": [2959019836, 2959019840, 2959019838, 2959019835, 2959019836], "tags": {"amenity": "restaurant", "building": "yes", "name": "Il Ritrovo", "phone": "+39 0874 441111"}}, {"type": "way", "id": 292480704, "nodes": [2960301865, 2960301868, 2960301866, 2960301861, 2960301865], "tags": {"amenity": "restaurant", "building": "yes", "name": "La Casa di Paglia", "phone": "+39 0874 39239"}}, {"type": "way", "id": 294579543, "nodes": [2981725295, 2981725292, 2981725290, 2981725288, 2981725289, 2981725291, 2981725294, 2981725296, 2981725297, 2981725298, 2981725300, 2981725301, 2981725302, 2981725299, 2981725293, 2981725295], "tags": {"amenity": "restaurant", "building": "yes", "cuisine": "italian", "name": "Lo Chef", "phone": "+39 0874 411550"}}, {"type": "way", "id": 294579556, "nodes": [2981726226, 2981726218, 2981726215, 2981726205, 2981726221, 2981726233, 2981726239, 6236700958, 2981726266, 6236700963, 2981726245, 2981726244, 2981726226], "tags": {"addr:city": "Campobasso", "addr:country": "IT", "addr:housenumber": "1", "addr:postcode": "86100", "addr:street": "Via Conte Verde", "amenity": "restaurant", "building": "yes", "name": "Fornaro", "opening_hours": "Su off", "phone": "+39 0874 019553", "takeaway": "yes"}}, {"type": "way", "id": 302455508, "nodes": [3067121281, 3067121280, 3067121279, 3067121268, 3067121269, 3067121271, 3067121273, 3067121270, 3067121272, 3067121275, 3067121274, 3067121277, 3067121278, 3067121281], "tags": {"amenity": "restaurant", "building": "yes", "name": "La Taverna", "phone": "+39 0874 791135"}}, {"type": "way", "id": 303968416, "nodes": [3084843888, 3664503665, 3084843890, 3084843885, 3084843883, 3084843888], "tags": {"amenity": "restaurant", "building": "yes", "name": "Casaccio", "phone": "+39 0874 712042"}}, {"type": "way", "id": 304095488, "nodes": [3086125957, 3086125956, 3086125955, 3086125964, 3086125967, 3086125969, 3086125971, 3086125970, 3086125968, 3086125963, 3086125959, 3086125957], "tags": {"amenity": "restaurant", "building": "yes", "name": "Bar Ristorante Iezza"}}, {"type": "way", "id": 304264078, "nodes": [3087972450, 3087972452, 3087972449, 3087972451, 3087972444, 3087970220, 3087972442, 3087972441, 3087972445, 3087972440, 3087972450], "tags": {"addr:city": "Campobasso", "addr:country": "IT", "addr:housenumber": "5", "addr:postcode": "86100", "addr:street": "Contrada Colle Serano", "amenity": "restaurant", "building": "yes", "cuisine": "italian", "email": "info@ristorantedonchisciotte.eu", "name": "Don Chisciotte", "phone": "+39 0874 311244", "website": "http://www.ristorantedonchisciotte.eu"}}, {"type": "way", "id": 308650271, "nodes": [3139191855, 3139191857, 3139191852, 3139191848, 3139191855], "tags": {"amenity": "restaurant", "building": "yes", "email": "ilrisvegliodeisapori@yahoo.it", "name": "Il Risveglio dei Sapori", "opening_hours": "Mo off", "operator": "F.lli Spensieri", "phone": "+39 0874 34114"}}, {"type": "way", "id": 312720904, "nodes": [3186121940, 3186121939, 3186121931, 3186121932, 3186121940], "tags": {"addr:city": "Mirabello Sannitico", "addr:postcode": "86010", "addr:street": "Contrada Piane s.n.c.", "amenity": "cafe", "building": "industrial", "contact:facebook": "https://www.facebook.com/1754079661514628", "man_made": "works", "name": "Cicchelli Caff\u00e8", "phone": "+39 0874 30374", "product": "coffee", "website": "https://www.cicchellicaffe.it/"}}, {"type": "way", "id": 328460554, "nodes": [3352882733, 3352882740, 3352882736, 3352882741, 3352882734, 3352882727, 3352882728, 3352882733], "tags": {"amenity": "restaurant", "building": "yes", "name": "La Vecchia Cucina", "phone": "+39 0874 438858"}}, {"type": "way", "id": 329494179, "nodes": [3363711210, 3363711206, 3363711202, 3363711198, 3363711204, 3363711210], "tags": {"amenity": "restaurant", "building": "yes", "name": "Falode", "source": "Bing, Local knowledge"}}, {"type": "way", "id": 331868021, "nodes": [3389568689, 3389579294, 3389568692, 3389579295, 3389579293, 3389568691, 3389568690, 3389568688, 3389568689], "tags": {"amenity": "restaurant", "building": "yes", "cuisine": "regional", "name": "Masseria Ceccone", "place": "farm", "source": "Bing, Local knowledge"}}, {"type": "way", "id": 346063043, "nodes": [3526749588, 3526749587, 3526749576, 3526749578, 3526749588], "tags": {"addr:city": "Campobasso", "addr:country": "IT", "addr:housenumber": "52", "addr:postcode": "86100", "addr:street": "Via 4 Novembre", "amenity": "restaurant", "building": "yes", "name": "Charly", "phone": "+39 0874 1960268"}}, {"type": "way", "id": 347996350, "nodes": [3542194342, 3542194345, 3542194343, 3542194344, 3542194341, 3542194338, 3542194334, 3542194339, 3542194333, 3542194332, 3542194340, 3542194336, 3542194342], "tags": {"addr:city": "Macchiagodena", "addr:country": "IT", "addr:housenumber": "34", "addr:postcode": "86096", "addr:street": "Via Arattiera", "amenity": "restaurant", "building": "yes", "email": "info@agriturismolasorgente.it", "name": "La Sorgente", "phone": "+39 0865 810199", "tourism": "guest_house", "website": "https://www.agriturismolasorgente.it/"}}, {"type": "way", "id": 347996351, "nodes": [3542194319, 3542194318, 3542194317, 3542194316, 3542194310, 3542194312, 3542194319], "tags": {"amenity": "restaurant", "building": "yes", "cuisine": "italian", "name": "Manocchio", "phone": "+39 0865 810563"}}, {"type": "way", "id": 347996358, "nodes": [3542194176, 3542194187, 3542194178, 3542194162, 3542194176], "tags": {"amenity": "restaurant", "building": "yes", "cuisine": "italian", "email": "info@agriturismozampacorta.it", "name": "Zampacorta", "phone": "+39 0865 814163", "tourism": "guest_house", "website": "http://www.agriturismozampacorta.it/"}}, {"type": "way", "id": 353496331, "nodes": [3592859795, 3592859802, 3592859692, 3592859688, 3592859795], "tags": {"amenity": "restaurant", "building": "yes", "cuisine": "italian", "name": "Bella 'mbriana", "phone": "+39 0874 64516"}}, {"type": "way", "id": 379106775, "nodes": [2960300811, 2960300802, 2960300795, 3824752746, 3824752707, 3824752702, 3824752689, 3824752688, 3824752690, 3824752694, 3824752700, 3824752714, 3824752752, 2960300805, 2960300808, 2960300811], "tags": {"addr:city": "Ripalimosani", "addr:country": "IT", "addr:housenumber": "6", "addr:postcode": "86025", "addr:street": "Contrada Selva", "amenity": "restaurant", "email": "info@coriolis.it", "name": "Coriolis", "phone": "+39 0874 698441", "website": "https://www.coriolis.it/"}}, {"type": "way", "id": 383803259, "nodes": [3871201053, 3871201049, 3871201047, 3871201052, 3871201053], "tags": {"addr:city": "Campobasso", "addr:country": "IT", "addr:housenumber": "144", "addr:postcode": "86100", "addr:street": "Contrada Coste di Oratino", "amenity": "restaurant", "building": "yes", "cuisine": "italian", "name": "La Piana dei Lupi", "phone": "+39 328 1376662"}}, {"type": "way", "id": 384710771, "nodes": [3880661810, 3880661816, 3880661811, 3880661803, 3880661804, 3880661807, 3880661810], "tags": {"addr:city": "Campodipietra", "addr:country": "IT", "addr:housenumber": "23", "addr:postcode": "86010", "addr:street": "Contrada Soglioni", "amenity": "restaurant", "building": "yes", "email": "info@agriterraesapori.it", "name": "Agriturismo Terra e Sapori", "operator": "Azienda agricola Di Bona", "phone": "+39 339 4137197", "tourism": "guest_house", "website": "https://www.agriterraesapori.it/", "wheelchair": "yes"}}, {"type": "way", "id": 384710779, "nodes": [3880661669, 3880661676, 3880661667, 3880661665, 3880661657, 3880661055, 3880661052, 3880661047, 3880661051, 3880661048, 3880661669], "tags": {"addr:city": "Campodipietra", "addr:country": "IT", "addr:housenumber": "22A", "addr:postcode": "86010", "addr:street": "Contrada San Pietro", "amenity": "restaurant", "building": "yes", "name": "Tenuta Colle San Pietro", "phone": "+39 0874 456271", "tourism": "guest_house"}}, {"type": "way", "id": 385584824, "nodes": [3889230263, 3889230271, 3889230267, 3889230261, 3889229150, 2672561649, 2672561639, 3889229138, 3889229136, 3889229135, 3889229137, 3889229156, 3889230258, 3889230263], "tags": {"addr:city": "Ripalimosani", "addr:country": "IT", "addr:housenumber": "13", "addr:postcode": "86025", "addr:street": "Contrada Pesco Farese", "amenity": "restaurant", "beds": "41", "internet_access": "yes", "internet_access:fee": "no", "name": "La Tavernetta", "phone": "+39 0874 39958", "rooms": "19", "tourism": "hotel", "website": "https://www.latavernettacb.it/"}}, {"type": "way", "id": 390478308, "nodes": [3936258366, 3936256440, 3936256443, 3936256449, 3936256451, 3936256446, 3936256450, 3936258361, 3936258359, 3936258384, 3936258379, 3936258366], "tags": {"amenity": "restaurant", "building": "yes", "name": "La Campagnola"}}, {"type": "way", "id": 396076737, "nodes": [3988749329, 3988749330, 3988749332, 3988749334, 3988749331, 3988749333, 3988749328, 3988749325, 3988749327, 3988749326, 3988749329], "tags": {"amenity": "restaurant", "building": "yes", "name": "Vecchio Mulino"}}, {"type": "way", "id": 558610772, "nodes": [5387841222, 5387841223, 5387841224, 5387841225, 5387841222], "tags": {"addr:city": "Bocca della Selva", "addr:postcode": "82033", "addr:street": "Sella del Perrone-Bocca della Selva", "amenity": "restaurant", "building": "yes", "name": "Rifugio Montano"}}, {"type": "way", "id": 656771203, "nodes": [6151959298, 6151959297, 6151959296, 6151959295, 6151959298], "tags": {"addr:city": "San Giuliano del Sannio", "addr:country": "IT", "addr:housenumber": "5", "addr:postcode": "86010", "addr:street": "Contrada Fontana Cappella", "amenity": "restaurant", "building": "yes", "name": "Scuderie del Peschio", "phone": "+39 0874 797217"}}, {"type": "way", "id": 666633588, "nodes": [6241523245, 6241523246, 6241523247, 6241523248, 6241523245], "tags": {"amenity": "restaurant", "building": "yes", "name": "Sala Ricevimenti \"Chalet della Luna\""}}, {"type": "way", "id": 689512204, "nodes": [6468486979, 6468486978, 6468486977, 6468486976, 6468486979], "tags": {"addr:city": "Macchia Valfortore", "addr:country": "IT", "addr:postcode": "86040", "addr:street": "Contrada Vrecellosa", "amenity": "restaurant", "name": "Miralago", "phone": "+39 0874 810287", "tourism": "hotel", "website": "http://www.ristorante-miralago.it/"}}, {"type": "way", "id": 695860471, "nodes": [6534219371, 6534219368, 6534219369, 6534219370, 6534219371], "tags": {"addr:city": "Macchia Valfortore", "addr:postcode": "86040", "addr:street": "ctr. Foresta", "amenity": "restaurant", "building": "yes", "name": "Agriturismo Horse's Ranch", "website": "https://www.tripadvisor.it/Restaurant_Review-g3346479-d6828329-Reviews-Ristorante_dell_Agriturismo_Horse_s_Ranch-Macchia_Valfortore_Province_of_Campoba.html"}}, {"type": "way", "id": 830190318, "nodes": [7748181489, 7748181490, 7748181491, 10248830779, 7748181492, 7748181489], "tags": {"amenity": "restaurant", "building": "yes", "name": "Antichi Sapori Forno a Legna"}}, {"type": "way", "id": 831979000, "nodes": [7767803095, 7767803096, 7767803097, 7767803098, 7767803095], "tags": {"amenity": "restaurant", "building": "yes", "name": "Trattoria Pizzeria \"La Sorpresa\""}}, {"type": "way", "id": 845089054, "nodes": [7884278789, 7884278790, 7884278791, 7884278792, 7884278789], "tags": {"amenity": "restaurant", "building": "yes"}}, {"type": "way", "id": 846794652, "nodes": [7900892612, 7900892613, 10559967884, 10559967885, 7900892614, 7900892615, 7900892616, 7900892617, 7900892612], "tags": {"amenity": "restaurant", "building": "yes", "name": "I Frungigl'"}}, {"type": "way", "id": 886823934, "nodes": [8246235686, 8246235687, 8246235688, 8246235689, 8246235686], "tags": {"amenity": "restaurant", "building": "yes", "cuisine": "italian", "description": "Parcheggio in strada. Specialit\u00e0: colazione, pranzo e cena. Adatto per gruppi e bambini. Accetta prenotazioni. Servizio ai tavoli.", "internet_access": "wlan", "mobile": "+39 329 292 8614", "name": "Masseria Reale", "phone": "+39 0823 160 7084"}}, {"type": "way", "id": 932040527, "nodes": [8640453192, 8640453191, 8640453190, 8640453189, 8640453188, 8640453187, 8640453186, 8640453185, 8640453184, 8640453183, 8640453182, 8640453181, 8640453180, 8640453192], "tags": {"addr:city": "Ripalimosani", "addr:housenumber": "15", "addr:postcode": "86010", "addr:street": "Contrada Covatta", "amenity": "restaurant", "name": "Paradise"}}, {"type": "way", "id": 941518326, "nodes": [8719101892, 8719101893, 8719101894, 8719101895, 8719101892], "tags": {"addr:city": "Colle Sannita", "addr:housenumber": "4", "addr:postcode": "82024", "addr:street": "Contrada Crocella", "amenity": "cafe", "building": "yes"}}, {"type": "way", "id": 942323240, "nodes": [8725995739, 8725995740, 8725995741, 8725995742, 8725995739], "tags": {"amenity": "cafe", "building": "yes", "name": "Bar 101"}}, {"type": "way", "id": 1036894431, "nodes": [9552491035, 9552491036, 9552491037, 9552491039, 9552491038, 9552491035], "tags": {"amenity": "restaurant", "building": "yes", "name": "Agriturismo La Roccia"}}, {"type": "way", "id": 1057966543, "nodes": [9721223693, 9721223694, 9721223695, 9721223696, 9721223690, 9970204687, 9970204688, 9721223691, 9721223693], "tags": {"addr:city": "Baranello", "addr:postcode": "86011", "addr:street": "Via Domenico Carnevale", "amenity": "restaurant", "building": "yes", "building:levels": "2", "cuisine": "regional", "diet:local": "yes", "height": "6", "name": "Stand-by di carriero gianluca", "phone": "+39 333 7140557"}}, {"type": "way", "id": 1064095206, "nodes": [9773196651, 9773196650, 9773196649, 9773196648, 9773196647, 9773196646, 9773196645, 9773196644, 9773196651], "tags": {"addr:city": "Campobasso", "addr:housenumber": "5", "addr:postcode": "86100", "addr:street": "Contrada Fossato Cupo", "amenity": "restaurant", "barrier": "fence", "cuisine": "italian", "fence_type": "metal", "name": "Antico Aciniello", "phone": "+39 366 8109381"}}, {"type": "way", "id": 1069892563, "nodes": [9819550095, 9819550094, 9819550093, 9819550092, 9819550095]}, {"type": "way", "id": 1078022422, "nodes": [9883671896, 9883671895, 9883671894, 9883671893, 9883671892, 9883671891, 9883671896], "tags": {"amenity": "cafe", "building": "yes", "name": "Bar Elisir"}}, {"type": "way", "id": 1078022423, "nodes": [9883671907, 9883671906, 9883671905, 9883671904, 9883671903, 9883671902, 9883671901, 9883671900, 9883671899, 9883671898, 9883671897, 9883671907], "tags": {"amenity": "restaurant", "building": "yes", "name": "La Pingera"}}, {"type": "way", "id": 1103681840, "nodes": [10099464162, 10099464163, 10099464164, 10099464165, 10099464166, 10099464167, 10099464168, 10099464169, 10099464170, 10099464171, 10099464172, 10099464173, 10099464174, 10099464175, 10099464176, 10099464162], "tags": {"amenity": "restaurant", "building": "yes"}}, {"type": "way", "id": 1183446687, "nodes": [10989836469, 10989836470, 10989836471, 10989836472, 10989836473, 10989836474, 10989836475, 10989836476, 10989836477, 10989836469], "tags": {"addr:city": "Macchia Valfortore", "addr:postcode": "86040", "addr:street": "Cda Fosso Giuriachi", "amenity": "restaurant", "building": "yes", "cuisine": "regional;italian", "name": "Agriturismo Occhito", "website": "https://www.tripadvisor.it/Hotel_Review-g3346479-d7092018-Reviews-Agriturismo_Occhito-Macchia_Valfortore_Province_of_Campobasso_Molise.html"}}, {"type": "way", "id": 1183459078, "nodes": [10989933991, 10989933992, 10989933993, 10989933994, 10989933995, 10989933996, 10989933991], "tags": {"addr:city": "Macchia Valfortore", "addr:postcode": "86040", "addr:street": "Contrada Foresta", "amenity": "restaurant", "building": "yes", "name": "Agriturismo Aia Della Foresta", "website": "https://www.tripadvisor.it/Restaurant_Review-g3346479-d4020849-Reviews-Aia_della_Foresta-Macchia_Valfortore_Province_of_Campobasso_Molise.html"}}, {"type": "way", "id": 1328461722, "nodes": [12290813606, 12290813605, 12290813604, 12290813603, 12290813606], "tags": {"amenity": "restaurant", "building": "yes"}}, {"type": "relation", "id": 14254938, "members": [{"type": "way", "ref": 1069892563, "role": "inner"}, {"type": "way", "ref": 62353645, "role": "outer"}], "tags": {"amenity": "restaurant", "building": "yes", "cuisine": "italian", "name": "Villa D'Evoli", "type": "multipolygon"}}]}