{"version": 0.6, "generator": "Overpass API 0.7.62.7 375dc00a", "osm3s": {"timestamp_osm_base": "2025-06-14T15:07:54Z", "copyright": "The data included in this document is from www.openstreetmap.org. The data is made available under ODbL."}, "elements": [{"type": "node", "id": 29474203, "lat": 39.9575254, "lon": 32.7004355, "tags": {"amenity": "restaurant", "name": "Cumhuriyet F\u0131r\u0131n\u0131", "shop": "bakery"}}, {"type": "node", "id": 305995305, "lat": 40.0761154, "lon": 33.0204851, "tags": {"amenity": "restaurant", "name": "KavClub"}}, {"type": "node", "id": 667398826, "lat": 39.9568922, "lon": 32.7032936, "tags": {"amenity": "cafe", "email": "unverg@gmail.com", "name": "Butikek"}}, {"type": "node", "id": 1198275382, "lat": 39.9621574, "lon": 32.8877157, "tags": {"amenity": "cafe", "name": "Koza pastenesi"}}, {"type": "node", "id": 1503946866, "lat": 39.9681719, "lon": 32.8795654, "tags": {"amenity": "cafe", "cuisine": "turkish", "name": "FMD Cafe"}}, {"type": "node", "id": 1503946878, "lat": 39.9668501, "lon": 32.8785971, "tags": {"amenity": "restaurant", "cuisine": "italian", "name": "\u0130talyan"}}, {"type": "node", "id": 1863719068, "lat": 39.9654898, "lon": 32.8115566, "tags": {"amenity": "restaurant", "name": "Me\u015fhur \u0130neg\u00f6l K\u00f6fte"}}, {"type": "node", "id": 2345225678, "lat": 39.937727, "lon": 32.8982422, "tags": {"amenity": "cafe", "name": "Karamel Pastanesi"}}, {"type": "node", "id": 2353085996, "lat": 40.2270079, "lon": 33.0358631, "tags": {"amenity": "restaurant", "name": "\u00c7ad\u0131r Restoront"}}, {"type": "node", "id": 2361869438, "lat": 39.9337501, "lon": 32.9089778, "tags": {"amenity": "cafe", "name": "Mavi\u015f Pastanesi"}}, {"type": "node", "id": 2390929172, "lat": 39.9667838, "lon": 32.7974134}, {"type": "node", "id": 2390929175, "lat": 39.966871, "lon": 32.7974536}, {"type": "node", "id": 2390929178, "lat": 39.9668633, "lon": 32.7974888}, {"type": "node", "id": 2390929180, "lat": 39.967034, "lon": 32.7975658}, {"type": "node", "id": 2390929182, "lat": 39.9670943, "lon": 32.7973414}, {"type": "node", "id": 2390929184, "lat": 39.9670661, "lon": 32.7973247}, {"type": "node", "id": 2390929186, "lat": 39.9670904, "lon": 32.7972192}, {"type": "node", "id": 2390929188, "lat": 39.9670096, "lon": 32.7971774}, {"type": "node", "id": 2390929190, "lat": 39.9670147, "lon": 32.7971439}, {"type": "node", "id": 2390929192, "lat": 39.9668479, "lon": 32.7970719}, {"type": "node", "id": 2405467281, "lat": 39.9796625, "lon": 32.8327443, "tags": {"amenity": "restaurant", "name": "Palmiye Kebap&Pide"}}, {"type": "node", "id": 2405467286, "lat": 39.9799998, "lon": 32.8321115, "tags": {"amenity": "cafe"}}, {"type": "node", "id": 2629785083, "lat": 39.9813023, "lon": 32.6890024, "tags": {"amenity": "restaurant", "capacity": "150", "cuisine": "regional", "name": "Cumhuriyet Lezzet Lokantas\u0131"}}, {"type": "node", "id": 2769932427, "lat": 39.9753184, "lon": 32.6174619, "tags": {"addr:street": "D\u0130L DEVR\u0130M\u0130 CADDES\u0130", "amenity": "restaurant", "name": "Butikek"}}, {"type": "node", "id": 2912893722, "lat": 39.9668568, "lon": 32.7144399, "tags": {"amenity": "cafe", "name": "Gen\u00e7 Limos Cafe"}}, {"type": "node", "id": 3308147391, "lat": 39.9643832, "lon": 32.8411451}, {"type": "node", "id": 3308147392, "lat": 39.9644606, "lon": 32.8412576}, {"type": "node", "id": 3308147393, "lat": 39.9643923, "lon": 32.8413376}, {"type": "node", "id": 3308147394, "lat": 39.9643515, "lon": 32.8412782}, {"type": "node", "id": 3308147395, "lat": 39.9643802, "lon": 32.8412445}, {"type": "node", "id": 3308147396, "lat": 39.9643437, "lon": 32.8411914}, {"type": "node", "id": 3507567031, "lat": 39.9662049, "lon": 32.6438168}, {"type": "node", "id": 3507567032, "lat": 39.9645077, "lon": 32.6434847}, {"type": "node", "id": 3507567033, "lat": 39.9644107, "lon": 32.6438999}, {"type": "node", "id": 3507567034, "lat": 39.9661594, "lon": 32.6442597}, {"type": "node", "id": 3507586338, "lat": 39.9767282, "lon": 32.6481897}, {"type": "node", "id": 3507586339, "lat": 39.9764252, "lon": 32.6481857}, {"type": "node", "id": 3507586340, "lat": 39.9764191, "lon": 32.648593}, {"type": "node", "id": 3507586341, "lat": 39.9767312, "lon": 32.6486049}, {"type": "node", "id": 3507590301, "lat": 39.979031, "lon": 32.6480537}, {"type": "node", "id": 3507590302, "lat": 39.9790216, "lon": 32.6482266}, {"type": "node", "id": 3507590303, "lat": 39.9789004, "lon": 32.6482153}, {"type": "node", "id": 3507590304, "lat": 39.9788915, "lon": 32.6483777}, {"type": "node", "id": 3507590305, "lat": 39.9790642, "lon": 32.6483938}, {"type": "node", "id": 3507590306, "lat": 39.9790684, "lon": 32.648317}, {"type": "node", "id": 3507590307, "lat": 39.9791383, "lon": 32.6482977}, {"type": "node", "id": 3507590308, "lat": 39.979151, "lon": 32.6480648}, {"type": "node", "id": 3507594293, "lat": 39.9808784, "lon": 32.6491205}, {"type": "node", "id": 3507594294, "lat": 39.9809411, "lon": 32.6494205}, {"type": "node", "id": 3507594295, "lat": 39.9806943, "lon": 32.6495085}, {"type": "node", "id": 3507594296, "lat": 39.9806315, "lon": 32.6492084}, {"type": "node", "id": 3511977987, "lat": 39.9704682, "lon": 32.7144408, "tags": {"amenity": "cafe", "brand": "Mado", "brand:wikidata": "Q17116336", "brand:wikipedia": "en:Mado (food company)", "cuisine": "coffee_shop", "name": "Mado", "takeaway": "yes"}}, {"type": "node", "id": 3511980277, "lat": 39.9702242, "lon": 32.7155224, "tags": {"amenity": "cafe", "brand": "Starbucks", "brand:wikidata": "Q37158", "brand:wikipedia": "en:Starbucks", "cuisine": "coffee_shop", "name": "Starbucks", "official_name": "Starbucks Coffee", "takeaway": "yes"}}, {"type": "node", "id": 3642136392, "lat": 39.9868795, "lon": 32.8027203, "tags": {"amenity": "cafe", "name": "Big Oven"}}, {"type": "node", "id": 3831465965, "lat": 39.9659448, "lon": 32.6469961, "tags": {"amenity": "restaurant", "capacity": "50", "cuisine": "fish_and_chips", "delivery": "yes", "name": "B\u00fcy\u00fck \u0130skele Bal\u0131k", "smoking": "separated", "takeaway": "yes"}}, {"type": "node", "id": 3846417958, "lat": 39.9610667, "lon": 32.8659395}, {"type": "node", "id": 3846431038, "lat": 39.9611139, "lon": 32.8659901}, {"type": "node", "id": 3846431039, "lat": 39.9610026, "lon": 32.8661668}, {"type": "node", "id": 3846431040, "lat": 39.9609553, "lon": 32.8661162}, {"type": "node", "id": 3884082940, "lat": 39.9956636, "lon": 32.8106792, "tags": {"amenity": "cafe", "name": "\u00c7amalt\u0131 pastane", "smoking": "outside"}}, {"type": "node", "id": 3884977294, "lat": 39.9748795, "lon": 32.8293208, "tags": {"amenity": "cafe"}}, {"type": "node", "id": 3884979729, "lat": 39.9741849, "lon": 32.8300826, "tags": {"amenity": "restaurant", "cuisine": "turkish", "name": "AS9 Pide Kebap Salonu"}}, {"type": "node", "id": 3885011037, "lat": 39.9725411, "lon": 32.8250696, "tags": {"amenity": "cafe", "cuisine": "coffee_shop", "name": "G\u00f6n\u00fcl Kahvesi"}}, {"type": "node", "id": 3885015445, "lat": 39.9725726, "lon": 32.8246902, "tags": {"amenity": "restaurant", "cuisine": "regional", "smoking": "isolated"}}, {"type": "node", "id": 3885016684, "lat": 39.9725552, "lon": 32.8249716, "tags": {"amenity": "restaurant", "cuisine": "pizza", "delivery": "yes", "takeaway": "yes"}}, {"type": "node", "id": 3885025377, "lat": 39.9725682, "lon": 32.8255261, "tags": {"amenity": "cafe", "name": "K\u0131t\u0131r Kafe", "smoking": "yes"}}, {"type": "node", "id": 3885040053, "lat": 39.9882382, "lon": 32.8202865, "tags": {"amenity": "restaurant", "name": "Mis Ba\u015fak"}}, {"type": "node", "id": 3885063992, "lat": 39.9917346, "lon": 32.8327016, "tags": {"amenity": "cafe", "cuisine": "ice_cream"}}, {"type": "node", "id": 3885081685, "lat": 39.9931615, "lon": 32.8301568, "tags": {"amenity": "restaurant", "cuisine": "regional", "name": "Ton ton"}}, {"type": "node", "id": 3885103338, "lat": 39.9949913, "lon": 32.82123, "tags": {"amenity": "cafe", "name": "Dolunay pastane"}}, {"type": "node", "id": 3885104151, "lat": 39.9948625, "lon": 32.8111674, "tags": {"amenity": "restaurant", "name": "K\u00f6y Sofras\u0131"}}, {"type": "node", "id": 3885132538, "lat": 39.9929925, "lon": 32.8085379, "tags": {"amenity": "cafe", "name": "Dondurma dunyasi"}}, {"type": "node", "id": 3885144910, "lat": 39.9920388, "lon": 32.8003891, "tags": {"amenity": "cafe"}}, {"type": "node", "id": 3885154497, "lat": 39.9919185, "lon": 32.8004279, "tags": {"amenity": "cafe"}}, {"type": "node", "id": 3885154945, "lat": 39.9896817, "lon": 32.8005358, "tags": {"amenity": "cafe", "name": "Seval"}}, {"type": "node", "id": 3885155610, "lat": 39.9923436, "lon": 32.8009426, "tags": {"amenity": "restaurant", "cuisine": "regional", "name": "Aspava"}}, {"type": "node", "id": 3885156706, "lat": 39.9910748, "lon": 32.7998205, "tags": {"amenity": "restaurant", "cuisine": "regional"}}, {"type": "node", "id": 3885158627, "lat": 39.9916238, "lon": 32.8000517, "tags": {"amenity": "restaurant", "cuisine": "regional", "name": "Kes D\u00f6ner"}}, {"type": "node", "id": 3885165884, "lat": 39.991251, "lon": 32.7997915, "tags": {"amenity": "cafe", "name": "\u015eampion D\u00f6ner", "outdoor_seating": "yes"}}, {"type": "node", "id": 3885182129, "lat": 39.9697719, "lon": 32.8088439, "tags": {"amenity": "restaurant", "name": "Mevlana"}}, {"type": "node", "id": 3885182610, "lat": 39.9734967, "lon": 32.8286973, "tags": {"amenity": "cafe", "cuisine": "regional"}}, {"type": "node", "id": 3885182697, "lat": 39.9698882, "lon": 32.8088953, "tags": {"amenity": "restaurant", "cuisine": "regional", "name": "kokore\u00e7"}}, {"type": "node", "id": 3885230137, "lat": 39.9804919, "lon": 32.8659124, "tags": {"amenity": "restaurant"}}, {"type": "node", "id": 3889652592, "lat": 39.9948876, "lon": 32.8105393, "tags": {"amenity": "restaurant", "name": "D\u00f6ner"}}, {"type": "node", "id": 3889653344, "lat": 39.9924747, "lon": 32.801153, "tags": {"amenity": "cafe"}}, {"type": "node", "id": 3889656249, "lat": 39.9928713, "lon": 32.80542, "tags": {"amenity": "restaurant", "name": "Harika Soslu D\u00f6ner"}}, {"type": "node", "id": 3889659141, "lat": 39.992508, "lon": 32.8012351, "tags": {"amenity": "restaurant", "name": "\u00c7i\u011f k\u00f6fte"}}, {"type": "node", "id": 3889661437, "lat": 39.9959744, "lon": 32.8109998, "tags": {"amenity": "restaurant", "name": "\u00c7i\u011f k\u00f6fte"}}, {"type": "node", "id": 3889663363, "lat": 39.9914992, "lon": 32.8288249, "tags": {"amenity": "restaurant", "name": "\u00c7i\u011f K\u00f6fte"}}, {"type": "node", "id": 3889663597, "lat": 39.9920519, "lon": 32.8288226, "tags": {"amenity": "restaurant", "name": "\u00c7i\u011f k\u00f6fte"}}, {"type": "node", "id": 3889667233, "lat": 39.9911484, "lon": 32.8002184, "tags": {"amenity": "cafe", "name": "Rima"}}, {"type": "node", "id": 3889668325, "lat": 39.9916046, "lon": 32.7998071, "tags": {"amenity": "restaurant", "name": "My D\u00f6ner"}}, {"type": "node", "id": 3889736384, "lat": 39.9666546, "lon": 32.8820233, "tags": {"amenity": "restaurant", "name": "\u00c7in Lokanta"}}, {"type": "node", "id": 3889774172, "lat": 39.9620809, "lon": 32.8055202, "tags": {"amenity": "restaurant"}}, {"type": "node", "id": 3890698170, "lat": 39.9926696, "lon": 32.8011677, "tags": {"amenity": "cafe"}}, {"type": "node", "id": 3890723990, "lat": 39.9940747, "lon": 32.8108972, "tags": {"amenity": "restaurant", "name": "Ad\u0131m Lezzet"}}, {"type": "node", "id": 3890724793, "lat": 39.9946929, "lon": 32.8106389, "tags": {"amenity": "restaurant", "name": "Kokore\u00e7"}}, {"type": "node", "id": 3890749366, "lat": 39.9835199, "lon": 32.8159894, "tags": {"amenity": "cafe", "name": "Ada pastane"}}, {"type": "node", "id": 3890774116, "lat": 39.9587006, "lon": 32.8343514, "tags": {"amenity": "restaurant", "name": "Pide V Kebap Salonu"}}, {"type": "node", "id": 3890778331, "lat": 39.9800749, "lon": 32.8455766, "tags": {"amenity": "restaurant", "name": "Oscar", "opening_hours": "Mo-Su 07:00-21:30", "wheelchair": "yes"}}, {"type": "node", "id": 3890787645, "lat": 39.9726128, "lon": 32.8422925, "tags": {"amenity": "restaurant", "name": "Oscar"}}, {"type": "node", "id": 3890789570, "lat": 39.9722639, "lon": 32.839965, "tags": {"amenity": "restaurant", "name": "Oscar"}}, {"type": "node", "id": 3890789938, "lat": 39.9723461, "lon": 32.8402251, "tags": {"amenity": "cafe", "brand": "Mado", "brand:wikidata": "Q17116336", "brand:wikipedia": "en:Mado (food company)", "cuisine": "coffee_shop", "name": "Mado", "takeaway": "yes"}}, {"type": "node", "id": 3890792802, "lat": 39.9724786, "lon": 32.8425566, "tags": {"amenity": "restaurant", "name": "Kahveci Hac\u0131baba"}}, {"type": "node", "id": 3892391380, "lat": 39.9873292, "lon": 32.8026948, "tags": {"amenity": "restaurant", "cuisine": "pizza", "name": "Pizza Time"}}, {"type": "node", "id": 3892445971, "lat": 39.9921766, "lon": 32.8320183, "tags": {"addr:city": "Ke\u00e7i\u00f6ren/Ankara", "amenity": "restaurant", "name": "Tad\u0131m Et D\u00f6nercisi"}}, {"type": "node", "id": 3892453950, "lat": 39.9730448, "lon": 32.8284496, "tags": {"amenity": "restaurant", "name": "Durusu Simit Cafe"}}, {"type": "node", "id": 3894179557, "lat": 39.951697, "lon": 32.89941, "tags": {"amenity": "restaurant"}}, {"type": "node", "id": 3895341974, "lat": 39.9945118, "lon": 32.8261357, "tags": {"amenity": "restaurant", "name": "Bal\u0131k Pi\u015firme Evi"}}, {"type": "node", "id": 3895506179, "lat": 40.0129821, "lon": 32.8188611, "tags": {"amenity": "cafe"}}, {"type": "node", "id": 3895567372, "lat": 39.9951032, "lon": 32.8103873, "tags": {"amenity": "restaurant"}}, {"type": "node", "id": 3895585205, "lat": 39.9950195, "lon": 32.8103364, "tags": {"amenity": "cafe", "name": "Burma Kaday\u0131f"}}, {"type": "node", "id": 3895617881, "lat": 39.9963716, "lon": 32.8138599, "tags": {"amenity": "cafe", "name": "Senfoni"}}, {"type": "node", "id": 4046794088, "lat": 39.9948277, "lon": 32.8109798, "tags": {"amenity": "restaurant", "cuisine": "pizza"}}, {"type": "node", "id": 4046796061, "lat": 39.9749035, "lon": 32.8049868, "tags": {"amenity": "cafe", "name": "Lidya Cafe"}}, {"type": "node", "id": 4049116933, "lat": 39.9924647, "lon": 32.800386, "tags": {"amenity": "restaurant", "check_date": "2023-09-30", "name": "D\u00f6ner", "takeaway": "yes"}}, {"type": "node", "id": 4049117414, "lat": 39.992606, "lon": 32.7999563, "tags": {"amenity": "cafe", "name": "pastane"}}, {"type": "node", "id": 4049141839, "lat": 39.9914287, "lon": 32.8029104, "tags": {"amenity": "cafe", "cuisine": "regional", "name": "\u00c7i\u011f k\u00f6fte"}}, {"type": "node", "id": 4049162392, "lat": 39.9897507, "lon": 32.8004967, "tags": {"amenity": "cafe", "cuisine": "regional", "name": "Ad\u0131yaman \u00e7i\u011f k\u00f6fte"}}, {"type": "node", "id": 4070363348, "lat": 39.9927907, "lon": 32.8070052, "tags": {"amenity": "restaurant", "cuisine": "regional", "name": "O\u00e7akba\u015f\u0131"}}, {"type": "node", "id": 4070478420, "lat": 39.9699229, "lon": 32.8283197, "tags": {"amenity": "cafe", "smoking": "yes"}}, {"type": "node", "id": 4070479596, "lat": 39.9704717, "lon": 32.8240374, "tags": {"amenity": "restaurant", "description": "Metro's restaurant"}}, {"type": "node", "id": 4072912955, "lat": 39.9693137, "lon": 32.7837379, "tags": {"amenity": "cafe", "name": "Kahve \u015e\u00f6leni"}}, {"type": "node", "id": 4074727506, "lat": 39.9708494, "lon": 32.8369881, "tags": {"amenity": "restaurant", "name": "Bursa \u0130skender"}}, {"type": "node", "id": 4074727519, "lat": 39.9736314, "lon": 32.8422378, "tags": {"amenity": "restaurant", "name": "Yaren Sofras\u0131"}}, {"type": "node", "id": 4075148025, "lat": 40.0041495, "lon": 32.8560705, "tags": {"addr:city": "Ke\u00e7i\u00f6ren/Ankara", "addr:street": "Sanatoryum Caddesi", "amenity": "restaurant", "name": "Ayd\u0131n \u0130\u015fkembecisi"}}, {"type": "node", "id": 4076586688, "lat": 39.9845826, "lon": 32.8591368, "tags": {"addr:city": "Ke\u00e7i\u00f6ren/Ankara", "amenity": "restaurant", "name": "Ova Yaprak D\u00f6ner"}}, {"type": "node", "id": 4078289376, "lat": 39.9800067, "lon": 32.8683517, "tags": {"amenity": "cafe", "name": "Firezza Cafe"}}, {"type": "node", "id": 4082968007, "lat": 40.0433827, "lon": 32.9006524, "tags": {"addr:city": "Pursaklar / Ankara", "addr:street": "Yavuz Bulvar\u0131", "amenity": "restaurant", "name": "Hazne\u015fah"}}, {"type": "node", "id": 4087565571, "lat": 40.2029806, "lon": 32.6810241, "tags": {"addr:city": "Kazan/Ankara", "addr:street": "29 May\u0131s Caddesi", "amenity": "restaurant", "name": "Elit Restaurant"}}, {"type": "node", "id": 4116177161, "lat": 40.0078023, "lon": 32.8760761, "tags": {"amenity": "restaurant", "name": "Tad\u0131m Pide"}}, {"type": "node", "id": 4118951001, "lat": 39.9805202, "lon": 32.886299, "tags": {"addr:city": "Alt\u0131nda\u011f/Ankara", "amenity": "restaurant", "name": "\u00c7a\u011flar Pide"}}, {"type": "node", "id": 4123070939, "lat": 39.9786993, "lon": 32.8723479, "tags": {"addr:city": "Ke\u00e7i\u00f6ren/Ankara", "amenity": "restaurant", "name": "Urfal\u0131 Kebap"}}, {"type": "node", "id": 4123070958, "lat": 39.9781107, "lon": 32.8728126, "tags": {"addr:city": "Ke\u00e7i\u00f6ren/Ankara", "addr:street": "Dr. Besim \u00d6mer Caddesi", "amenity": "restaurant", "name": "Arslan Sofras\u0131"}}, {"type": "node", "id": 4123071005, "lat": 39.9766738, "lon": 32.874781, "tags": {"addr:city": "Ke\u00e7i\u00f6ren/Ankara", "addr:street": "Dr. Besim \u00d6mer Caddesi", "amenity": "cafe", "name": "Namzet Cafe"}}, {"type": "node", "id": 4151199590, "lat": 39.971392, "lon": 32.8870684, "tags": {"addr:city": "Alt\u0131nda\u011f/Ankara", "addr:street": "126. Sokak", "amenity": "restaurant", "name": "Urfal\u0131 Kebap"}}, {"type": "node", "id": 4177833885, "lat": 39.9617465, "lon": 32.8728421, "tags": {"addr:city": "Alt\u0131nda\u011f/Ankara", "addr:street": "\u015eehit Mustafa Ba\u015f Sokak", "amenity": "restaurant", "name": "Develi Pide Salonu"}}, {"type": "node", "id": 4199069977, "lat": 39.9622858, "lon": 32.7695385}, {"type": "node", "id": 4199069978, "lat": 39.9623383, "lon": 32.7691379}, {"type": "node", "id": 4208481758, "lat": 39.9722616, "lon": 32.9540482, "tags": {"amenity": "cafe", "opening_hours": "10:00-19:00"}}, {"type": "node", "id": 4208909589, "lat": 39.9694042, "lon": 32.7994117, "tags": {"amenity": "restaurant", "cuisine": "fish_and_chips", "delivery": "yes", "name": "Tolga Bal\u0131k\u00e7il\u0131k", "smoking": "outside", "takeaway": "yes"}}, {"type": "node", "id": 4220855776, "lat": 39.9622864, "lon": 32.8778884, "tags": {"amenity": "restaurant", "name": "\u00dcnl\u00fc Bal\u0131k Lokantas\u0131"}}, {"type": "node", "id": 4224984796, "lat": 39.9720028, "lon": 32.8875514, "tags": {"addr:postcode": "06140", "addr:street": "126. Sokak", "amenity": "cafe", "name": "Pakal\u0131n Pastanesi"}}, {"type": "node", "id": 4225051291, "lat": 39.9726312, "lon": 32.8867604, "tags": {"addr:postcode": "06140", "addr:street": "\u015eht. Pilot Fatih Kor\u00e7am Sokak", "amenity": "cafe", "name": "Haleb-i Patisserie"}}, {"type": "node", "id": 4225089489, "lat": 39.9720202, "lon": 32.8795605, "tags": {"addr:street": "\u0130rfan Ba\u015fbu\u011f Cad.", "amenity": "restaurant", "name": "Osmanl\u0131 Sofras\u0131"}}, {"type": "node", "id": 4225096995, "lat": 39.9745542, "lon": 32.8910342, "tags": {"addr:street": "141. Cadde", "amenity": "restaurant", "name": "Akat Pide"}}, {"type": "node", "id": 4227351336, "lat": 39.9683681, "lon": 32.9238174, "tags": {"amenity": "restaurant", "cuisine": "Ca\u011f Kebab\u0131"}}, {"type": "node", "id": 4231725167, "lat": 39.9915298, "lon": 32.6476919}, {"type": "node", "id": 4231725168, "lat": 39.9915354, "lon": 32.6477664}, {"type": "node", "id": 4231725170, "lat": 39.9915391, "lon": 32.6476181}, {"type": "node", "id": 4231725173, "lat": 39.9915556, "lon": 32.6478364}, {"type": "node", "id": 4231725175, "lat": 39.9915627, "lon": 32.6475499}, {"type": "node", "id": 4231725177, "lat": 39.991589, "lon": 32.6478973}, {"type": "node", "id": 4231725178, "lat": 39.9915991, "lon": 32.647492}, {"type": "node", "id": 4231725190, "lat": 39.9916228, "lon": 32.6479508}, {"type": "node", "id": 4231725193, "lat": 39.9916457, "lon": 32.6474484}, {"type": "node", "id": 4231725198, "lat": 39.9916692, "lon": 32.6479954}, {"type": "node", "id": 4231725201, "lat": 39.9916994, "lon": 32.647422}, {"type": "node", "id": 4231725207, "lat": 39.9917564, "lon": 32.6474147}, {"type": "node", "id": 4231725210, "lat": 39.9917744, "lon": 32.6480882}, {"type": "node", "id": 4231725213, "lat": 39.991806, "lon": 32.6480287}, {"type": "node", "id": 4231725215, "lat": 39.991813, "lon": 32.6474269}, {"type": "node", "id": 4231725217, "lat": 39.9918201, "lon": 32.6479325}, {"type": "node", "id": 4231725218, "lat": 39.9918259, "lon": 32.6478974}, {"type": "node", "id": 4231725222, "lat": 39.9918489, "lon": 32.6479099}, {"type": "node", "id": 4231725224, "lat": 39.9918652, "lon": 32.6474577}, {"type": "node", "id": 4231725226, "lat": 39.9918736, "lon": 32.6479143}, {"type": "node", "id": 4231725228, "lat": 39.9918983, "lon": 32.6479101}, {"type": "node", "id": 4231725230, "lat": 39.9919142, "lon": 32.6474853}, {"type": "node", "id": 4231725232, "lat": 39.9919213, "lon": 32.6478978}, {"type": "node", "id": 4231725233, "lat": 39.9919218, "lon": 32.6476821}, {"type": "node", "id": 4231725234, "lat": 39.9919411, "lon": 32.6478781}, {"type": "node", "id": 4231725235, "lat": 39.9919415, "lon": 32.647702}, {"type": "node", "id": 4231725236, "lat": 39.9919563, "lon": 32.6478524}, {"type": "node", "id": 4231725237, "lat": 39.9919566, "lon": 32.6477279}, {"type": "node", "id": 4231725239, "lat": 39.9919659, "lon": 32.6478224}, {"type": "node", "id": 4231725240, "lat": 39.9919661, "lon": 32.6477579}, {"type": "node", "id": 4231725242, "lat": 39.9919692, "lon": 32.6477902}, {"type": "node", "id": 4231725243, "lat": 39.9919733, "lon": 32.6475493}, {"type": "node", "id": 4231725246, "lat": 39.9920013, "lon": 32.6475829}, {"type": "node", "id": 4231917017, "lat": 39.9899259, "lon": 32.6506241}, {"type": "node", "id": 4231917019, "lat": 39.9899208, "lon": 32.6504135}, {"type": "node", "id": 4231917021, "lat": 39.9899369, "lon": 32.6505894}, {"type": "node", "id": 4231917022, "lat": 39.9899395, "lon": 32.650566}, {"type": "node", "id": 4231917024, "lat": 39.9899381, "lon": 32.6504703}, {"type": "node", "id": 4231917025, "lat": 39.9899397, "lon": 32.6504884}, {"type": "node", "id": 4231917027, "lat": 39.9899435, "lon": 32.6505311}, {"type": "node", "id": 4231917127, "lat": 39.9912654, "lon": 32.6454938}, {"type": "node", "id": 4231917168, "lat": 39.991373, "lon": 32.6453171}, {"type": "node", "id": 4231917184, "lat": 39.9914514, "lon": 32.6456868}, {"type": "node", "id": 4231917219, "lat": 39.991559, "lon": 32.64551}, {"type": "node", "id": 4231917254, "lat": 39.9916322, "lon": 32.6458804}, {"type": "node", "id": 4231917267, "lat": 39.9917446, "lon": 32.6456985}, {"type": "node", "id": 4231917277, "lat": 39.991826, "lon": 32.6460844}, {"type": "node", "id": 4231917289, "lat": 39.9919384, "lon": 32.6459024}, {"type": "node", "id": 4231917301, "lat": 39.9920187, "lon": 32.6462828}, {"type": "node", "id": 4231917311, "lat": 39.9921293, "lon": 32.6460881}, {"type": "node", "id": 4232357789, "lat": 39.98399, "lon": 32.8540601, "tags": {"amenity": "cafe", "name": "Victoria "}}, {"type": "node", "id": 4233466492, "lat": 39.9693815, "lon": 32.8271595}, {"type": "node", "id": 4233466494, "lat": 39.9693841, "lon": 32.8273616}, {"type": "node", "id": 4233466506, "lat": 39.9697161, "lon": 32.8271522}, {"type": "node", "id": 4233466507, "lat": 39.9697186, "lon": 32.8273543}, {"type": "node", "id": 4233466544, "lat": 39.977182, "lon": 32.6263195}, {"type": "node", "id": 4233466547, "lat": 39.9772191, "lon": 32.6261324}, {"type": "node", "id": 4233466553, "lat": 39.9773749, "lon": 32.6263848}, {"type": "node", "id": 4233466556, "lat": 39.9774121, "lon": 32.6261977}, {"type": "node", "id": 4283870324, "lat": 39.9910285, "lon": 32.6345277}, {"type": "node", "id": 4283870329, "lat": 39.9910511, "lon": 32.6341761}, {"type": "node", "id": 4283870360, "lat": 39.9911712, "lon": 32.6345433}, {"type": "node", "id": 4283870362, "lat": 39.9911766, "lon": 32.6344596}, {"type": "node", "id": 4283870372, "lat": 39.9913058, "lon": 32.6344737}, {"type": "node", "id": 4283870374, "lat": 39.991323, "lon": 32.6342059}, {"type": "node", "id": 4343888889, "lat": 40.0081792, "lon": 32.8448282, "tags": {"amenity": "restaurant", "name": "Urfal\u0131m Kebap"}}, {"type": "node", "id": 4347226534, "lat": 39.9868178, "lon": 32.8161148, "tags": {"amenity": "cafe", "cuisine": "ice_cream", "name": "Dondurma", "smoking": "outside"}}, {"type": "node", "id": 4379750947, "lat": 40.0231853, "lon": 32.9197341, "tags": {"amenity": "restaurant", "name": "Dede'nin Yeri"}}, {"type": "node", "id": 4387450793, "lat": 39.9651365, "lon": 32.8726462, "tags": {"amenity": "restaurant", "name": "Saraylar Sofras\u0131", "name:tr": "Saraylar Sofras\u0131"}}, {"type": "node", "id": 4387452091, "lat": 39.9563903, "lon": 32.862955, "tags": {"amenity": "restaurant", "name": "Doyum D\u00f6ner Kebap", "name:tr": "Doyum D\u00f6ner Kebap"}}, {"type": "node", "id": 4390348150, "lat": 40.1862936, "lon": 33.0230862, "tags": {"amenity": "restaurant", "name": "Kardelen K\u0131r Bah\u00e7esi"}}, {"type": "node", "id": 4390475330, "lat": 40.1878895, "lon": 33.022465}, {"type": "node", "id": 4390475331, "lat": 40.1878597, "lon": 33.0228851}, {"type": "node", "id": 4390475332, "lat": 40.1870434, "lon": 33.0230814}, {"type": "node", "id": 4390475333, "lat": 40.1873918, "lon": 33.0224833}, {"type": "node", "id": 4390475334, "lat": 40.1878407, "lon": 33.0231389}, {"type": "node", "id": 4390475335, "lat": 40.1876643, "lon": 33.023127}, {"type": "node", "id": 4390475336, "lat": 40.1873261, "lon": 33.0226137}, {"type": "node", "id": 4390475337, "lat": 40.1870379, "lon": 33.0226328}, {"type": "node", "id": 4420380989, "lat": 40.0388068, "lon": 32.9006161, "tags": {"amenity": "restaurant", "internet_access": "wlan", "name": "Efsane D\u00fcr\u00fcmc\u00fc", "name:tr": "Efsane D\u00fcr\u00fcmc\u00fc"}}, {"type": "node", "id": 4500317489, "lat": 39.9898703, "lon": 32.6506389}, {"type": "node", "id": 4520287380, "lat": 39.9926059, "lon": 32.6139763, "tags": {"addr:city": "Etimesgut/Ankara", "amenity": "restaurant", "name": "Mutlu Kebap Pide Salonu"}}, {"type": "node", "id": 4526337269, "lat": 39.9882384, "lon": 32.7084635, "tags": {"amenity": "restaurant"}}, {"type": "node", "id": 4564575694, "lat": 39.9653866, "lon": 32.7833842, "tags": {"addr:city": "Yenimahalle/Ankara", "addr:street": "357. Cadde", "amenity": "restaurant", "check_date": "2025-03-10", "cuisine": "turkish", "name": "Doy Doy Pide & Kebap Salonu"}}, {"type": "node", "id": 4564594523, "lat": 39.9638676, "lon": 32.7828779, "tags": {"addr:city": "Yenimahalle/Ankara", "addr:street": "357. Cadde", "amenity": "restaurant", "name": "Erzurum \u00c7a\u011f Kebab\u0131"}}, {"type": "node", "id": 4564687994, "lat": 39.9620446, "lon": 32.781063, "tags": {"addr:city": "Yenimahalle/Ankara", "amenity": "restaurant", "name": "Develi Vip Pide & Kebap Salonu"}}, {"type": "node", "id": 4612183192, "lat": 39.96553, "lon": 32.8105788, "tags": {"addr:housenumber": "29", "addr:street": "Ta\u015fk\u0131n Sokak", "amenity": "restaurant", "name": "\u00c7al\u0131ku\u015fu"}}, {"type": "node", "id": 4658683823, "lat": 39.9687349, "lon": 32.8701875}, {"type": "node", "id": 4658683824, "lat": 39.9686556, "lon": 32.8702839}, {"type": "node", "id": 4658683825, "lat": 39.9687204, "lon": 32.8703748}, {"type": "node", "id": 4658683826, "lat": 39.9687998, "lon": 32.8702785}, {"type": "node", "id": 4679476621, "lat": 39.9497308, "lon": 32.8312925, "tags": {"amenity": "cafe", "name": "Zeynel"}}, {"type": "node", "id": 4679476623, "lat": 39.9497431, "lon": 32.8317726, "tags": {"amenity": "cafe", "name": "Zeynel"}}, {"type": "node", "id": 4679476624, "lat": 39.9497411, "lon": 32.8321186, "tags": {"amenity": "cafe", "brand": "Starbucks", "brand:wikidata": "Q37158", "brand:wikipedia": "en:Starbucks", "cuisine": "coffee_shop", "name": "Starbucks", "official_name": "Starbucks Coffee", "takeaway": "yes"}}, {"type": "node", "id": 4751782288, "lat": 39.9825748, "lon": 32.689106, "tags": {"amenity": "cafe", "brand": "Mado", "brand:wikidata": "Q17116336", "brand:wikipedia": "en:Mado (food company)", "cuisine": "coffee_shop", "name": "Mado", "takeaway": "yes"}}, {"type": "node", "id": 4751785084, "lat": 39.9823724, "lon": 32.6896861, "tags": {"amenity": "cafe"}}, {"type": "node", "id": 4751785086, "lat": 39.9821669, "lon": 32.6894608, "tags": {"amenity": "restaurant", "name": "anzelha"}}, {"type": "node", "id": 4751785592, "lat": 39.9783124, "lon": 32.6855331, "tags": {"amenity": "restaurant"}}, {"type": "node", "id": 4751794755, "lat": 39.968823, "lon": 32.7165619, "tags": {"amenity": "cafe"}}, {"type": "node", "id": 4751795595, "lat": 39.9709374, "lon": 32.7149494, "tags": {"amenity": "restaurant"}}, {"type": "node", "id": 4753910379, "lat": 39.9825215, "lon": 32.6252669, "tags": {"amenity": "restaurant", "cuisine": "turkish", "name": "F\u0131r\u0131nc\u0131 Orhan"}}, {"type": "node", "id": 4813597330, "lat": 40.0373469, "lon": 32.8970174, "tags": {"amenity": "restaurant", "cuisine": "kebab;turkish", "name": "Osmanl\u0131 Sofras\u0131 - Pursaklar"}}, {"type": "node", "id": 4817169071, "lat": 39.9715869, "lon": 32.6532549, "tags": {"amenity": "restaurant", "name": "Mutlu G\u00fcnler F\u0131r\u0131n\u0131", "opening_hours": "24/7", "payment:credit_cards": "yes", "payment:debit_cards": "yes"}}, {"type": "node", "id": 4824195813, "lat": 39.9863863, "lon": 32.6470778, "tags": {"amenity": "cafe", "brand": "Mado", "brand:wikidata": "Q17116336", "cuisine": "coffee_shop", "name": "Mado", "takeaway": "yes"}}, {"type": "node", "id": 4824195835, "lat": 39.9824316, "lon": 32.6500503, "tags": {"amenity": "restaurant", "cuisine": "turkish", "name": "Karde\u015fler 2 Pide ve Kebap Salonu", "outdoor_seating": "yes"}}, {"type": "node", "id": 4826686074, "lat": 39.9794033, "lon": 32.6308, "tags": {"amenity": "restaurant", "name": "\u00c7i\u011fk\u00f6fteci \u00d6mer Usta"}}, {"type": "node", "id": 4929861627, "lat": 39.9735566, "lon": 32.6313268, "tags": {"amenity": "restaurant", "cuisine": "kebab", "delivery": "yes", "name": "Atakent Pide & Kebap", "phone": "+90 312 283 1551"}}, {"type": "node", "id": 4945102951, "lat": 39.981549, "lon": 32.6476062, "tags": {"amenity": "cafe", "email": "eryaman@karikaturbikafe.com", "name": "Karikat\u00fcr Bi Kafe Eryaman", "phone": "+90 312 280 1540"}}, {"type": "node", "id": 4958100789, "lat": 39.9367694, "lon": 32.8984118, "tags": {"amenity": "cafe", "name": "Pa\u015fam Simit Cafe", "operator": "Tuna Pastanesi", "outdoor_seating": "no"}}, {"type": "node", "id": 4978557425, "lat": 39.9864465, "lon": 32.6466206, "tags": {"amenity": "cafe", "name": "C'viz"}}, {"type": "node", "id": 5002493886, "lat": 39.9926707, "lon": 32.629658}, {"type": "node", "id": 5002493887, "lat": 39.9926423, "lon": 32.6301927}, {"type": "node", "id": 5002493888, "lat": 39.9925192, "lon": 32.6301816}, {"type": "node", "id": 5002493889, "lat": 39.9925476, "lon": 32.6296468}, {"type": "node", "id": 5213720546, "lat": 39.9791643, "lon": 32.6239447, "tags": {"amenity": "restaurant", "name": "Balabankara Restoran"}}, {"type": "node", "id": 5213725128, "lat": 39.9786795, "lon": 32.6261547, "tags": {"amenity": "restaurant", "cuisine": "pizza", "name": "Venice Italian Pizza Delivery (VIP)"}}, {"type": "node", "id": 5216819521, "lat": 40.11457, "lon": 32.9913962, "tags": {"amenity": "cafe", "name": "Cakes & Bakes Freshly Baked"}}, {"type": "node", "id": 5226085821, "lat": 39.9452156, "lon": 32.8545804, "tags": {"amenity": "restaurant", "name:zh": "\u9ad8\u5c71\u51b7\u6c34\u9c52\u9b5a\u9910\u5ef3"}}, {"type": "node", "id": 5250329923, "lat": 40.1146892, "lon": 32.9907957, "tags": {"amenity": "cafe", "name": "Cakes&Bakes", "opening_hours": "Mo-Su,PH 08:00-18:00+"}}, {"type": "node", "id": 5262266525, "lat": 39.9707665, "lon": 32.9584566, "tags": {"addr:street": "Karap\u00fcr\u00e7ek Caddesi", "amenity": "restaurant", "name": "Saray Pide Kebap", "opening_hours": "Mo-Su 08:00-21:00", "phone": "+90 312 375 0310"}}, {"type": "node", "id": 5262267122, "lat": 39.9673399, "lon": 32.9505353, "tags": {"amenity": "restaurant", "name": "Yeni \u00c7ardak Sofras\u0131", "opening_hours": "Mo-Su 09:00-00:00", "phone": "+90 312 375 7685"}}, {"type": "node", "id": 5262291121, "lat": 39.9751585, "lon": 32.9586529, "tags": {"amenity": "restaurant", "name": "D\u00f6ngeller Kona\u011f\u0131", "opening_hours": "Mo-Su 08:00-20:00"}}, {"type": "node", "id": 5282117647, "lat": 39.9695652, "lon": 32.7179879, "tags": {"amenity": "cafe", "cuisine": "coffee_shop", "name": "S\u00fcvari Kahvesi"}}, {"type": "node", "id": 5282120893, "lat": 39.9692266, "lon": 32.7119508}, {"type": "node", "id": 5282120894, "lat": 39.9692464, "lon": 32.7124429}, {"type": "node", "id": 5426804321, "lat": 40.0362213, "lon": 32.9012246, "tags": {"addr:postcode": "06145", "addr:street": "Cumhuriyet Caddesi", "amenity": "cafe", "cuisine": "mediterranean", "internet_access": "wlan", "name": "Kahve Soka\u011f\u0131"}}, {"type": "node", "id": 5564021722, "lat": 39.9494877, "lon": 32.7688123, "tags": {"addr:city": "Ankara", "addr:district": "Yenimahalle", "addr:housenumber": "1/10", "addr:neighbourhood": "Macun Mahallesi", "addr:postcode": "06200", "addr:street": "Bat\u0131 Bulvar\u0131", "amenity": "restaurant", "name": "\u015eAN \u0130SKENDER"}}, {"type": "node", "id": 5564810763, "lat": 39.9489945, "lon": 32.7686646, "tags": {"addr:city": "Ankara", "addr:district": "Yenimahalle", "addr:housenumber": "1/66", "addr:neighbourhood": "Macun Mahallesi", "addr:postcode": "06200", "addr:street": "Bat\u0131 Bulvar\u0131", "amenity": "restaurant", "name": "NAR RESTAURANT"}}, {"type": "node", "id": 5943515154, "lat": 40.1159309, "lon": 32.9938956, "tags": {"amenity": "cafe", "name": "Cakes & Bakes"}}, {"type": "node", "id": 6127088511, "lat": 40.1332919, "lon": 33.0846566}, {"type": "node", "id": 6127088512, "lat": 40.1332938, "lon": 33.0849249}, {"type": "node", "id": 6127151747, "lat": 40.1331486, "lon": 33.0849276}, {"type": "node", "id": 6127151748, "lat": 40.133142, "lon": 33.0846584}, {"type": "node", "id": 6132686899, "lat": 40.1305749, "lon": 33.0863207, "tags": {"amenity": "restaurant", "name": "Onur Pide Kebap"}}, {"type": "node", "id": 6132686900, "lat": 40.1306686, "lon": 33.0864478, "tags": {"amenity": "restaurant", "name": "Nadir Kebap"}}, {"type": "node", "id": 6132686904, "lat": 40.1306028, "lon": 33.0867236, "tags": {"amenity": "restaurant", "name": "K\u00f6fteci Bodur"}}, {"type": "node", "id": 6216255285, "lat": 40.1149346, "lon": 32.9912025, "tags": {"amenity": "cafe", "name:en": "Primeclass VIP Lounge", "name:es": "Primeclass VIP Lounge"}}, {"type": "node", "id": 6256013405, "lat": 39.9354787, "lon": 32.8942862, "tags": {"amenity": "restaurant", "delivery": "yes", "name": "Yanar D\u00f6ner'is", "outdoor_seating": "yes", "takeaway": "yes"}}, {"type": "node", "id": 6271536019, "lat": 39.9693482, "lon": 32.7124359}, {"type": "node", "id": 6271536021, "lat": 39.9694446, "lon": 32.7119359}, {"type": "node", "id": 6271536022, "lat": 39.9694507, "lon": 32.7120872}, {"type": "node", "id": 6271536023, "lat": 39.9693687, "lon": 32.7120928}, {"type": "node", "id": 6271536024, "lat": 39.969336, "lon": 32.7121328}, {"type": "node", "id": 6315881864, "lat": 39.9669351, "lon": 32.7368333, "tags": {"amenity": "restaurant", "name": "Baran Restaurant"}}, {"type": "node", "id": 6352695785, "lat": 39.9900937, "lon": 32.6428154, "tags": {"amenity": "restaurant", "cuisine": "italian_pizza;italian", "name": "\u0130l Forno", "wheelchair": "limited"}}, {"type": "node", "id": 6370116885, "lat": 39.989878, "lon": 32.6425358, "tags": {"amenity": "cafe", "brand": "Starbucks", "brand:wikidata": "Q37158", "cuisine": "coffee_shop", "name": "Starbucks", "official_name": "Starbucks Coffee", "opening_hours": "Mo-Su 08:00-23:00", "takeaway": "yes", "wheelchair": "yes"}}, {"type": "node", "id": 6370116886, "lat": 39.9898174, "lon": 32.6427595, "tags": {"amenity": "cafe", "brand": "Kahve D\u00fcnyas\u0131", "brand:wikidata": "Q28008050", "cuisine": "coffee_shop", "name": "Kahve D\u00fcnyas\u0131", "takeaway": "yes"}}, {"type": "node", "id": 6673480864, "lat": 39.9731482, "lon": 32.6594703, "tags": {"amenity": "restaurant", "name": "Bosporus D\u00f6ner"}}, {"type": "node", "id": 6766019412, "lat": 39.9668721, "lon": 32.8736203, "tags": {"amenity": "cafe", "name": "Do\u011fu\u015f Simit Cafe"}}, {"type": "node", "id": 6874096453, "lat": 39.9669721, "lon": 32.808963, "tags": {"addr:city": "Ankara", "addr:district": "Yenimahalle", "addr:housenumber": "258/B", "addr:neighbourhood": "\u00c7ar\u015f\u0131", "addr:postcode": "06170", "addr:street": "Miralay Naz\u0131m Bey Soka\u011f\u0131", "amenity": "restaurant", "cuisine": "turkish;middle_eastern", "name": "Urfa Kervan Pide ve Kebap Salonu", "opening_hours": "Mo-Su 08:00-04:30", "phone": "(0312) 343 45 97"}}, {"type": "node", "id": 6874096458, "lat": 39.9662286, "lon": 32.8091128, "tags": {"addr:city": "Ankara", "addr:district": "Yenimahalle", "addr:neighbourhood": "\u00c7ar\u015f\u0131", "addr:postcode": "06170", "addr:street": "Rag\u0131p T\u00fcz\u00fcn Caddesi", "amenity": "restaurant", "cuisine": "turkish;middle_eastern", "name": "\u00d6zler D\u00f6ner", "phone": "(0312) 344 70 70"}}, {"type": "node", "id": 6874096462, "lat": 39.9660778, "lon": 32.8102077, "tags": {"addr:city": "Ankara", "addr:district": "Yenimahalle", "addr:street": "Rag\u0131p T\u00fcz\u00fcn Caddesi", "amenity": "restaurant", "cuisine": "turkish;middle_eastern", "name": "Ekrem Co\u015fkun D\u00f6ner"}}, {"type": "node", "id": 7003952985, "lat": 39.9493872, "lon": 32.8525275, "tags": {"amenity": "restaurant", "name": "Keko"}}, {"type": "node", "id": 7121872194, "lat": 39.9483882, "lon": 32.8439609, "tags": {"addr:city": "Ankara", "addr:district": "Alt\u0131nda\u011f", "addr:neighbourhood": "tesviyeciler cad. iskitler", "addr:street": "Tesviyeciler Caddesi", "amenity": "restaurant", "cuisine": "arnavut_ci\u011feri", "name": "Me\u015fhur Ci\u011ferci Apo", "opening_hours": "Mo-Fr 09:00-17:00", "phone": "05462381316"}}, {"type": "node", "id": 7627059619, "lat": 40.0005476, "lon": 32.7662528, "tags": {"amenity": "restaurant", "name": "Otantik"}}, {"type": "node", "id": 7677217331, "lat": 39.9407999, "lon": 32.9001252, "tags": {"amenity": "cafe", "name": "Seval Pastanesi"}}, {"type": "node", "id": 8494912015, "lat": 39.9719513, "lon": 32.8249995}, {"type": "node", "id": 8494912016, "lat": 39.9718879, "lon": 32.8250038}, {"type": "node", "id": 8494932817, "lat": 39.9718226, "lon": 32.8250009}, {"type": "node", "id": 8494932818, "lat": 39.9718204, "lon": 32.8253676}, {"type": "node", "id": 8494932819, "lat": 39.9718884, "lon": 32.8253666}, {"type": "node", "id": 8494932820, "lat": 39.9719521, "lon": 32.8253723}, {"type": "node", "id": 8762274545, "lat": 40.2047916, "lon": 32.6801243, "tags": {"amenity": "restaurant", "name": "Efsane D\u00f6ner"}}, {"type": "node", "id": 8807727966, "lat": 40.006961, "lon": 32.8628961, "tags": {"amenity": "restaurant", "name": "Dondurmac\u0131mmm"}}, {"type": "node", "id": 9290845544, "lat": 39.975392, "lon": 32.9722526, "tags": {"amenity": "cafe", "name": "Elfida Kahvecim"}}, {"type": "node", "id": 9290871660, "lat": 39.9759394, "lon": 32.970661, "tags": {"amenity": "restaurant", "name": "Diva Pastanesi"}}, {"type": "node", "id": 9302250617, "lat": 39.92776, "lon": 33.0074947, "tags": {"amenity": "cafe", "name:en": "Tas Firin unlu Mammuler"}}, {"type": "node", "id": 9415338488, "lat": 39.9562562, "lon": 32.8329078, "tags": {"amenity": "restaurant", "cuisine": "turkish;regional", "name": "Urfal\u0131m"}}, {"type": "node", "id": 9415338505, "lat": 39.9570071, "lon": 32.833684, "tags": {"amenity": "restaurant", "cuisine": "turkish", "name": "Umut D\u00f6ner"}}, {"type": "node", "id": 9415338516, "lat": 39.9557127, "lon": 32.8331124, "tags": {"amenity": "cafe"}}, {"type": "node", "id": 9415342026, "lat": 39.957964, "lon": 32.8342842, "tags": {"amenity": "cafe"}}, {"type": "node", "id": 9415342027, "lat": 39.9585821, "lon": 32.8343541, "tags": {"amenity": "restaurant", "cuisine": "turkish", "diet:halal": "yes", "name": "Kavurmac\u0131 Hac\u0131"}}, {"type": "node", "id": 9415342029, "lat": 39.9584839, "lon": 32.8342883, "tags": {"amenity": "restaurant", "cuisine": "turkish;regional", "name": "Mis Gurme Ev Yemekleri"}}, {"type": "node", "id": 9415342031, "lat": 39.9583678, "lon": 32.8342196, "tags": {"amenity": "restaurant", "cuisine": "turkish", "name": "Me\u015fhur Ad\u0131yaman \u00c7i\u011fk\u00f6ftecisi \u00d6mer Aybak"}}, {"type": "node", "id": 9415342033, "lat": 39.9557624, "lon": 32.8341073, "tags": {"amenity": "restaurant", "cuisine": "turkish", "name": "\u00c7\u0131lg\u0131n K\u00f6fteci, K\u00f6fte, Pide - Kebap Salonu"}}, {"type": "node", "id": 9421173085, "lat": 39.958786, "lon": 32.8353121, "tags": {"amenity": "cafe", "name": "K\u00fc\u00e7\u00fck Cafe"}}, {"type": "node", "id": 9421173089, "lat": 39.958964, "lon": 32.8377812}, {"type": "node", "id": 9421173090, "lat": 39.9588671, "lon": 32.8377519}, {"type": "node", "id": 9421173091, "lat": 39.9588934, "lon": 32.8376046}, {"type": "node", "id": 9421173092, "lat": 39.9589902, "lon": 32.8376339}, {"type": "node", "id": 9421173112, "lat": 39.9579846, "lon": 32.8330464, "tags": {"amenity": "restaurant", "cuisine": "turkish", "name": "Tu\u011fram Yufka"}}, {"type": "node", "id": 9421178821, "lat": 39.9558992, "lon": 32.8322599, "tags": {"amenity": "restaurant", "cuisine": "turkish", "name": "Elvan Pide ve Kebap Salonu"}}, {"type": "node", "id": 9481807811, "lat": 39.968459, "lon": 32.8191223}, {"type": "node", "id": 9481807812, "lat": 39.9684822, "lon": 32.8192493}, {"type": "node", "id": 9481807813, "lat": 39.9686625, "lon": 32.8191933}, {"type": "node", "id": 9481807814, "lat": 39.9686393, "lon": 32.8190662}, {"type": "node", "id": 9483202189, "lat": 39.9696526, "lon": 32.8230768, "tags": {"amenity": "cafe", "brand": "Kahve D\u00fcnyas\u0131", "brand:wikidata": "Q28008050", "cuisine": "coffee_shop", "name": "Kahve D\u00fcnyas\u0131", "takeaway": "yes"}}, {"type": "node", "id": 9483202190, "lat": 39.9696255, "lon": 32.8224329, "tags": {"amenity": "cafe", "brand": "Starbucks", "brand:wikidata": "Q37158", "brand:wikipedia": "en:Starbucks", "cuisine": "coffee_shop", "name": "Starbucks", "official_name": "Starbucks Coffee", "takeaway": "yes"}}, {"type": "node", "id": 9559173237, "lat": 39.9481191, "lon": 32.83486, "tags": {"amenity": "restaurant", "diet:halal": "yes", "name": "Alt\u0131n Mek\u00e2n"}}, {"type": "node", "id": 9661819676, "lat": 39.9507883, "lon": 32.8368108, "tags": {"amenity": "restaurant", "cuisine": "doner;regional;turkish", "name": "Ekrem Co\u015fkun"}}, {"type": "node", "id": 9669579098, "lat": 40.0060662, "lon": 32.9310151}, {"type": "node", "id": 9669579099, "lat": 40.0059806, "lon": 32.9310361}, {"type": "node", "id": 9669579100, "lat": 40.0060112, "lon": 32.9312361}, {"type": "node", "id": 9669579101, "lat": 40.006097, "lon": 32.9312161}, {"type": "node", "id": 9669652716, "lat": 39.9681848, "lon": 32.9137535}, {"type": "node", "id": 9669655417, "lat": 39.9680718, "lon": 32.9137535}, {"type": "node", "id": 9669655418, "lat": 39.9680778, "lon": 32.9139292}, {"type": "node", "id": 9669655419, "lat": 39.9681091, "lon": 32.9140673}, {"type": "node", "id": 9669655420, "lat": 39.9681644, "lon": 32.9141692}, {"type": "node", "id": 9669655421, "lat": 39.9682041, "lon": 32.9141363}, {"type": "node", "id": 9669655422, "lat": 39.9681956, "lon": 32.9141128}, {"type": "node", "id": 9669655423, "lat": 39.9682666, "lon": 32.9140626}, {"type": "node", "id": 9669655424, "lat": 39.9682197, "lon": 32.9139731}, {"type": "node", "id": 9669655425, "lat": 39.9682534, "lon": 32.9139464}, {"type": "node", "id": 9669655426, "lat": 39.9682137, "lon": 32.9138445}, {"type": "node", "id": 9669655427, "lat": 39.9681872, "lon": 32.913846}, {"type": "node", "id": 9669715973, "lat": 39.9854558, "lon": 32.7431943, "tags": {"amenity": "restaurant", "name": "K\u00f6seo\u011flu \u00e7\u00f6p \u015fi\u015f"}}, {"type": "node", "id": 9701437195, "lat": 39.9694475, "lon": 32.8197668}, {"type": "node", "id": 9701437196, "lat": 39.9693151, "lon": 32.8197694}, {"type": "node", "id": 9701437197, "lat": 39.969317, "lon": 32.8199371}, {"type": "node", "id": 9701437198, "lat": 39.9694494, "lon": 32.8199345}, {"type": "node", "id": 9701437203, "lat": 39.9693193, "lon": 32.8202256}, {"type": "node", "id": 9701437204, "lat": 39.9692299, "lon": 32.8202225}, {"type": "node", "id": 9701437205, "lat": 39.9692265, "lon": 32.8203893}, {"type": "node", "id": 9701437206, "lat": 39.9693158, "lon": 32.8203925}, {"type": "node", "id": 9704106572, "lat": 39.976595, "lon": 32.8690003}, {"type": "node", "id": 9704106573, "lat": 39.9767757, "lon": 32.8686743}, {"type": "node", "id": 9704106574, "lat": 39.9767527, "lon": 32.8686525}, {"type": "node", "id": 9704106575, "lat": 39.9768135, "lon": 32.8685431}, {"type": "node", "id": 9704106576, "lat": 39.9769167, "lon": 32.8686408}, {"type": "node", "id": 9704106577, "lat": 39.9768925, "lon": 32.8686842}, {"type": "node", "id": 9704106578, "lat": 39.9769308, "lon": 32.8687206}, {"type": "node", "id": 9704106579, "lat": 39.9769399, "lon": 32.8687043}, {"type": "node", "id": 9704106580, "lat": 39.9772562, "lon": 32.8690056}, {"type": "node", "id": 9704106581, "lat": 39.9771691, "lon": 32.8691614}, {"type": "node", "id": 9704106582, "lat": 39.9771366, "lon": 32.8691304}, {"type": "node", "id": 9704106583, "lat": 39.977094, "lon": 32.8692066}, {"type": "node", "id": 9704106584, "lat": 39.9770144, "lon": 32.8691309}, {"type": "node", "id": 9704106585, "lat": 39.9769942, "lon": 32.869167}, {"type": "node", "id": 9704106586, "lat": 39.9770075, "lon": 32.8691796}, {"type": "node", "id": 9704106587, "lat": 39.9769262, "lon": 32.869326}, {"type": "node", "id": 9704106588, "lat": 39.9768115, "lon": 32.8692175}, {"type": "node", "id": 9704106589, "lat": 39.9767504, "lon": 32.8693276}, {"type": "node", "id": 9704106590, "lat": 39.9767333, "lon": 32.8693114}, {"type": "node", "id": 9704106591, "lat": 39.9766991, "lon": 32.8693731}, {"type": "node", "id": 9704106592, "lat": 39.9766484, "lon": 32.8693252}, {"type": "node", "id": 9704106593, "lat": 39.9766798, "lon": 32.8692687}, {"type": "node", "id": 9704106594, "lat": 39.9766458, "lon": 32.8692367}, {"type": "node", "id": 9704106595, "lat": 39.9767144, "lon": 32.8691129}, {"type": "node", "id": 9817873876, "lat": 39.9510205, "lon": 32.8346002}, {"type": "node", "id": 9817873902, "lat": 39.9510071, "lon": 32.8345841}, {"type": "node", "id": 9817873903, "lat": 39.9510371, "lon": 32.8346203}, {"type": "node", "id": 9817873904, "lat": 39.9509877, "lon": 32.8346901}, {"type": "node", "id": 9817873905, "lat": 39.9509577, "lon": 32.8346539}, {"type": "node", "id": 9906531118, "lat": 40.0504518, "lon": 32.6557429, "tags": {"amenity": "cafe"}}, {"type": "node", "id": 10067465117, "lat": 39.9439905, "lon": 32.8572156, "tags": {"amenity": "cafe", "name:en": "Lokma"}}, {"type": "node", "id": 10117166737, "lat": 39.9262663, "lon": 33.0028329, "tags": {"amenity": "restaurant"}}, {"type": "node", "id": 10126069171, "lat": 39.941635, "lon": 32.8390057, "tags": {"amenity": "restaurant", "cuisine": "turkish", "name": "K\u0131r Lokantas\u0131"}}, {"type": "node", "id": 10244339709, "lat": 39.9404926, "lon": 32.8558427, "tags": {"amenity": "restaurant", "cuisine": "turkish", "name": "Urfali Haci Mehmet"}}, {"type": "node", "id": 10249147409, "lat": 40.038977, "lon": 32.9092984, "tags": {"amenity": "cafe", "name": "Baklava-B\u00f6rek"}}, {"type": "node", "id": 10669746385, "lat": 39.9707597, "lon": 32.71392}, {"type": "node", "id": 10669746386, "lat": 39.9707023, "lon": 32.7138213}, {"type": "node", "id": 10669746387, "lat": 39.970506, "lon": 32.7140158}, {"type": "node", "id": 10669746388, "lat": 39.9705634, "lon": 32.7141144}, {"type": "node", "id": 10725705098, "lat": 39.9602176, "lon": 32.711304, "tags": {"amenity": "cafe", "brand": "% Arabica", "brand:wikidata": "Q107639197", "cuisine": "coffee_shop", "name": "% Arabica", "takeaway": "yes"}}, {"type": "node", "id": 10725705209, "lat": 39.963408, "lon": 32.7106309}, {"type": "node", "id": 10725705210, "lat": 39.9633545, "lon": 32.7108343}, {"type": "node", "id": 10725705211, "lat": 39.9635639, "lon": 32.7109282}, {"type": "node", "id": 10725705212, "lat": 39.9636175, "lon": 32.7107247}, {"type": "node", "id": 10770739151, "lat": 39.959519, "lon": 32.7133754, "tags": {"amenity": "cafe", "internet_access": "wlan", "internet_access:fee": "no", "name": "Daphne"}}, {"type": "node", "id": 10770739152, "lat": 39.9596862, "lon": 32.713481, "tags": {"amenity": "cafe", "name": "Jojowa"}}, {"type": "node", "id": 10770739154, "lat": 39.9608908, "lon": 32.7094594, "tags": {"amenity": "restaurant", "cuisine": "turkish", "name": "Day\u0131 K\u00fcrek Lahmacun"}}, {"type": "node", "id": 10874599138, "lat": 39.9919284, "lon": 32.799959, "tags": {"amenity": "cafe", "name": "\u015eampion D\u00f6ner"}}, {"type": "node", "id": 10887496823, "lat": 39.9684703, "lon": 32.8191843}, {"type": "node", "id": 10892774694, "lat": 39.962106, "lon": 32.7694984}, {"type": "node", "id": 10892774695, "lat": 39.9621614, "lon": 32.7690984}, {"type": "node", "id": 10892776932, "lat": 39.9618619, "lon": 32.7696045, "tags": {"amenity": "cafe", "brand": "Mado", "brand:wikidata": "Q17116336", "cuisine": "coffee_shop", "name": "Mado", "takeaway": "yes"}}, {"type": "node", "id": 10892776933, "lat": 39.9618981, "lon": 32.7711859, "tags": {"amenity": "cafe", "brand": "Starbucks", "brand:wikidata": "Q37158", "cuisine": "coffee_shop", "name": "Starbucks", "official_name": "Starbucks Coffee", "takeaway": "yes"}}, {"type": "node", "id": 10892776936, "lat": 39.9623015, "lon": 32.7697595, "tags": {"amenity": "cafe", "name": "Demlik"}}, {"type": "node", "id": 10892776972, "lat": 39.9674409, "lon": 32.7914014, "tags": {"amenity": "restaurant", "name": "Merkez Lokantas\u0131"}}, {"type": "node", "id": 10892777031, "lat": 39.9604052, "lon": 32.7816414}, {"type": "node", "id": 10892777032, "lat": 39.9602703, "lon": 32.7816393}, {"type": "node", "id": 10892777033, "lat": 39.9600532, "lon": 32.7817938}, {"type": "node", "id": 10892777034, "lat": 39.9599956, "lon": 32.7820877}, {"type": "node", "id": 10892777035, "lat": 39.9603854, "lon": 32.781901}, {"type": "node", "id": 10892777036, "lat": 39.9601371, "lon": 32.7860381}, {"type": "node", "id": 10892777037, "lat": 39.960091, "lon": 32.7862591}, {"type": "node", "id": 10892777038, "lat": 39.9599512, "lon": 32.7862119}, {"type": "node", "id": 10892777039, "lat": 39.959994, "lon": 32.7859995}, {"type": "node", "id": 10892777206, "lat": 39.9613382, "lon": 32.781513, "tags": {"amenity": "cafe", "name": "Simit\u00e7i Baba"}}, {"type": "node", "id": 10892777224, "lat": 39.9589149, "lon": 32.7871193, "tags": {"amenity": "cafe"}}, {"type": "node", "id": 10892777239, "lat": 39.958136, "lon": 32.7909482, "tags": {"amenity": "cafe", "name": "Kahvehall"}}, {"type": "node", "id": 10892777253, "lat": 39.9660343, "lon": 32.7930569, "tags": {"amenity": "restaurant", "cuisine": "turkish", "name": "Yaprak D\u00f6nercisi", "outdoor_seating": "no"}}, {"type": "node", "id": 10918255723, "lat": 39.973887, "lon": 32.9636176, "tags": {"addr:city": "Ankara", "addr:street": "Karap\u00fcr\u00e7ek Caddesi", "amenity": "restaurant", "cuisine": "kebab;pide;d\u00f6ner", "name": "Arzu Pide Kebap"}}, {"type": "node", "id": 11008074049, "lat": 39.9741916, "lon": 32.7746053}, {"type": "node", "id": 11008074056, "lat": 39.974278, "lon": 32.774599}, {"type": "node", "id": 11008074057, "lat": 39.9742907, "lon": 32.7744829}, {"type": "node", "id": 11008074058, "lat": 39.9742005, "lon": 32.774474}, {"type": "node", "id": 11029449041, "lat": 40.2386353, "lon": 32.6895162, "tags": {"amenity": "restaurant", "indoor_seating": "no", "name": "Durak Piknik Hicabi'nin Yeri", "outdoor_seating": "yes"}}, {"type": "node", "id": 11067029199, "lat": 39.9602017, "lon": 32.7113677, "tags": {"amenity": "cafe", "brand": "Starbucks", "brand:wikidata": "Q37158", "cuisine": "coffee_shop", "name": "Starbucks", "official_name": "Starbucks Coffee", "takeaway": "yes"}}, {"type": "node", "id": 11099994791, "lat": 39.941109, "lon": 32.8550566, "tags": {"amenity": "restaurant", "cuisine": "turkish", "name": "Ankara D\u00f6ner"}}, {"type": "node", "id": 11111952619, "lat": 39.9385917, "lon": 32.8621545, "tags": {"amenity": "cafe", "name": "M\u00fcze'nin Kahvesi"}}, {"type": "node", "id": 11148259318, "lat": 39.9803257, "lon": 32.7584324}, {"type": "node", "id": 11148259319, "lat": 39.9801814, "lon": 32.7585116}, {"type": "node", "id": 11148259320, "lat": 39.980053, "lon": 32.7585821}, {"type": "node", "id": 11148259321, "lat": 39.980102, "lon": 32.7587341}, {"type": "node", "id": 11148259322, "lat": 39.9803747, "lon": 32.7585844}, {"type": "node", "id": 11360660582, "lat": 39.9581163, "lon": 32.816934, "tags": {"amenity": "cafe", "brand": "% Arabica", "brand:wikidata": "Q107639197", "cuisine": "coffee_shop", "name": "% Arabica", "takeaway": "yes", "website": "https://arabicacoffee.com.tr/"}}, {"type": "node", "id": 11431647895, "lat": 39.969701, "lon": 32.8349871, "tags": {"addr:city": "Ke\u00e7i\u00f6ren/Ankara", "addr:district": "Yenimahalle", "addr:postcode": "06170", "addr:street": "Halil Sezai Erkut Caddesi", "amenity": "cafe", "cuisine": "turkish", "name": "oskar kafe"}}, {"type": "node", "id": 11431647897, "lat": 39.9705019, "lon": 32.8348984, "tags": {"addr:city": "Ke\u00e7i\u00f6ren/Ankara", "addr:district": "Yenimahalle", "addr:neighbourhood": "a\u015fa\u011f\u0131e\u011flence mahallesi", "addr:postcode": "06000", "addr:street": "Etlik Caddesi", "amenity": "cafe", "cuisine": "turkish", "name": "k\u0131r\u0131nt\u0131 f\u0131r\u0131n"}}, {"type": "node", "id": 11431647899, "lat": 39.9714766, "lon": 32.8336955, "tags": {"addr:city": "Ke\u00e7i\u00f6ren/Ankara", "addr:district": "Yenimahalle", "addr:neighbourhood": "a\u015fa\u011f\u0131e\u011flence mahallesi", "addr:postcode": "06600", "addr:street": "Etlik Caddesi", "amenity": "restaurant", "cuisine": "turkish", "name": "komagene"}}, {"type": "node", "id": 11446582469, "lat": 39.970964, "lon": 32.8613907, "tags": {"amenity": "restaurant", "cuisine": "grill;kebab;turkish", "name": "\u015e\u00f6hretler Pide ve Kebap Salonu"}}, {"type": "node", "id": 11449202669, "lat": 39.9714915, "lon": 32.8617347, "tags": {"amenity": "cafe", "name": "\u00c7amalt\u0131 Pastanesi Cafe-Bistro"}}, {"type": "node", "id": 11559214222, "lat": 40.0003884, "lon": 32.8710901, "tags": {"amenity": "restaurant", "check_date": "2024-01-28", "name": "Alaturkuaz D\u00f6ner"}}, {"type": "node", "id": 11592686117, "lat": 39.9768228, "lon": 32.8668944, "tags": {"amenity": "cafe", "brand": "Starbucks", "brand:wikidata": "Q37158", "cuisine": "coffee_shop", "internet_access": "wlan", "name": "Starbucks", "official_name": "Starbucks Coffee", "takeaway": "yes"}}, {"type": "node", "id": 11592686119, "lat": 39.9750654, "lon": 32.8842572, "tags": {"amenity": "cafe", "brand": "Starbucks", "brand:wikidata": "Q37158", "cuisine": "coffee_shop", "name": "Starbucks", "official_name": "Starbucks Coffee", "takeaway": "yes"}}, {"type": "node", "id": 11715925172, "lat": 39.9805667, "lon": 32.9911239}, {"type": "node", "id": 11715925173, "lat": 39.980579, "lon": 32.9912418}, {"type": "node", "id": 11715925174, "lat": 39.9804189, "lon": 32.991282}, {"type": "node", "id": 11715925175, "lat": 39.9803963, "lon": 32.9911614}, {"type": "node", "id": 11715925176, "lat": 39.9802765, "lon": 32.9910327}, {"type": "node", "id": 11715925177, "lat": 39.980381, "lon": 32.9912493}, {"type": "node", "id": 11715925178, "lat": 39.9803058, "lon": 32.9912482}, {"type": "node", "id": 11715925179, "lat": 39.9802908, "lon": 32.9911936}, {"type": "node", "id": 11715925180, "lat": 39.980213, "lon": 32.9910686}, {"type": "node", "id": 11715925181, "lat": 39.9806709, "lon": 32.991094}, {"type": "node", "id": 11715925182, "lat": 39.9806873, "lon": 32.9912502}, {"type": "node", "id": 11715925183, "lat": 39.9805915, "lon": 32.9912639}, {"type": "node", "id": 11715925184, "lat": 39.9805691, "lon": 32.9910979}, {"type": "node", "id": 11760425140, "lat": 40.2391329, "lon": 33.0269397, "tags": {"addr:city": "Ankara", "addr:district": "\u00c7ubuk", "addr:housenumber": "2-B", "addr:neighbourhood": "Barbaros", "addr:postcode": "06760", "addr:street": "Kurbantepe Caddesi", "amenity": "restaurant", "name": "Turkuaz D\u00f6ner"}}, {"type": "node", "id": 11770041052, "lat": 39.9497518, "lon": 32.8446546}, {"type": "node", "id": 11770041053, "lat": 39.9498739, "lon": 32.8447952}, {"type": "node", "id": 11770041054, "lat": 39.9497961, "lon": 32.8449101}, {"type": "node", "id": 11770041055, "lat": 39.949674, "lon": 32.8447694}, {"type": "node", "id": 11846258789, "lat": 40.0995543, "lon": 32.9811669, "tags": {"addr:city": "Ankara", "addr:postcode": "06750", "addr:street": "Esenboga Havalimani Yolu 24. Km", "amenity": "restaurant", "cuisine": "regional", "name": "Kavakli Restaurant", "opening_hours": "Mo-Sa 08:00-23:30, Su 08:00-22:00", "phone": "+90 312 3980510", "website": "https://www.kavaklirestaurant.com/"}}, {"type": "node", "id": 11961177169, "lat": 39.9494828, "lon": 32.8526336, "tags": {"addr:housenumber": "112", "amenity": "restaurant", "cuisine": "beef_bowl;grill", "phone": "03123244286"}}, {"type": "node", "id": 12015494270, "lat": 39.9582041, "lon": 32.7905139, "tags": {"addr:street": "\u015eehit Cem Ersever Caddesi", "amenity": "cafe", "name": "Hamur House"}}, {"type": "node", "id": 12040064220, "lat": 39.9625947, "lon": 32.8713977, "tags": {"addr:city": "Ankara", "addr:neighbourhood": "Ayd\u0131nl\u0131kevler", "addr:postcode": "06130", "addr:street": "\u015eehit Mustafa Ba\u015f Sokak", "amenity": "restaurant", "name": "\u015eerif Usta'n\u0131n yeri"}}, {"type": "node", "id": 12122234871, "lat": 39.9826417, "lon": 32.7647517, "tags": {"amenity": "cafe", "cuisine": "ice_cream", "name": "Toros Dondurma", "outdoor_seating": "yes"}}, {"type": "node", "id": 12150239825, "lat": 39.9764138, "lon": 32.8275227, "tags": {"amenity": "restaurant", "cuisine": "turkish", "name": "Eray Pide Kebap Salonu", "phone": "+90  312 352 76 87"}}, {"type": "node", "id": 12162401429, "lat": 39.9729671, "lon": 32.754106, "tags": {"amenity": "restaurant", "cuisine": "chicken", "name": "Mustafa Be\u015fler K\u00f6zde Pili\u00e7"}}, {"type": "node", "id": 12162609161, "lat": 39.9786845, "lon": 32.7374833, "tags": {"amenity": "cafe", "name": "Vatan F\u0131r\u0131n", "shop": "bakery"}}, {"type": "node", "id": 12162609166, "lat": 39.9870919, "lon": 32.7426073, "tags": {"amenity": "cafe", "name": "Somuncu Dede", "shop": "bakery"}}, {"type": "node", "id": 12170388501, "lat": 39.9702683, "lon": 32.7864665, "tags": {"amenity": "cafe", "name": "Mackbear Coffee", "outdoor_seating": "no"}}, {"type": "node", "id": 12310208388, "lat": 39.9728782, "lon": 32.6568701, "tags": {"amenity": "restaurant", "cuisine": "turkish", "name": "Me\u015fhur G\u00fcl\u00e7imen Aspava"}}, {"type": "node", "id": 12358888801, "lat": 39.9663515, "lon": 32.8667276, "tags": {"amenity": "cafe", "name": "Mavi Tuna"}}, {"type": "node", "id": 12358888802, "lat": 39.9661994, "lon": 32.8659174, "tags": {"amenity": "cafe", "name": "Mozaic"}}, {"type": "node", "id": 12363025823, "lat": 39.9636855, "lon": 32.7016614}, {"type": "node", "id": 12363025824, "lat": 39.9636442, "lon": 32.7016086}, {"type": "node", "id": 12363025825, "lat": 39.9636021, "lon": 32.701572}, {"type": "node", "id": 12363025826, "lat": 39.9635507, "lon": 32.7015598}, {"type": "node", "id": 12363025827, "lat": 39.9635312, "lon": 32.70157}, {"type": "node", "id": 12363025828, "lat": 39.9635149, "lon": 32.7016228}, {"type": "node", "id": 12363025829, "lat": 39.9634783, "lon": 32.7017641}, {"type": "node", "id": 12363025830, "lat": 39.9636372, "lon": 32.7018322}, {"type": "node", "id": 12365101158, "lat": 39.9684751, "lon": 32.7845892, "tags": {"amenity": "restaurant", "name": "Halil \u0130brahim Sofras\u0131"}}, {"type": "node", "id": 12365101160, "lat": 39.9697219, "lon": 32.7849033, "tags": {"amenity": "restaurant", "name": "Ya\u011fmur Lokantas\u0131"}}, {"type": "node", "id": 12365117913, "lat": 39.9685285, "lon": 32.7842442, "tags": {"amenity": "cafe", "name": "Cafe 12"}}, {"type": "node", "id": 12369345257, "lat": 39.970377, "lon": 32.7140552}, {"type": "node", "id": 12369345258, "lat": 39.9702467, "lon": 32.714187}, {"type": "node", "id": 12369345259, "lat": 39.970188, "lon": 32.7140882}, {"type": "node", "id": 12369345260, "lat": 39.9703182, "lon": 32.7139564}, {"type": "node", "id": 12369345261, "lat": 39.9701723, "lon": 32.7141354}, {"type": "node", "id": 12369345262, "lat": 39.9701295, "lon": 32.7140269}, {"type": "node", "id": 12369345263, "lat": 39.9700084, "lon": 32.7141082}, {"type": "node", "id": 12369345264, "lat": 39.9700512, "lon": 32.7142166}, {"type": "node", "id": 12369353201, "lat": 39.9882921, "lon": 32.8202374, "tags": {"addr:housenumber": "98C", "addr:postcode": "06220", "addr:street": "Ba\u011fc\u0131 Caddesi", "amenity": "restaurant", "brand": "K\u00f6fteci Yusuf", "brand:wikidata": "Q126125081", "cuisine": "turkish", "name": "K\u00f6fteci Yusuf", "opening_hours": "Mo-Su 09:00-23:00", "self_service": "no", "website": "https://www.kofteciyusuf.com/"}}, {"type": "node", "id": 12505378988, "lat": 39.9684906, "lon": 32.7170715, "tags": {"amenity": "cafe", "cuisine": "coffee_shop", "name": "Colombia Coffee Bat\u0131kent"}}, {"type": "node", "id": 12505419726, "lat": 39.9676361, "lon": 32.7181969, "tags": {"amenity": "cafe", "cuisine": "coffee_shop", "name": "Coffee 1919 Kocatepe Bat\u0131kent"}}, {"type": "node", "id": 12564858345, "lat": 39.9632662, "lon": 32.7354369, "tags": {"addr:city": "Ankara", "addr:district": "Yenimahalle", "addr:housenumber": "6/41", "addr:neighbourhood": "U\u011fur Mumcu Mahallesi", "addr:street": "1606. Sokak", "amenity": "restaurant", "cuisine": "kebab;chicken", "delivery": "yes", "name": "Ta\u015ff\u0131r\u0131n Pidem Bat\u0131kent", "phone": "+90 536 822 0121", "takeaway": "yes"}}, {"type": "node", "id": 12640711068, "lat": 39.9669789, "lon": 32.7892339, "tags": {"amenity": "restaurant", "cuisine": "turkish", "name": "Sayg\u0131lar Pide & Kebap Salonu", "phone": "+903457189"}}, {"type": "node", "id": 12640732411, "lat": 39.9675162, "lon": 32.7875911, "tags": {"amenity": "restaurant", "name": "Bigeay 2 Malatya Y\u00f6resel Ev Yemekleri"}}, {"type": "node", "id": 12640753494, "lat": 39.9668045, "lon": 32.790751, "tags": {"amenity": "cafe", "name": "Cadde Gurme"}}, {"type": "node", "id": 12640755326, "lat": 39.9678216, "lon": 32.7879521, "tags": {"amenity": "restaurant", "cuisine": "turkish", "name": "Beyzade Urfal\u0131", "phone": "+903321080"}}, {"type": "node", "id": 12640755904, "lat": 39.9663095, "lon": 32.792206, "tags": {"amenity": "cafe", "name": "Pa\u015faZade Kahve Evi"}}, {"type": "node", "id": 12645241676, "lat": 39.9680966, "lon": 32.785899, "tags": {"amenity": "cafe", "name": "Demirel K\u0131raathanesi"}}, {"type": "node", "id": 12645248605, "lat": 39.9702354, "lon": 32.7861558, "tags": {"amenity": "cafe", "name": "\u00c7al\u0131 Kafe"}}, {"type": "node", "id": 12651728639, "lat": 39.9690943, "lon": 32.7854754, "tags": {"amenity": "cafe", "survey:date": "2025-03-11"}}, {"type": "node", "id": 12738608329, "lat": 40.2532361, "lon": 32.8037594, "tags": {"addr:city": "Ankara", "addr:district": "Kahramankazan", "addr:housenumber": "No:132", "addr:neighbourhood": "Yakupdervi\u015f Mah.", "addr:postcode": "06980", "addr:street": "Kav\u015fakkaya Baraj\u0131 Kurtbo\u011faz\u0131 Baraj\u0131 \u0130letim Hatt\u0131", "amenity": "restaurant", "cuisine": "regional;hayvan_ve_hayvansal_\u00fcr\u00fcnler", "diet:halal": "yes", "name": "M\u00c7 Besicilik", "opening_hours": "Mo-Su 09:00-21:00", "phone": "+905076871011"}}, {"type": "node", "id": 12740094932, "lat": 39.961576, "lon": 32.7404844, "tags": {"addr:city": "Ankara", "addr:district": "Yenimahalle", "addr:neighbourhood": "U\u011fur Mumcu Mahallesi", "amenity": "cafe"}}, {"type": "node", "id": 12741588801, "lat": 39.9676305, "lon": 32.787173, "tags": {"amenity": "cafe", "name": "Coa & Co", "survey:date": "2025-04-09"}}, {"type": "node", "id": 12742499031, "lat": 39.9627145, "lon": 32.8745081, "tags": {"addr:city": "Ankara", "addr:district": "Alt\u0131nda\u011f", "addr:housenumber": "30A", "addr:neighbourhood": "Ayd\u0131nl\u0131kevler", "addr:postcode": "06130", "addr:street": "\u00c7evreli Caddesi", "amenity": "cafe", "cuisine": "coffee_shop", "internet_access": "yes", "name": "Coffee de Madrid Ayd\u0131nl\u0131kevler", "website": "https:/coffeedemadrid.com.tr"}}, {"type": "node", "id": 12742519450, "lat": 39.9825767, "lon": 32.6098926, "tags": {"addr:city": "Ankara", "addr:district": "Etimesgut", "addr:housenumber": "2A", "addr:neighbourhood": "Tunahan", "addr:postcode": "06824", "addr:street": "Dumlup\u0131nar 30 A\u011fustos Caddesi", "amenity": "cafe", "cuisine": "coffee_shop", "internet_access": "yes", "name": "Coffee de Madrid Metromall", "website": "https://coffeedemadrid.com.tr"}}, {"type": "node", "id": 12742734501, "lat": 39.9783095, "lon": 32.8706192, "tags": {"addr:city": "Ankara", "addr:district": "Ke\u00e7i\u00f6ren", "addr:housenumber": "12B", "addr:neighbourhood": "\u015fefkat mahallesi", "addr:postcode": "06100", "addr:street": "Cumhuriyet Caddesi", "amenity": "cafe", "cuisine": "coffee_shop", "internet_access": "yes", "internet_access:fee": "no", "name": "Coffee de Madrid Kalaba", "website": "https://coffeedemadrid.com.tr"}}, {"type": "node", "id": 12745991120, "lat": 39.9919236, "lon": 32.7465906, "tags": {"addr:city": "Ankara", "addr:district": "Yenimahalle", "addr:neighbourhood": "\u0130vedik OSB", "addr:street": "Melih G\u00f6k\u00e7ek Bulvar\u0131", "amenity": "cafe", "name": "Coffee Manja"}}, {"type": "node", "id": 12745991123, "lat": 39.9917743, "lon": 32.7461837, "tags": {"addr:city": "Ankara", "addr:district": "Yenimahalle", "addr:neighbourhood": "\u0130vedik OSB", "addr:street": "Melih G\u00f6k\u00e7ek Bulvar\u0131", "amenity": "restaurant", "name": "Bize Ci\u011fer"}}, {"type": "node", "id": 12745991131, "lat": 39.9915181, "lon": 32.7453223, "tags": {"addr:city": "Ankara", "addr:district": "Yenimahalle", "addr:neighbourhood": "\u0130vedik OSB", "addr:street": "Melih G\u00f6k\u00e7ek Bulvar\u0131", "amenity": "restaurant", "cuisine": "dessert", "name": "Sel\u00e7uklu Tulumbac\u0131s\u0131"}}, {"type": "node", "id": 12745991137, "lat": 39.9895206, "lon": 32.7408961, "tags": {"amenity": "restaurant", "cuisine": "steak_house", "name": "Itrizade"}}, {"type": "node", "id": 12745991139, "lat": 39.9899875, "lon": 32.7403142, "tags": {"addr:city": "Ankara", "addr:district": "Yenimahalle", "addr:neighbourhood": "\u0130vedik OSB", "addr:street": "Melih G\u00f6k\u00e7ek Bulvar\u0131", "amenity": "restaurant", "name": "\u0130vedi D\u00f6ner"}}, {"type": "node", "id": 12745991142, "lat": 39.989945, "lon": 32.7401173, "tags": {"addr:city": "Ankara", "addr:district": "Yenimahalle", "addr:neighbourhood": "\u0130vedik OSB", "addr:street": "Melih G\u00f6k\u00e7ek Bulvar\u0131", "amenity": "restaurant", "name": "D\u00f6nerci \u00d6mer"}}, {"type": "node", "id": 12745991143, "lat": 39.9899265, "lon": 32.7400301, "tags": {"addr:city": "Ankara", "addr:district": "Yenimahalle", "addr:neighbourhood": "\u0130vedik OSB", "addr:street": "Melih G\u00f6k\u00e7ek Bulvar\u0131", "amenity": "restaurant", "name": "Kanat\u00e7\u0131 Barbar"}}, {"type": "node", "id": 12745991152, "lat": 39.9880321, "lon": 32.7419061, "tags": {"addr:city": "Ankara", "addr:district": "Yenimahalle", "addr:neighbourhood": "\u0130vedik OSB", "amenity": "cafe", "name": "\u0130vogsan Simit\u00e7isi"}}, {"type": "node", "id": 12751771249, "lat": 39.9732619, "lon": 32.739153, "tags": {"amenity": "cafe", "name": "Cafe Caravana"}}, {"type": "node", "id": 12776337097, "lat": 39.9692418, "lon": 32.7839864, "tags": {"addr:city": "Yenimahalle/Ankara", "addr:housenumber": "No:78/C", "addr:neighbourhood": "Demetevler Mah.", "addr:postcode": "06200", "addr:street": "Vatan Caddesi", "amenity": "cafe", "cuisine": "coffee_shop;sandwich;breakfast;cake;pasta;tea", "internet_access": "wlan", "internet_access:fee": "customers", "name": "Stella Simit Coffee", "opening_hours": "Mo-Su 07:00-22:00", "outdoor_seating": "yes"}}, {"type": "node", "id": 12777038787, "lat": 39.9712178, "lon": 32.8381797, "tags": {"addr:city": "Ankara", "addr:district": "Ke\u00e7i\u00f6ren", "addr:housenumber": "No: 12/A", "addr:neighbourhood": "Emrah Mah.", "addr:postcode": "06010", "addr:street": "Yavrukurt Sk.", "amenity": "cafe", "cuisine": "pizza;coffee_shop;burger", "drive_through": "yes", "internet_access": "yes", "internet_access:fee": "no", "name": "Marrakesh Garden Etlik", "opening_hours": "Mo-Su 09:00-01:00", "outdoor_seating": "yes", "phone": "0544 428 03 03", "website": "www.marrakeshgardenetlik.com"}}, {"type": "node", "id": 12786374726, "lat": 39.9642505, "lon": 32.7108646, "tags": {"amenity": "cafe", "name": "BelPa Cofee"}}, {"type": "node", "id": 12786386079, "lat": 39.9608565, "lon": 32.7095321, "tags": {"amenity": "restaurant", "name": "Maya D\u00fcr\u00fcm & Lahmacun"}}, {"type": "node", "id": 12786389701, "lat": 39.9610149, "lon": 32.7093373, "tags": {"amenity": "restaurant", "name": "Usul-\u00fc Hatay"}}, {"type": "node", "id": 12815111691, "lat": 39.9662587, "lon": 32.643159, "tags": {"amenity": "cafe", "name": "Majestica Coffee & Chocolate"}}, {"type": "node", "id": 12820903642, "lat": 39.9673809, "lon": 32.6553307, "tags": {"amenity": "restaurant", "name": "Yan Taraf Lounge"}}, {"type": "node", "id": 12839666919, "lat": 39.9437349, "lon": 32.8531822, "tags": {"addr:city": "Ankara", "addr:district": "Alt\u0131nda\u011f", "addr:neighbourhood": "Hac\u0131bayram", "addr:street": "Plevne Caddesi", "amenity": "cafe", "name": "Dab Cafe"}}, {"type": "node", "id": 12844457766, "lat": 39.9903194, "lon": 32.6439523, "tags": {"amenity": "cafe", "name": "Se\u00f1orita Chocolate & Coffee"}}, {"type": "node", "id": 12856389551, "lat": 39.9897369, "lon": 32.6506616}, {"type": "node", "id": 12856389552, "lat": 39.9897311, "lon": 32.650595}, {"type": "node", "id": 12856389553, "lat": 39.989716, "lon": 32.6504446}, {"type": "node", "id": 12856389554, "lat": 39.9898181, "lon": 32.6504295}, {"type": "node", "id": 12856420012, "lat": 39.9902652, "lon": 32.645456}, {"type": "node", "id": 12856420013, "lat": 39.9903677, "lon": 32.6456333}, {"type": "node", "id": 12856420014, "lat": 39.9904267, "lon": 32.6457401}, {"type": "node", "id": 12856420015, "lat": 39.9903442, "lon": 32.6458182}, {"type": "node", "id": 12856420016, "lat": 39.9903122, "lon": 32.6458126}, {"type": "node", "id": 12856420017, "lat": 39.9902644, "lon": 32.645757}, {"type": "node", "id": 12856420018, "lat": 39.9901943, "lon": 32.6456849}, {"type": "node", "id": 12856420019, "lat": 39.9901379, "lon": 32.6455821}, {"type": "node", "id": 12856420020, "lat": 39.9897983, "lon": 32.6457072}, {"type": "node", "id": 12856420021, "lat": 39.9898099, "lon": 32.645776}, {"type": "node", "id": 12856420022, "lat": 39.9898305, "lon": 32.645833}, {"type": "node", "id": 12856420023, "lat": 39.9899416, "lon": 32.6460211}, {"type": "node", "id": 12856420024, "lat": 39.9899877, "lon": 32.6460963}, {"type": "node", "id": 12856420025, "lat": 39.9899811, "lon": 32.6461081}, {"type": "node", "id": 12856420026, "lat": 39.9899243, "lon": 32.646121}, {"type": "node", "id": 12856420027, "lat": 39.9899046, "lon": 32.6461232}, {"type": "node", "id": 12856420028, "lat": 39.9898535, "lon": 32.6460383}, {"type": "node", "id": 12856420029, "lat": 39.9898016, "lon": 32.6459953}, {"type": "node", "id": 12856420030, "lat": 39.9897555, "lon": 32.6459663}, {"type": "node", "id": 12856420031, "lat": 39.9897045, "lon": 32.6459534}, {"type": "node", "id": 12856420032, "lat": 39.9896658, "lon": 32.6459426}, {"type": "node", "id": 12856420033, "lat": 39.9896435, "lon": 32.6459308}, {"type": "node", "id": 12856420034, "lat": 39.9896172, "lon": 32.6458728}, {"type": "node", "id": 12856420035, "lat": 39.9897152, "lon": 32.64579}, {"type": "node", "id": 12856420038, "lat": 39.9907734, "lon": 32.6452165}, {"type": "node", "id": 12856420039, "lat": 39.9907925, "lon": 32.6454048}, {"type": "node", "id": 12856420040, "lat": 39.9910137, "lon": 32.6453667}, {"type": "node", "id": 12856420041, "lat": 39.9909964, "lon": 32.6451954}, {"type": "node", "id": 12856420042, "lat": 39.9908301, "lon": 32.645224}, {"type": "node", "id": 12856420043, "lat": 39.9908284, "lon": 32.645207}, {"type": "node", "id": 12863465912, "lat": 39.9711157, "lon": 32.6528853, "tags": {"amenity": "restaurant", "name": "Ata D\u00f6ner"}}, {"type": "node", "id": 12865691966, "lat": 39.9917685, "lon": 32.6332047, "tags": {"amenity": "restaurant", "name": "Mara\u015fl\u0131 \u00c7orbac\u0131"}}, {"type": "node", "id": 12877366762, "lat": 39.9784056, "lon": 32.6854382}, {"type": "node", "id": 12877366763, "lat": 39.9781991, "lon": 32.6854539}, {"type": "node", "id": 12877366764, "lat": 39.9781972, "lon": 32.6856021}, {"type": "node", "id": 12877366765, "lat": 39.9783975, "lon": 32.6855951}, {"type": "node", "id": 12879421866, "lat": 39.9904009, "lon": 32.6439938, "tags": {"amenity": "restaurant", "name": "Muazzam"}}, {"type": "node", "id": 12900462501, "lat": 39.9683778, "lon": 32.6568315, "tags": {"amenity": "restaurant", "name": "Kuzey Pide"}}, {"type": "way", "id": 230605258, "nodes": [2390929172, 2390929175, 2390929178, 2390929180, 2390929182, 2390929184, 2390929186, 2390929188, 2390929190, 2390929192, 2390929172], "tags": {"amenity": "restaurant", "building": "yes", "cuisine": "regional", "name": "Hacegan Sofras\u0131", "website": "https://hacegansofrasi.net/"}}, {"type": "way", "id": 324060814, "nodes": [3308147391, 3308147392, 3308147393, 3308147394, 3308147395, 3308147396, 3308147391], "tags": {"amenity": "restaurant", "building": "yes", "cuisine": "burger", "ele": "1"}}, {"type": "way", "id": 343976706, "nodes": [3507567031, 3507567032, 3507567033, 3507567034, 3507567031], "tags": {"amenity": "restaurant", "cuisine": "fish", "landuse": "residential", "name": "Adem Doruk Canl\u0131 Alabal\u0131k Tesisleri"}}, {"type": "way", "id": 343979238, "nodes": [3507586338, 3507586339, 3507586340, 3507586341, 3507586338], "tags": {"amenity": "cafe", "building": "yes", "name": "Home Garden 1453"}}, {"type": "way", "id": 343979441, "nodes": [3507590301, 3507590302, 3507590303, 3507590304, 3507590305, 3507590306, 3507590307, 3507590308, 3507590301], "tags": {"amenity": "cafe", "building": "yes", "internet_access": "yes", "name": "Masa Lounge", "smoking": "isolated"}}, {"type": "way", "id": 343979808, "nodes": [3507594293, 3507594294, 3507594295, 3507594296, 3507594293], "tags": {"amenity": "cafe", "building": "yes", "internet_access": "yes", "name": "Butikek Eryaman 2. Etap", "wheelchair": "yes"}}, {"type": "way", "id": 381442426, "nodes": [3846417958, 3846431038, 3846431039, 3846431040, 3846417958], "tags": {"amenity": "cafe", "building": "yes", "name": "Tomurcuk Kafe"}}, {"type": "way", "id": 423602715, "nodes": [4231725230, 4231725224, 4231725215, 4231725207, 4231725201, 4231725193, 4231725178, 4231725175, 4231725170, 4231725167, 4231725168, 4231725173, 4231725177, 4231725190, 4231725198, 4231725210, 4231725213, 4231725217, 4231725218, 4231725222, 4231725226, 4231725228, 4231725232, 4231725234, 4231725236, 4231725239, 4231725242, 4231725240, 4231725237, 4231725235, 4231725233, 4231725246, 4231725243, 4231725230], "tags": {"amenity": "restaurant", "building": "yes", "name": "Ada Restaurant", "wheelchair": "yes"}}, {"type": "way", "id": 423632624, "nodes": [4231917168, 4231917219, 4231917184, 4231917127, 4231917168], "tags": {"amenity": "cafe", "building": "yes", "source": "mapbox"}}, {"type": "way", "id": 423632628, "nodes": [4231917219, 4231917267, 4231917254, 4231917184, 4231917219], "tags": {"amenity": "cafe", "building": "yes", "source": "mapbox"}}, {"type": "way", "id": 423632647, "nodes": [4231917267, 4231917289, 4231917277, 4231917254, 4231917267], "tags": {"amenity": "cafe", "building": "yes", "source": "mapbox"}}, {"type": "way", "id": 423632655, "nodes": [4231917289, 4231917311, 4231917301, 4231917277, 4231917289], "tags": {"amenity": "cafe", "building": "yes", "source": "mapbox"}}, {"type": "way", "id": 423804299, "nodes": [4233466507, 4233466494, 4233466492, 4233466506, 4233466507], "tags": {"amenity": "restaurant", "building": "yes", "name": "YE-AN", "source": "mapbox"}}, {"type": "way", "id": 423804309, "nodes": [4233466547, 4233466544, 4233466553, 4233466556, 4233466547], "tags": {"amenity": "cafe", "building": "yes", "name": "Patika Cafe & Bistro", "source": "mapbox"}}, {"type": "way", "id": 429265473, "nodes": [4283870360, 4283870324, 4283870329, 4283870374, 4283870372, 4283870362, 4283870360], "tags": {"amenity": "restaurant", "building": "yes", "name": "Cumhuriyet Lezzet D\u00fcnyas\u0131", "smoking": "isolated", "source": "mapbox"}}, {"type": "way", "id": 441286124, "nodes": [4390475330, 4390475331, 4390475334, 4390475335, 4390475332, 4390475337, 4390475336, 4390475333, 4390475330], "tags": {"amenity": "restaurant", "name": "Aslanlar K\u0131r Bah\u00e7esi"}}, {"type": "way", "id": 471708264, "nodes": [4658683823, 4658683824, 4658683825, 4658683826, 4658683823], "tags": {"addr:city": "Ankara", "addr:district": "Ke\u00e7i\u00f6ren", "addr:housenumber": "5", "addr:neighbourhood": "Kavac\u0131k Subayevleri Mahallesi", "addr:postcode": "06120", "addr:street": "\u015eht. Makbule Sokak", "amenity": "cafe", "building": "yes", "cuisine": "coffee_shop;ice_cream;french;thai", "name": "Seans Cafe & Bistro", "opening_hours": "Pazartesi - Pazar : 10.00-00.00"}}, {"type": "way", "id": 511397929, "nodes": [5002493886, 5002493887, 5002493888, 5002493889, 5002493886], "tags": {"amenity": "cafe", "building": "yes", "name": "Chef Chef"}}, {"type": "way", "id": 546599789, "nodes": [5282120893, 5282120894, 6271536019, 6271536024, 6271536023, 6271536022, 6271536021, 5282120893], "tags": {"amenity": "cafe", "building": "yes", "name": "Halk Ekmek Kafe", "wheelchair": "yes"}}, {"type": "way", "id": 653816786, "nodes": [6127088512, 6127088511, 6127151748, 6127151747, 6127088512], "tags": {"amenity": "restaurant", "building": "yes", "name": "Onur Park Restaurant"}}, {"type": "way", "id": 914476468, "nodes": [8494912015, 8494912016, 8494932817, 8494932818, 8494932819, 8494932820, 8494912015], "tags": {"amenity": "cafe", "building": "yes"}}, {"type": "way", "id": 1021487388, "nodes": [9421173089, 9421173090, 9421173091, 9421173092, 9421173089], "tags": {"amenity": "restaurant", "building": "yes", "cuisine": "turkish", "name": "Yand\u0131m Ali Kafe & Restoran"}}, {"type": "way", "id": 1028469170, "nodes": [9481807811, 10887496823, 9481807812, 9481807813, 9481807814, 9481807811], "tags": {"amenity": "restaurant", "building": "yes", "name": "Kumrucum"}}, {"type": "way", "id": 1052193239, "nodes": [9669579098, 9669579099, 9669579100, 9669579101, 9669579098], "tags": {"amenity": "cafe", "building": "yes"}}, {"type": "way", "id": 1052196736, "nodes": [9669652716, 9669655417, 9669655418, 9669655419, 9669655420, 9669655421, 9669655422, 9669655423, 9669655424, 9669655425, 9669655426, 9669655427, 9669652716], "tags": {"amenity": "cafe", "building": "yes"}}, {"type": "way", "id": 1055809450, "nodes": [9701437195, 9701437196, 9701437197, 9701437198, 9701437195], "tags": {"amenity": "cafe", "building": "yes", "cuisine": "coffee_shop", "name": "Coffee Lab", "not:brand:wikidata": "Q109568497"}}, {"type": "way", "id": 1055809452, "nodes": [9701437203, 9701437204, 9701437205, 9701437206, 9701437203], "tags": {"amenity": "restaurant", "building": "yes", "cuisine": "turkish", "name": "K\u00f6ro\u011flu \u0130\u015fkembecisi"}}, {"type": "way", "id": 1056101495, "nodes": [9704106572, 9704106573, 9704106574, 9704106575, 9704106576, 9704106577, 9704106578, 9704106579, 9704106580, 9704106581, 9704106582, 9704106583, 9704106584, 9704106585, 9704106586, 9704106587, 9704106588, 9704106589, 9704106590, 9704106591, 9704106592, 9704106593, 9704106594, 9704106595, 9704106572], "tags": {"addr:city": "Ke\u00e7i\u00f6ren/Ankara", "addr:street": "Atat\u00fcrk Caddesi", "amenity": "restaurant", "building": "yes", "name": "Halil \u0130brahim Sofras\u0131", "name:en": "Ihlamur Kasr\u0131", "name:tr": "Ihlamur Kasr\u0131"}}, {"type": "way", "id": 1069672071, "nodes": [9817873902, 9817873876, 9817873903, 9817873904, 9817873905, 9817873902], "tags": {"amenity": "cafe", "building": "yes"}}, {"type": "way", "id": 1146509960, "nodes": [10669746385, 10669746386, 10669746387, 10669746388, 10669746385], "tags": {"amenity": "cafe", "building": "yes", "name": "Coffe Lab Bat\u0131kent"}}, {"type": "way", "id": 1153234140, "nodes": [10725705209, 10725705210, 10725705211, 10725705212, 10725705209], "tags": {"amenity": "cafe", "building": "yes", "name": "BelPa Cofee"}}, {"type": "way", "id": 1172350078, "nodes": [4199069977, 10892774694, 10892774695, 4199069978, 4199069977], "tags": {"amenity": "restaurant", "building": "yes", "cuisine": "turkish", "diet:halal": "yes", "name": "K\u00f6fteci Yusuf"}}, {"type": "way", "id": 1172350096, "nodes": [10892777031, 10892777032, 10892777033, 10892777034, 10892777035, 10892777031], "tags": {"amenity": "cafe", "building": "yes"}}, {"type": "way", "id": 1172350097, "nodes": [10892777036, 10892777037, 10892777038, 10892777039, 10892777036], "tags": {"amenity": "cafe", "building": "yes"}}, {"type": "way", "id": 1185083667, "nodes": [11008074057, 11008074056, 11008074049, 11008074058, 11008074057], "tags": {"amenity": "cafe", "building": "yes"}}, {"type": "way", "id": 1202542652, "nodes": [11148259318, 11148259319, 11148259320, 11148259321, 11148259322, 11148259318], "tags": {"addr:city": "Ankara", "addr:district": "Yenimahalle", "addr:housenumber": "10", "addr:neighbourhood": "Serhat Mahallesi", "addr:postcode": "06374", "addr:street": "Mimar Ba\u015fak Cengiz Caddesi", "addr:unit": "1", "amenity": "cafe", "building": "yes", "contact:facebook": "https://www.facebook.com/people/Chifin-Cafe/100071602161717/", "contact:mobile": "+90 542 141 06 61", "cuisine": "turkish", "internet_access": "yes", "internet_access:fee": "customers", "name": "Chifin Cafe Restoran", "opening_hours": "Mo-Su 07:00-23:00"}}, {"type": "way", "id": 1260486200, "nodes": [11715925172, 11715925173, 11715925174, 11715925175, 11715925172], "tags": {"amenity": "cafe", "building": "house"}}, {"type": "way", "id": 1260486201, "nodes": [11715925176, 11715925175, 11715925177, 11715925178, 11715925179, 11715925180, 11715925176], "tags": {"amenity": "cafe", "building": "yes"}}, {"type": "way", "id": 1260486202, "nodes": [11715925181, 11715925182, 11715925183, 11715925184, 11715925181], "tags": {"amenity": "cafe", "building": "yes"}}, {"type": "way", "id": 1267247153, "nodes": [11770041053, 11770041054, 11770041055, 11770041052, 11770041053], "tags": {"amenity": "restaurant", "building": "yes", "cuisine": "turkish", "diet:halal": "yes", "name": "Pe\u00e7enek D\u00f6ner"}}, {"type": "way", "id": 1336633533, "nodes": [12363025823, 12363025824, 12363025825, 12363025826, 12363025827, 12363025828, 12363025829, 12363025830, 12363025823], "tags": {"amenity": "cafe", "building": "yes", "name": "\u00c7ad\u0131r Kafe", "opening_hours": "Mo-Su 09:00-01:00", "outdoor_seating": "yes", "phone": "+90 532 286 93 42", "website": "https://cadirkafeankara.menudgtl.com"}}, {"type": "way", "id": 1337332074, "nodes": [12369345257, 12369345258, 12369345259, 12369345260, 12369345257], "tags": {"amenity": "restaurant", "building": "commercial", "cuisine": "pizza", "name": "Pizza IL Forno"}}, {"type": "way", "id": 1337332075, "nodes": [12369345261, 12369345262, 12369345263, 12369345264, 12369345261], "tags": {"amenity": "restaurant", "building": "commercial", "cuisine": "sushi", "name": "Sak\u00e9 Sushi Dining Cocktail Atlantis"}}, {"type": "way", "id": 1388875294, "nodes": [4231917019, 4231917024, 4231917025, 4231917027, 4231917022, 4231917021, 4231917017, 4500317489, 12856389551, 12856389552, 12856389553, 12856389554, 4231917019], "tags": {"amenity": "cafe", "name": "Riva Cafe"}}, {"type": "way", "id": 1388875298, "nodes": [12856420012, 12856420013, 12856420014, 12856420015, 12856420016, 12856420017, 12856420018, 12856420019, 12856420012], "tags": {"amenity": "cafe", "building": "yes", "name": "Caff Coffee House"}}, {"type": "way", "id": 1388875299, "nodes": [12856420020, 12856420021, 12856420022, 12856420023, 12856420024, 12856420025, 12856420026, 12856420027, 12856420028, 12856420029, 12856420030, 12856420031, 12856420032, 12856420033, 12856420034, 12856420035, 12856420020], "tags": {"amenity": "cafe", "building": "yes", "name": "Katre Cafe Bistro"}}, {"type": "way", "id": 1388875300, "nodes": [12856420038, 12856420039, 12856420040, 12856420041, 12856420042, 12856420043, 12856420038], "tags": {"amenity": "cafe", "building": "yes"}}, {"type": "way", "id": 1391176010, "nodes": [12877366762, 12877366763, 12877366764, 12877366765, 12877366762], "tags": {"addr:city": "ANKARA", "addr:district": "YEN\u0130MAHALLE", "addr:housenumber": "19", "addr:neighbourhood": "YEN\u0130 BATI MAHALLES\u0130", "addr:postcode": "06370", "addr:street": "2416.CADDE 2402 SOKAK", "air_conditioning": "yes", "amenity": "restaurant", "building": "yes", "changing_table": "yes", "cuisine": "chicken;barbecue;steak_house;kebab;turkish", "diet:halal": "yes", "diet:vegan": "yes", "diet:vegetarian": "yes", "internet_access": "wlan", "name": "ATE\u015eHAN ET KEBAP D\u00d6NER", "opening_hours": "Mo-Fr 09:00-22:30", "phone": "+90 535 790 22 22", "website": "https://www.ateshan.com.tr/", "website:menu": "https://menu.ateshan.com.tr/", "wheelchair": "yes"}}]}