{"version": 0.6, "generator": "Overpass API 0.7.62.7 375dc00a", "osm3s": {"timestamp_osm_base": "2025-06-14T14:58:44Z", "copyright": "The data included in this document is from www.openstreetmap.org. The data is made available under ODbL."}, "elements": [{"type": "node", "id": 696012924, "lat": 36.4612503, "lon": 29.126779, "tags": {"amenity": "restaurant", "name": "Shanti Garden"}}, {"type": "node", "id": 770210042, "lat": 36.652868, "lon": 29.1102836}, {"type": "node", "id": 770210049, "lat": 36.6526552, "lon": 29.1105323}, {"type": "node", "id": 770210073, "lat": 36.652873, "lon": 29.1105252}, {"type": "node", "id": 770210074, "lat": 36.6526502, "lon": 29.1102907}, {"type": "node", "id": 931756006, "lat": 36.6453824, "lon": 28.8515953, "tags": {"amenity": "restaurant", "name": "Monast\u0131r"}}, {"type": "node", "id": 1081212422, "lat": 36.6374244, "lon": 29.0988161}, {"type": "node", "id": 1081212449, "lat": 36.63765, "lon": 29.0995611}, {"type": "node", "id": 1081212460, "lat": 36.6373787, "lon": 29.0992668}, {"type": "node", "id": 1081212467, "lat": 36.6377223, "lon": 29.0994687}, {"type": "node", "id": 1081212480, "lat": 36.6373308, "lon": 29.0994723}, {"type": "node", "id": 1081212503, "lat": 36.6378609, "lon": 29.0993811}, {"type": "node", "id": 1081212562, "lat": 36.6375349, "lon": 29.0996133}, {"type": "node", "id": 1081212579, "lat": 36.6375388, "lon": 29.0991914}, {"type": "node", "id": 1081212583, "lat": 36.6379468, "lon": 29.0993033}, {"type": "node", "id": 1081212601, "lat": 36.6376408, "lon": 29.099611}, {"type": "node", "id": 1081212609, "lat": 36.6373552, "lon": 29.0988927}, {"type": "node", "id": 1081212626, "lat": 36.637713, "lon": 29.0995308}, {"type": "node", "id": 1081212631, "lat": 36.637347, "lon": 29.0993309}, {"type": "node", "id": 1081212651, "lat": 36.6378121, "lon": 29.0994346}, {"type": "node", "id": 1081212652, "lat": 36.6411162, "lon": 29.1011416, "tags": {"amenity": "restaurant"}}, {"type": "node", "id": 1081212659, "lat": 36.6374252, "lon": 29.099617}, {"type": "node", "id": 1081212667, "lat": 36.6379409, "lon": 29.0991403}, {"type": "node", "id": 1081212685, "lat": 36.6378687, "lon": 29.0993325}, {"type": "node", "id": 1081212726, "lat": 36.6379741, "lon": 29.0992327}, {"type": "node", "id": 1081212742, "lat": 36.6374912, "lon": 29.0996444}, {"type": "node", "id": 1081212751, "lat": 36.6376696, "lon": 29.0992887}, {"type": "node", "id": 1081212768, "lat": 36.6375657, "lon": 29.099639}, {"type": "node", "id": 1225121768, "lat": 36.6786074, "lon": 29.0938514, "tags": {"amenity": "restaurant", "name": "Mekan Restaurant"}}, {"type": "node", "id": 1461131967, "lat": 36.6452136, "lon": 28.8515629, "tags": {"amenity": "restaurant", "cuisine": "turkish", "name": "Wall Bay"}}, {"type": "node", "id": 1477840403, "lat": 36.4673847, "lon": 29.1244375, "tags": {"amenity": "cafe"}}, {"type": "node", "id": 1536430142, "lat": 36.5717545, "lon": 29.1445956, "tags": {"amenity": "restaurant", "name": "4Seasons"}}, {"type": "node", "id": 1652209317, "lat": 36.546036, "lon": 29.1235193, "tags": {"addr:housename": "1", "addr:housenumber": "A", "addr:postcode": "48330", "addr:street": "Carsi Cad.", "amenity": "restaurant", "cuisine": "international", "name": "The Harry's", "website": "www.theharrysrestaurant.com"}}, {"type": "node", "id": 1749726383, "lat": 36.6214177, "lon": 29.1087914, "tags": {"amenity": "restaurant", "check_date": "2023-02-28", "name": "Nefis Pide"}}, {"type": "node", "id": 1759986407, "lat": 36.6209671, "lon": 29.1096746, "tags": {"amenity": "restaurant", "cuisine": "turkish", "name": "K\u00f6fteci \u0130madettin"}}, {"type": "node", "id": 1817718209, "lat": 36.4675109, "lon": 29.124196, "tags": {"amenity": "cafe", "name": "Deniz Restaurant"}}, {"type": "node", "id": 1818053321, "lat": 36.5761689, "lon": 29.0900708}, {"type": "node", "id": 1818053322, "lat": 36.5761708, "lon": 29.0899671}, {"type": "node", "id": 1818053323, "lat": 36.5762763, "lon": 29.0900727}, {"type": "node", "id": 1818053324, "lat": 36.5762782, "lon": 29.089969}, {"type": "node", "id": 1819285491, "lat": 36.6237884, "lon": 29.1252941, "tags": {"amenity": "restaurant", "check_date": "2023-11-02", "cuisine": "turkish", "level": "0", "name": "Sahil Lokantalar\u0131", "opening_hours": "24/7"}}, {"type": "node", "id": 1900902436, "lat": 36.5385042, "lon": 29.1698618, "tags": {"amenity": "restaurant", "contact:facebook": "https://www.facebook.com/people/Babada%C4%9F-1700-Grill-Wine-Bar/100063510163224/", "contact:mobile": "+90 534 389 73 08", "contact:website": "https://www.babadagteleferik.com.tr/en/1700-grill-wine-bar/", "name": "Babadag 1700 Grill & Bar", "opening_hours": "9:00-21:00"}}, {"type": "node", "id": 1926336222, "lat": 36.6695955, "lon": 29.1044619, "tags": {"amenity": "restaurant", "cuisine": "fish", "name": "Bali\u00e7i Restaurant"}}, {"type": "node", "id": 1926336236, "lat": 36.6780394, "lon": 29.0951592, "tags": {"amenity": "restaurant", "name": "1881 Escape restaurant"}}, {"type": "node", "id": 1926336238, "lat": 36.6782158, "lon": 29.0946389, "tags": {"amenity": "restaurant", "name": "Zentara Beach Restaurant"}}, {"type": "node", "id": 1926338047, "lat": 36.6625367, "lon": 29.1193957, "tags": {"amenity": "restaurant"}}, {"type": "node", "id": 1930370332, "lat": 36.6210988, "lon": 29.1113571, "tags": {"amenity": "restaurant"}}, {"type": "node", "id": 1930370334, "lat": 36.6210816, "lon": 29.1111479, "tags": {"amenity": "restaurant"}}, {"type": "node", "id": 1930370356, "lat": 36.6209223, "lon": 29.1115637, "tags": {"amenity": "restaurant"}}, {"type": "node", "id": 1930370369, "lat": 36.6209115, "lon": 29.1114054, "tags": {"amenity": "restaurant", "check_date": "2023-02-28"}}, {"type": "node", "id": 1930370373, "lat": 36.6208771, "lon": 29.1111801, "tags": {"amenity": "restaurant", "name": "Cem Can"}}, {"type": "node", "id": 1965464727, "lat": 36.6740217, "lon": 29.1002744, "tags": {"amenity": "restaurant", "check_date": "2024-11-25", "name": "\u00d6zzg\u00fcr"}}, {"type": "node", "id": 1980240546, "lat": 36.5589202, "lon": 29.0608867, "tags": {"amenity": "restaurant"}}, {"type": "node", "id": 1981042978, "lat": 36.6532673, "lon": 29.1221103, "tags": {"amenity": "cafe", "check_date": "2023-06-28", "cuisine": "turkish;coffee_shop;dessert", "name": "Saliha Sultan", "outdoor_seating": "yes", "website": "http://www.salihasultan.com.tr"}}, {"type": "node", "id": 1981042979, "lat": 36.6219938, "lon": 29.1204449, "tags": {"amenity": "restaurant"}}, {"type": "node", "id": 1981043013, "lat": 36.6219591, "lon": 29.1120504, "tags": {"amenity": "restaurant", "check_date": "2023-02-28", "name": "Central Restaurant"}}, {"type": "node", "id": 1981043039, "lat": 36.62086, "lon": 29.1090453, "tags": {"amenity": "restaurant", "cuisine": "local", "name": "Megri Lokantasi"}}, {"type": "node", "id": 1981043052, "lat": 36.6204517, "lon": 29.1092027, "tags": {"amenity": "restaurant", "check_date": "2023-02-26", "name": "Fethiye Pa\u015fa Kebap", "opening_hours": "Tu-Su 12:00-22:00"}}, {"type": "node", "id": 1981043054, "lat": 36.6211367, "lon": 29.1088103, "tags": {"amenity": "restaurant"}}, {"type": "node", "id": 1981043057, "lat": 36.6205566, "lon": 29.1099833, "tags": {"amenity": "restaurant", "cuisine": "turkish", "name": "Nazilli Pide", "name:tr": "NAZ\u0130LL\u0130 P\u0130DE", "opening_hours": "Mo-Sa 12:00-21:00"}}, {"type": "node", "id": 1981043059, "lat": 36.6220107, "lon": 29.1201614, "tags": {"amenity": "restaurant"}}, {"type": "node", "id": 1981050444, "lat": 36.6611744, "lon": 29.1131877, "tags": {"amenity": "restaurant", "name": "H\u00fcner Pastane"}}, {"type": "node", "id": 1981050450, "lat": 36.6612753, "lon": 29.1133465, "tags": {"amenity": "restaurant", "cuisine": "turkish", "name": "Kebab & Durum"}}, {"type": "node", "id": 2007288197, "lat": 36.6272038, "lon": 29.1164784}, {"type": "node", "id": 2007288303, "lat": 36.6271861, "lon": 29.116556}, {"type": "node", "id": 2209147292, "lat": 36.662148, "lon": 29.1195939, "tags": {"amenity": "restaurant", "amenity_1": "bar", "check_date": "2022-05-26", "name": "Cadde. Restaurant & Bar"}}, {"type": "node", "id": 2209147305, "lat": 36.6314599, "lon": 29.1184507, "tags": {"addr:city": "Fethiye", "addr:housenumber": "2", "addr:street": "Cahit G\u00fcnd\u00fcz Caddesi", "amenity": "restaurant", "check_date": "2025-05-31", "cuisine": "international", "internet_access": "wlan", "name": "Bo\u011fazi\u00e7i Restaurant", "name:tr": "Bo\u011fazi\u00e7i Restaurant"}}, {"type": "node", "id": 2209147306, "lat": 36.6615283, "lon": 29.1131351, "tags": {"amenity": "restaurant"}}, {"type": "node", "id": 2209147340, "lat": 36.6230225, "lon": 29.1089815, "tags": {"amenity": "restaurant", "check_date": "2023-02-28", "cuisine": "international", "internet_access": "wlan", "name": "Cafe Geni\u015f", "name:en": "Cafe Geni\u015f", "name:tr": "Cafe Geni\u015f"}}, {"type": "node", "id": 2209147353, "lat": 36.633509, "lon": 29.1200521, "tags": {"amenity": "restaurant", "check_date": "2024-12-30", "check_date:opening_hours": "2022-11-05", "cuisine": "international", "level": "0", "name": "Mancero", "opening_hours:signed": "no", "outdoor_seating": "yes", "payment:mastercard": "yes", "payment:visa": "yes", "smoking": "outside", "wheelchair": "yes"}}, {"type": "node", "id": 2209147383, "lat": 36.62267, "lon": 29.1135356, "tags": {"amenity": "restaurant", "check_date": "2023-03-02", "name": "Lezzet Lokantas\u0131", "opening_hours": "Mo-Su 06:30-21:30"}}, {"type": "node", "id": 2209147395, "lat": 36.6329233, "lon": 29.1195727, "tags": {"amenity": "cafe", "check_date": "2023-02-27", "cuisine": "international", "level": "0", "name": "Kahve Diyar\u0131", "name:tr": "Kahve Diyari", "outdoor_seating": "yes", "payment:mastercard": "yes", "payment:visa": "yes", "smoking": "outside", "wheelchair": "yes"}}, {"type": "node", "id": 2288730486, "lat": 36.7008972, "lon": 28.68909, "tags": {"amenity": "restaurant", "name": "Senico Restaurant"}}, {"type": "node", "id": 2288749251, "lat": 36.7000865, "lon": 28.6887224, "tags": {"amenity": "restaurant", "name": "Mangal Restaurant"}}, {"type": "node", "id": 2289197796, "lat": 36.7008109, "lon": 28.6903791, "tags": {"amenity": "restaurant", "name": "Olive Tree Restaurant"}}, {"type": "node", "id": 2458547977, "lat": 36.5763203, "lon": 29.144432, "tags": {"amenity": "restaurant", "name": "Yengec Restaurant"}}, {"type": "node", "id": 2476440109, "lat": 36.5410878, "lon": 29.0511346, "tags": {"amenity": "restaurant", "name": "Karaca\u00f6ren Restaurant"}}, {"type": "node", "id": 2476440116, "lat": 36.5768779, "lon": 29.087677, "tags": {"amenity": "restaurant", "name": "Nara Restaurant"}}, {"type": "node", "id": 2478528214, "lat": 36.6685789, "lon": 29.1048081, "tags": {"amenity": "restaurant", "cuisine": "regional", "name": "Caretta Beach Club"}}, {"type": "node", "id": 2482736395, "lat": 36.636141, "lon": 28.8807607, "tags": {"amenity": "restaurant", "name": "Seagull Koyu"}}, {"type": "node", "id": 2492170532, "lat": 36.627009, "lon": 29.1164934}, {"type": "node", "id": 2492170533, "lat": 36.6270267, "lon": 29.1164158}, {"type": "node", "id": 2492258974, "lat": 36.6230483, "lon": 29.1108896}, {"type": "node", "id": 2492571895, "lat": 36.6373579, "lon": 29.0995283}, {"type": "node", "id": 2492571896, "lat": 36.6373677, "lon": 29.0993945}, {"type": "node", "id": 2492571898, "lat": 36.6373972, "lon": 29.098826}, {"type": "node", "id": 2492571901, "lat": 36.6374044, "lon": 29.0995361}, {"type": "node", "id": 2494714839, "lat": 36.5717145, "lon": 29.143465, "tags": {"amenity": "restaurant"}}, {"type": "node", "id": 2494714840, "lat": 36.5717474, "lon": 29.1436084, "tags": {"amenity": "restaurant"}}, {"type": "node", "id": 2494714841, "lat": 36.571777, "lon": 29.143756, "tags": {"amenity": "restaurant"}}, {"type": "node", "id": 2818999691, "lat": 36.6138769, "lon": 29.0757435}, {"type": "node", "id": 2818999692, "lat": 36.6138864, "lon": 29.0758734}, {"type": "node", "id": 2818999693, "lat": 36.6139359, "lon": 29.0758678}, {"type": "node", "id": 2818999694, "lat": 36.6139523, "lon": 29.0760913}, {"type": "node", "id": 2818999695, "lat": 36.6138978, "lon": 29.0760975}, {"type": "node", "id": 2818999696, "lat": 36.6139068, "lon": 29.0762203}, {"type": "node", "id": 2818999697, "lat": 36.613574, "lon": 29.0762582}, {"type": "node", "id": 2818999698, "lat": 36.6135391, "lon": 29.075782}, {"type": "node", "id": 2896604045, "lat": 36.5499712, "lon": 29.1252066}, {"type": "node", "id": 2964237999, "lat": 36.5701814, "lon": 29.1448097, "tags": {"amenity": "restaurant", "name": "Chillout"}}, {"type": "node", "id": 2964238000, "lat": 36.5711852, "lon": 29.1502975, "tags": {"amenity": "restaurant", "name": "Malibu"}}, {"type": "node", "id": 2971306809, "lat": 36.5737846, "lon": 29.1365901, "tags": {"amenity": "cafe", "name": "Lady Marmalade"}}, {"type": "node", "id": 2975321468, "lat": 36.6780595, "lon": 29.0947508, "tags": {"amenity": "cafe", "name": "Escape Beach Club"}}, {"type": "node", "id": 2979012629, "lat": 36.6244467, "lon": 29.1325878, "tags": {"amenity": "restaurant", "check_date": "2022-12-10", "cuisine": "turkish", "name": "Gar Lokantas\u0131 2", "opening_hours": "24/7", "outdoor_seating": "yes", "wheelchair": "yes"}}, {"type": "node", "id": 2984790459, "lat": 36.495066, "lon": 29.1374854, "tags": {"amenity": "restaurant", "contact:facebook": "https://www.facebook.com/people/Kelebek-Restaurant/100032431401113/", "contact:mobile": "+90 536 427 00 45", "name": "Kelebek Restaurant"}}, {"type": "node", "id": 3144158164, "lat": 36.5764775, "lon": 29.0879336, "tags": {"addr:housenumber": "A\u015fa\u011f\u0131 \u00c7e\u015fme Mevkii", "amenity": "restaurant", "cuisine": "steak_house", "name": "Muzzy's Place", "website": "http://www.muzzysplacekayakoy.com/"}}, {"type": "node", "id": 3321181374, "lat": 36.6684947, "lon": 29.1054505, "tags": {"amenity": "restaurant", "check_date": "2024-11-24", "name": "Lukka Bar"}}, {"type": "node", "id": 3598269618, "lat": 36.5789852, "lon": 29.0870498, "tags": {"amenity": "cafe", "cuisine": "local;tea;turkish", "diet:vegetarian": "yes", "internet_access": "wlan", "name": "K\u00f6y Kahvesi"}}, {"type": "node", "id": 3655947550, "lat": 36.5769715, "lon": 29.0856258, "tags": {"amenity": "restaurant", "name": "Izela", "phone": "+902526180033"}}, {"type": "node", "id": 3655947796, "lat": 36.5759083, "lon": 29.0931711, "tags": {"amenity": "restaurant", "name": "The Blue Butterfly"}}, {"type": "node", "id": 3655947797, "lat": 36.5756786, "lon": 29.0925631, "tags": {"amenity": "restaurant", "name": "Lavissi Garden"}}, {"type": "node", "id": 3655948149, "lat": 36.5800923, "lon": 29.093197, "tags": {"amenity": "restaurant", "name": "Jazibe"}}, {"type": "node", "id": 3658056584, "lat": 36.6213594, "lon": 29.1082871, "tags": {"amenity": "restaurant", "check_date": "2024-11-29", "name": "Megri Cafe Bar"}}, {"type": "node", "id": 3715928724, "lat": 36.6637688, "lon": 29.1078539, "tags": {"amenity": "restaurant", "check_date:opening_hours": "2022-11-06", "name": "Merhaba Restaurant", "opening_hours:signed": "no"}}, {"type": "node", "id": 3722535304, "lat": 36.5773564, "lon": 29.0956584, "tags": {"amenity": "restaurant", "name": "Cin Bal"}}, {"type": "node", "id": 3722535305, "lat": 36.5754458, "lon": 29.0872309, "tags": {"amenity": "restaurant", "name": "Antique Restaurant", "opening_hours": "Mo-Su 09:00-22:00"}}, {"type": "node", "id": 3913254754, "lat": 36.6589733, "lon": 29.1203551, "tags": {"amenity": "cafe", "amenity_1": "bakery", "check_date": "2024-12-30", "name": "Babaf\u0131r\u0131n Cafe & Bakery", "outdoor_seating": "yes"}}, {"type": "node", "id": 3913318877, "lat": 36.6532357, "lon": 29.1227274, "tags": {"amenity": "restaurant", "check_date": "2023-06-28", "name": "ALO24"}}, {"type": "node", "id": 3951943101, "lat": 36.6482289, "lon": 29.1223357, "tags": {"amenity": "restaurant", "check_date": "2024-11-28", "name": "Hayal"}}, {"type": "node", "id": 3957225297, "lat": 36.6228383, "lon": 29.1145176, "tags": {"amenity": "cafe"}}, {"type": "node", "id": 3957225302, "lat": 36.6220978, "lon": 29.1177014, "tags": {"amenity": "restaurant"}}, {"type": "node", "id": 3957235618, "lat": 36.6540868, "lon": 29.1205714, "tags": {"amenity": "restaurant", "name": "Lokanta"}}, {"type": "node", "id": 3957759315, "lat": 36.6594148, "lon": 29.1321022, "tags": {"amenity": "restaurant", "name": "Se\u00e7kin Lokantas\u0131"}}, {"type": "node", "id": 3957775923, "lat": 36.5473668, "lon": 29.1215318, "tags": {"amenity": "atm", "brand": "Akbank", "brand:wikidata": "Q416624", "check_date": "2023-11-04", "operator": "Akbank", "operator:wikidata": "Q416624"}}, {"type": "node", "id": 3957786098, "lat": 36.6251372, "lon": 29.1143269, "tags": {"amenity": "cafe", "name": "Pelikan Cafe"}}, {"type": "node", "id": 4325992797, "lat": 36.6200714, "lon": 29.0909017, "tags": {"amenity": "cafe", "check_date": "2023-12-04", "name": "Deniz Cafe"}}, {"type": "node", "id": 4370672490, "lat": 36.5875911, "lon": 29.0884522, "tags": {"amenity": "restaurant", "email": "senitekmek@gmail.com", "name": "Senit Ekmek Kahvalt\u0131", "name:tr": "Senit Ekmek Kahvalt\u0131", "opening_hours": "Tu-Su 08:00-00:00", "phone": "+905545140522"}}, {"type": "node", "id": 4426288292, "lat": 36.6400278, "lon": 29.1211619, "tags": {"addr:housenumber": "35", "addr:street": "Cahit G\u00fcnd\u00fcz Caddesi", "amenity": "restaurant", "check_date": "2024-12-30", "cuisine": "international", "internet_access": "wlan", "name": "Denizat\u0131", "name:en": "Denizati", "opening_hours": "Mo-Su 08:00-00:00", "phone": "00902526148636"}}, {"type": "node", "id": 4796729623, "lat": 36.6206467, "lon": 29.1328846, "tags": {"addr:street": "\u00d6ludeniz Caddesi", "amenity": "cafe", "name": "Fethiye Sar\u0131yer b\u00f6rekcisi", "name:en": "Fethiye Sar\u0131yer b\u00f6rekcisi", "name:tr": "Fethiye Sar\u0131yer b\u00f6rekcisi"}}, {"type": "node", "id": 4818323051, "lat": 36.4631581, "lon": 29.1267866}, {"type": "node", "id": 4818323052, "lat": 36.4631375, "lon": 29.1268095}, {"type": "node", "id": 4818323053, "lat": 36.4632058, "lon": 29.1269227}, {"type": "node", "id": 4818323054, "lat": 36.4632296, "lon": 29.1268957}, {"type": "node", "id": 4879822823, "lat": 36.5250123, "lon": 29.1595808, "tags": {"amenity": "cafe", "cuisine": "turkish", "internet_access": "no", "name": "Halil's cafe and g\u00f6zleme", "phone": "90-536-501 47 46"}}, {"type": "node", "id": 4879852722, "lat": 36.5082572, "lon": 29.1569372, "tags": {"amenity": "cafe", "name:en": "Sugar cafe"}}, {"type": "node", "id": 4879855521, "lat": 36.5094148, "lon": 29.1546937, "tags": {"amenity": "cafe", "cuisine": "turkish", "name": "G\u00fcn batimi", "name:en": "G\u00fcn batimi", "name:tr": "G\u00fcn batimi"}}, {"type": "node", "id": 4879882321, "lat": 36.5077121, "lon": 29.1551157, "tags": {"addr:neighbourhood": "lemoncafe48@outlook.com", "amenity": "cafe", "cuisine": "tea;turkish;pancake", "name": "Lemon Cafe", "name:tr": "Limon", "operator": "Selma Bayazit", "outdoor_seating": "yes", "phone": "90-538-669-5790"}}, {"type": "node", "id": 4882999032, "lat": 36.6380133, "lon": 29.1212847, "tags": {"amenity": "cafe", "check_date": "2024-12-30", "check_date:opening_hours": "2022-11-05", "name": "Gold Semaver", "opening_hours:signed": "no"}}, {"type": "node", "id": 4883073724, "lat": 36.6390961, "lon": 29.1213557}, {"type": "node", "id": 4883073725, "lat": 36.6391423, "lon": 29.1212248}, {"type": "node", "id": 4883073726, "lat": 36.6390394, "lon": 29.1211622}, {"type": "node", "id": 4883073727, "lat": 36.6389567, "lon": 29.1213701}, {"type": "node", "id": 4922163322, "lat": 36.5704592, "lon": 29.1411506, "tags": {"amenity": "restaurant", "check_date": "2024-12-30", "internet_access": "wlan", "name": "G\u00f6zde Restorant", "name:en": "G\u00f6zde Restaurant", "name:tr": "G\u00f6zde Restorant", "seasonal": "yes"}}, {"type": "node", "id": 5073704470, "lat": 36.6745141, "lon": 28.9155739, "tags": {"addr:city": "Mu\u011fla", "addr:district": "Dalaman", "addr:neighbourhood": "Tersane Adas\u0131", "addr:postcode": "48770", "amenity": "restaurant", "name": "Tersane Koyu Restaurant", "phone": "0535 459 41 73"}}, {"type": "node", "id": 5073704501, "lat": 36.6670126, "lon": 28.8997642, "tags": {"amenity": "restaurant"}}, {"type": "node", "id": 5107733225, "lat": 36.4617541, "lon": 29.1255309}, {"type": "node", "id": 5107733228, "lat": 36.4617217, "lon": 29.1254236}, {"type": "node", "id": 5107733229, "lat": 36.4617422, "lon": 29.1254155}, {"type": "node", "id": 5107733230, "lat": 36.4617648, "lon": 29.1255255}, {"type": "node", "id": 5108958864, "lat": 36.4616985, "lon": 29.1253063}, {"type": "node", "id": 5108958865, "lat": 36.4616676, "lon": 29.1250888}, {"type": "node", "id": 5108958866, "lat": 36.4616195, "lon": 29.1251096}, {"type": "node", "id": 5108958867, "lat": 36.4615203, "lon": 29.1253101}, {"type": "node", "id": 5108958868, "lat": 36.4615009, "lon": 29.1253933}, {"type": "node", "id": 5108958869, "lat": 36.4616079, "lon": 29.1253465}, {"type": "node", "id": 5108958870, "lat": 36.4616615, "lon": 29.1255686}, {"type": "node", "id": 5108958871, "lat": 36.4615056, "lon": 29.1254851}, {"type": "node", "id": 5108958872, "lat": 36.4615744, "lon": 29.1251881}, {"type": "node", "id": 5108958898, "lat": 36.4963636, "lon": 29.1265635}, {"type": "node", "id": 5108958899, "lat": 36.4963226, "lon": 29.126542}, {"type": "node", "id": 5108996804, "lat": 36.4616932, "lon": 29.1255557}, {"type": "node", "id": 5108998022, "lat": 36.4617064, "lon": 29.1253032}, {"type": "node", "id": 5108998023, "lat": 36.4615285, "lon": 29.1256238}, {"type": "node", "id": 5108998024, "lat": 36.4616549, "lon": 29.1255816}, {"type": "node", "id": 5109845332, "lat": 36.7030064, "lon": 28.7014789, "tags": {"amenity": "restaurant"}}, {"type": "node", "id": 5126054563, "lat": 36.6427381, "lon": 28.8636012}, {"type": "node", "id": 5126054564, "lat": 36.6427214, "lon": 28.8636012}, {"type": "node", "id": 5126054565, "lat": 36.6427219, "lon": 28.8635127}, {"type": "node", "id": 5126054566, "lat": 36.6427359, "lon": 28.8635127}, {"type": "node", "id": 5143386921, "lat": 36.6218439, "lon": 29.1084064, "tags": {"amenity": "restaurant", "name": "Mutfa tantuni"}}, {"type": "node", "id": 5153372521, "lat": 36.6216642, "lon": 29.112056, "tags": {"amenity": "restaurant", "check_date": "2023-02-28", "cuisine": "turkish", "internet_access": "wlan", "name": "Se\u00e7kin Restaurant", "name:tr": "Seckin Restaurant"}}, {"type": "node", "id": 5173558021, "lat": 36.5483516, "lon": 29.1219394, "tags": {"amenity": "restaurant", "name": "Inci Restaurant"}}, {"type": "node", "id": 5206554124, "lat": 36.6240966, "lon": 29.132653, "tags": {"amenity": "restaurant", "check_date": "2022-12-10", "cuisine": "turkish", "name": "Se\u00e7kin Lokantas\u0131 1", "name:en": "Se\u00e7kin Lokantas\u0131 1", "opening_hours": "24/7", "wheelchair": "yes"}}, {"type": "node", "id": 5685153521, "lat": 36.6326889, "lon": 29.1193805, "tags": {"amenity": "restaurant", "check_date": "2025-05-31", "cuisine": "regional;turkish;steak_house", "internet_access": "wlan", "internet_access:fee": "customers", "level": "0", "name": "\u00c7ar\u0131kl\u0131", "payment:cash": "yes", "payment:credit_cards": "yes", "payment:debit_cards": "yes", "wheelchair": "yes"}}, {"type": "node", "id": 5949193986, "lat": 36.6277443, "lon": 29.1239372, "tags": {"amenity": "cafe", "name": "Birlik Lokantasi"}}, {"type": "node", "id": 5970251785, "lat": 36.6212931, "lon": 29.0796778, "tags": {"amenity": "restaurant", "cuisine": "seafood;italian_pizza;greek;chicken;regional;american;sandwich;italian;coffee_shop;local;ice_cream;mediterranean;barbecue;tea;pizza;steak_house;turkish;pasta;fish;sushi;international;breakfast;grill", "diet:vegetarian": "yes", "internet_access": "wlan", "name": "Help Beach and Yacht Club", "name:en": "Turkish", "opening_hours": "24/7", "website": "http://helpbeachandyachtclub.com"}}, {"type": "node", "id": 5984060386, "lat": 36.576772, "lon": 29.0926645, "tags": {"amenity": "restaurant", "cuisine": "turkish", "name": "Hasbah\u00e7e Restaurant", "phone": "+905337302493"}}, {"type": "node", "id": 5989517289, "lat": 36.6250651, "lon": 29.1136532, "tags": {"amenity": "cafe", "name": "An\u0131t Cafe B\u00fcfe"}}, {"type": "node", "id": 6018465087, "lat": 36.4939345, "lon": 29.1354765, "tags": {"amenity": "restaurant", "cuisine": "turkish", "name": "Zakkum"}}, {"type": "node", "id": 6115990486, "lat": 36.6238447, "lon": 29.1132312, "tags": {"amenity": "cafe", "brand": "Starbucks", "brand:wikidata": "Q37158", "brand:wikipedia": "en:Starbucks", "check_date": "2023-02-26", "cuisine": "coffee_shop", "name": "Starbucks", "official_name": "Starbucks Coffee", "takeaway": "yes"}}, {"type": "node", "id": 6162941490, "lat": 36.6274571, "lon": 29.1380498, "tags": {"amenity": "restaurant", "check_date": "2023-03-01", "name": "Gozde Pide"}}, {"type": "node", "id": 6166149693, "lat": 36.5762786, "lon": 29.0919611, "tags": {"amenity": "restaurant", "name": "Kaya Garden"}}, {"type": "node", "id": 6166149695, "lat": 36.5714343, "lon": 29.1304807, "tags": {"amenity": "restaurant", "name:en": "Olive Tree"}}, {"type": "node", "id": 6166149699, "lat": 36.5700357, "lon": 29.1409555, "tags": {"amenity": "restaurant", "check_date": "2024-12-30", "name": "Memo"}}, {"type": "node", "id": 6166149701, "lat": 36.6236607, "lon": 29.1318546, "tags": {"amenity": "restaurant"}}, {"type": "node", "id": 6166149702, "lat": 36.6238946, "lon": 29.1319115, "tags": {"amenity": "cafe"}}, {"type": "node", "id": 6166149787, "lat": 36.6217223, "lon": 29.1151796, "tags": {"amenity": "cafe"}}, {"type": "node", "id": 6166149788, "lat": 36.575846, "lon": 29.0920643, "tags": {"amenity": "cafe"}}, {"type": "node", "id": 6166149789, "lat": 36.5715382, "lon": 29.1429814, "tags": {"amenity": "restaurant", "name": "Yal\u00e7\u0131n\u2019s Restaurant", "name:en": "Yalcin"}}, {"type": "node", "id": 6166149790, "lat": 36.6242348, "lon": 29.1312893, "tags": {"amenity": "restaurant", "check_date": "2025-04-26", "name": "Do\u011fanc\u0131lar Otogar B\u00fcfe", "opening_hours": "24/7", "payment:cash": "yes", "payment:credit_cards": "yes", "payment:debit_cards": "yes"}}, {"type": "node", "id": 6166150085, "lat": 36.6217564, "lon": 29.1073232, "tags": {"amenity": "restaurant", "check_date": "2023-02-28", "name": "OzSlit"}}, {"type": "node", "id": 6166150086, "lat": 36.6218232, "lon": 29.1074349, "tags": {"amenity": "restaurant", "check_date": "2023-02-28", "name": "Evin"}}, {"type": "node", "id": 6166150088, "lat": 36.6186791, "lon": 29.1175513, "tags": {"amenity": "cafe", "check_date": "2023-02-28", "internet_access": "wlan", "name:en": "Kings garden"}}, {"type": "node", "id": 6166150090, "lat": 36.621233, "lon": 29.1207809, "tags": {"amenity": "restaurant"}}, {"type": "node", "id": 6166150091, "lat": 36.6220306, "lon": 29.1154248, "tags": {"amenity": "restaurant", "name": "Borsa Pizza"}}, {"type": "node", "id": 6166150092, "lat": 36.6220193, "lon": 29.1156696, "tags": {"amenity": "restaurant", "name": "Cafe Bim Bum"}}, {"type": "node", "id": 6166150096, "lat": 36.5756097, "lon": 29.0921887, "tags": {"amenity": "cafe"}}, {"type": "node", "id": 6166150100, "lat": 36.572917, "lon": 29.1357483, "tags": {"amenity": "restaurant", "name": "The Turkish Ivy Restaurant"}}, {"type": "node", "id": 6166150102, "lat": 36.5704641, "lon": 29.1387226, "tags": {"amenity": "restaurant", "name": "Peking"}}, {"type": "node", "id": 6166150103, "lat": 36.5709383, "lon": 29.1412366, "tags": {"amenity": "restaurant"}}, {"type": "node", "id": 6166150108, "lat": 36.5724248, "lon": 29.146579, "tags": {"amenity": "restaurant"}}, {"type": "node", "id": 6166150110, "lat": 36.6243034, "lon": 29.1316808, "tags": {"amenity": "restaurant"}}, {"type": "node", "id": 6166152385, "lat": 36.5736518, "lon": 29.1483837, "tags": {"amenity": "restaurant", "brand": "Olive Garden", "brand:wikidata": "Q3045312", "brand:wikipedia": "en:Olive Garden", "cuisine": "italian", "name": "Olive Garden"}}, {"type": "node", "id": 6284714788, "lat": 36.6217315, "lon": 29.1115646, "tags": {"amenity": "restaurant", "name": "Mozaik Bah\u00e7e", "name:en": "Mozaik Bahce", "name:ru": "\u041c\u043e\u0436\u0430\u0438\u043a \u0440\u0435\u0441\u0442\u043e\u0440\u0430\u043d"}}, {"type": "node", "id": 6485851005, "lat": 36.6228592, "lon": 29.1108879}, {"type": "node", "id": 6485851006, "lat": 36.6228619, "lon": 29.1103546}, {"type": "node", "id": 6551612585, "lat": 36.6201108, "lon": 29.1102865, "tags": {"amenity": "cafe", "name": "Hatay kebap restaurant"}}, {"type": "node", "id": 6551616886, "lat": 36.6245207, "lon": 29.1153808, "tags": {"amenity": "cafe", "cuisine": "italian_pizza;burger;pasta;asian;american;italian;thai", "internet_access": "wlan", "name:en": "Cafe Park teras", "phone": "6140234", "website": "https://www.cafeparkteras.com.tr/"}}, {"type": "node", "id": 6621078591, "lat": 36.6518393, "lon": 29.0988655, "tags": {"amenity": "restaurant", "cuisine": "turkish", "name:ru": "\u0420\u0435\u0441\u0442\u043e\u0440\u0430\u043d \"\u0410\u0434\u0430\""}}, {"type": "node", "id": 6685153556, "lat": 36.6230453, "lon": 29.1103544}, {"type": "node", "id": 6711916466, "lat": 36.5244961, "lon": 29.1259357, "tags": {"amenity": "restaurant", "name": "Marina Restaurant"}}, {"type": "node", "id": 6745521885, "lat": 36.6686502, "lon": 29.1052584, "tags": {"addr:housenumber": "2", "addr:street": "1054. Sokak", "amenity": "restaurant", "name:en": "Oben Restaurant"}}, {"type": "node", "id": 6790340186, "lat": 36.6185639, "lon": 29.1412633, "tags": {"amenity": "restaurant", "cuisine": "turkish", "internet_access": "wlan", "name": "Kadir Usta"}}, {"type": "node", "id": 6815814085, "lat": 36.5728017, "lon": 29.1350293, "tags": {"amenity": "restaurant", "name:en": "Mamma's Kebab House"}}, {"type": "node", "id": 6822469087, "lat": 36.5492749, "lon": 29.1233276, "tags": {"amenity": "restaurant", "cuisine": "turkish", "name:en": "Secret Garden"}}, {"type": "node", "id": 6822469088, "lat": 36.5465958, "lon": 29.1226842, "tags": {"addr:postcode": "48300", "addr:street": "Denizpark Caddesi", "amenity": "restaurant", "cuisine": "international;mediterranean;pasta;pizza;seafood;turkish", "diet:vegetarian": "yes", "email": "info@buzzbeachbar.com", "internet_access": "wlan", "name": "Buzz Beach Bar", "name:en": "Buzz Beach Bar", "phone": "+90 252 6170526;+90 252 6170054", "website": "http://buzzbeachbar.com"}}, {"type": "node", "id": 6906186286, "lat": 36.5246383, "lon": 29.1550867}, {"type": "node", "id": 6906186287, "lat": 36.5246234, "lon": 29.1551266}, {"type": "node", "id": 6906186288, "lat": 36.5245758, "lon": 29.155099}, {"type": "node", "id": 6906186289, "lat": 36.5245907, "lon": 29.1550591}, {"type": "node", "id": 6936819396, "lat": 36.5474287, "lon": 29.1215722}, {"type": "node", "id": 6936819397, "lat": 36.5473639, "lon": 29.1217373}, {"type": "node", "id": 6936819398, "lat": 36.5472613, "lon": 29.1216825}, {"type": "node", "id": 6936819399, "lat": 36.5473233, "lon": 29.1215127}, {"type": "node", "id": 6964761552, "lat": 36.4631974, "lon": 29.1268466, "tags": {"access": "no", "addr:city": "Fethiye", "addr:district": "Faralya", "addr:neighbourhood": "Faralya K\u00f6y\u00fc Kabak Mah. Kabak Koyu Fethiye, Kabak,", "addr:postcode": "48300", "capacity": "50", "charge": "100.00 TRY", "fee": "yes", "internet_access": "yes", "internet_access:fee": "yes", "name": "Kabak Valley Kamp", "natural": "spring", "operator": "Kabak Valley Kamp", "payment:cash": "yes", "payment:credit_cards": "yes", "payment:maestro": "yes", "payment:visa": "yes", "tourism": "camp_site"}}, {"type": "node", "id": 7068433385, "lat": 36.6755784, "lon": 29.0979739, "tags": {"amenity": "restaurant", "name": "Surf Beach"}}, {"type": "node", "id": 7068433486, "lat": 36.6624055, "lon": 29.1193684, "tags": {"amenity": "cafe", "name": "Aidyn Pide & Pizza"}}, {"type": "node", "id": 7068433487, "lat": 36.5449017, "lon": 29.1251863, "tags": {"amenity": "restaurant", "check_date": "2023-10-29", "name": "Kumsal Pide"}}, {"type": "node", "id": 7194890085, "lat": 36.6211611, "lon": 29.1071482, "tags": {"addr:housenumber": "1", "addr:postcode": "48300", "addr:street": "Cumhuriyet Mah, Atat\u00fcrk Cad/35 Sok. No:1, 48300 Fethiye/Mu\u011fla, \u0422\u0443\u0440\u0446\u0438\u044f", "amenity": "restaurant", "name": "Agora Restaurant & Meyhanesi", "name:ru": "\u0410\u0433\u043e\u0440\u0430"}}, {"type": "node", "id": 7201304685, "lat": 36.6582548, "lon": 29.1214856, "tags": {"amenity": "restaurant", "check_date": "2022-05-26", "name": "Zayra Cafe & Restaurant"}}, {"type": "node", "id": 7494664372, "lat": 36.571602, "lon": 29.1380843, "tags": {"addr:city": "MU\u011eLA", "addr:district": "FETH\u0130YE", "addr:housenumber": "18", "addr:neighbourhood": "\u00d6L\u00dcDEN\u0130Z MAHALLES\u0130", "addr:postcode": "48300", "addr:street": "Cumhuriyet Caddesi", "amenity": "restaurant", "check_date": "2024-12-30", "cuisine": "chinese", "name": "Golden Wok", "name:en": "Golden Wok", "opening_hours": "15:00 -22:00", "opening_hours:covid19": "15:00- 22:00", "outdoor_seating": "yes", "phone": "05432081812/ 02526166166", "seasonal": "yes"}}, {"type": "node", "id": 7656616486, "lat": 36.6526592, "lon": 29.1055129, "tags": {"amenity": "restaurant", "cuisine": "mediterranean", "internet_access": "wlan", "name": "Ada restourant", "name:tr": "Ada Restaurant"}}, {"type": "node", "id": 7656617485, "lat": 36.6598701, "lon": 29.1098143, "tags": {"amenity": "restaurant", "check_date": "2023-11-02", "name": "\u015eim\u015fek"}}, {"type": "node", "id": 7656617785, "lat": 36.6699154, "lon": 29.1042706, "tags": {"amenity": "restaurant", "check_date": "2024-11-24", "cuisine": "mediterranean;regional;turkish", "internet_access": "wlan", "name": "Guven Restarant cafe&bar", "opening_hours": "Mo-Su 08:00-03:00"}}, {"type": "node", "id": 7674288385, "lat": 36.6936618, "lon": 28.8653941, "tags": {"amenity": "restaurant", "website": "http://ortaktekue.com"}}, {"type": "node", "id": 7772399787, "lat": 36.6240047, "lon": 29.1137775, "tags": {"amenity": "cafe", "check_date": "2023-02-28", "contact:email": "emrahturan1985@gmail.com", "contact:facebook": "https://www.facebook.com/KeciCoffeeRoastery/", "contact:instagram": "https://www.instagram.com/kecicoffeeroastery/", "contact:mobile": "+90 544 472 40 25", "cuisine": "coffee_shop", "internet_access": "wlan", "name": "Ke\u00e7i", "opening_hours": "Mo-Su 10:00-22:00"}}, {"type": "node", "id": 7835283459, "lat": 36.6418343, "lon": 29.0859762, "tags": {"amenity": "cafe"}}, {"type": "node", "id": 7897771885, "lat": 36.5490953, "lon": 29.1246919, "tags": {"amenity": "restaurant", "internet_access": "wlan", "name": "Cosmos", "name:en": "Cosmos"}}, {"type": "node", "id": 7909299685, "lat": 36.5485383, "lon": 29.1232894, "tags": {"amenity": "cafe", "cuisine": "turkish", "name": "Ya\u011f\u0131z B\u00f6rek Evi"}}, {"type": "node", "id": 7920148486, "lat": 36.670267, "lon": 29.10397, "tags": {"amenity": "cafe", "name:en": "Last stop beach"}}, {"type": "node", "id": 7921275585, "lat": 36.6619677, "lon": 29.1087017, "tags": {"amenity": "restaurant", "name:en": "Serkul"}}, {"type": "node", "id": 7928177085, "lat": 36.6750298, "lon": 29.0980676, "tags": {"amenity": "cafe", "name:en": "Surf camp"}}, {"type": "node", "id": 7929395085, "lat": 36.569598, "lon": 29.1406467, "tags": {"addr:postcode": "48340", "addr:street": "127. Sokak", "amenity": "restaurant", "email": "barracudahisaronu@gmail.com", "internet_access": "wlan", "name:en": "Barracuda", "opening_hours": "Mo-Su 09:00-00:00", "phone": "+905395225050"}}, {"type": "node", "id": 7931995686, "lat": 36.6631399, "lon": 29.1080778, "tags": {"amenity": "restaurant", "check_date": "2024-11-24", "cuisine": "fish", "name": "\u00c7al\u0131\u015f Bal\u0131k\u00e7\u0131s\u0131"}}, {"type": "node", "id": 7942602185, "lat": 36.6274394, "lon": 29.0771282, "tags": {"amenity": "restaurant", "name:en": "Seame"}}, {"type": "node", "id": 7944413685, "lat": 36.5816428, "lon": 29.1545632, "tags": {"amenity": "restaurant", "name": "Shiraz"}}, {"type": "node", "id": 7944413785, "lat": 36.5694686, "lon": 29.1406654, "tags": {"addr:housenumber": "127 Sokak", "addr:street": "\u00d6l\u00fcdeniz Caddesi", "amenity": "restaurant", "name": "Barracuda"}}, {"type": "node", "id": 7944413786, "lat": 36.5719007, "lon": 29.1384829, "tags": {"amenity": "restaurant", "name": "My Way  Restaurant"}}, {"type": "node", "id": 7948160785, "lat": 36.6570883, "lon": 29.1219525, "tags": {"amenity": "restaurant", "check_date": "2024-03-15", "cuisine": "fish;mediterranean;turkish", "internet_access": "wlan", "name": "Can Ci\u011fer Restaurant"}}, {"type": "node", "id": 7955538386, "lat": 36.5439486, "lon": 29.1251954, "tags": {"amenity": "cafe", "name": "Lofty"}}, {"type": "node", "id": 7973844240, "lat": 36.6563682, "lon": 28.8566349, "tags": {"amenity": "restaurant", "cuisine": "turkish", "name": "K\u00fc\u00e7\u00fck Sarsala Restaurant", "phone": "0542 235 5067"}}, {"type": "node", "id": 7981350185, "lat": 36.6210867, "lon": 29.1108261, "tags": {"amenity": "cafe", "check_date": "2023-10-27", "name": "\u0130slam Usta"}}, {"type": "node", "id": 7981350286, "lat": 36.6231518, "lon": 29.1261471, "tags": {"amenity": "cafe", "name": "Eskin"}}, {"type": "node", "id": 7981350386, "lat": 36.620616, "lon": 29.1093436, "tags": {"amenity": "restaurant", "check_date": "2023-11-01", "name": "Dut A\u011fac\u0131"}}, {"type": "node", "id": 7981350488, "lat": 36.6205465, "lon": 29.1091409, "tags": {"amenity": "cafe", "name": "K\u00fcnefe Hane"}}, {"type": "node", "id": 7982229086, "lat": 36.6219817, "lon": 29.1117503, "tags": {"amenity": "restaurant", "check_date": "2025-04-22", "name": "Hani Baba Fethiye K\u00f6ftecisi", "outdoor_seating": "yes", "payment:cash": "yes", "payment:credit_cards": "yes", "payment:debit_cards": "yes", "wheelchair": "no"}}, {"type": "node", "id": 7989223503, "lat": 36.6229394, "lon": 29.113332, "tags": {"amenity": "cafe", "check_date": "2023-10-27", "name": "Ailem Cafe"}}, {"type": "node", "id": 7989223590, "lat": 36.5761844, "lon": 29.0884343, "tags": {"amenity": "restaurant", "name": "Rokka"}}, {"type": "node", "id": 7989223594, "lat": 36.5461451, "lon": 29.1233856, "tags": {"amenity": "restaurant", "name": "Tiki", "name:en": "Tiki"}}, {"type": "node", "id": 7995293286, "lat": 36.4329819, "lon": 29.1465809, "tags": {"amenity": "cafe", "cuisine": "turkish", "name": "Ceti"}}, {"type": "node", "id": 7997085085, "lat": 36.5246146, "lon": 29.155087, "tags": {"amenity": "restaurant", "name": "\u00c7e\u015fmeba\u015f\u0131 Cafe"}}, {"type": "node", "id": 8003857085, "lat": 36.6345073, "lon": 29.1207744, "tags": {"amenity": "restaurant", "check_date": "2024-12-30", "cuisine": "fish;mediterranean", "internet_access": "wlan", "name": "Bar Bunn"}}, {"type": "node", "id": 8003857185, "lat": 36.6338748, "lon": 29.1225633, "tags": {"amenity": "cafe", "name": "AntepCan Katmer K\u00fcnefe"}}, {"type": "node", "id": 8005481586, "lat": 36.6214081, "lon": 29.1095312, "tags": {"amenity": "restaurant", "name": "\u015eamdan"}}, {"type": "node", "id": 8018192387, "lat": 36.5787528, "lon": 29.0922584, "tags": {"amenity": "restaurant", "name": "Yal\u00e7\u0131n Kebab"}}, {"type": "node", "id": 8018835286, "lat": 36.5717089, "lon": 29.1379708, "tags": {"amenity": "restaurant", "name": "Lemon Tree"}}, {"type": "node", "id": 8035637286, "lat": 36.6198589, "lon": 29.1099252, "tags": {"amenity": "cafe", "name:en": "Mereng"}}, {"type": "node", "id": 8038741487, "lat": 36.6539099, "lon": 29.1213712, "tags": {"amenity": "cafe", "check_date": "2023-11-02", "name": "Birlik Lokantas\u0131"}}, {"type": "node", "id": 8038741586, "lat": 36.6335886, "lon": 29.1224993, "tags": {"amenity": "cafe", "name:en": "Onallar Koy Sofrasi"}}, {"type": "node", "id": 8038741587, "lat": 36.6292971, "lon": 29.1229751, "tags": {"amenity": "restaurant", "cuisine": "regional", "name": "Tokg\u00f6z Pide F\u0131r\u0131n\u0131", "name:en": "Tokgoz Pide Firin"}}, {"type": "node", "id": 8075353112, "lat": 36.6616635, "lon": 29.114821, "tags": {"amenity": "restaurant", "cuisine": "turkish", "name": "Babzen Kebab"}}, {"type": "node", "id": 8100306217, "lat": 36.4546105, "lon": 29.1420494, "tags": {"amenity": "cafe", "fixme": "What does self-service caf\u00e9 mean? Is there an actual establishment here?", "name": "Self service cafe", "name:en": "Self service cafe", "name:ru": "\u041a\u0430\u0444\u0435 \u0441\u0430\u043c\u043e\u043e\u0431\u0441\u043b\u0443\u0436\u0438\u0432\u0430\u043d\u0438\u044f"}}, {"type": "node", "id": 8167921622, "lat": 36.6269762, "lon": 29.1161906}, {"type": "node", "id": 8167921623, "lat": 36.6269381, "lon": 29.1163466}, {"type": "node", "id": 8167921624, "lat": 36.6268538, "lon": 29.1163147}, {"type": "node", "id": 8167921625, "lat": 36.6268919, "lon": 29.1161586}, {"type": "node", "id": 8208242717, "lat": 36.6629076, "lon": 29.1492758, "tags": {"amenity": "restaurant", "name:en": "5 TL meat bread + salad"}}, {"type": "node", "id": 8219146617, "lat": 36.6555329, "lon": 29.1221951, "tags": {"addr:housenumber": "25/3", "addr:postcode": "48300", "addr:street": "Akarca, Yerguzlar Cd. 25/3, 48300 Fethiye/Mu\u011fla, \u0422\u0443\u0440\u0446\u0438\u044f", "amenity": "cafe", "check_date": "2024-03-16", "cuisine": "coffee_shop", "name": "Cervos Coffee Roasters", "name:ru": "\u0421\u0435\u0440\u0432\u043e\u0441", "note": "\u041a\u043e\u0440\u0440\u0435\u043a\u0442\u043d\u0430\u044f \u0442\u0440\u0430\u043d\u0441\u043a\u0440\u0438\u043f\u0446\u0438\u044f \u0441\u043e \u0441\u043b\u043e\u0432 \u0445\u043e\u0437\u044f\u0438\u043d\u0430 \u0437\u0432\u0443\u0447\u0438\u0442 \u043a\u0430\u043a \u00ab\u0421\u0435\u0440\u0432\u043e\u0441\u00bb.", "opening_hours": "Mo-Sa 09:00-21:00", "outdoor_seating": "yes", "payment:cash": "yes", "payment:credit_cards": "yes", "payment:debit_cards": "yes", "phone": "+90 545 406 06 48", "wheelchair": "yes"}}, {"type": "node", "id": 8329475919, "lat": 36.5788412, "lon": 29.0873327, "tags": {"amenity": "restaurant", "description": "WiFi password : ER7MLBMTN07", "name": "Caspar"}}, {"type": "node", "id": 8486600650, "lat": 36.6250057, "lon": 29.1160037}, {"type": "node", "id": 8486600651, "lat": 36.6248016, "lon": 29.1159152}, {"type": "node", "id": 8486600652, "lat": 36.6248433, "lon": 29.1157656}, {"type": "node", "id": 8486600653, "lat": 36.6250475, "lon": 29.115854}, {"type": "node", "id": 8559165750, "lat": 36.6208247, "lon": 29.0928481, "tags": {"amenity": "restaurant", "name": "Yengec Restaurant"}}, {"type": "node", "id": 8573264717, "lat": 36.6786825, "lon": 29.0930026, "tags": {"addr:housenumber": "0553 466 97 17", "addr:street": "Kumsal Sokak", "amenity": "restaurant", "cuisine": "barbecue;breakfast;burger;cake;chicken;coffee_shop;crepe", "internet_access": "wlan", "name": "Agora Beach Camping", "opening_hours": "24/7", "phone": "05534669717"}}, {"type": "node", "id": 8574381917, "lat": 36.6338357, "lon": 29.1234363, "tags": {"amenity": "cafe", "name": "\u00c2ntep-i Baklava", "opening_hours": "Mo-Su 09:30-22:00", "phone": "05079471085"}}, {"type": "node", "id": 8603228117, "lat": 36.6615644, "lon": 29.1323014, "tags": {"amenity": "cafe", "name:en": "Vitamin"}}, {"type": "node", "id": 8604929317, "lat": 36.6616339, "lon": 29.1143881, "tags": {"amenity": "cafe", "name:en": "The Local Caffeine Dealer"}}, {"type": "node", "id": 8604929417, "lat": 36.661509, "lon": 29.1139993, "tags": {"amenity": "cafe", "name:en": "Corbaci"}}, {"type": "node", "id": 8604929520, "lat": 36.6610411, "lon": 29.112707, "tags": {"amenity": "restaurant", "check_date": "2024-12-01", "name": "Ametist"}}, {"type": "node", "id": 8605021217, "lat": 36.6588153, "lon": 29.1205825, "tags": {"amenity": "cafe", "check_date": "2024-12-30", "name:en": "Secret Garden"}}, {"type": "node", "id": 8605021317, "lat": 36.6587335, "lon": 29.1206449, "tags": {"amenity": "restaurant", "check_date": "2023-11-02", "cuisine": "seafood", "name": "Efendi Fish & Seafood"}}, {"type": "node", "id": 8611026417, "lat": 36.6601004, "lon": 29.1202562, "tags": {"amenity": "restaurant", "check_date": "2024-12-30", "cuisine": "chinese", "name": "China Go"}}, {"type": "node", "id": 8613306717, "lat": 36.6221513, "lon": 29.1047837, "tags": {"amenity": "restaurant", "name:en": "Ruzanna Food & etc"}}, {"type": "node", "id": 8666879201, "lat": 36.4661339, "lon": 29.1226601, "tags": {"amenity": "restaurant", "name": "Olive Garden Kabak", "website": "https://www.olivegardenkabak.com/"}}, {"type": "node", "id": 8666919525, "lat": 36.4462622, "lon": 29.1433127, "tags": {"amenity": "restaurant", "internet_access": "wlan", "name": "Likya restaurant & camping", "name:en": "Likya Restaurant & Camping", "website": "https://www.facebook.com/Likya-RestaurantMarket-101433391207552/"}}, {"type": "node", "id": 8724115250, "lat": 36.5474082, "lon": 29.1215588, "tags": {"amenity": "atm", "brand": "ING", "brand:wikidata": "Q645708", "check_date": "2023-11-04", "operator": "ING", "operator:wikidata": "Q645708"}}, {"type": "node", "id": 8724115253, "lat": 36.5473907, "lon": 29.1215474, "tags": {"amenity": "atm", "brand": "Garanti Bankas\u0131", "brand:wikidata": "Q322962", "check_date": "2023-11-04", "operator": "Garanti Bankas\u0131", "operator:wikidata": "Q322962"}}, {"type": "node", "id": 8725120626, "lat": 36.4365451, "lon": 29.1417328, "tags": {"amenity": "cafe"}}, {"type": "node", "id": 8725125080, "lat": 36.4030834, "lon": 29.1395918, "tags": {"amenity": "cafe"}}, {"type": "node", "id": 8725171848, "lat": 36.4799581, "lon": 29.1081563, "tags": {"addr:city": "Mu\u011fla", "addr:district": "Fethiye", "addr:housenumber": "171", "addr:neighbourhood": "Uzunyurt, Kizilcakaya Mevkii No:171, 48300, Faralya", "addr:postcode": "48300", "addr:street": "K\u0131z\u0131lcakaya", "amenity": "restaurant", "contact:instagram": "https://www.instagram.com/rupsbythesea/", "cuisine": "mediterranean", "name": "Rups By The Sea", "opening_hours": "Mo-Su 08:00-22:00", "phone": "+90 (544) 429 2740", "website": "https://rups.com.tr/"}}, {"type": "node", "id": 8754068617, "lat": 36.6428959, "lon": 28.8937087, "tags": {"amenity": "restaurant", "name": "g\u00f6b\u00fcn restorant", "name:en": "g\u00f6b\u00fcn restaurant"}}, {"type": "node", "id": 8761668617, "lat": 36.4020086, "lon": 29.1380697, "tags": {"amenity": "cafe", "name": "T\u00fcrkmen G\u00f6zleme Evi", "name:en": "T\u00fcrkmen Turkish Pancake House"}}, {"type": "node", "id": 9037733517, "lat": 36.5460984, "lon": 29.1275773}, {"type": "node", "id": 9037733518, "lat": 36.5460931, "lon": 29.1276268}, {"type": "node", "id": 9037733519, "lat": 36.5460276, "lon": 29.1276159}, {"type": "node", "id": 9037733520, "lat": 36.5460329, "lon": 29.1275664}, {"type": "node", "id": 9037733632, "lat": 36.5460938, "lon": 29.1276208}, {"type": "node", "id": 9037766509, "lat": 36.5457413, "lon": 29.1274822, "tags": {"amenity": "restaurant"}}, {"type": "node", "id": 9051925018, "lat": 36.6561204, "lon": 29.1157207, "tags": {"addr:postcode": "48300", "addr:street": "965. Sokak", "amenity": "cafe", "changing_table": "no", "changing_table:count": "0", "check_date": "2024-11-27", "cuisine": "ice_cream;turkish", "indoor_seating": "yes", "level": "0", "name": "Fethiye Dondurma D\u00fcnyas\u0131", "opening_hours": "Mo-Su 06:00-02:00", "phone": "+90 542 544 48 58", "takeaway": "yes", "toilets": "yes", "toilets:access": "customers", "wheelchair": "limited"}}, {"type": "node", "id": 9067297517, "lat": 36.6225849, "lon": 29.1080056, "tags": {"amenity": "restaurant", "check_date": "2023-02-28", "internet_access": "wlan", "name:en": "Puerto", "name:ru": "\u041f\u0443\u044d\u0440\u0442\u043e"}}, {"type": "node", "id": 9083664149, "lat": 36.5462634, "lon": 29.1232103, "tags": {"addr:city": "Mu\u011fla", "addr:postcode": "48330", "amenity": "restaurant", "cuisine": "fish;grill;italian;italian_pizza;kebab;pasta;pizza", "name": "Bella Gusto", "phone": "+90 252 617 0609", "website": "http://www.bellagusto.com/"}}, {"type": "node", "id": 9084070264, "lat": 36.7012279, "lon": 28.6944123, "tags": {"amenity": "cafe", "check_date": "2024-10-08", "internet_access": "wlan", "internet_access:fee": "customers", "name": "Snack Restaurant", "opening_hours": "11:30-17:00"}}, {"type": "node", "id": 9116555124, "lat": 36.5486794, "lon": 29.1236518, "tags": {"amenity": "restaurant", "cuisine": "burger;fish;mediterranean;turkish", "name": "Kassandra restaurant", "name:en": "Kassandra restaurant"}}, {"type": "node", "id": 9116556524, "lat": 36.5467979, "lon": 29.1235653, "tags": {"amenity": "restaurant", "cuisine": "regional;kebab;international", "name": "Tonoz's Beach Garden", "name:en": "Tonoz's Beach Garden"}}, {"type": "node", "id": 9120059917, "lat": 36.5495425, "lon": 29.1561737, "tags": {"amenity": "restaurant", "name": "1200 Rakim", "website": "https://www.babadagteleferik.com.tr/1200-rakim/"}}, {"type": "node", "id": 9149581017, "lat": 36.6627612, "lon": 29.148767, "tags": {"amenity": "restaurant", "cuisine": "turkish", "name": "\u00c7ARDAK P\u0130DE RESTURANT", "name:tr": "\u00c7ARDAK P\u0130DE RESTURANT", "opening_hours": "09:00-22:00"}}, {"type": "node", "id": 9155133418, "lat": 36.6203526, "lon": 29.1177985, "tags": {"amenity": "cafe", "check_date": "2023-02-28", "cuisine": "local;coffee", "name": "K\u00f6\u015fe Kahve", "opening_hours": "Mo-Su 08:15-21:30"}}, {"type": "node", "id": 9157658817, "lat": 36.5810129, "lon": 29.0936007, "tags": {"amenity": "cafe", "name": "Fesle\u011fen Kahvalt\u0131 & Mangal"}}, {"type": "node", "id": 9157934613, "lat": 36.6613727, "lon": 29.1091097, "tags": {"amenity": "cafe", "name": "Cafe Soul"}}, {"type": "node", "id": 9160167717, "lat": 36.5694338, "lon": 29.1403914, "tags": {"amenity": "restaurant", "cuisine": "breakfast;buschenschank;turkish", "name": "Gulzade Gurel - Gul Un Ev Yene"}}, {"type": "node", "id": 9162849818, "lat": 36.4019991, "lon": 29.1380707, "tags": {"amenity": "cafe", "cuisine": "crepe;local;turkish", "name": "Turkmen"}}, {"type": "node", "id": 9207309488, "lat": 36.4467813, "lon": 29.142425, "tags": {"amenity": "restaurant"}}, {"type": "node", "id": 9214614117, "lat": 36.6213683, "lon": 29.1065375, "tags": {"amenity": "cafe", "cuisine": "turkish", "name": "Halk Evi"}}, {"type": "node", "id": 9216102017, "lat": 36.447891, "lon": 29.1425017, "tags": {"amenity": "cafe", "name:en": "Hasan gozleme cay", "name:ru": "Hasan gozleme cay"}}, {"type": "node", "id": 9220812217, "lat": 36.4924299, "lon": 29.13216, "tags": {"amenity": "cafe", "name:en": "Ottoman gozleme evi", "name:ru": "Ottoman \u0432\u043a\u0443\u0441\u043d\u044b\u0435 \u043b\u0435\u043f\u0435\u0448\u043a\u0438 \u0438 \u0447\u0430\u0439"}}, {"type": "node", "id": 9245204559, "lat": 36.6426245, "lon": 28.8936312}, {"type": "node", "id": 9245204560, "lat": 36.6426385, "lon": 28.8938391}, {"type": "node", "id": 9245204561, "lat": 36.6427935, "lon": 28.8938257}, {"type": "node", "id": 9245204562, "lat": 36.6427827, "lon": 28.8936245}, {"type": "node", "id": 9402416714, "lat": 36.5473899, "lon": 29.122758, "tags": {"amenity": "restaurant", "check_date": "2024-12-29", "name": "Takil"}}, {"type": "node", "id": 9490004270, "lat": 36.5651026, "lon": 29.0823267}, {"type": "node", "id": 9490004271, "lat": 36.5651425, "lon": 29.0823736}, {"type": "node", "id": 9490004272, "lat": 36.5650945, "lon": 29.0824368}, {"type": "node", "id": 9490004273, "lat": 36.5651292, "lon": 29.0824777}, {"type": "node", "id": 9490004274, "lat": 36.5649955, "lon": 29.0826538}, {"type": "node", "id": 9490004275, "lat": 36.56495, "lon": 29.0826004}, {"type": "node", "id": 9490004276, "lat": 36.5650074, "lon": 29.0825248}, {"type": "node", "id": 9490004277, "lat": 36.5649494, "lon": 29.0824565}, {"type": "node", "id": 9490004278, "lat": 36.5650275, "lon": 29.0823535}, {"type": "node", "id": 9490004279, "lat": 36.5650565, "lon": 29.0823876}, {"type": "node", "id": 9490005286, "lat": 36.4985498, "lon": 29.1271397}, {"type": "node", "id": 9490005287, "lat": 36.4984718, "lon": 29.1270776}, {"type": "node", "id": 9490005288, "lat": 36.4983658, "lon": 29.127284}, {"type": "node", "id": 9490005289, "lat": 36.4984439, "lon": 29.1273461}, {"type": "node", "id": 9599374589, "lat": 36.6318803, "lon": 29.1187934, "tags": {"amenity": "cafe", "check_date": "2025-05-31", "name": "Simit Saray"}}, {"type": "node", "id": 9599374613, "lat": 36.62695, "lon": 29.1162979}, {"type": "node", "id": 9605081409, "lat": 36.6205402, "lon": 29.1093709, "tags": {"amenity": "cafe", "name": "Apple Cafe", "opening_hours": "Mo-Sa 09:00-18:00"}}, {"type": "node", "id": 9612661331, "lat": 36.6309137, "lon": 29.1190155, "tags": {"amenity": "restaurant", "check_date": "2025-05-31", "cuisine": "turkish", "name": "Alaaddin"}}, {"type": "node", "id": 9612661332, "lat": 36.6309406, "lon": 29.1186719, "tags": {"amenity": "restaurant", "check_date": "2025-05-31", "cuisine": "turkish;dessert", "name": "Bolulu Hasan Usta", "payment:cash": "yes", "payment:mastercard": "yes", "payment:visa": "yes"}}, {"type": "node", "id": 9612661333, "lat": 36.6308535, "lon": 29.1185995, "tags": {"amenity": "restaurant", "cuisine": "local", "name": "Sokak Kokore\u00e7 Midye"}}, {"type": "node", "id": 9620262286, "lat": 36.6328178, "lon": 29.1199668, "tags": {"amenity": "restaurant", "cuisine": "fish", "name": "Mavi Dalga"}}, {"type": "node", "id": 9620262287, "lat": 36.6333279, "lon": 29.1198997, "tags": {"amenity": "restaurant", "cuisine": "fish", "name": "Hilmi"}}, {"type": "node", "id": 9620262288, "lat": 36.6340339, "lon": 29.1203879, "tags": {"amenity": "restaurant", "check_date": "2024-12-30", "name": "K\u00fcl"}}, {"type": "node", "id": 9620262290, "lat": 36.6351768, "lon": 29.1212972, "tags": {"amenity": "cafe", "check_date": "2023-02-27", "name": "Marine"}}, {"type": "node", "id": 9620262301, "lat": 36.6364507, "lon": 29.1214446, "tags": {"amenity": "restaurant", "check_date": "2024-12-30", "cuisine": "fish", "name": "Cunda Bal\u0131k"}}, {"type": "node", "id": 9620294620, "lat": 36.6458938, "lon": 29.122471, "tags": {"amenity": "restaurant", "check_date": "2023-02-27", "cuisine": "fish", "name": "Bal\u0131k Evi", "wheelchair": "yes"}}, {"type": "node", "id": 9620294628, "lat": 36.6307742, "lon": 29.1185497, "tags": {"amenity": "restaurant", "check_date": "2023-10-27", "cuisine": "turkish", "name": "Neyzen Meyhane Fethiye"}}, {"type": "node", "id": 9633066522, "lat": 36.6211803, "lon": 29.1068781, "tags": {"amenity": "cafe", "check_date": "2025-01-02", "cuisine": "coffee_shop", "name": "Cofhilus Coffe House"}}, {"type": "node", "id": 9633066528, "lat": 36.6215206, "lon": 29.1093296, "tags": {"amenity": "restaurant", "cuisine": "turkish;kebab;regional", "name": "Kebap Zen"}}, {"type": "node", "id": 9633066542, "lat": 36.6222484, "lon": 29.1107961, "tags": {"amenity": "cafe", "check_date": "2023-02-28", "name": "Limon H2O"}}, {"type": "node", "id": 9633066549, "lat": 36.6223218, "lon": 29.1129258, "tags": {"amenity": "restaurant", "cuisine": "regional;local", "name": "Sar\u0131yer B\u00f6rek\u00e7isi"}}, {"type": "node", "id": 9647962973, "lat": 36.6244023, "lon": 29.1125787, "tags": {"amenity": "cafe", "name": "Meydan Cafe and Restaurant"}}, {"type": "node", "id": 9647962978, "lat": 36.6246762, "lon": 29.1126677, "tags": {"amenity": "cafe", "name": "Sen de Gel Down Cafe"}}, {"type": "node", "id": 9647962987, "lat": 36.6252464, "lon": 29.1155567, "tags": {"amenity": "cafe", "name": "Mezgit Cafe"}}, {"type": "node", "id": 9653388922, "lat": 36.657376, "lon": 29.1214246, "tags": {"amenity": "restaurant", "bar": "yes", "check_date": "2024-12-30", "cuisine": "international", "delivery": "yes", "internet_access": "wlan", "internet_access:fee": "customers", "level": "0", "name": "S.A.F.", "outdoor_seating": "yes", "payment:cash": "yes", "payment:credit_cards": "yes", "payment:debit_cards": "yes", "takeaway": "yes"}}, {"type": "node", "id": 9668294400, "lat": 36.656583, "lon": 29.1224648, "tags": {"amenity": "restaurant", "check_date": "2024-12-30", "name": "Gustorante"}}, {"type": "node", "id": 9677882618, "lat": 36.6206489, "lon": 29.1093005, "tags": {"amenity": "restaurant", "name": "Dut A\u011fac\u0131", "name:en": "The Mulberry Tree Cafe-Restaurant"}}, {"type": "node", "id": 9698146314, "lat": 36.6617073, "lon": 29.1192131, "tags": {"amenity": "cafe", "check_date": "2022-05-26", "name": "Daniska"}}, {"type": "node", "id": 9698204037, "lat": 36.6587128, "lon": 29.121051, "tags": {"amenity": "restaurant", "check_date": "2023-11-02", "name": "Cafe Inn"}}, {"type": "node", "id": 9728691269, "lat": 36.6552584, "lon": 29.1226635, "tags": {"amenity": "restaurant", "check_date": "2025-01-05", "level": "0", "name": "il Giardino", "payment:credit_cards": "yes", "payment:debit_cards": "yes", "wheelchair": "yes"}}, {"type": "node", "id": 9728702147, "lat": 36.6557557, "lon": 29.1226264, "tags": {"amenity": "cafe", "check_date": "2022-05-26", "cuisine": "regional;turkish;dessert", "level": "0", "name": "Baklavac\u0131", "name:tr": "Baklavac\u0131", "outdoor_seating": "yes", "wheelchair": "yes"}}, {"type": "node", "id": 9732922966, "lat": 36.65692, "lon": 29.1222617, "tags": {"amenity": "cafe", "check_date": "2023-11-02", "cuisine": "turkish;regional", "level": "0", "name": "Lokum Kokore\u00e7", "name:tr": "Lokum Kokore\u00e7"}}, {"type": "node", "id": 9759192131, "lat": 36.6236697, "lon": 29.1135955, "tags": {"amenity": "cafe", "check_date": "2025-01-02", "cuisine": "coffee_shop", "internet_access": "wlan", "level": "0", "name": "Mackbear", "outdoor_seating": "yes", "payment:cash": "yes", "payment:credit_cards": "yes", "payment:debit_cards": "yes", "wheelchair": "yes"}}, {"type": "node", "id": 9798199133, "lat": 36.4962509, "lon": 29.1375715, "tags": {"amenity": "cafe"}}, {"type": "node", "id": 9856169848, "lat": 36.5487642, "lon": 29.1234856, "tags": {"amenity": "restaurant", "name": "Sema Gozlemeci"}}, {"type": "node", "id": 9858769417, "lat": 36.5487442, "lon": 29.1250492, "tags": {"amenity": "restaurant", "cuisine": "chicken;curry;fish;fish_and_chips;ice_cream;italian;kebab"}}, {"type": "node", "id": 9862781520, "lat": 36.5733218, "lon": 29.1405056, "tags": {"amenity": "restaurant", "name": "Day&night Restaurant"}}, {"type": "node", "id": 9862825924, "lat": 36.5733217, "lon": 29.1404944, "tags": {"amenity": "restaurant", "name": "Day&Night Restaurant"}}, {"type": "node", "id": 9874418010, "lat": 36.7057564, "lon": 28.6949628}, {"type": "node", "id": 9874418011, "lat": 36.7057189, "lon": 28.6949791}, {"type": "node", "id": 9874418012, "lat": 36.7056961, "lon": 28.6949583}, {"type": "node", "id": 9874418013, "lat": 36.7056619, "lon": 28.6949648}, {"type": "node", "id": 9874418014, "lat": 36.7056472, "lon": 28.6950055}, {"type": "node", "id": 9874418015, "lat": 36.705644, "lon": 28.69504}, {"type": "node", "id": 9874418016, "lat": 36.7056603, "lon": 28.6950746}, {"type": "node", "id": 9874418017, "lat": 36.7056766, "lon": 28.695097}, {"type": "node", "id": 9874418018, "lat": 36.7057092, "lon": 28.6950929}, {"type": "node", "id": 9874418019, "lat": 36.7057352, "lon": 28.6950868}, {"type": "node", "id": 9874418020, "lat": 36.7057499, "lon": 28.6951478}, {"type": "node", "id": 9874418021, "lat": 36.7057988, "lon": 28.6951213}, {"type": "node", "id": 9935889517, "lat": 36.6877347, "lon": 28.7851474, "tags": {"amenity": "restaurant", "bar": "yes", "drive_through": "no", "name": "Kaya\u00e7\u0131k Restorant", "opening_hours": "Mo-Su 09:00-23:00", "outdoor_seating": "yes", "toilets": "yes"}}, {"type": "node", "id": 9987648696, "lat": 36.5499924, "lon": 29.1256077}, {"type": "node", "id": 9987648697, "lat": 36.5498164, "lon": 29.1255437}, {"type": "node", "id": 9987648698, "lat": 36.5500641, "lon": 29.1253245}, {"type": "node", "id": 9987648699, "lat": 36.5499525, "lon": 29.1252809}, {"type": "node", "id": 9987648700, "lat": 36.5497602, "lon": 29.1251241}, {"type": "node", "id": 9987648701, "lat": 36.54973, "lon": 29.1252434}, {"type": "node", "id": 9987648702, "lat": 36.5498738, "lon": 29.1252996}, {"type": "node", "id": 9987670122, "lat": 36.5498458, "lon": 29.1254185}, {"type": "node", "id": 10007048778, "lat": 36.5490346, "lon": 29.1218216, "tags": {"amenity": "restaurant", "name": "Joseph's Food & Drink"}}, {"type": "node", "id": 10029214230, "lat": 36.4981208, "lon": 29.1272627, "tags": {"amenity": "cafe"}}, {"type": "node", "id": 10118170181, "lat": 36.6008143, "lon": 29.1519593, "tags": {"amenity": "restaurant", "cuisine": "turkish"}}, {"type": "node", "id": 10128160119, "lat": 36.6219225, "lon": 29.1182296, "tags": {"amenity": "cafe"}}, {"type": "node", "id": 10128206617, "lat": 36.6219941, "lon": 29.1184958, "tags": {"amenity": "cafe"}}, {"type": "node", "id": 10133726923, "lat": 36.6250914, "lon": 29.1251366, "tags": {"amenity": "restaurant", "check_date": "2023-11-02", "check_date:opening_hours": "2022-11-01", "cuisine": "turkish", "name": "Sahil Lokantalar\u0131", "opening_hours:signed": "no"}}, {"type": "node", "id": 10137353765, "lat": 36.6262157, "lon": 29.1248853, "tags": {"amenity": "cafe", "bar": "no", "check_date": "2023-11-02", "contact:instagram": "https://www.instagram.com/fethiyesariyerborekcisi", "currency:TRY": "yes", "internet_access": "no", "level": "0", "name": "Sar\u0131yer B\u00f6rek\u00e7isi", "outdoor_seating": "yes", "payment:mastercard": "yes", "payment:visa": "yes", "phone": "+05414048249", "source": "survey", "takeaway": "yes", "website": "https://fethiyesariyerborekcisi.com", "wheelchair": "yes"}}, {"type": "node", "id": 10138036514, "lat": 36.6280814, "lon": 29.1243179, "tags": {"amenity": "restaurant", "check_date": "2023-10-27", "check_date:opening_hours": "2022-11-10", "cuisine": "turkish", "internet_access": "wlan", "internet_access:fee": "customers", "level": "0", "name": "Sava\u015f Tokg\u00f6z Pide F\u0131r\u0131n\u0131", "opening_hours:signed": "no", "outdoor_seating": "yes", "payment:mastercard": "yes", "payment:visa": "yes", "smoking": "outside", "source": "survey", "takeaway": "yes", "wheelchair": "no"}}, {"type": "node", "id": 10138224395, "lat": 36.6209828, "lon": 29.113391}, {"type": "node", "id": 10138224396, "lat": 36.6210116, "lon": 29.1134281}, {"type": "node", "id": 10138224397, "lat": 36.6210175, "lon": 29.1135765}, {"type": "node", "id": 10138224398, "lat": 36.6209153, "lon": 29.1136544}, {"type": "node", "id": 10138224399, "lat": 36.6207796, "lon": 29.1136513}, {"type": "node", "id": 10138224400, "lat": 36.6207835, "lon": 29.1133865}, {"type": "node", "id": 10156787001, "lat": 36.5785185, "lon": 29.0918115, "tags": {"amenity": "restaurant", "check_date": "2022-11-04", "cuisine": "turkish", "level": "0", "name": "Efetto Kayak\u00f6y", "name:tr": "Efetto Kayak\u00f6y", "outdoor_seating": "yes", "payment:mastercard": "yes", "payment:visa": "yes"}}, {"type": "node", "id": 10161670396, "lat": 36.6653659, "lon": 29.1067465, "tags": {"amenity": "restaurant", "bar": "yes", "check_date": "2024-11-25", "contact:facebook": "https://www.facebook.com/Calisto", "contact:instagram": "https://www.instagram.com/calisto_pizza", "contact:whatsapp": "+05316011010", "cuisine": "pizza;burger", "internet_access": "wlan", "internet_access:fee": "customers", "level": "0", "microbrewery": "no", "name": "Pizza Calisto", "name:en": "Pizza Calisto", "outdoor_seating": "yes", "payment:mastercard": "yes", "payment:visa": "yes", "source": "survey", "wheelchair": "yes"}}, {"type": "node", "id": 10161735444, "lat": 36.6230109, "lon": 29.1120457, "tags": {"addr:housenumber": "3", "addr:street": "502. Sokak", "amenity": "cafe", "brand": "Gloria Jean's", "brand:wikidata": "Q2666365", "check_date": "2023-02-28", "cuisine": "coffee_shop", "name": "Gloria Jean's", "official_name": "Gloria Jean's Coffees", "outdoor_seating": "yes", "shop": "coffee", "takeaway": "yes", "website": "https://www.gloriajeans.com.tr/"}}, {"type": "node", "id": 10161798118, "lat": 36.6213683, "lon": 29.1099303, "tags": {"addr:housenumber": "9", "addr:street": "96. Sokak", "amenity": "cafe", "name": "NOT IN PARIS", "name:en": "NOT IN PARIS", "opening_hours": "Su-Sa 09:00-22:00"}}, {"type": "node", "id": 10161928651, "lat": 36.6217875, "lon": 29.1090678, "tags": {"addr:housenumber": "63", "addr:street": "42. sokak", "amenity": "restaurant", "check_date": "2023-02-28", "cuisine": "turkish", "name": "Mavi Boncuk"}}, {"type": "node", "id": 10162361749, "lat": 36.6250462, "lon": 29.0885439, "tags": {"addr:housenumber": "62", "addr:street": "Fevzi \u00c7akmak Cd.", "amenity": "restaurant", "name": "Llull Tersane", "opening_hours": "Tu-Su 14:00-01:30", "phone": "+90 539 526 66 66", "website": "www.llulltersane.com"}}, {"type": "node", "id": 10172262137, "lat": 36.6200234, "lon": 29.1100643, "tags": {"amenity": "cafe", "check_date": "2024-10-06", "diet:gluten_free": "yes", "diet:vegan": "yes", "diet:vegetarian": "yes", "level": "0", "name": "ARDI\u00c7 \u015eARK\u00dcTER\u0130", "name:tr": "ARDI\u00c7 \u015eARK\u00dcTER\u0130", "outdoor_seating": "yes", "payment:cash": "yes", "payment:credit_cards": "yes", "payment:debit_cards": "yes"}}, {"type": "node", "id": 10178855798, "lat": 36.5787286, "lon": 29.0871682, "tags": {"amenity": "restaurant"}}, {"type": "node", "id": 10180267499, "lat": 36.6207804, "lon": 29.132914, "tags": {"amenity": "restaurant", "bar": "no", "check_date": "2022-11-13", "cuisine": "turkish", "level": "0", "name": "Tepsi Et D\u00fcnyas\u0131", "name:tr": "Tepsi Et D\u00fcnyas\u0131", "outdoor_seating": "yes", "payment:mastercard": "yes", "payment:visa": "yes", "source": "survey", "takeaway": "yes", "wheelchair": "yes"}}, {"type": "node", "id": 10185782337, "lat": 36.6223354, "lon": 29.1322804, "tags": {"amenity": "cafe", "brand": "Mado", "brand:wikidata": "Q17116336", "check_date": "2022-12-07", "cuisine": "coffee_shop", "delivery": "yes", "name": "Mado", "outdoor_seating": "yes", "payment:mastercard": "yes", "payment:visa": "yes", "takeaway": "yes", "wheelchair": "yes"}}, {"type": "node", "id": 10189447963, "lat": 36.6225142, "lon": 29.1135003, "tags": {"air_conditioning": "yes", "amenity": "restaurant", "bar": "yes", "brewery": "various", "check_date": "2023-02-28", "cuisine": "turkish;pizza;burger;indian;seafood;dessert;cake;breakfast;mediterranean", "microbrewery": "no", "name": "Pa\u015faf\u0131r\u0131n\u0131", "outdoor_seating": "yes", "payment:mastercard": "yes", "payment:visa": "yes", "website": "https://www.pasafirini.com.tr", "wheelchair": "yes"}}, {"type": "node", "id": 10207241376, "lat": 36.6212975, "lon": 29.1327, "tags": {"amenity": "cafe", "cuisine": "turkish", "name": "Saliha Sultan", "outdoor_seating": "yes", "website": "http://www.salihasultan.com.tr"}}, {"type": "node", "id": 10219993017, "lat": 36.4954345, "lon": 29.1378089, "tags": {"amenity": "cafe", "internet_access": "wlan", "name:en": "Kelebek restaurant"}}, {"type": "node", "id": 10223091937, "lat": 36.6248241, "lon": 29.146145, "tags": {"amenity": "cafe"}}, {"type": "node", "id": 10245256641, "lat": 36.6220459, "lon": 29.132327, "tags": {"amenity": "cafe", "brand": "Kahve D\u00fcnyas\u0131", "brand:wikidata": "Q28008050", "check_date": "2022-12-07", "cuisine": "coffee_shop", "level": "0", "name": "Kahve D\u00fcnyas\u0131", "takeaway": "yes", "wheelchair": "yes"}}, {"type": "node", "id": 10250216629, "lat": 36.631053, "lon": 29.1486819, "tags": {"amenity": "cafe", "check_date": "2023-03-01", "cuisine": "turkish;coffee_shop", "name": "Saliha Sultan", "outdoor_seating": "yes", "website": "http://www.salihasultan.com.tr"}}, {"type": "node", "id": 10250216640, "lat": 36.6343819, "lon": 29.1316044, "tags": {"amenity": "cafe", "cuisine": "turkish;dessert;cake", "name": "Saliha Sultan", "outdoor_seating": "yes", "website": "http://www.salihasultan.com.tr"}}, {"type": "node", "id": 10251433986, "lat": 36.6237934, "lon": 29.1326778, "tags": {"amenity": "restaurant", "check_date": "2022-12-10", "cuisine": "turkish", "name": "Gar Lokantas\u0131 1", "outdoor_seating": "yes", "wheelchair": "yes"}}, {"type": "node", "id": 10284213409, "lat": 36.621888, "lon": 29.1158942, "tags": {"amenity": "cafe"}}, {"type": "node", "id": 10296439617, "lat": 36.6565601, "lon": 29.1226953, "tags": {"amenity": "cafe", "check_date": "2024-12-30", "cuisine": "dessert;cake;coffee_shop", "level": "0", "name": "May chocolate", "outdoor_seating": "yes", "payment:credit_cards": "yes", "payment:debit_cards": "yes", "wheelchair": "limited"}}, {"type": "node", "id": 10575241863, "lat": 36.6230387, "lon": 29.1136351, "tags": {"amenity": "restaurant", "check_date": "2023-01-22", "cuisine": "pizza", "name": "Pizza Job\u2019s"}}, {"type": "node", "id": 10585003146, "lat": 36.6230054, "lon": 29.1320992, "tags": {"amenity": "cafe", "brand": "Starbucks", "brand:wikidata": "Q37158", "check_date": "2023-10-28", "cuisine": "coffee_shop", "name": "Starbucks", "official_name": "Starbucks Coffee", "outdoor_seating": "yes", "payment:cash": "yes", "payment:mastercard": "yes", "payment:visa": "yes", "takeaway": "yes"}}, {"type": "node", "id": 10587009163, "lat": 36.6277575, "lon": 29.1172146, "tags": {"amenity": "restaurant", "check_date": "2024-12-31", "cuisine": "italian", "name": "Trattoria di Kukina"}}, {"type": "node", "id": 10588913217, "lat": 36.6235454, "lon": 29.1152815, "tags": {"amenity": "restaurant", "check_date": "2023-01-28", "cuisine": "turkish", "level": "0", "name": "Saliha Sultan", "payment:mastercard": "yes", "payment:visa": "yes", "wheelchair": "yes"}}, {"type": "node", "id": 10597287410, "lat": 36.6189816, "lon": 29.1377263, "tags": {"amenity": "cafe", "cuisine": "turkish", "internet_access": "wlan", "name:en": "Durumchu"}}, {"type": "node", "id": 10619992393, "lat": 36.6207791, "lon": 29.1331216, "tags": {"amenity": "cafe", "cuisine": "coffee_shop", "name": "Turk Kahvesi"}}, {"type": "node", "id": 10695539005, "lat": 36.6230092, "lon": 29.1141293, "tags": {"amenity": "cafe", "check_date": "2023-02-26", "cuisine": "coffee_shop", "name": "Z\u00fcrafa"}}, {"type": "node", "id": 10699339339, "lat": 36.6194335, "lon": 29.1149343, "tags": {"amenity": "cafe", "check_date": "2023-02-28"}}, {"type": "node", "id": 10699400101, "lat": 36.6235365, "lon": 29.1141544, "tags": {"amenity": "cafe", "check_date": "2023-02-28", "name": "\u011e\u0131nci"}}, {"type": "node", "id": 10699429588, "lat": 36.6235348, "lon": 29.1131407, "tags": {"amenity": "restaurant", "check_date": "2023-02-28", "cuisine": "fish", "name": "Kefal restoraunt"}}, {"type": "node", "id": 10699429589, "lat": 36.6237035, "lon": 29.1131658, "tags": {"amenity": "restaurant", "check_date": "2023-02-28", "cuisine": "fish", "name": "\u015eef"}}, {"type": "node", "id": 10699772917, "lat": 36.6219826, "lon": 29.1080297, "tags": {"amenity": "cafe", "check_date": "2023-02-28", "cuisine": "coffee_shop"}}, {"type": "node", "id": 10699772918, "lat": 36.6217303, "lon": 29.1075682, "tags": {"amenity": "restaurant", "check_date": "2023-02-28", "cuisine": "chinese", "name": "China King"}}, {"type": "node", "id": 10699838034, "lat": 36.6222639, "lon": 29.107677, "tags": {"amenity": "restaurant", "check_date": "2023-02-28", "name": "Nefis Pide"}}, {"type": "node", "id": 10699866596, "lat": 36.6242844, "lon": 29.1144131, "tags": {"amenity": "cafe", "check_date": "2023-02-28", "name": "ChillOut Bistro"}}, {"type": "node", "id": 10699900135, "lat": 36.6230531, "lon": 29.1133216, "tags": {"amenity": "restaurant", "check_date": "2023-02-28", "name": "La Capella"}}, {"type": "node", "id": 10706056644, "lat": 36.6421517, "lon": 29.1746445, "tags": {"amenity": "restaurant", "check_date": "2023-03-03"}}, {"type": "node", "id": 10789915936, "lat": 36.4007291, "lon": 29.1369, "tags": {"addr:neighbourhood": "+90-5396222448", "amenity": "cafe", "internet_access": "yes", "name": "C\u00fcneyt Market", "outdoor_seating": "yes"}}, {"type": "node", "id": 10789915937, "lat": 36.382823, "lon": 29.1693078, "tags": {"addr:city": "mu\u011fla", "addr:district": "seydikemer", "addr:housenumber": "18/1", "addr:neighbourhood": "dodurga", "addr:postcode": "48360", "addr:street": "Bel caddesi", "air_conditioning": "yes", "amenity": "restaurant", "bar": "yes", "brewery": "yes;efes", "capacity": "30", "cuisine": "coffee_shop;regional;chicken;breakfast;turkish;salad;sandwich;mediterranean;barbecue;tea;diner;juice;middle_eastern", "description": "Caffeteria of Camp Nasuh serves delicious food and handmade coffee which you can't find anywhere else during your trail", "diet:halal": "yes", "diet:lactose_free": "yes", "diet:vegetarian": "yes", "internet_access": "wlan", "internet_access:fee": "no", "name": "Camp Nasuh Caffeteria", "opening_hours": "24/7", "organic": "only", "outdoor_seating": "yes", "payment:cash": "yes", "phone": "+90 545 215 7129", "reservation": "recommended", "smoking": "yes", "toilets": "yes", "website": "https://www.campnasuh.com/"}}, {"type": "node", "id": 10865835397, "lat": 36.6205971, "lon": 29.1137697, "tags": {"amenity": "restaurant", "name": "Nomads"}}, {"type": "node", "id": 10893500907, "lat": 36.6289579, "lon": 29.1179405, "tags": {"addr:housenumber": "3", "addr:postcode": "48300", "addr:street": "Sadi Berkman Caddesi", "amenity": "cafe", "check_date": "2025-04-04", "cuisine": "italian;italian_pizza;pancake;pasta", "inscription": "Coffee & cocktails, pizzeria", "internet_access": "wlan", "name": "Trio Cafe", "opening_hours": "Mo-Sa 10:00-00:00; Su 11:00-00:00", "phone": "+90535 276 85 13", "website": "http://triofethiye.com"}}, {"type": "node", "id": 10916569552, "lat": 36.7052047, "lon": 28.7108249}, {"type": "node", "id": 10916569553, "lat": 36.7053863, "lon": 28.7107671}, {"type": "node", "id": 10916569554, "lat": 36.7053385, "lon": 28.7105335}, {"type": "node", "id": 10916569555, "lat": 36.7051569, "lon": 28.7105914}, {"type": "node", "id": 10960488956, "lat": 36.6263496, "lon": 29.1311033, "tags": {"amenity": "restaurant", "name": "TA\u015e MEKAN TAPAS BAR"}}, {"type": "node", "id": 10960500926, "lat": 36.6260957, "lon": 29.1319911, "tags": {"amenity": "restaurant", "cuisine": "kebab;turkish", "internet_access": "wlan", "name": "Kebap\u00e7iDAYIM"}}, {"type": "node", "id": 11003007097, "lat": 36.6750052, "lon": 29.1035041, "tags": {"amenity": "restaurant", "name": "Odyssey"}}, {"type": "node", "id": 11006014846, "lat": 36.7018894, "lon": 28.6961004, "tags": {"amenity": "cafe"}}, {"type": "node", "id": 11008065164, "lat": 36.6230057, "lon": 29.0876069, "tags": {"amenity": "restaurant", "name": "Porth Steakhouse"}}, {"type": "node", "id": 11011682930, "lat": 36.6513987, "lon": 29.1244478, "tags": {"amenity": "cafe", "check_date": "2023-06-28"}}, {"type": "node", "id": 11025947570, "lat": 36.6284758, "lon": 29.1179166}, {"type": "node", "id": 11025947571, "lat": 36.6285675, "lon": 29.1179528}, {"type": "node", "id": 11025947572, "lat": 36.628584, "lon": 29.1178877}, {"type": "node", "id": 11025947573, "lat": 36.6284923, "lon": 29.1178515}, {"type": "node", "id": 11073900405, "lat": 36.6211662, "lon": 29.1118525, "tags": {"amenity": "restaurant", "name:en": "Oztoklu Family Restaurant"}}, {"type": "node", "id": 11160109608, "lat": 36.5790781, "lon": 29.0854797, "tags": {"addr:housenumber": "84", "amenity": "restaurant"}}, {"type": "node", "id": 11160109905, "lat": 36.5793906, "lon": 29.0837393, "tags": {"amenity": "restaurant", "name": "Ziytin Kasap Restaurant"}}, {"type": "node", "id": 11233189038, "lat": 36.6202042, "lon": 29.1131932, "tags": {"amenity": "cafe", "cuisine": "coffee_shop", "name": "Unnamed", "outdoor_seating": "yes"}}, {"type": "node", "id": 11248384219, "lat": 36.6204213, "lon": 29.0952052, "tags": {"amenity": "cafe", "cuisine": "coffee_shop;international", "internet_access": "yes", "name": "Chez La Vie", "outdoor_seating": "yes", "website": "https://chezlavieeatery.com/"}}, {"type": "node", "id": 11266113369, "lat": 36.6237435, "lon": 29.1133588, "tags": {"amenity": "cafe", "cuisine": "cake;ice_cream;local;turkish", "internet_access": "wlan", "name": "Kaymak Dondurma & Waffle Fethiye", "name:en": "Kaymak Dondurma & Waffle Fethiye", "opening_hours": "Su-Th 12:00-00:00; Fr-Sa 15:00-00:00", "phone": "+90 506 361 12 11"}}, {"type": "node", "id": 11297246839, "lat": 36.5459962, "lon": 29.1234981, "tags": {"amenity": "cafe", "check_date": "2023-10-29", "cuisine": "coffee_shop;breakfast", "name": "Fly Coffee", "payment:cash": "yes", "payment:mastercard": "yes", "payment:visa": "yes"}}, {"type": "node", "id": 11302113271, "lat": 36.6207357, "lon": 29.1100083, "tags": {"amenity": "restaurant", "check_date": "2023-10-31", "cuisine": "turkish", "name": "K\u00f6z K\u00f6fte & Kokore\u00e7"}}, {"type": "node", "id": 11304333475, "lat": 36.6225976, "lon": 29.1260321, "tags": {"amenity": "cafe", "check_date": "2023-11-01", "name": "G\u00fcven K\u0131raathanesi"}}, {"type": "node", "id": 11310576880, "lat": 36.6204993, "lon": 29.0937214, "tags": {"amenity": "cafe", "name": "Venturo"}}, {"type": "node", "id": 11310592031, "lat": 36.6222409, "lon": 29.1041099, "tags": {"amenity": "cafe"}}, {"type": "node", "id": 11311140420, "lat": 36.5471278, "lon": 29.1217664, "tags": {"amenity": "restaurant", "check_date": "2023-11-04", "cuisine": "steak_house", "name": "Bam-Boo \u00d6l\u00fcdeniz"}}, {"type": "node", "id": 11365983387, "lat": 36.6229032, "lon": 28.8565245, "tags": {"amenity": "restaurant", "name": "Mutlu'nun Yeri"}}, {"type": "node", "id": 11365986631, "lat": 36.6025242, "lon": 28.8489317, "tags": {"amenity": "restaurant", "name": "Necip'in Yeri"}}, {"type": "node", "id": 11393130232, "lat": 36.6623429, "lon": 29.1208241, "tags": {"amenity": "restaurant", "check_date": "2023-12-16", "cuisine": "turkish", "internet_access": "wlan", "internet_access:fee": "customers", "name": "K\u00f6z Ocakba\u015f\u0131", "payment:cash": "yes", "payment:credit_cards": "yes", "payment:debit_cards": "yes"}}, {"type": "node", "id": 11393139872, "lat": 36.6623317, "lon": 29.1206801, "tags": {"amenity": "restaurant", "check_date": "2024-05-05", "cuisine": "turkish", "name": "Kalimera Meyhane"}}, {"type": "node", "id": 11393143578, "lat": 36.6200526, "lon": 29.0908579, "tags": {"amenity": "restaurant", "cuisine": "seafood", "name": "Lakerda Restaurant"}}, {"type": "node", "id": 11393275362, "lat": 36.6289815, "lon": 29.1177596, "tags": {"amenity": "cafe", "check_date": "2025-04-04", "cuisine": "coffee_shop", "internet_access": "wlan", "internet_access:fee": "customers", "level": "0", "name": "Cofhilus Coffee House", "outdoor_seating": "yes", "payment:cash": "yes", "payment:credit_cards": "yes", "payment:debit_cards": "yes", "wheelchair": "limited"}}, {"type": "node", "id": 11393276709, "lat": 36.6242841, "lon": 29.1256688, "tags": {"amenity": "cafe", "check_date": "2023-12-04", "cuisine": "coffee_shop", "internet_access": "wlan", "internet_access:fee": "no", "name": "Starbucks", "payment:cash": "yes", "payment:credit_cards": "yes", "payment:debit_cards": "yes"}}, {"type": "node", "id": 11393364793, "lat": 36.6300242, "lon": 29.1240863, "tags": {"amenity": "restaurant", "check_date": "2023-12-04", "cuisine": "turkish", "name": "Ci\u011ferci Aziz"}}, {"type": "node", "id": 11420643286, "lat": 36.6615471, "lon": 29.1196207, "tags": {"amenity": "restaurant", "check_date": "2023-12-15", "internet_access": "wlan", "internet_access:fee": "customers", "name": "Keyf-i Deniz Restaurant", "payment:cash": "yes", "payment:credit_cards": "yes", "payment:debit_cards": "yes"}}, {"type": "node", "id": 11436645846, "lat": 36.6185811, "lon": 29.1396443, "tags": {"amenity": "restaurant", "check_date": "2025-04-22", "cuisine": "turkish;\u00e7orba;soup;kellepa\u00e7a;i\u0307\u015fkembe", "name": "Kayaalt\u0131 \u00c7orbac\u0131s\u0131"}}, {"type": "node", "id": 11504144344, "lat": 36.6210923, "lon": 29.1128289, "tags": {"amenity": "cafe", "cuisine": "tost;k\u00f6fte", "name": "Bulut Kafe"}}, {"type": "node", "id": 11754028530, "lat": 36.6574518, "lon": 29.1211278}, {"type": "node", "id": 11754028532, "lat": 36.6574352, "lon": 29.1210119}, {"type": "node", "id": 11754028537, "lat": 36.6572294, "lon": 29.1210578}, {"type": "node", "id": 11754028538, "lat": 36.657246, "lon": 29.1211738}, {"type": "node", "id": 11754028540, "lat": 36.6583836, "lon": 29.1212857, "tags": {"amenity": "cafe", "check_date": "2024-12-30", "cuisine": "coffee_shop", "name": "Doc Coffee Co.", "outdoor_seating": "yes", "payment:cash": "yes", "payment:credit_cards": "yes", "payment:debit_cards": "yes", "wheelchair": "limited"}}, {"type": "node", "id": 11764049969, "lat": 36.6263196, "lon": 29.1248532, "tags": {"amenity": "restaurant", "name": "\u00c7orbac\u0131m Fethiye", "name:en": "Soup Restaurant"}}, {"type": "node", "id": 11804734669, "lat": 36.6229313, "lon": 29.1130931, "tags": {"amenity": "restaurant", "name:en": "Karma Pub Bar"}}, {"type": "node", "id": 11813628291, "lat": 36.4796331, "lon": 29.1126611, "tags": {"addr:city": "Mu\u011fla", "addr:district": "Fethiye", "addr:housenumber": "89", "addr:postcode": "48300", "addr:street": "K\u0131z\u0131lcakaya Sokak", "amenity": "restaurant", "opening_hours": "Mo-Su 09:00-23:30", "phone": "+905320505494", "website": "https://taplink.cc/yigitoglurestaurant"}}, {"type": "node", "id": 11881031461, "lat": 36.6622878, "lon": 29.1203222, "tags": {"addr:housenumber": "61A", "addr:street": "Bar\u0131\u015f Man\u00e7o Bulvar\u0131", "amenity": "cafe", "check_date": "2024-05-05", "contact:phone": "+90 534 790 89 70", "contact:website": "https://rests.app/site/lb/menu", "cuisine": "russian;international", "email": "lovebreakfast.cafe@gmail.com", "internet_access": "wlan", "internet_access:fee": "customers", "level": "0", "name": "Love breakfast", "opening_hours": "We-Su 09:00-19:00", "outdoor_seating": "yes", "payment:cash": "yes", "payment:credit_cards": "yes", "payment:debit_cards": "yes", "wheelchair": "yes"}}, {"type": "node", "id": 11885910183, "lat": 36.5834394, "lon": 29.0954071, "tags": {"addr:city": "Fethiye", "addr:housenumber": "63/B", "addr:postcode": "48300", "addr:street": "Ke\u00e7iler sokak", "amenity": "restaurant", "check_date:opening_hours": "2024-05-07", "cuisine": "turkish", "email": "panrestaurantkayakoy@gmail.com", "name": "Pan Restaurant Kayak\u00f6y", "opening_hours": "Mo-Su,PH 09:00-23:00", "phone": "05323990343", "wheelchair": "yes"}}, {"type": "node", "id": 11896597969, "lat": 36.5788351, "lon": 29.0869944, "tags": {"amenity": "restaurant", "name": "Gaya Eat & More"}}, {"type": "node", "id": 11898243282, "lat": 36.6230485, "lon": 29.1130941, "tags": {"amenity": "cafe", "name:en": "Fish and Chips"}}, {"type": "node", "id": 11899034169, "lat": 36.6225194, "lon": 29.1121353, "tags": {"amenity": "cafe", "name": "Kahvec\u00ef"}}, {"type": "node", "id": 11901337169, "lat": 36.5698365, "lon": 29.1467394, "tags": {"amenity": "restaurant", "name:en": "Oasis"}}, {"type": "node", "id": 11901337170, "lat": 36.5695833, "lon": 29.1468636, "tags": {"amenity": "restaurant", "check_date": "2024-12-30", "internet_access": "wlan", "name": "Jasmine", "name:en": "Jasmine"}}, {"type": "node", "id": 11942239069, "lat": 36.4587488, "lon": 29.1437127, "tags": {"amenity": "cafe", "name": "Self-service cafe"}}, {"type": "node", "id": 12026383840, "lat": 36.6783067, "lon": 29.0944042, "tags": {"addr:city": "mu\u011fla", "addr:district": "fethiye", "addr:housenumber": "1", "addr:neighbourhood": "Kumsal sokak no:1", "addr:postcode": "48000", "addr:street": "Kumsal Sokak", "amenity": "restaurant", "cuisine": "fast_food;breakfast;coffee_shop;bar_and_grill", "diet:allergen-free": "yes", "diet:gluten_free": "yes", "diet:halal": "yes", "diet:lactose_free": "yes", "diet:non-vegetarian": "yes", "diet:vegan": "yes", "diet:vegetarian": "yes", "name": "Vera Beach Hotel", "opening_hours": "24/7", "phone": "+905073787878", "website": "https://verabeachhotel.com/"}}, {"type": "node", "id": 12039494569, "lat": 36.5497855, "lon": 29.1127737, "tags": {"addr:postcode": "48340", "addr:street": "\u00d6l\u00fcdeniz Tabiat Park\u0131", "amenity": "cafe", "name": "Starbucks"}}, {"type": "node", "id": 12138473956, "lat": 36.4963912, "lon": 29.1265177}, {"type": "node", "id": 12138473957, "lat": 36.4963677, "lon": 29.1264828}, {"type": "node", "id": 12215536401, "lat": 36.5788152, "lon": 29.0953675, "tags": {"amenity": "restaurant", "cuisine": "turkish", "name": "Adoli"}}, {"type": "node", "id": 12219288229, "lat": 36.6655518, "lon": 29.1066693, "tags": {"amenity": "restaurant", "check_date": "2024-11-23", "cuisine": "seafood", "name": "Zoi"}}, {"type": "node", "id": 12238340055, "lat": 36.7028947, "lon": 28.6941754, "tags": {"air_conditioning": "no", "amenity": "cafe", "check_date": "2024-10-09", "cuisine": "coffee_shop", "delivery": "no", "drive_through": "no", "internet_access": "wlan", "internet_access:fee": "customers", "name": "Coffee House", "opening_hours": "16:00-23:00", "outdoor_seating": "terrace"}}, {"type": "node", "id": 12278803067, "lat": 36.626136, "lon": 29.1352789, "tags": {"amenity": "restaurant", "check_date": "2024-10-22", "level": "0", "name": "Kosem", "name:tr": "Kosem"}}, {"type": "node", "id": 12302169277, "lat": 36.5249941, "lon": 29.1595828, "tags": {"amenity": "cafe", "description": "G\u00f6zleme, soup,pomegranate juice, cold and hot drinks", "name": "Halil's Cafe", "phone": "05365014776"}}, {"type": "node", "id": 12302177139, "lat": 36.509401, "lon": 29.1547192, "tags": {"amenity": "cafe", "description": "cafe and market", "name": "G\u00fcn Cafe and Market", "phone": "05355810351"}}, {"type": "node", "id": 12302177614, "lat": 36.4299763, "lon": 29.1456377, "tags": {"amenity": "cafe", "description": "g\u00f6zleme, kahve, mesrubaltar", "name": "G\u00f6zleme Kahvalti", "shower": "yes", "water_source": "yes"}}, {"type": "node", "id": 12302185212, "lat": 36.5076374, "lon": 29.1550243, "tags": {"amenity": "cafe", "name": "Lemon Cafe"}}, {"type": "node", "id": 12309010607, "lat": 36.4021226, "lon": 29.138441, "tags": {"amenity": "cafe", "description": "cafe & camping", "name": "T\u00fcrkmen Cafe", "phone": "05387972148", "shop": "yes", "shower": "yes"}}, {"type": "node", "id": 12357135979, "lat": 36.5754452, "lon": 29.0871766}, {"type": "node", "id": 12357135980, "lat": 36.5754657, "lon": 29.0872859}, {"type": "node", "id": 12357135981, "lat": 36.5753758, "lon": 29.0873107}, {"type": "node", "id": 12357135982, "lat": 36.5753607, "lon": 29.0872061}, {"type": "node", "id": 12357135983, "lat": 36.575358, "lon": 29.0871538}, {"type": "node", "id": 12357135984, "lat": 36.5753919, "lon": 29.087145}, {"type": "node", "id": 12357135985, "lat": 36.5754032, "lon": 29.087188}, {"type": "node", "id": 12357135986, "lat": 36.5753316, "lon": 29.0870143}, {"type": "node", "id": 12357135987, "lat": 36.5753768, "lon": 29.0869989}, {"type": "node", "id": 12357135988, "lat": 36.5753989, "lon": 29.0871048}, {"type": "node", "id": 12357135989, "lat": 36.5753811, "lon": 29.0871095}, {"type": "node", "id": 12369818442, "lat": 36.65775, "lon": 29.1105117}, {"type": "node", "id": 12369818445, "lat": 36.6577713, "lon": 29.1107669}, {"type": "node", "id": 12369818448, "lat": 36.6676757, "lon": 29.1053697, "tags": {"amenity": "restaurant", "bar": "yes", "changing_table": "no", "changing_table:count": "0", "changing_table:fee": "no", "check_date": "2024-11-24", "cuisine": "fish;turkish", "highchair": "yes", "level": "0", "name": "Three Monkeys - Pub & Grill", "outdoor_seating": "yes", "toilets": "yes", "toilets:access": "customers", "toilets:wheelchair": "no", "wheelchair": "limited"}}, {"type": "node", "id": 12369818450, "lat": 36.6578401, "lon": 29.110758}, {"type": "node", "id": 12369818451, "lat": 36.6578189, "lon": 29.1105028}, {"type": "node", "id": 12373848133, "lat": 36.6667969, "lon": 29.1058971, "tags": {"amenity": "restaurant", "check_date": "2024-11-25", "level": "0", "name": "Pals", "outdoor_seating": "yes", "smoking": "outside", "takeaway": "yes"}}, {"type": "node", "id": 12373848154, "lat": 36.6653088, "lon": 29.1067751, "tags": {"amenity": "restaurant", "bar": "yes", "changing_table": "no", "check_date": "2024-11-25", "cuisine": "barbecue;noodle;pizza", "level": "0", "name": "Ey's Bistro Bar", "outdoor_seating": "yes", "wheelchair": "yes"}}, {"type": "node", "id": 12379085004, "lat": 36.6588221, "lon": 29.1102356, "tags": {"amenity": "cafe", "name": "Happy Corner Caf\u00e9"}}, {"type": "node", "id": 12379085006, "lat": 36.6597592, "lon": 29.1098783, "tags": {"amenity": "restaurant", "name": "Ada Balik"}}, {"type": "node", "id": 12379085016, "lat": 36.6596336, "lon": 29.1099174, "tags": {"amenity": "restaurant", "name": "Anna Restaurant"}}, {"type": "node", "id": 12388280914, "lat": 36.6545648, "lon": 29.1227516, "tags": {"amenity": "restaurant", "check_date": "2024-12-01", "name": "Blue Garden"}}, {"type": "node", "id": 12462756137, "lat": 36.6504199, "lon": 29.132129, "tags": {"amenity": "cafe", "check_date": "2024-12-30", "name": "\u00c7ilek Ta\u015f F\u0131r\u0131n Cafe"}}, {"type": "node", "id": 12462756138, "lat": 36.6502649, "lon": 29.1321477, "tags": {"amenity": "restaurant", "check_date": "2024-12-30", "cuisine": "turkish", "name": "\u00c7ilek restoran"}}, {"type": "node", "id": 12463619861, "lat": 36.570357, "lon": 29.1390323, "tags": {"addr:city": "\u00d6l\u00fcdeniz", "addr:housenumber": "4", "addr:postcode": "48300", "addr:street": "Cumhuriyet Caddesi", "amenity": "restaurant", "check_date": "2024-12-31", "name": "Abrahkebabrah", "opening_hours": "Mo-Su 09:00-01:00", "phone": "+905326147186"}}, {"type": "node", "id": 12465604886, "lat": 36.5456192, "lon": 29.1231971, "tags": {"amenity": "cafe", "check_date": "2024-12-29"}}, {"type": "node", "id": 12478481331, "lat": 36.4658389, "lon": 29.1435878, "tags": {"amenity": "cafe", "name": "Self", "outdoor_seating": "yes"}}, {"type": "node", "id": 12505339357, "lat": 36.648904, "lon": 29.1230111, "tags": {"amenity": "cafe", "check_date": "2025-01-15", "name": "Pablo's"}}, {"type": "node", "id": 12549153001, "lat": 36.6400217, "lon": 29.1212021, "tags": {"amenity": "restaurant"}}, {"type": "node", "id": 12626585401, "lat": 36.6216065, "lon": 29.1217528, "tags": {"amenity": "restaurant", "name": "kebabci \u00f6kkes"}}, {"type": "node", "id": 12899326924, "lat": 36.634679, "lon": 29.1214665, "tags": {"addr:city": "MU\u011eLA", "addr:district": "FETH\u0130YE", "addr:housenumber": "69/A", "addr:neighbourhood": "Babata\u015f\u0131. Mah", "addr:postcode": "48300", "addr:street": "Cahit G\u00fcnd\u00fcz Caddesi", "amenity": "cafe", "cuisine": "coffee_shop;pastry;dessert;sandwich;cake;tea;coffee", "diet:gluten_free": "yes", "diet:lactose_free": "yes", "diet:vegan": "yes", "drive_through": "yes", "internet_access": "yes", "internet_access:fee": "no", "name": "Atlas Bikery Cafe", "opening_hours": "Mo-Sa 08:00-18:00", "outdoor_seating": "yes", "phone": "5542076644", "website": "fethiyebike.com"}}, {"type": "way", "id": 61819230, "nodes": [770210042, 770210074, 770210049, 770210073, 770210042], "tags": {"access": "private", "amenity": "restaurant", "building": "yes", "check_date": "2024-11-24", "name": "BigChefs", "website": "https://www.bigchefs.com.tr/"}}, {"type": "way", "id": 93276009, "nodes": [1081212667, 1081212751, 1081212579, 1081212422, 2492571898, 1081212609, 1081212460, 1081212631, 2492571896, 1081212480, 2492571895, 2492571901, 1081212659, 1081212742, 1081212562, 1081212768, 1081212601, 1081212449, 1081212626, 1081212467, 1081212651, 1081212503, 1081212685, 1081212583, 1081212726, 1081212667], "tags": {"amenity": "restaurant", "building": "yes"}}, {"type": "way", "id": 170646163, "nodes": [1818053324, 1818053322, 1818053321, 1818053323, 1818053324], "tags": {"air_conditioning": "no", "amenity": "cafe", "building": "yes", "cuisine": "regional", "delivery": "yes", "name": "Kaya K\u00f6y Sofras\u0131", "opening_hours": "Mo-Su 09:00-21:00", "outdoor_seating": "yes", "payment:cash": "yes", "payment:credit_cards": "yes", "payment:debit_cards": "yes", "phone": "+905355624107", "takeaway": "yes"}}, {"type": "way", "id": 241615635, "nodes": [2007288303, 2492170532, 2492170533, 2007288197, 2007288303], "tags": {"amenity": "cafe", "building": "yes", "check_date": "2024-12-31", "check_date:opening_hours": "2022-11-05", "name": "Hello B\u00fcfe", "opening_hours:signed": "no"}}, {"type": "way", "id": 241628878, "nodes": [6485851006, 6685153556, 2492258974, 6485851005, 6485851006], "tags": {"addr:city": "Mu\u011fla", "addr:district": "Fethiye", "addr:housenumber": "9", "addr:neighbourhood": "Cumhuriyet mah.", "addr:postcode": "48300", "amenity": "restaurant", "bar": "yes", "brewery": "yes", "building": "yes", "check_date": "2023-02-28", "contact:email": "addressrestaurant@gmail.com", "contact:facebook": "addressfethiye", "contact:phone": "+90 252 614 44 53", "cuisine": "burger;pizza;coffee_shop;chicken;chinese;italian;sandwich;steak_house;seafood;kebab;greek", "diet:gluten_free": "yes", "diet:vegan": "yes", "diet:vegetarian": "yes", "internet_access": "wlan", "name": "Address Restaurant Cafe & Bar", "opening_hours": "08:00-02:00", "outdoor_seating": "yes", "wheelchair": "yes"}}, {"type": "way", "id": 277385226, "nodes": [2818999691, 2818999692, 2818999693, 2818999694, 2818999695, 2818999696, 2818999697, 2818999698, 2818999691], "tags": {"amenity": "restaurant", "building": "yes", "building:levels": "2", "name": "Main Restaurant"}}, {"type": "way", "id": 489603593, "nodes": [4818323051, 4818323052, 4818323053, 4818323054, 6964761552, 4818323051], "tags": {"amenity": "restaurant", "building": "yes"}}, {"type": "way", "id": 496622425, "nodes": [4883073724, 4883073725, 4883073726, 4883073727, 4883073724], "tags": {"amenity": "restaurant", "building": "yes", "check_date": "2024-12-30", "check_date:opening_hours": "2022-11-05", "name": "Santeli", "opening_hours:signed": "no"}}, {"type": "way", "id": 524952662, "nodes": [5107733225, 5108996804, 5108958870, 5108958869, 5108958864, 5107733228, 5107733229, 5107733230, 5107733225], "tags": {"addr:city": "Kabak", "amenity": "restaurant", "building": "yes", "cuisine": "turkish;regional", "internet_access": "wlan", "internet_access:fee": "no", "name": "Sea Valley", "outdoor_seating": "yes", "smoking": "yes"}}, {"type": "way", "id": 525107445, "nodes": [5108958864, 5108998022, 5108958865, 5108958866, 5108958872, 5108958867, 5108958868, 5108958871, 5108998023, 5108998024, 5108958870, 5108958869, 5108958864], "tags": {"access": "customers", "addr:city": "Kabak", "amenity": "restaurant", "building": "no", "cuisine": "regional;turkish", "leisure": "garden", "takeaway": "yes"}}, {"type": "way", "id": 525107449, "nodes": [5108958898, 5108958899, 12138473957, 12138473956, 5108958898], "tags": {"amenity": "restaurant", "building": "yes"}}, {"type": "way", "id": 527228678, "nodes": [5126054566, 5126054565, 5126054564, 5126054563, 5126054566], "tags": {"amenity": "restaurant", "cuisine": "kebab;fish;turkish", "operator": "Recep", "outdoor_seating": "yes"}}, {"type": "way", "id": 737614608, "nodes": [6906186286, 6906186287, 6906186288, 6906186289, 6906186286], "tags": {"amenity": "cafe", "building": "yes"}}, {"type": "way", "id": 740927819, "nodes": [6936819396, 6936819397, 6936819398, 6936819399, 3957775923, 8724115253, 8724115250, 6936819396], "tags": {"addr:city": "Mu\u011fla", "addr:district": "Fethiye", "addr:housenumber": "57", "addr:neighbourhood": "Belce\u011fiz Mahallesi", "addr:postcode": "48340", "addr:street": "Belce\u011fiz Caddesi", "amenity": "restaurant", "building": "yes", "cuisine": "burger;sandwich;hot_dog", "name": "Fast Do - Fast Food", "source": "local knowledge"}}, {"type": "way", "id": 877886532, "nodes": [8167921622, 9599374613, 8167921623, 8167921624, 8167921625, 8167921622], "tags": {"amenity": "cafe", "building": "yes", "check_date:opening_hours": "2022-11-05", "cuisine": "tost;bira;\u00e7ay;kahve;simit", "name": "Hello B\u00fcfe", "opening_hours:signed": "no"}}, {"type": "way", "id": 913588124, "nodes": [8486600653, 8486600650, 8486600651, 8486600652, 8486600653], "tags": {"amenity": "restaurant", "building": "yes", "check_date": "2023-03-03", "cuisine": "pizza", "name": "Terra Pizza"}}, {"type": "way", "id": 976647643, "nodes": [9037733517, 9037733632, 9037733518, 9037733519, 9037733520, 9037733517], "tags": {"amenity": "restaurant", "building": "yes", "check_date": "2024-12-29"}}, {"type": "way", "id": 1001642724, "nodes": [9245204562, 9245204561, 9245204560, 9245204559, 9245204562], "tags": {"amenity": "restaurant", "delivery": "no", "name": "Capi Creek Restaurant", "outdoor_seating": "yes", "takeaway": "yes"}}, {"type": "way", "id": 1029333258, "nodes": [9490004270, 9490004271, 9490004272, 9490004273, 9490004274, 9490004275, 9490004276, 9490004277, 9490004278, 9490004279, 9490004270], "tags": {"amenity": "restaurant", "building": "yes", "description": "Open Season from March until mid November", "name": "LesTunas", "phone": "+90 501 326 11 09", "website": "https://www.instagram.com/lastunascoldwaterbay/"}}, {"type": "way", "id": 1029333535, "nodes": [9490005286, 9490005287, 9490005288, 9490005289, 9490005286], "tags": {"amenity": "restaurant", "building": "yes"}}, {"type": "way", "id": 1076842946, "nodes": [9874418010, 9874418011, 9874418012, 9874418013, 9874418014, 9874418015, 9874418016, 9874418017, 9874418018, 9874418019, 9874418020, 9874418021, 9874418010], "tags": {"amenity": "cafe", "building": "yes", "opening_hours": "sunrise-sunset", "outdoor_seating": "yes"}}, {"type": "way", "id": 1090409373, "nodes": [9987648696, 9987648698, 9987648699, 2896604045, 9987648700, 9987648701, 9987648702, 9987670122, 9987648697, 9987648696], "tags": {"amenity": "restaurant", "building": "yes"}}, {"type": "way", "id": 1108021687, "nodes": [10138224395, 10138224396, 10138224397, 10138224398, 10138224399, 10138224400, 10138224395], "tags": {"amenity": "cafe", "building": "yes"}}, {"type": "way", "id": 1174837540, "nodes": [10916569552, 10916569553, 10916569554, 10916569555, 10916569552], "tags": {"amenity": "cafe", "building": "yes", "delivery": "no", "name": "Sar\u0131germe Tesisi", "operator": "Ortaca Belediyesi", "outdoor_seating": "yes"}}, {"type": "way", "id": 1187349152, "nodes": [11025947570, 11025947571, 11025947572, 11025947573, 11025947570], "tags": {"air_conditioning": "no", "amenity": "cafe", "bar": "no", "building": "yes", "check_date": "2023-09-05", "cuisine": "burger;turkish", "delivery": "no", "drive_through": "no", "name": "Halk Evi Kafe", "outdoor_seating": "yes", "payment:mastercard": "yes", "payment:troy": "yes", "payment:visa": "yes", "smoking": "outside", "takeaway": "yes", "toilets": "yes", "wheelchair": "yes"}}, {"type": "way", "id": 1265312746, "nodes": [11754028530, 11754028532, 11754028537, 11754028538, 11754028530], "tags": {"amenity": "cafe", "building": "yes", "check_date": "2025-03-08", "name": "Cafe Fethiye"}}, {"type": "way", "id": 1335840045, "nodes": [12357135979, 12357135980, 12357135981, 12357135982, 12357135983, 12357135984, 12357135985, 12357135979], "tags": {"amenity": "restaurant", "building": "house"}}, {"type": "way", "id": 1335840046, "nodes": [12357135983, 12357135986, 12357135987, 12357135988, 12357135989, 12357135984, 12357135983], "tags": {"amenity": "restaurant", "building": "yes", "layer": "1"}}, {"type": "way", "id": 1337392483, "nodes": [12369818451, 12369818442, 12369818445, 12369818450, 12369818451], "tags": {"amenity": "cafe", "baby_feeding": "no", "bar": "no", "building": "yes", "building:colour": "black", "building:levels": "1", "building:levels:underground": "0", "building:material": "metal", "building:use": "foodservice", "changing_table": "no", "changing_table:count": "0", "changing_table:fee": "no", "check_date": "2024-11-24", "cuisine": "coffee_shop", "highchair": "yes", "indoor_seating": "yes", "kids_area": "no", "level": "0", "name": "Kerimo\u011flu", "outdoor_seating": "yes", "roof:shape": "gabled", "smoking": "outside", "toilets": "yes", "toilets:access": "customers", "toilets:wheelchair": "no", "wheelchair": "limited"}}]}