{"version": 0.6, "generator": "Overpass API 0.7.62.7 375dc00a", "osm3s": {"timestamp_osm_base": "2025-06-14T13:55:30Z", "copyright": "The data included in this document is from www.openstreetmap.org. The data is made available under ODbL."}, "elements": [{"type": "node", "id": 306253111, "lat": 37.7293352, "lon": 15.198834, "tags": {"amenity": "cafe", "name": "Il Bocconcino"}}, {"type": "node", "id": 306253112, "lat": 37.7315572, "lon": 15.205086, "tags": {"amenity": "cafe", "name": "A' Matticana"}}, {"type": "node", "id": 451025651, "lat": 38.1484018, "lon": 15.014719, "tags": {"amenity": "cafe"}}, {"type": "node", "id": 451025658, "lat": 38.141744, "lon": 15.0450774, "tags": {"addr:housenumber": "5", "addr:street": "Via Teatro Greco", "amenity": "cafe", "name": "Caff\u00e9 Sicilia"}}, {"type": "node", "id": 451654576, "lat": 37.8539565, "lon": 15.2887238, "tags": {"addr:housenumber": "7", "addr:street": "Piazza Vittorio Emanuele II", "amenity": "cafe", "name": "Cafe Trinacria", "operator": "Ma. Ro Srl", "outdoor_seating": "yes", "ref:vatin": "IT01824970832", "takeaway": "yes"}}, {"type": "node", "id": 451654577, "lat": 37.8536685, "lon": 15.2886252, "tags": {"amenity": "cafe"}}, {"type": "node", "id": 452039111, "lat": 38.1447844, "lon": 15.0006247, "tags": {"amenity": "restaurant", "cuisine": "regional", "name": "Medimare Residence"}}, {"type": "node", "id": 472755250, "lat": 37.7171206, "lon": 15.166514, "tags": {"amenity": "cafe", "name": "Mannik Caf\u00e8"}}, {"type": "node", "id": 472755258, "lat": 37.7186759, "lon": 15.1651287, "tags": {"amenity": "cafe", "name": "Bar Spartini"}}, {"type": "node", "id": 472805152, "lat": 37.7342512, "lon": 15.158538, "tags": {"amenity": "cafe", "name": "Bar San Giovanni"}}, {"type": "node", "id": 472805194, "lat": 37.7532908, "lon": 15.1835992, "tags": {"amenity": "restaurant", "name": "Ristorante Tra Mari e Monti"}}, {"type": "node", "id": 472837666, "lat": 37.8280029, "lon": 15.266101, "tags": {"amenity": "restaurant", "cuisine": "italian"}}, {"type": "node", "id": 475013264, "lat": 37.8589169, "lon": 15.2777413, "tags": {"amenity": "cafe", "name": "Pier de Cat"}}, {"type": "node", "id": 529371947, "lat": 37.853352, "lon": 15.2874332, "tags": {"amenity": "restaurant"}}, {"type": "node", "id": 529371951, "lat": 37.8534057, "lon": 15.2877477, "tags": {"amenity": "restaurant", "cuisine": "italian", "name": "Ristorante Nuova Grotta"}}, {"type": "node", "id": 529371952, "lat": 37.8534751, "lon": 15.2876298, "tags": {"amenity": "restaurant", "cuisine": "fish"}}, {"type": "node", "id": 529415365, "lat": 37.8528359, "lon": 15.2875492, "tags": {"amenity": "restaurant", "cuisine": "italian", "name": "Naumachie"}}, {"type": "node", "id": 552132692, "lat": 37.8584845, "lon": 15.2773702, "tags": {"amenity": "cafe", "cuisine": "italian", "email": "info@turrisibar.it", "internet_access": "wlan", "name": "Turrisi Bar", "phone": "+39 0942 28181", "start_date": "1947", "website": "https://www.turrisibar.it/"}}, {"type": "node", "id": 553159410, "lat": 37.8511444, "lon": 15.2847056, "tags": {"addr:housenumber": "1", "addr:street": "Via Bonifacio", "amenity": "restaurant", "check_date": "2025-05-02", "cuisine": "pizza;regional", "name": "La Cisterna del Moro", "opening_hours": "12:00-21:30", "payment:cash": "yes", "payment:credit_cards": "yes", "payment:debit_cards": "yes", "phone": "+39 0942 23001", "website": "https://lacisternadelmoro.wixsite.com/taormina", "wheelchair": "no"}}, {"type": "node", "id": 553159468, "lat": 37.8513291, "lon": 15.2839807, "tags": {"amenity": "restaurant", "cuisine": "italian", "name": "Casa Niclodi", "note": "Been in better places"}}, {"type": "node", "id": 553442606, "lat": 37.8789809, "lon": 14.9485938, "tags": {"amenity": "cafe", "name": "Santo Musumeci", "opening_hours": "We-Mo 08:00-13:30,15:30-21:30", "outdoor_seating": "yes", "website": "http://www.santomusumeci.it"}}, {"type": "node", "id": 576318021, "lat": 37.7494585, "lon": 15.1311784}, {"type": "node", "id": 576318026, "lat": 37.7494584, "lon": 15.1311157}, {"type": "node", "id": 576318028, "lat": 37.7494096, "lon": 15.1311159}, {"type": "node", "id": 576318030, "lat": 37.7494098, "lon": 15.1311786}, {"type": "node", "id": 605500014, "lat": 37.8582575, "lon": 15.2772709, "tags": {"amenity": "cafe", "name": "Cafe Duomo"}}, {"type": "node", "id": 605500055, "lat": 37.8508694, "lon": 15.2824985, "tags": {"amenity": "cafe", "check_date": "2025-06-09", "name": "Billy & Billy"}}, {"type": "node", "id": 607025037, "lat": 37.85094, "lon": 15.2824798, "tags": {"amenity": "restaurant", "cuisine": "italian", "name": "Ristorante Al Duomo"}}, {"type": "node", "id": 607025047, "lat": 37.8516994, "lon": 15.2863427, "tags": {"amenity": "restaurant", "cuisine": "pizza", "name": "Ristorante Pizzeria Taormina"}}, {"type": "node", "id": 607025049, "lat": 37.8524301, "lon": 15.2870365, "tags": {"addr:city": "Taormina", "addr:country": "IT", "addr:housenumber": "112", "addr:street": "Corso Umberto I", "amenity": "cafe", "name": "Pasticceria Etna"}}, {"type": "node", "id": 663698054, "lat": 37.8114876, "lon": 15.0808426}, {"type": "node", "id": 663698055, "lat": 37.8115085, "lon": 15.0809954}, {"type": "node", "id": 663698058, "lat": 37.8116761, "lon": 15.0808014}, {"type": "node", "id": 669220239, "lat": 37.975979, "lon": 14.8544653}, {"type": "node", "id": 669220240, "lat": 37.9759274, "lon": 14.8545154}, {"type": "node", "id": 669220241, "lat": 37.9759683, "lon": 14.8545832}, {"type": "node", "id": 669220242, "lat": 37.9760199, "lon": 14.8545331}, {"type": "node", "id": 726786862, "lat": 37.8511917, "lon": 15.2809784, "tags": {"amenity": "restaurant", "cuisine": "italian", "name": "Cut\u00ecLuDissi", "outdoor_seating": "yes"}}, {"type": "node", "id": 759146461, "lat": 37.8267199, "lon": 15.2688026, "tags": {"amenity": "restaurant", "cuisine": "italian", "name": "T. Consiglio"}}, {"type": "node", "id": 759146496, "lat": 37.820506, "lon": 15.2555638, "tags": {"amenity": "restaurant"}}, {"type": "node", "id": 759146519, "lat": 37.8547159, "lon": 15.2890883, "tags": {"amenity": "restaurant", "cuisine": "italian"}}, {"type": "node", "id": 759146558, "lat": 37.8150402, "lon": 15.2534805, "tags": {"amenity": "restaurant", "name": "Pizzeria"}}, {"type": "node", "id": 759146577, "lat": 37.8264189, "lon": 15.2688886, "tags": {"amenity": "restaurant", "cuisine": "italian"}}, {"type": "node", "id": 759146672, "lat": 37.8249485, "lon": 15.2698345, "tags": {"amenity": "restaurant", "check_date": "2023-06-06", "cuisine": "italian", "name": "Rendez Vous", "wheelchair": "yes"}}, {"type": "node", "id": 759146729, "lat": 37.8274709, "lon": 15.2685652, "tags": {"amenity": "restaurant", "cuisine": "italian"}}, {"type": "node", "id": 759146810, "lat": 37.8546214, "lon": 15.288821, "tags": {"amenity": "restaurant", "check_date": "2025-05-05", "cuisine": "italian;pizza;regional", "internet_access": "wlan", "level": "0", "name": "Porta Messina", "opening_hours": "12:00-24:00", "outdoor_seating": "yes", "payment:cash": "yes", "payment:credit_cards": "yes", "payment:debit_cards": "yes", "phone": "+39 0942 23953", "toilets": "yes", "website": "https://www.ristoranteportamessina.com", "wheelchair": "yes"}}, {"type": "node", "id": 759146922, "lat": 37.8204946, "lon": 15.2524031, "tags": {"amenity": "restaurant", "cuisine": "italian", "name": "Giardino di Ecate"}}, {"type": "node", "id": 759147237, "lat": 37.8183493, "lon": 15.2665305, "tags": {"amenity": "cafe", "check_date": "2023-06-10", "name": "Oasi"}}, {"type": "node", "id": 759147408, "lat": 37.829698, "lon": 15.2687178, "tags": {"amenity": "restaurant", "cuisine": "italian", "level": "0", "name": "Capitano Uncino"}}, {"type": "node", "id": 764636128, "lat": 37.7937299, "lon": 15.0365093}, {"type": "node", "id": 764636142, "lat": 37.793678, "lon": 15.0365391}, {"type": "node", "id": 764636186, "lat": 37.7935953, "lon": 15.0365772}, {"type": "node", "id": 764636223, "lat": 37.7937601, "lon": 15.0365936}, {"type": "node", "id": 764636231, "lat": 37.7937097, "lon": 15.0366276}, {"type": "node", "id": 764636253, "lat": 37.7935777, "lon": 15.0365873}, {"type": "node", "id": 764636259, "lat": 37.7937404, "lon": 15.0363438}, {"type": "node", "id": 764636281, "lat": 37.7938612, "lon": 15.0365355}, {"type": "node", "id": 764636290, "lat": 37.7936298, "lon": 15.0366735}, {"type": "node", "id": 764636296, "lat": 37.7937872, "lon": 15.0364744}, {"type": "node", "id": 764636309, "lat": 37.7935508, "lon": 15.0365122}, {"type": "node", "id": 764636338, "lat": 37.7938304, "lon": 15.0364496}, {"type": "node", "id": 764636349, "lat": 37.793654, "lon": 15.0363934}, {"type": "node", "id": 764636360, "lat": 37.7936717, "lon": 15.0364428}, {"type": "node", "id": 941457402, "lat": 37.8019505, "lon": 15.2474953}, {"type": "node", "id": 941457423, "lat": 37.8018612, "lon": 15.2471904}, {"type": "node", "id": 941457435, "lat": 37.8020263, "lon": 15.2473993}, {"type": "node", "id": 981442622, "lat": 37.8791398, "lon": 14.9497307, "tags": {"amenity": "cafe", "name": "Caff\u00e8 del Corso", "phone": "+39 338 3407623"}}, {"type": "node", "id": 1015719565, "lat": 37.9083363, "lon": 15.2051689, "tags": {"amenity": "restaurant", "name": "Agriturismo San Cataldo", "website": "https://www.agriturismo.it/it/agriturismi/sicilia/messina/SanCataldo-7230124/index.html"}}, {"type": "node", "id": 1323499069, "lat": 37.8097836, "lon": 14.8574514, "tags": {"amenity": "restaurant", "contact:facebook": "fucinagourmet", "cuisine": "italian", "email": "fucinadivulcano@email.it", "fax": "+39 095 7724358", "internet_access": "wlan", "name": "La Fucina di Vulcano", "phone": "+39 095 693730", "stars": "3", "tourism": "hotel", "website": "https://www.fucinadivulcano.it"}}, {"type": "node", "id": 1324729449, "lat": 37.7918086, "lon": 14.8442164, "tags": {"amenity": "cafe", "contact:facebook": "https://facebook.com/people/Caprice-Coffee/100063760861574", "name": "Caprice Coffee", "phone": "+39 095 8834874"}}, {"type": "node", "id": 1329442419, "lat": 37.7825706, "lon": 14.8412043}, {"type": "node", "id": 1329442772, "lat": 37.7828723, "lon": 14.8409543, "tags": {"amenity": "restaurant", "cuisine": "italian;pizza", "name": "La Rustica"}}, {"type": "node", "id": 1329442796, "lat": 37.7826137, "lon": 14.8412156}, {"type": "node", "id": 1329442832, "lat": 37.7885559, "lon": 14.8406539, "tags": {"amenity": "restaurant", "contact:facebook": "Spacepizzabrontee", "cuisine": "italian;pizza", "name": "Space Pizza", "opening_hours": "We-Mo 19:00-24:00"}}, {"type": "node", "id": 1329443263, "lat": 37.7826388, "lon": 14.8412973}, {"type": "node", "id": 1329443289, "lat": 37.7825419, "lon": 14.8412201}, {"type": "node", "id": 1329443617, "lat": 37.7826406, "lon": 14.8412519}, {"type": "node", "id": 1329443990, "lat": 37.7825886, "lon": 14.8413653}, {"type": "node", "id": 1329444129, "lat": 37.7826208, "lon": 14.8413358}, {"type": "node", "id": 1331233036, "lat": 37.8521963, "lon": 15.2871298, "tags": {"amenity": "restaurant", "cuisine": "regional"}}, {"type": "node", "id": 1331313275, "lat": 37.8517967, "lon": 15.2852582, "tags": {"amenity": "restaurant", "name": "Ristorante L'Orologio"}}, {"type": "node", "id": 1415074659, "lat": 37.8777245, "lon": 14.9501322}, {"type": "node", "id": 1415074706, "lat": 37.877759, "lon": 14.9502195}, {"type": "node", "id": 1415074719, "lat": 37.8777685, "lon": 14.9501043}, {"type": "node", "id": 1415074752, "lat": 37.877803, "lon": 14.9501916}, {"type": "node", "id": 1416519912, "lat": 37.874376, "lon": 15.0262817}, {"type": "node", "id": 1416519913, "lat": 37.874384, "lon": 15.0259396}, {"type": "node", "id": 1416519918, "lat": 37.8744435, "lon": 15.0259418}, {"type": "node", "id": 1416519919, "lat": 37.8744445, "lon": 15.0258981}, {"type": "node", "id": 1416519921, "lat": 37.8744485, "lon": 15.0264521}, {"type": "node", "id": 1416519922, "lat": 37.8744524, "lon": 15.0262845}, {"type": "node", "id": 1416519928, "lat": 37.8745593, "lon": 15.0262921}, {"type": "node", "id": 1416519929, "lat": 37.8745612, "lon": 15.0259025}, {"type": "node", "id": 1416519930, "lat": 37.8745635, "lon": 15.0258037}, {"type": "node", "id": 1416519931, "lat": 37.8745675, "lon": 15.0259388}, {"type": "node", "id": 1416519942, "lat": 37.874662, "lon": 15.0259423}, {"type": "node", "id": 1416519943, "lat": 37.8746857, "lon": 15.0264609}, {"type": "node", "id": 1416519944, "lat": 37.8746652, "lon": 15.0258075}, {"type": "node", "id": 1416519945, "lat": 37.8746896, "lon": 15.026297}, {"type": "node", "id": 1418025231, "lat": 37.8395505, "lon": 15.1314353}, {"type": "node", "id": 1418025237, "lat": 37.839571, "lon": 15.1315382}, {"type": "node", "id": 1418025255, "lat": 37.8396337, "lon": 15.1315182}, {"type": "node", "id": 1418025256, "lat": 37.8396477, "lon": 15.1315888}, {"type": "node", "id": 1418025266, "lat": 37.8396953, "lon": 15.1313892}, {"type": "node", "id": 1418025274, "lat": 37.8397298, "lon": 15.1315626}, {"type": "node", "id": 1419090576, "lat": 37.8784846, "lon": 14.9449877}, {"type": "node", "id": 1419090580, "lat": 37.8784974, "lon": 14.9450689}, {"type": "node", "id": 1419090615, "lat": 37.8785442, "lon": 14.9449727}, {"type": "node", "id": 1419090645, "lat": 37.8786045, "lon": 14.9449574}, {"type": "node", "id": 1419090648, "lat": 37.878617, "lon": 14.9450281}, {"type": "node", "id": 1419090980, "lat": 37.8793028, "lon": 14.9524784}, {"type": "node", "id": 1419090983, "lat": 37.8793175, "lon": 14.9525109}, {"type": "node", "id": 1419090986, "lat": 37.8793517, "lon": 14.9525248}, {"type": "node", "id": 1419091008, "lat": 37.8793994, "lon": 14.9524985}, {"type": "node", "id": 1419091012, "lat": 37.8794018, "lon": 14.9524241}, {"type": "node", "id": 1419091025, "lat": 37.87943, "lon": 14.9525372}, {"type": "node", "id": 1419091044, "lat": 37.8794605, "lon": 14.952531}, {"type": "node", "id": 1419091067, "lat": 37.8794801, "lon": 14.9525031}, {"type": "node", "id": 1420224758, "lat": 37.8777418, "lon": 14.9458293}, {"type": "node", "id": 1420224789, "lat": 37.8777491, "lon": 14.9458659}, {"type": "node", "id": 1420224814, "lat": 37.8777601, "lon": 14.9459527}, {"type": "node", "id": 1420224894, "lat": 37.8777809, "lon": 14.9460581}, {"type": "node", "id": 1420224908, "lat": 37.8777858, "lon": 14.9458566}, {"type": "node", "id": 1420224973, "lat": 37.8778029, "lon": 14.9459372}, {"type": "node", "id": 1420224984, "lat": 37.8778066, "lon": 14.9459713}, {"type": "node", "id": 1420224990, "lat": 37.8778115, "lon": 14.9460519}, {"type": "node", "id": 1420225006, "lat": 37.8778158, "lon": 14.9458289}, {"type": "node", "id": 1420225075, "lat": 37.8778396, "lon": 14.9459682}, {"type": "node", "id": 1485552738, "lat": 38.1082269, "lon": 14.9946554, "tags": {"addr:city": "Patti", "addr:housenumber": "23", "addr:street": "Contrada Mortizzi", "amenity": "restaurant", "email": "info@villarica.it", "internet_access": "wlan", "internet_access:fee": "no", "name": "Villa Rica", "phone": "+39 0941 240877", "tourism": "guest_house", "website": "https://www.villarica.it/"}}, {"type": "node", "id": 1532840587, "lat": 38.1366428, "lon": 15.2826727, "tags": {"amenity": "restaurant", "cuisine": "italian", "name": "La forchetta del Castello"}}, {"type": "node", "id": 1547102495, "lat": 37.8173789, "lon": 15.1428334}, {"type": "node", "id": 1547102497, "lat": 37.8173902, "lon": 15.143013}, {"type": "node", "id": 1547102501, "lat": 37.8175222, "lon": 15.142819}, {"type": "node", "id": 1547102508, "lat": 37.8175335, "lon": 15.1429985}, {"type": "node", "id": 1557026666, "lat": 37.8145498, "lon": 15.1365456}, {"type": "node", "id": 1557026669, "lat": 37.8145756, "lon": 15.1366414}, {"type": "node", "id": 1557026686, "lat": 37.8146471, "lon": 15.1364657}, {"type": "node", "id": 1557026693, "lat": 37.8146568, "lon": 15.1364994}, {"type": "node", "id": 1557026697, "lat": 37.8146798, "lon": 15.1365753}, {"type": "node", "id": 1557026701, "lat": 37.8146849, "lon": 15.1365941}, {"type": "node", "id": 1557026705, "lat": 37.814748, "lon": 15.1365439}, {"type": "node", "id": 1557026709, "lat": 37.8147541, "lon": 15.1365648}, {"type": "node", "id": 1557026711, "lat": 37.814763, "lon": 15.1364122}, {"type": "node", "id": 1557026715, "lat": 37.8147757, "lon": 15.1364561}, {"type": "node", "id": 1557026718, "lat": 37.8148135, "lon": 15.1364385}, {"type": "node", "id": 1557026721, "lat": 37.8148387, "lon": 15.1365255}, {"type": "node", "id": 1615522733, "lat": 37.785146, "lon": 15.2349038}, {"type": "node", "id": 1673720154, "lat": 37.8059376, "lon": 15.0671796}, {"type": "node", "id": 1673720159, "lat": 37.806028, "lon": 15.0670986}, {"type": "node", "id": 1673720161, "lat": 37.8060753, "lon": 15.0674256}, {"type": "node", "id": 1673720164, "lat": 37.8061657, "lon": 15.0673446}, {"type": "node", "id": 1685195200, "lat": 38.1043454, "lon": 15.1211073, "tags": {"amenity": "restaurant", "cuisine": "pizza;italian;coffe_shop", "description": "Pizzeria-Ristorante e mini bar", "level": "0", "name": "La Vecchia Fontana"}}, {"type": "node", "id": 1721881070, "lat": 37.8504358, "lon": 15.2834818, "tags": {"amenity": "restaurant", "cuisine": "italian", "name": "Osteria Nero d'Avola"}}, {"type": "node", "id": 1775973491, "lat": 37.8536944, "lon": 15.3001821, "tags": {"addr:housenumber": "159", "addr:street": "Via Nazionale", "amenity": "restaurant", "cuisine": "italian", "name": "\u00f9 Schiticchiu da Andrea"}}, {"type": "node", "id": 1887924552, "lat": 38.1476803, "lon": 15.0217488, "tags": {"amenity": "restaurant", "name": "La Capannina"}}, {"type": "node", "id": 1904347499, "lat": 37.7439861, "lon": 15.1866927, "tags": {"amenity": "restaurant", "cuisine": "italian", "name": "Agricolab al Borgo dell'Etna"}}, {"type": "node", "id": 1956510479, "lat": 37.7123274, "lon": 15.1918846, "tags": {"amenity": "restaurant", "name": "La Spiga"}}, {"type": "node", "id": 1975586520, "lat": 37.8775043, "lon": 14.9472783, "tags": {"amenity": "restaurant", "name": "Gli Antichi Sapori"}}, {"type": "node", "id": 1975586548, "lat": 37.879796, "lon": 14.9521117, "tags": {"amenity": "restaurant", "contact:facebook": "sangiorgioeildragorandazzo", "cuisine": "italian", "email": "sangiorgioeildrago@hotmail.com", "name": "San Giorgio e il Drago", "outdoor_seating": "yes", "phone": "+39 095 923972", "website": "https://www.ristorantesangiorgioeildrago.it/"}}, {"type": "node", "id": 2002707296, "lat": 37.7270606, "lon": 15.184014, "tags": {"amenity": "cafe", "name": "Caf\u00e8 Preluna", "outdoor_seating": "yes"}}, {"type": "node", "id": 2002707595, "lat": 37.7262772, "lon": 15.1843957, "tags": {"amenity": "cafe", "name": "Avalon Bellia", "outdoor_seating": "yes"}}, {"type": "node", "id": 2002718349, "lat": 37.7326961, "lon": 15.2048092, "tags": {"amenity": "restaurant", "name": "Ristorante Messicano El Sombrero"}}, {"type": "node", "id": 2002718756, "lat": 37.7335563, "lon": 15.2048749, "tags": {"amenity": "cafe", "name": "Bar Le Caravelle", "wifi": "no"}}, {"type": "node", "id": 2061574533, "lat": 38.0210174, "lon": 14.8833733, "tags": {"amenity": "restaurant", "cuisine": "italian", "name": "A baracca du rizzu"}}, {"type": "node", "id": 2369083031, "lat": 37.8239622, "lon": 15.2464179, "tags": {"amenity": "cafe"}}, {"type": "node", "id": 2369083173, "lat": 37.8245958, "lon": 15.2452213, "tags": {"amenity": "cafe", "name": "Autogrill"}}, {"type": "node", "id": 2388944390, "lat": 37.8017854, "lon": 15.2472863}, {"type": "node", "id": 2400652336, "lat": 37.8797834, "lon": 15.1747874, "tags": {"amenity": "restaurant"}}, {"type": "node", "id": 2400652356, "lat": 37.8795813, "lon": 15.1748654, "tags": {"amenity": "cafe", "level": "0", "name": "Gole Alcantara"}}, {"type": "node", "id": 2401982833, "lat": 37.8510689, "lon": 15.2836828, "tags": {"addr:housenumber": "230", "addr:street": "Corso Umberto", "amenity": "restaurant", "name": "Il Ciclope", "phone": "+39 380 1376069", "website": "https://www.ristoranteilciclope.it/"}}, {"type": "node", "id": 2419976136, "lat": 38.1313087, "lon": 15.0560874}, {"type": "node", "id": 2420748268, "lat": 38.1285352, "lon": 15.0589823}, {"type": "node", "id": 2420748270, "lat": 38.1285778, "lon": 15.0590474}, {"type": "node", "id": 2420748274, "lat": 38.1286119, "lon": 15.0589013}, {"type": "node", "id": 2420748282, "lat": 38.1286545, "lon": 15.0589664}, {"type": "node", "id": 2420748658, "lat": 38.1312634, "lon": 15.0558466}, {"type": "node", "id": 2420748677, "lat": 38.1313528, "lon": 15.0560597}, {"type": "node", "id": 2420748699, "lat": 38.1315018, "lon": 15.0556941}, {"type": "node", "id": 2420748710, "lat": 38.1315868, "lon": 15.0559126}, {"type": "node", "id": 2420856855, "lat": 38.12485, "lon": 15.0616554}, {"type": "node", "id": 2420856867, "lat": 38.1249045, "lon": 15.0614471}, {"type": "node", "id": 2420856872, "lat": 38.1249171, "lon": 15.0616828}, {"type": "node", "id": 2420856882, "lat": 38.1250312, "lon": 15.0613298}, {"type": "node", "id": 2422042396, "lat": 38.118341, "lon": 15.1005158, "tags": {"amenity": "cafe", "name": "La Tuile"}}, {"type": "node", "id": 2422509841, "lat": 38.1413249, "lon": 15.0456645, "tags": {"amenity": "cafe", "name": "Bar del Pellegrino"}}, {"type": "node", "id": 2422509844, "lat": 38.1422639, "lon": 15.0442576, "tags": {"addr:housenumber": "22", "addr:street": "Via Teatro Greco", "amenity": "cafe", "name": "New Agor\u00e0"}}, {"type": "node", "id": 2422509931, "lat": 38.14222, "lon": 15.0443055, "tags": {"addr:housenumber": "20", "addr:street": "Via Teatro Greco", "amenity": "restaurant", "name": "Ristorante Agor\u00e0"}}, {"type": "node", "id": 2422509934, "lat": 38.1431237, "lon": 15.0427931, "tags": {"amenity": "cafe", "name": "Ritrovo Oleandro"}}, {"type": "node", "id": 2433753713, "lat": 37.8571032, "lon": 15.3007508, "tags": {"amenity": "cafe"}}, {"type": "node", "id": 2461820750, "lat": 38.1493315, "lon": 14.9791425, "tags": {"addr:city": "Patti", "addr:postcode": "98066", "addr:street": "Via Giovanni XXIII", "amenity": "restaurant", "name": "KooDo\u00f2"}}, {"type": "node", "id": 2472176103, "lat": 37.823244, "lon": 15.2278559, "tags": {"amenity": "cafe", "name": "Arte Caff\u00e8"}}, {"type": "node", "id": 2472176108, "lat": 37.8253371, "lon": 15.2274707}, {"type": "node", "id": 2472176110, "lat": 37.8284249, "lon": 15.2278457, "tags": {"amenity": "cafe"}}, {"type": "node", "id": 2474426944, "lat": 37.7491184, "lon": 15.2074366}, {"type": "node", "id": 2474426951, "lat": 37.7491355, "lon": 15.2072936}, {"type": "node", "id": 2474426955, "lat": 37.7491956, "lon": 15.2073137}, {"type": "node", "id": 2474426961, "lat": 37.7493352, "lon": 15.2074768}, {"type": "node", "id": 2474426964, "lat": 37.7493481, "lon": 15.2076094}, {"type": "node", "id": 2474426966, "lat": 37.7493493, "lon": 15.2075439}, {"type": "node", "id": 2474426969, "lat": 37.7493505, "lon": 15.2074418}, {"type": "node", "id": 2474426972, "lat": 37.7493664, "lon": 15.2075014}, {"type": "node", "id": 2474426975, "lat": 37.7493729, "lon": 15.207564}, {"type": "node", "id": 2498675811, "lat": 37.983636, "lon": 14.9664065}, {"type": "node", "id": 2498675812, "lat": 37.9836448, "lon": 14.9662139}, {"type": "node", "id": 2498675821, "lat": 37.9837404, "lon": 14.9664142}, {"type": "node", "id": 2498675824, "lat": 37.9837433, "lon": 14.9663509}, {"type": "node", "id": 2498675829, "lat": 37.9837465, "lon": 14.9662335}, {"type": "node", "id": 2498675831, "lat": 37.9837471, "lon": 14.9662214}, {"type": "node", "id": 2498675851, "lat": 37.984026, "lon": 14.9663716}, {"type": "node", "id": 2498675852, "lat": 37.9840313, "lon": 14.9662544}, {"type": "node", "id": 2624527261, "lat": 38.1278219, "lon": 15.1181789, "tags": {"addr:city": "Tonnarella", "addr:housenumber": "56", "addr:postcode": "98054", "addr:street": "Via Palermo", "amenity": "cafe", "internet_access": "no", "name": "Birimbao", "phone": "+39 0941 874296"}}, {"type": "node", "id": 2624528249, "lat": 38.1287773, "lon": 15.1192805, "tags": {"addr:city": "Tonnarella", "addr:housenumber": "44", "addr:postcode": "98054", "addr:street": "Via Palermo", "amenity": "cafe", "cuisine": "italian", "internet_access": "no", "name": "al Veliero", "phone": "+39 0941 874205", "website": "http://www.alveliero.it"}}, {"type": "node", "id": 2656464493, "lat": 38.145438, "lon": 15.2191109, "tags": {"amenity": "cafe", "name": "Bar dello Studente"}}, {"type": "node", "id": 2660806864, "lat": 37.8743604, "lon": 15.3029641}, {"type": "node", "id": 2660806869, "lat": 37.8731518, "lon": 15.3018909}, {"type": "node", "id": 2660806873, "lat": 37.8713191, "lon": 15.3007184}, {"type": "node", "id": 2660806876, "lat": 37.8711868, "lon": 15.3006442}, {"type": "node", "id": 2660806890, "lat": 37.8730651, "lon": 15.3021203}, {"type": "node", "id": 2660806894, "lat": 37.8712713, "lon": 15.3008257}, {"type": "node", "id": 2660806896, "lat": 37.8711459, "lon": 15.3007361}, {"type": "node", "id": 2660806897, "lat": 37.8744397, "lon": 15.3027785}, {"type": "node", "id": 2660830987, "lat": 37.8817584, "lon": 15.3094218}, {"type": "node", "id": 2660854307, "lat": 37.8628911, "lon": 15.2966967}, {"type": "node", "id": 2660854368, "lat": 37.8608852, "lon": 15.2964739}, {"type": "node", "id": 2660854372, "lat": 37.8604521, "lon": 15.2965429}, {"type": "node", "id": 2663366162, "lat": 37.8355214, "lon": 15.2725064}, {"type": "node", "id": 2670455563, "lat": 37.7858411, "lon": 15.2353834}, {"type": "node", "id": 2670455878, "lat": 37.7860529, "lon": 15.2349531}, {"type": "node", "id": 2691083948, "lat": 37.9319697, "lon": 15.267707}, {"type": "node", "id": 2691083949, "lat": 37.931977, "lon": 15.2678372}, {"type": "node", "id": 2691083950, "lat": 37.9320872, "lon": 15.2676965}, {"type": "node", "id": 2691083951, "lat": 37.9320945, "lon": 15.2678267}, {"type": "node", "id": 2717188872, "lat": 38.0453505, "lon": 14.880737, "tags": {"amenity": "cafe", "name": "Roxy Bar"}}, {"type": "node", "id": 2773439826, "lat": 37.8543473, "lon": 15.291508}, {"type": "node", "id": 2773439841, "lat": 37.8544083, "lon": 15.2914187}, {"type": "node", "id": 2773439844, "lat": 37.8544257, "lon": 15.2915301}, {"type": "node", "id": 2773439846, "lat": 37.8544257, "lon": 15.2915687}, {"type": "node", "id": 2773439849, "lat": 37.8544371, "lon": 15.2914193}, {"type": "node", "id": 2773439851, "lat": 37.8544371, "lon": 15.291529}, {"type": "node", "id": 2773439852, "lat": 37.8544414, "lon": 15.2914948}, {"type": "node", "id": 2803197743, "lat": 37.8260862, "lon": 15.2692481}, {"type": "node", "id": 2803197745, "lat": 37.8257477, "lon": 15.2695234}, {"type": "node", "id": 2803198014, "lat": 37.8261175, "lon": 15.2693659}, {"type": "node", "id": 2803198148, "lat": 37.8188067, "lon": 15.2710901}, {"type": "node", "id": 2803198294, "lat": 37.8257164, "lon": 15.2694056}, {"type": "node", "id": 2816897160, "lat": 37.994289, "lon": 14.756089}, {"type": "node", "id": 2816897161, "lat": 37.9943169, "lon": 14.7562139}, {"type": "node", "id": 2816897162, "lat": 37.994444, "lon": 14.7560332}, {"type": "node", "id": 2816897163, "lat": 37.9944719, "lon": 14.7561582}, {"type": "node", "id": 2834694007, "lat": 37.854033, "lon": 15.2916247, "tags": {"addr:city": "Taormina", "addr:housenumber": "37", "addr:street": "Via Luigi Pirandello", "amenity": "restaurant", "cuisine": "italian", "name": "Trattoria Da Nino", "opening_hours": "12:00-15:00; 18:30-23:00", "website": "https://www.trattoriadaninotaormina.com/"}}, {"type": "node", "id": 2838102622, "lat": 37.8191751, "lon": 15.2664237, "tags": {"addr:city": "Giardini-Naxos", "addr:housenumber": "6", "addr:postcode": "98035", "addr:street": "Viale Jannuzzo", "amenity": "restaurant", "capacity": "100", "cuisine": "regional", "name": "Gambrinus", "opening_hours": "11:00-15:00, 19:00-24:00", "smoking": "outside"}}, {"type": "node", "id": 2877447311, "lat": 38.1250044, "lon": 15.0614917}, {"type": "node", "id": 2877447312, "lat": 38.1249692, "lon": 15.0614786}, {"type": "node", "id": 2877447313, "lat": 38.1249486, "lon": 15.0612572}, {"type": "node", "id": 2877447314, "lat": 38.1250119, "lon": 15.061321}, {"type": "node", "id": 2877447315, "lat": 38.1249039, "lon": 15.0613989}, {"type": "node", "id": 2877447316, "lat": 38.1249672, "lon": 15.0618025}, {"type": "node", "id": 2877447317, "lat": 38.1249345, "lon": 15.0619295}, {"type": "node", "id": 2877447318, "lat": 38.1249454, "lon": 15.0619734}, {"type": "node", "id": 2877447319, "lat": 38.1249614, "lon": 15.0619754}, {"type": "node", "id": 2877447320, "lat": 38.1249574, "lon": 15.0620175}, {"type": "node", "id": 2877447321, "lat": 38.1250167, "lon": 15.0620601}, {"type": "node", "id": 2877447322, "lat": 38.1250523, "lon": 15.0618213}, {"type": "node", "id": 2893740222, "lat": 37.8519014, "lon": 15.2810087, "tags": {"addr:city": "Taormina", "addr:housenumber": "2", "addr:street": "Via Cesare Ottaviano", "amenity": "restaurant", "changing_table": "no", "cuisine": "regional", "diet:vegetarian": "yes", "email": "info@trattoriadoncamillo.com", "indoor_seating": "yes", "name": "Trattoria Don Camillo", "opening_hours": "We-Mo 19:00-22:30", "outdoor_seating": "patio", "payment:credit_cards": "yes", "payment:debit_cards": "yes", "phone": "+39 0942 23198", "smoking": "outside", "website": "https://www.trattoriadoncamillo.com/", "wheelchair": "no"}}, {"type": "node", "id": 2967261505, "lat": 37.8802204, "lon": 15.3060414, "tags": {"amenity": "restaurant", "cuisine": "burger", "name": "Twin Pub"}}, {"type": "node", "id": 2967261508, "lat": 37.8738343, "lon": 15.3026036}, {"type": "node", "id": 2989800413, "lat": 37.7454609, "lon": 15.1634152, "tags": {"amenity": "restaurant", "cuisine": "italian", "name": "Il Ciliegio Dell'Etna", "tourism": "hotel"}}, {"type": "node", "id": 2989864111, "lat": 37.7310711, "lon": 15.1571564, "tags": {"amenity": "restaurant", "cuisine": "italian", "name": "Antiche Botti"}}, {"type": "node", "id": 3016754485, "lat": 38.1534753, "lon": 15.2891482, "tags": {"amenity": "restaurant", "name": "Villa Mont Valerie", "short_name": "Mont Valerie"}}, {"type": "node", "id": 3019852356, "lat": 37.8157138, "lon": 15.2636257, "tags": {"amenity": "restaurant", "cuisine": "italian", "name": "Da Margherita"}}, {"type": "node", "id": 3019852358, "lat": 37.815913, "lon": 15.2643285, "tags": {"amenity": "restaurant", "check_date": "2023-06-10", "cuisine": "italian", "name": "La Spelonca"}}, {"type": "node", "id": 3089031660, "lat": 38.0469639, "lon": 14.9872475, "tags": {"addr:city": "San Piero Patti", "addr:postcode": "98068", "addr:street": "Contrada Blaida", "amenity": "restaurant", "name": "Agriturismo Il Daino", "operator": "Enzo Galvagno", "phone": "+39 0941 660362", "tourism": "guest_house", "website": "http://www.ildaino.com/"}}, {"type": "node", "id": 3091266266, "lat": 37.8515835, "lon": 15.2844551, "tags": {"addr:housenumber": "1b", "addr:street": "Via D\u2019Orville", "amenity": "restaurant", "name": "Pizzeria Varo", "name:en": "La Napoletana", "name:it": "La Napoletana"}}, {"type": "node", "id": 3119466483, "lat": 38.0384373, "lon": 14.9582668, "tags": {"addr:city": "San Piero Patti", "addr:housenumber": "1", "addr:postcode": "98068", "addr:street": "Contrada Sambuco", "amenity": "restaurant", "cuisine": "regional", "name": "Da Luciana"}}, {"type": "node", "id": 3121700235, "lat": 38.0242168, "lon": 14.9798474, "tags": {"addr:city": "San Piero Patti", "addr:housenumber": "1", "addr:postcode": "98068", "addr:street": "Contrada Bell\u00f9", "amenity": "restaurant", "name": "Agriturismo Tornabene"}}, {"type": "node", "id": 3121720120, "lat": 38.0061877, "lon": 14.9580634, "tags": {"addr:city": "San Piero Patti", "addr:postcode": "98068", "addr:street": "Contrada Gar\u00ec Pisani", "amenity": "restaurant", "name": "Agriturismo \"Il Capitano\""}}, {"type": "node", "id": 3121724672, "lat": 38.05132, "lon": 14.9569904, "tags": {"addr:city": "San Piero Patti", "addr:housenumber": "2", "addr:postcode": "98068", "addr:street": "Contrada Rocche-Urgeri", "amenity": "restaurant", "cuisine": "regional", "name": "Agriturismo \"Le Rocche\""}}, {"type": "node", "id": 3121772129, "lat": 38.0522606, "lon": 14.967021, "tags": {"addr:city": "San Piero Patti", "addr:housenumber": "4", "addr:postcode": "98068", "addr:street": "Via Brasile", "amenity": "restaurant", "name": "Pizzeria \"Non solo pizza\""}}, {"type": "node", "id": 3121781597, "lat": 38.0103775, "lon": 14.9822655, "tags": {"amenity": "restaurant", "name": "Trattoria Da Brasarella"}}, {"type": "node", "id": 3123569218, "lat": 37.8772346, "lon": 14.9473592, "tags": {"amenity": "cafe", "name": "Amaro Dolce"}}, {"type": "node", "id": 3123803767, "lat": 38.0001963, "lon": 14.8797139, "tags": {"addr:street": "Strada statale Randazzo - Capo d'Orlando", "amenity": "restaurant", "cuisine": "italian;local;regional", "email": "info@trattoria-larocca.it", "name": "Trattoria La Rocca", "name:en": "La Rocca Restaurant", "opening_hours": "Mo-Su 09:00-22:00", "phone": "+39 0941 662228"}}, {"type": "node", "id": 3126177401, "lat": 37.9744345, "lon": 14.9529871, "tags": {"addr:city": "Floresta", "addr:country": "IT", "addr:street": "Strada Statale 116", "amenity": "restaurant", "cuisine": "italian", "name": "Don Santo", "website": "https://www.donsanto.it/"}}, {"type": "node", "id": 3133402003, "lat": 37.9868765, "lon": 14.9098058, "tags": {"addr:city": "Floresta", "addr:housenumber": "70", "addr:postcode": "98030", "addr:street": "Via Vittorio Emanuele", "amenity": "restaurant", "name": "Trattoria il Fienile"}}, {"type": "node", "id": 3154394470, "lat": 38.0562683, "lon": 15.0355356, "tags": {"amenity": "cafe"}}, {"type": "node", "id": 3253913477, "lat": 37.9159602, "lon": 15.2619301}, {"type": "node", "id": 3253913487, "lat": 37.9160809, "lon": 15.2618389}, {"type": "node", "id": 3253913492, "lat": 37.9160216, "lon": 15.2617129}, {"type": "node", "id": 3253913496, "lat": 37.9159856, "lon": 15.261737}, {"type": "node", "id": 3253913499, "lat": 37.9159687, "lon": 15.2617129}, {"type": "node", "id": 3253913503, "lat": 37.9159222, "lon": 15.2617424}, {"type": "node", "id": 3253913504, "lat": 37.9159052, "lon": 15.2617719}, {"type": "node", "id": 3253913508, "lat": 37.9159073, "lon": 15.2618121}, {"type": "node", "id": 3334343466, "lat": 38.1539173, "lon": 15.2708047, "tags": {"amenity": "restaurant", "cuisine": "italian", "name": "La Quercia", "opening_hours": "Mo-Su 10:30-23:00", "phone": "+39 090 935015"}}, {"type": "node", "id": 3374677004, "lat": 37.8718408, "lon": 15.3010074}, {"type": "node", "id": 3374677005, "lat": 37.872191, "lon": 15.301232}, {"type": "node", "id": 3374677006, "lat": 37.8721014, "lon": 15.3013389}, {"type": "node", "id": 3374677007, "lat": 37.871788, "lon": 15.3011421}, {"type": "node", "id": 3374717347, "lat": 37.8706152, "lon": 15.3000268}, {"type": "node", "id": 3374717348, "lat": 37.8713829, "lon": 15.3005749}, {"type": "node", "id": 3374717352, "lat": 37.8705445, "lon": 15.3001857}, {"type": "node", "id": 3403595913, "lat": 37.8755513, "lon": 15.3031065}, {"type": "node", "id": 3403595914, "lat": 37.8756528, "lon": 15.3031561}, {"type": "node", "id": 3454486819, "lat": 37.8805722, "lon": 15.3079697}, {"type": "node", "id": 3454486820, "lat": 37.8806871, "lon": 15.3081098}, {"type": "node", "id": 3454486821, "lat": 37.8806245, "lon": 15.3081922}, {"type": "node", "id": 3454486822, "lat": 37.8805095, "lon": 15.3080521}, {"type": "node", "id": 3454821867, "lat": 37.8796193, "lon": 15.3065935, "tags": {"amenity": "restaurant", "check_date": "2024-10-19", "name": "Ristorante Gol\u00e0"}}, {"type": "node", "id": 3454841295, "lat": 37.8784668, "lon": 15.3056131}, {"type": "node", "id": 3454841296, "lat": 37.8783894, "lon": 15.3057844}, {"type": "node", "id": 3454841297, "lat": 37.8782087, "lon": 15.3056534}, {"type": "node", "id": 3454841298, "lat": 37.8782861, "lon": 15.3054821}, {"type": "node", "id": 3454851359, "lat": 37.8823763, "lon": 15.310284}, {"type": "node", "id": 3454851360, "lat": 37.8824219, "lon": 15.3102221}, {"type": "node", "id": 3454851361, "lat": 37.8823303, "lon": 15.3101138}, {"type": "node", "id": 3454851362, "lat": 37.8822847, "lon": 15.3101756}, {"type": "node", "id": 3454851447, "lat": 37.8812265, "lon": 15.3089039}, {"type": "node", "id": 3454851448, "lat": 37.8813692, "lon": 15.3090799}, {"type": "node", "id": 3454851449, "lat": 37.8814246, "lon": 15.3090078}, {"type": "node", "id": 3454851450, "lat": 37.8817375, "lon": 15.3093933}, {"type": "node", "id": 3454851451, "lat": 37.8816435, "lon": 15.3095187}, {"type": "node", "id": 3454851452, "lat": 37.8815176, "lon": 15.3093673}, {"type": "node", "id": 3454851453, "lat": 37.8816116, "lon": 15.3092419}, {"type": "node", "id": 3454855265, "lat": 37.8818753, "lon": 15.3095568}, {"type": "node", "id": 3454855266, "lat": 37.8817877, "lon": 15.3096785}, {"type": "node", "id": 3454855267, "lat": 37.8816708, "lon": 15.3095435}, {"type": "node", "id": 3454866836, "lat": 37.8827914, "lon": 15.3107098}, {"type": "node", "id": 3454866837, "lat": 37.8827287, "lon": 15.310781}, {"type": "node", "id": 3454866838, "lat": 37.8828213, "lon": 15.3109118}, {"type": "node", "id": 3454866839, "lat": 37.882884, "lon": 15.3108406}, {"type": "node", "id": 3454901585, "lat": 37.8606269, "lon": 15.2769321, "tags": {"amenity": "restaurant", "name": "Ristorante Parco Reale"}}, {"type": "node", "id": 3665913978, "lat": 38.1453806, "lon": 15.2128092, "tags": {"amenity": "restaurant", "cuisine": "italian;pizza", "name": "La Galleria", "opening_hours": "Mo-Su 18:00-24:00; Tu off", "operator": "Alessandro Calderone", "phone": "+39 090 2130086"}}, {"type": "node", "id": 3668451939, "lat": 38.0416859, "lon": 14.7978731, "tags": {"amenity": "restaurant", "cuisine": "italian", "name": "La vedetta dei Nebrodi", "phone": "+39 0941 421977"}}, {"type": "node", "id": 3685565032, "lat": 38.142675, "lon": 15.2801153, "tags": {"amenity": "restaurant", "cuisine": "pizza", "name": "La Taberna", "outdoor_seating": "yes", "wheelchair": "no"}}, {"type": "node", "id": 3685565033, "lat": 38.142607, "lon": 15.2803626, "tags": {"amenity": "restaurant", "cuisine": "italian", "name": "Pellegrino"}}, {"type": "node", "id": 3696387186, "lat": 37.8796053, "lon": 15.30524}, {"type": "node", "id": 3696387187, "lat": 37.8796841, "lon": 15.3053276}, {"type": "node", "id": 3696387188, "lat": 37.8796225, "lon": 15.3054165}, {"type": "node", "id": 3696387189, "lat": 37.8795438, "lon": 15.3053289}, {"type": "node", "id": 3696451971, "lat": 37.8812819, "lon": 15.3088318}, {"type": "node", "id": 3696493268, "lat": 37.8692678, "lon": 15.2989428}, {"type": "node", "id": 3696493269, "lat": 37.8691911, "lon": 15.2992246}, {"type": "node", "id": 3696493270, "lat": 37.8691374, "lon": 15.2992116}, {"type": "node", "id": 3696493271, "lat": 37.8688876, "lon": 15.2989853}, {"type": "node", "id": 3696493288, "lat": 37.8657242, "lon": 15.2971202}, {"type": "node", "id": 3696493289, "lat": 37.8656418, "lon": 15.2972861}, {"type": "node", "id": 3731393030, "lat": 38.0148573, "lon": 15.1300923, "tags": {"addr:street": "Via Nazionale", "amenity": "cafe", "cuisine": "coffee_shop;breakfast;ice_cream", "name": "Bar Orchidea"}}, {"type": "node", "id": 3735598311, "lat": 37.865914, "lon": 15.0257412, "tags": {"amenity": "restaurant", "cuisine": "italian", "name": "Borgo Santo Spirito", "nohousenumber": "yes"}}, {"type": "node", "id": 3735598315, "lat": 37.8648733, "lon": 15.0724416, "tags": {"amenity": "cafe", "name": "Bar Scrivano"}}, {"type": "node", "id": 3901640443, "lat": 37.8359665, "lon": 15.2726929, "tags": {"addr:city": "Giardini-Naxos", "addr:housenumber": "470", "addr:postcode": "28035", "addr:street": "Corso Umberto I", "amenity": "restaurant", "cuisine": "regional", "name": "Ristorante La cucina del Palladio", "takeaway": "no"}}, {"type": "node", "id": 3914892215, "lat": 38.1480722, "lon": 15.214063, "tags": {"amenity": "restaurant", "cuisine": "italian;pizza", "name": "Marius"}}, {"type": "node", "id": 3914892217, "lat": 38.1475661, "lon": 15.2155163, "tags": {"amenity": "restaurant", "name": "Osteria Malarazza"}}, {"type": "node", "id": 3933369004, "lat": 37.8584305, "lon": 15.2773825}, {"type": "node", "id": 3933369005, "lat": 37.8584645, "lon": 15.2774202}, {"type": "node", "id": 3933369006, "lat": 37.8584262, "lon": 15.277456}, {"type": "node", "id": 3933369007, "lat": 37.8584228, "lon": 15.277427}, {"type": "node", "id": 3933369008, "lat": 37.8583663, "lon": 15.2774372}, {"type": "node", "id": 3933369009, "lat": 37.8583638, "lon": 15.2773795}, {"type": "node", "id": 3933369286, "lat": 37.8588728, "lon": 15.278094}, {"type": "node", "id": 3933369287, "lat": 37.8589007, "lon": 15.2781215}, {"type": "node", "id": 3933369288, "lat": 37.8588542, "lon": 15.278197}, {"type": "node", "id": 3933369289, "lat": 37.8588263, "lon": 15.2781694}, {"type": "node", "id": 3933369292, "lat": 37.8587886, "lon": 15.2782307}, {"type": "node", "id": 3933369293, "lat": 37.8588165, "lon": 15.2782583}, {"type": "node", "id": 3937832268, "lat": 38.130961, "lon": 15.1217305, "tags": {"amenity": "restaurant", "contact:phone": "+39 090 9740137", "contact:website": "http://www.lampararestaurant.it", "cuisine": "italian;pizza", "name": "La Lampara"}}, {"type": "node", "id": 3942772416, "lat": 37.8552785, "lon": 15.30082}, {"type": "node", "id": 3942772417, "lat": 37.8551413, "lon": 15.3008997}, {"type": "node", "id": 3942772418, "lat": 37.8551699, "lon": 15.3010011}, {"type": "node", "id": 3942772419, "lat": 37.8550975, "lon": 15.3010469}, {"type": "node", "id": 3942772420, "lat": 37.8551227, "lon": 15.301095}, {"type": "node", "id": 3942772421, "lat": 37.8551643, "lon": 15.3011181}, {"type": "node", "id": 3942772422, "lat": 37.8551968, "lon": 15.3011249}, {"type": "node", "id": 3942772423, "lat": 37.8552321, "lon": 15.3011272}, {"type": "node", "id": 3942772424, "lat": 37.8552832, "lon": 15.3011135}, {"type": "node", "id": 3942772425, "lat": 37.8552726, "lon": 15.3010628}, {"type": "node", "id": 3942772426, "lat": 37.8553121, "lon": 15.30104}, {"type": "node", "id": 3942772427, "lat": 37.8552747, "lon": 15.3008707}, {"type": "node", "id": 3942772428, "lat": 37.8552938, "lon": 15.3008562}, {"type": "node", "id": 3942776273, "lat": 37.8531211, "lon": 15.3015066}, {"type": "node", "id": 3942776274, "lat": 37.8530586, "lon": 15.3014763}, {"type": "node", "id": 3942776275, "lat": 37.8530061, "lon": 15.3016335}, {"type": "node", "id": 3942776276, "lat": 37.8530187, "lon": 15.3017075}, {"type": "node", "id": 3942776277, "lat": 37.8530517, "lon": 15.3017245}, {"type": "node", "id": 3942776278, "lat": 37.8521338, "lon": 15.2992355}, {"type": "node", "id": 3942776279, "lat": 37.8527837, "lon": 15.2998855}, {"type": "node", "id": 3942776280, "lat": 37.852724, "lon": 15.2999813}, {"type": "node", "id": 3942776281, "lat": 37.8524778, "lon": 15.2997351}, {"type": "node", "id": 3942776282, "lat": 37.8524536, "lon": 15.2997739}, {"type": "node", "id": 3942776283, "lat": 37.8523509, "lon": 15.2996712}, {"type": "node", "id": 3942776284, "lat": 37.852376, "lon": 15.299631}, {"type": "node", "id": 3942776285, "lat": 37.8521912, "lon": 15.2994462}, {"type": "node", "id": 3942776286, "lat": 37.8521355, "lon": 15.2995356}, {"type": "node", "id": 3942776287, "lat": 37.8520192, "lon": 15.2994193}, {"type": "node", "id": 3942785435, "lat": 37.8568194, "lon": 15.3016574}, {"type": "node", "id": 3942785436, "lat": 37.8566715, "lon": 15.3016691}, {"type": "node", "id": 3942785437, "lat": 37.8566778, "lon": 15.3017976}, {"type": "node", "id": 3942785438, "lat": 37.8568257, "lon": 15.301786}, {"type": "node", "id": 3942786430, "lat": 37.8553961, "lon": 15.3008833}, {"type": "node", "id": 3942786431, "lat": 37.8553961, "lon": 15.3009385}, {"type": "node", "id": 3942786432, "lat": 37.8554374, "lon": 15.3009384}, {"type": "node", "id": 3942786433, "lat": 37.8554375, "lon": 15.3010246}, {"type": "node", "id": 3942786434, "lat": 37.8555015, "lon": 15.3010244}, {"type": "node", "id": 3942786435, "lat": 37.8555013, "lon": 15.3009119}, {"type": "node", "id": 3942802837, "lat": 37.8536017, "lon": 15.3002631}, {"type": "node", "id": 3942802838, "lat": 37.8536458, "lon": 15.3005987}, {"type": "node", "id": 3942802839, "lat": 37.8536259, "lon": 15.3006154}, {"type": "node", "id": 3942802840, "lat": 37.8535884, "lon": 15.3005623}, {"type": "node", "id": 3942802841, "lat": 37.853531, "lon": 15.3004505}, {"type": "node", "id": 3942802842, "lat": 37.8534824, "lon": 15.300375}, {"type": "node", "id": 3942802843, "lat": 37.8535222, "lon": 15.3003023}, {"type": "node", "id": 3951683159, "lat": 38.0680869, "lon": 14.8681066}, {"type": "node", "id": 3951684559, "lat": 38.0682273, "lon": 14.86775}, {"type": "node", "id": 3951684560, "lat": 38.0680024, "lon": 14.8680026}, {"type": "node", "id": 3951684561, "lat": 38.0678259, "lon": 14.8679057}, {"type": "node", "id": 3951684658, "lat": 38.0682919, "lon": 14.8678732}, {"type": "node", "id": 3951684659, "lat": 38.0679239, "lon": 14.8679637}, {"type": "node", "id": 3951684660, "lat": 38.0678783, "lon": 14.8679863}, {"type": "node", "id": 3951684661, "lat": 38.0679306, "lon": 14.8678796}, {"type": "node", "id": 3951684662, "lat": 38.0679579, "lon": 14.8679135}, {"type": "node", "id": 3951684663, "lat": 38.0680854, "lon": 14.867835}, {"type": "node", "id": 3951686257, "lat": 38.0681749, "lon": 14.8679828}, {"type": "node", "id": 3951686258, "lat": 38.0681911, "lon": 14.868014}, {"type": "node", "id": 3951686259, "lat": 38.0680197, "lon": 14.8678704}, {"type": "node", "id": 3951686260, "lat": 38.0681143, "lon": 14.867864}, {"type": "node", "id": 3951686357, "lat": 38.0680647, "lon": 14.8680783}, {"type": "node", "id": 3951686358, "lat": 38.0679562, "lon": 14.8680323}, {"type": "node", "id": 3965335592, "lat": 37.9003542, "lon": 15.2943724, "tags": {"amenity": "restaurant", "cuisine": "italian", "name": "Noemi", "opening_hours": "Mo-Su 11:00-22:30", "phone": "+39 0942 37162"}}, {"type": "node", "id": 3968021854, "lat": 37.9041859, "lon": 15.2753192, "tags": {"amenity": "cafe"}}, {"type": "node", "id": 3970819748, "lat": 37.8783586, "lon": 15.3052916, "tags": {"addr:housenumber": "34", "addr:street": "Via Michelangelo Garufi", "amenity": "restaurant", "check_date": "2024-10-19", "cuisine": "pizza", "name": "Flamingo"}}, {"type": "node", "id": 4005541745, "lat": 38.1449573, "lon": 15.2158534, "tags": {"amenity": "cafe", "name": "Saint Honor\u00e8", "phone": "+39 090 9704511", "website": "https://www.sainthonore.info/"}}, {"type": "node", "id": 4027976907, "lat": 37.8756271, "lon": 15.3032718}, {"type": "node", "id": 4027976908, "lat": 37.875513, "lon": 15.3032169}, {"type": "node", "id": 4027976935, "lat": 37.8733569, "lon": 15.3018583}, {"type": "node", "id": 4027976936, "lat": 37.8732356, "lon": 15.3017874}, {"type": "node", "id": 4027976937, "lat": 37.8732821, "lon": 15.3016595}, {"type": "node", "id": 4027976938, "lat": 37.8734035, "lon": 15.3017304}, {"type": "node", "id": 4028042140, "lat": 37.874748, "lon": 15.3026258}, {"type": "node", "id": 4028042141, "lat": 37.8746882, "lon": 15.3027846}, {"type": "node", "id": 4028042142, "lat": 37.8746388, "lon": 15.3027451}, {"type": "node", "id": 4028042143, "lat": 37.8746918, "lon": 15.3025919}, {"type": "node", "id": 4028047283, "lat": 37.8639651, "lon": 15.2963894}, {"type": "node", "id": 4028047284, "lat": 37.8638869, "lon": 15.2967111}, {"type": "node", "id": 4028047285, "lat": 37.8636861, "lon": 15.2966329}, {"type": "node", "id": 4028047286, "lat": 37.8637643, "lon": 15.2963111}, {"type": "node", "id": 4028047804, "lat": 37.8606755, "lon": 15.2963986}, {"type": "node", "id": 4050066034, "lat": 37.8229008, "lon": 15.2758134}, {"type": "node", "id": 4050066036, "lat": 37.8227408, "lon": 15.275811}, {"type": "node", "id": 4050066037, "lat": 37.8227393, "lon": 15.2759711}, {"type": "node", "id": 4050066038, "lat": 37.8228387, "lon": 15.2759726}, {"type": "node", "id": 4050066039, "lat": 37.8228393, "lon": 15.2759175}, {"type": "node", "id": 4050066040, "lat": 37.8228998, "lon": 15.2759184}, {"type": "node", "id": 4050066046, "lat": 37.8246062, "lon": 15.2744616}, {"type": "node", "id": 4050066047, "lat": 37.8244165, "lon": 15.2744868}, {"type": "node", "id": 4050066048, "lat": 37.8243508, "lon": 15.2745313}, {"type": "node", "id": 4050066049, "lat": 37.8243673, "lon": 15.2746708}, {"type": "node", "id": 4050066050, "lat": 37.8246204, "lon": 15.2745687}, {"type": "node", "id": 4050066051, "lat": 37.8246041, "lon": 15.2744331}, {"type": "node", "id": 4050066052, "lat": 37.8244548, "lon": 15.274452}, {"type": "node", "id": 4050066053, "lat": 37.8243095, "lon": 15.2742602}, {"type": "node", "id": 4050066054, "lat": 37.8243446, "lon": 15.2741421}, {"type": "node", "id": 4050066055, "lat": 37.8245343, "lon": 15.2742699}, {"type": "node", "id": 4050066056, "lat": 37.8239515, "lon": 15.2731345}, {"type": "node", "id": 4050066057, "lat": 37.8238796, "lon": 15.2731429}, {"type": "node", "id": 4050066058, "lat": 37.823924, "lon": 15.2736096}, {"type": "node", "id": 4050066059, "lat": 37.8240081, "lon": 15.2735941}, {"type": "node", "id": 4050066060, "lat": 37.8241642, "lon": 15.272591}, {"type": "node", "id": 4050066061, "lat": 37.8239901, "lon": 15.2724875}, {"type": "node", "id": 4050066062, "lat": 37.8240739, "lon": 15.273201}, {"type": "node", "id": 4050066063, "lat": 37.824129, "lon": 15.2731874}, {"type": "node", "id": 4071565036, "lat": 37.9007095, "lon": 15.0529147, "tags": {"amenity": "cafe", "name": "Bar Europa"}}, {"type": "node", "id": 4072301529, "lat": 37.8416421, "lon": 15.2793181}, {"type": "node", "id": 4072301530, "lat": 37.8415525, "lon": 15.2792627}, {"type": "node", "id": 4072301531, "lat": 37.8414792, "lon": 15.2794219}, {"type": "node", "id": 4072301532, "lat": 37.8415787, "lon": 15.2794898}, {"type": "node", "id": 4072345445, "lat": 37.8406476, "lon": 15.277639}, {"type": "node", "id": 4072345446, "lat": 37.8407121, "lon": 15.2777423}, {"type": "node", "id": 4072345447, "lat": 37.8406442, "lon": 15.2778155}, {"type": "node", "id": 4072345448, "lat": 37.8405847, "lon": 15.2777122}, {"type": "node", "id": 4072370304, "lat": 37.8476731, "lon": 15.2858645}, {"type": "node", "id": 4072370306, "lat": 37.8476311, "lon": 15.2858856}, {"type": "node", "id": 4072370307, "lat": 37.8476977, "lon": 15.2860455}, {"type": "node", "id": 4072370308, "lat": 37.8477398, "lon": 15.2860233}, {"type": "node", "id": 4072370314, "lat": 37.8404749, "lon": 15.2769865}, {"type": "node", "id": 4072370315, "lat": 37.8403635, "lon": 15.2768886}, {"type": "node", "id": 4072370316, "lat": 37.8404211, "lon": 15.2767585}, {"type": "node", "id": 4072370317, "lat": 37.840527, "lon": 15.2768575}, {"type": "node", "id": 4072420454, "lat": 37.8360072, "lon": 15.2727675, "tags": {"amenity": "restaurant", "indoor_seating": "yes", "outdoor_seating": "no"}}, {"type": "node", "id": 4072420456, "lat": 37.8360047, "lon": 15.2722401, "tags": {"amenity": "restaurant", "name": "Trattoria La bettola da Za' Mela"}}, {"type": "node", "id": 4081898144, "lat": 37.7320518, "lon": 15.2051837, "tags": {"amenity": "cafe", "name": "Tre SSS Bar"}}, {"type": "node", "id": 4081898146, "lat": 37.733369, "lon": 15.2051487, "tags": {"amenity": "restaurant", "name": "Le Botti"}}, {"type": "node", "id": 4081898147, "lat": 37.7320122, "lon": 15.204484, "tags": {"amenity": "cafe", "name": "Caff\u00e8 Saint Pierre"}}, {"type": "node", "id": 4081926252, "lat": 37.7305429, "lon": 15.2050208, "tags": {"amenity": "restaurant", "name": "Trattoria Marricriu", "website": "https://trattoriamarricriu.wixsite.com/marricriu"}}, {"type": "node", "id": 4081927902, "lat": 37.7330337, "lon": 15.2045063, "tags": {"amenity": "restaurant", "name": "Ristorante Pizzeria Astemio"}}, {"type": "node", "id": 4084526333, "lat": 37.8795113, "lon": 15.3064592, "tags": {"addr:city": "Letojanni", "addr:housenumber": "4", "addr:street": "Via Pastificio", "amenity": "restaurant", "cuisine": "italian", "name": "Anico Borgo"}}, {"type": "node", "id": 4086074455, "lat": 38.049832, "lon": 15.0993929, "tags": {"addr:city": "Tripi", "addr:housenumber": "174", "addr:street": "Via Francesco Todaro", "amenity": "cafe", "brand": "Caribou Coffee", "brand:wikidata": "Q5039494", "brand:wikipedia": "en:Caribou Coffee", "cuisine": "coffee_shop;italian", "internet_access": "wlan", "internet_access:fee": "no", "name": "Bar Trifiletti", "outdoor_seating": "yes", "phone": "+39 0941 82155", "takeaway": "yes"}}, {"type": "node", "id": 4086577247, "lat": 38.0463868, "lon": 14.8817032, "tags": {"amenity": "cafe", "name": "Harmony"}}, {"type": "node", "id": 4111697040, "lat": 38.0802179, "lon": 14.8503616, "tags": {"amenity": "restaurant", "cuisine": "italian", "name": "La Pergola", "operator": "Salvatore Orifici"}}, {"type": "node", "id": 4124149990, "lat": 37.8689201, "lon": 15.2988586}, {"type": "node", "id": 4124162105, "lat": 37.8556861, "lon": 15.300819}, {"type": "node", "id": 4124162106, "lat": 37.8556414, "lon": 15.3009686}, {"type": "node", "id": 4124162107, "lat": 37.8555559, "lon": 15.3009277}, {"type": "node", "id": 4124162108, "lat": 37.8556005, "lon": 15.3007781}, {"type": "node", "id": 4124173516, "lat": 37.8535653, "lon": 15.300056}, {"type": "node", "id": 4124173517, "lat": 37.8535183, "lon": 15.3000783}, {"type": "node", "id": 4124173518, "lat": 37.8534665, "lon": 15.3001394}, {"type": "node", "id": 4124175148, "lat": 37.8534653, "lon": 15.2998265}, {"type": "node", "id": 4124175149, "lat": 37.8534183, "lon": 15.2998578}, {"type": "node", "id": 4124175150, "lat": 37.8534512, "lon": 15.2999367}, {"type": "node", "id": 4124175151, "lat": 37.8533724, "lon": 15.3000276}, {"type": "node", "id": 4131317862, "lat": 37.8656598, "lon": 15.2969532}, {"type": "node", "id": 4131317863, "lat": 37.865263, "lon": 15.2969718}, {"type": "node", "id": 4131317864, "lat": 37.8653467, "lon": 15.2967729}, {"type": "node", "id": 4131317865, "lat": 37.865438, "lon": 15.2968027}, {"type": "node", "id": 4131317866, "lat": 37.8655964, "lon": 15.296893}, {"type": "node", "id": 4131317867, "lat": 37.8650033, "lon": 15.2969292}, {"type": "node", "id": 4131317868, "lat": 37.8647025, "lon": 15.2967247}, {"type": "node", "id": 4131317869, "lat": 37.8646531, "lon": 15.2968412}, {"type": "node", "id": 4131317871, "lat": 37.864954, "lon": 15.2970457}, {"type": "node", "id": 4131317872, "lat": 37.8644334, "lon": 15.2966166}, {"type": "node", "id": 4131317873, "lat": 37.8644055, "lon": 15.2967634}, {"type": "node", "id": 4131317874, "lat": 37.8642273, "lon": 15.2967089}, {"type": "node", "id": 4131317875, "lat": 37.8642553, "lon": 15.2965621}, {"type": "node", "id": 4131317876, "lat": 37.8646282, "lon": 15.2963525}, {"type": "node", "id": 4131317877, "lat": 37.8645831, "lon": 15.2964973}, {"type": "node", "id": 4131317878, "lat": 37.8641721, "lon": 15.2962916}, {"type": "node", "id": 4131317879, "lat": 37.8642173, "lon": 15.2961469}, {"type": "node", "id": 4131317880, "lat": 37.8641111, "lon": 15.2960955}, {"type": "node", "id": 4131317881, "lat": 37.8640681, "lon": 15.29624}, {"type": "node", "id": 4131317882, "lat": 37.8641669, "lon": 15.2966421}, {"type": "node", "id": 4131317883, "lat": 37.8641346, "lon": 15.2967886}, {"type": "node", "id": 4131317884, "lat": 37.8639533, "lon": 15.2967245}, {"type": "node", "id": 4131317885, "lat": 37.8639856, "lon": 15.296578}, {"type": "node", "id": 4131331741, "lat": 37.8608804, "lon": 15.2963411}, {"type": "node", "id": 4131331744, "lat": 37.860445, "lon": 15.2964746}, {"type": "node", "id": 4131341746, "lat": 37.8599249, "lon": 15.2965231}, {"type": "node", "id": 4131341747, "lat": 37.8599588, "lon": 15.2965974}, {"type": "node", "id": 4131341748, "lat": 37.8596914, "lon": 15.2967931}, {"type": "node", "id": 4131341749, "lat": 37.8596575, "lon": 15.2967188}, {"type": "node", "id": 4131380392, "lat": 37.8636332, "lon": 15.2962829}, {"type": "node", "id": 4131380393, "lat": 37.8636089, "lon": 15.296458}, {"type": "node", "id": 4131380394, "lat": 37.8635602, "lon": 15.296525}, {"type": "node", "id": 4131380395, "lat": 37.8635427, "lon": 15.2966513}, {"type": "node", "id": 4131380396, "lat": 37.8629991, "lon": 15.2965304}, {"type": "node", "id": 4131380397, "lat": 37.8629291, "lon": 15.2966108}, {"type": "node", "id": 4131380400, "lat": 37.8627682, "lon": 15.2965116}, {"type": "node", "id": 4131380401, "lat": 37.8628826, "lon": 15.2963534}, {"type": "node", "id": 4131380402, "lat": 37.8630541, "lon": 15.2963748}, {"type": "node", "id": 4131380403, "lat": 37.8631282, "lon": 15.2963614}, {"type": "node", "id": 4131380404, "lat": 37.8631522, "lon": 15.296179}, {"type": "node", "id": 4131567123, "lat": 37.8524453, "lon": 15.2984706}, {"type": "node", "id": 4131567178, "lat": 37.8525138, "lon": 15.2983327}, {"type": "node", "id": 4131567179, "lat": 37.8524038, "lon": 15.2982535}, {"type": "node", "id": 4131567180, "lat": 37.8523689, "lon": 15.2983313}, {"type": "node", "id": 4131567181, "lat": 37.8523196, "lon": 15.2982959}, {"type": "node", "id": 4131567182, "lat": 37.8522929, "lon": 15.2983552}, {"type": "node", "id": 4141810676, "lat": 37.8784001, "lon": 15.3032911}, {"type": "node", "id": 4141810677, "lat": 37.8783033, "lon": 15.3032244}, {"type": "node", "id": 4141810678, "lat": 37.8782914, "lon": 15.3031835}, {"type": "node", "id": 4141810679, "lat": 37.8782965, "lon": 15.3031383}, {"type": "node", "id": 4141810680, "lat": 37.8783678, "lon": 15.3029813}, {"type": "node", "id": 4141810681, "lat": 37.8784544, "lon": 15.3030437}, {"type": "node", "id": 4141810682, "lat": 37.8784289, "lon": 15.3031125}, {"type": "node", "id": 4141810683, "lat": 37.8784697, "lon": 15.3031405}, {"type": "node", "id": 4143854634, "lat": 37.8780033, "lon": 15.3052694}, {"type": "node", "id": 4143854635, "lat": 37.8778505, "lon": 15.3051652}, {"type": "node", "id": 4143854636, "lat": 37.8777895, "lon": 15.3053087}, {"type": "node", "id": 4143854637, "lat": 37.8779423, "lon": 15.3054129}, {"type": "node", "id": 4154136541, "lat": 37.8239358, "lon": 15.2731363}, {"type": "node", "id": 4160256555, "lat": 37.8537086, "lon": 15.3004036, "tags": {"amenity": "cafe"}}, {"type": "node", "id": 4160281502, "lat": 37.8550213, "lon": 15.3003986, "tags": {"amenity": "restaurant", "name": "Bar Ristorante Principe"}}, {"type": "node", "id": 4160281503, "lat": 37.855365, "lon": 15.3000611}, {"type": "node", "id": 4160281504, "lat": 37.8554028, "lon": 15.3002471}, {"type": "node", "id": 4160282089, "lat": 37.8554967, "lon": 15.3002241}, {"type": "node", "id": 4160282090, "lat": 37.8555512, "lon": 15.3002318}, {"type": "node", "id": 4160282091, "lat": 37.8555043, "lon": 15.3000055}, {"type": "node", "id": 4170564617, "lat": 38.0681844, "lon": 14.8677932, "tags": {"entrance": "yes"}}, {"type": "node", "id": 4187349014, "lat": 38.1298254, "lon": 15.1198754, "tags": {"amenity": "restaurant", "cuisine": "pizza", "name": "La Risacca"}}, {"type": "node", "id": 4222171167, "lat": 37.8755228, "lon": 15.3031886}, {"type": "node", "id": 4228799600, "lat": 37.8333876, "lon": 15.2704754, "tags": {"amenity": "restaurant", "name": "Ristorante Al Vicolo dei Capricci"}}, {"type": "node", "id": 4231194223, "lat": 37.8802607, "lon": 15.3066758, "tags": {"amenity": "cafe", "name": "Da Saretto \u2022 Wine Bar"}}, {"type": "node", "id": 4253111092, "lat": 38.1313196, "lon": 14.9454464, "tags": {"amenity": "restaurant", "cuisine": "pizza", "description": "Bar, Ristorante", "name": "Bar Mod\u00ec"}}, {"type": "node", "id": 4253131890, "lat": 38.131392, "lon": 14.945668, "tags": {"amenity": "cafe", "description": "Bar, Pasticeria, Gelateria, Rosticceria", "name": "Bar Fratelli Buzzanca"}}, {"type": "node", "id": 4261007490, "lat": 38.1490167, "lon": 15.2147648, "tags": {"air_conditioning": "yes", "amenity": "cafe", "cuisine": "ice_cream", "indoor_seating": "bar_table", "name": "Saint Honor\u00e8", "outdoor_seating": "yes", "phone": "+39 090 970 3020", "takeaway": "yes", "toilets:access": "customers", "website": "https://www.sainthonore.info/", "wheelchair": "limited"}}, {"type": "node", "id": 4266631154, "lat": 38.1177699, "lon": 15.0807503, "tags": {"amenity": "cafe", "name": "Bar Jolly Catalfamo", "phone": "+39 338 8314385"}}, {"type": "node", "id": 4280071509, "lat": 37.8506533, "lon": 15.28275, "tags": {"addr:city": "Taormina", "addr:housenumber": "2", "addr:postcode": "98039", "addr:street": "Via Strabone", "amenity": "restaurant", "check_date": "2025-05-03", "cuisine": "italian", "name": "Antica Rosticceria da Cristina", "opening_hours": "Th-Tu 10:30-23:00", "operator": "La T.R. Srl", "outdoor_seating": "yes", "payment:cash": "yes", "payment:credit_cards": "yes", "payment:debit_cards": "yes", "phone": "+39094221171", "ref:vatin": "IT03164660833", "restaurant:type:it": "rosticceria", "website": "https://rosticceriadacristina.it"}}, {"type": "node", "id": 4281145490, "lat": 38.0832439, "lon": 14.8495572, "tags": {"amenity": "cafe", "name": "Lion Cafe"}}, {"type": "node", "id": 4281151797, "lat": 38.0844554, "lon": 14.8479295, "tags": {"amenity": "cafe", "name": "Bar Castello"}}, {"type": "node", "id": 4283906992, "lat": 38.0809678, "lon": 14.850102, "tags": {"amenity": "cafe", "name": "Crazy Horse"}}, {"type": "node", "id": 4291105791, "lat": 38.0852051, "lon": 15.1091168, "tags": {"amenity": "restaurant", "name": "Borgo Abacena"}}, {"type": "node", "id": 4292832667, "lat": 38.0898112, "lon": 15.132396, "tags": {"amenity": "cafe", "level": "0", "name": "Bar Ritrovo dei fratelli Grasso", "opening_hours": "06:00-22:00", "outdoor_seating": "no", "phone": "+39 0941 83160"}}, {"type": "node", "id": 4294211577, "lat": 38.1348524, "lon": 15.1678276, "tags": {"amenity": "cafe"}}, {"type": "node", "id": 4303246092, "lat": 38.1037904, "lon": 15.1213507, "tags": {"amenity": "cafe", "level": "0", "name": "Bar da Ciccio"}}, {"type": "node", "id": 4305645601, "lat": 38.1284579, "lon": 15.1435266, "tags": {"amenity": "restaurant", "contact:phone": "+39 342 124 2483", "cuisine": "pizza", "delivery": "yes", "level": "0", "name": "Osteria siciliana", "reservation": "recommended", "takeaway": "yes", "toilets": "yes", "wheelchair": "no"}}, {"type": "node", "id": 4316687273, "lat": 37.8586436, "lon": 15.277245, "tags": {"addr:housenumber": "29", "addr:street": "Via Alcide De Gasperi", "amenity": "restaurant", "cuisine": "italian", "email": "info@latavernadelletna.it", "name": "La Taverna dell'Etna", "operator": "Salvatore Finocchito", "phone": "+39 0942 28868", "website": "http://www.latavernadelletna.it/"}}, {"type": "node", "id": 4317393666, "lat": 38.1296687, "lon": 15.1702831, "tags": {"amenity": "restaurant", "cuisine": "pizza", "name": "Le Comiche", "phone": "+39 090 9781511"}}, {"type": "node", "id": 4317882891, "lat": 38.1292393, "lon": 15.1451303, "tags": {"amenity": "cafe", "name": "Il Folletto", "wheelchair": "limited"}}, {"type": "node", "id": 4320682375, "lat": 38.1053208, "lon": 15.124324, "tags": {"amenity": "cafe", "name": "Bar Giusy"}}, {"type": "node", "id": 4320682376, "lat": 38.1052386, "lon": 15.1246413, "tags": {"amenity": "cafe", "name": "Bar Marconi"}}, {"type": "node", "id": 4325114346, "lat": 38.1428869, "lon": 15.2804258, "tags": {"amenity": "cafe", "name": "Sweet Bar"}}, {"type": "node", "id": 4325114348, "lat": 38.1431258, "lon": 15.2803493, "tags": {"amenity": "cafe", "name": "Zullo"}}, {"type": "node", "id": 4327626722, "lat": 38.1449647, "lon": 15.2807325, "tags": {"amenity": "cafe", "name": "Bar del Mela"}}, {"type": "node", "id": 4330979991, "lat": 37.8524876, "lon": 15.2888545, "tags": {"amenity": "cafe", "cuisine": "italian", "internet_access": "wlan", "name": "Macchia caffe"}}, {"type": "node", "id": 4334343603, "lat": 38.1098966, "lon": 15.1700898, "tags": {"amenity": "restaurant", "cuisine": "pizza", "name": "Al Borgo Antico"}}, {"type": "node", "id": 4379360772, "lat": 38.0897022, "lon": 15.1331831, "tags": {"amenity": "cafe", "cuisine": "coffee_shop", "level": "0", "name": "Mandralisca Sicilian Caf\u00e8"}}, {"type": "node", "id": 4397150785, "lat": 38.0470446, "lon": 14.9870508}, {"type": "node", "id": 4397150786, "lat": 38.0469494, "lon": 14.9870054}, {"type": "node", "id": 4397150787, "lat": 38.0468427, "lon": 14.9873659}, {"type": "node", "id": 4397150788, "lat": 38.0468827, "lon": 14.9873849}, {"type": "node", "id": 4397150789, "lat": 38.0468569, "lon": 14.9874721}, {"type": "node", "id": 4397150790, "lat": 38.0469121, "lon": 14.9874984}, {"type": "node", "id": 4406823489, "lat": 38.0825209, "lon": 14.850173, "tags": {"amenity": "restaurant", "cuisine": "pizza", "name": "La Tavernetta"}}, {"type": "node", "id": 4412760490, "lat": 38.1461387, "lon": 15.2104158, "tags": {"amenity": "restaurant", "cuisine": "pizza", "name": "La Rinascente"}}, {"type": "node", "id": 4413002196, "lat": 38.1463896, "lon": 15.2111046, "tags": {"amenity": "cafe", "name": "Caff\u00e8 Malib\u00f9"}}, {"type": "node", "id": 4437827248, "lat": 38.1471665, "lon": 14.9698924, "tags": {"addr:city": "Patti", "addr:housenumber": "165", "addr:postcode": "98066", "addr:street": "Corso Giacomo Matteotti", "amenity": "restaurant", "cuisine": "italian", "name": "Cotto e mangiato"}}, {"type": "node", "id": 4437827253, "lat": 38.1465502, "lon": 14.9697318, "tags": {"addr:city": "Patti", "addr:housenumber": "14", "addr:postcode": "98066", "addr:street": "Via Fratelli Cervi", "amenity": "restaurant", "cuisine": "pizza", "name": "L'angolo nascosto"}}, {"type": "node", "id": 4438825616, "lat": 38.1441991, "lon": 14.9676727, "tags": {"addr:city": "Patti", "addr:housenumber": "83", "addr:postcode": "98066", "addr:street": "Corso Giacomo Matteotti", "amenity": "restaurant", "cuisine": "pizza", "name": "Mamma Mia"}}, {"type": "node", "id": 4438993101, "lat": 38.1422059, "lon": 14.9662517, "tags": {"addr:city": "Patti", "addr:housenumber": "27", "addr:postcode": "98066", "addr:street": "Corso Giacomo Matteotti", "amenity": "restaurant", "cuisine": "pizza", "name": "Pizzeria Rosticceria L'incrocio"}}, {"type": "node", "id": 4438993104, "lat": 38.1420209, "lon": 14.9673742, "tags": {"addr:city": "Patti", "addr:housenumber": "46", "addr:postcode": "98066", "addr:street": "Via Giuseppe Mazzini", "amenity": "restaurant", "cuisine": "chicken", "name": "Polleria Arena"}}, {"type": "node", "id": 4438993110, "lat": 38.1390897, "lon": 14.9672878, "tags": {"addr:city": "Patti", "addr:housenumber": "20", "addr:postcode": "98066", "addr:street": "Largo dei Normanni", "amenity": "restaurant", "cuisine": "regional", "name": "Santino Cavazza"}}, {"type": "node", "id": 4458392684, "lat": 38.1046748, "lon": 15.1209341, "tags": {"amenity": "cafe", "level": "0", "name": "Euro Bar"}}, {"type": "node", "id": 4469790591, "lat": 38.1106139, "lon": 15.1044755, "tags": {"amenity": "cafe", "name": "Atlantic Bar"}}, {"type": "node", "id": 4489404467, "lat": 38.1210666, "lon": 15.1283267, "tags": {"amenity": "cafe", "name": "Alta Marea"}}, {"type": "node", "id": 4498234190, "lat": 38.0682056, "lon": 14.8679539}, {"type": "node", "id": 4498234191, "lat": 38.0683994, "lon": 14.8678661}, {"type": "node", "id": 4498234194, "lat": 38.0683298, "lon": 14.8680601}, {"type": "node", "id": 4498234195, "lat": 38.0683474, "lon": 14.8678235}, {"type": "node", "id": 4498234196, "lat": 38.0682646, "lon": 14.8680641}, {"type": "node", "id": 4498234201, "lat": 38.0684603, "lon": 14.8680004}, {"type": "node", "id": 4498234204, "lat": 38.0683064, "lon": 14.8680272}, {"type": "node", "id": 4509014449, "lat": 37.8933556, "lon": 15.2232697, "tags": {"addr:city": "Graniti", "addr:postcode": "98036", "addr:street": "Via Pineta Graniti", "amenity": "restaurant", "cuisine": "regional;pizza;regional", "name": "Ristorante Flora", "takeaway": "yes"}}, {"type": "node", "id": 4510938421, "lat": 37.8904139, "lon": 15.2248241, "tags": {"amenity": "cafe"}}, {"type": "node", "id": 4510966349, "lat": 37.8878761, "lon": 15.2229237, "tags": {"amenity": "cafe"}}, {"type": "node", "id": 4517443168, "lat": 37.8515627, "lon": 15.2853779, "tags": {"amenity": "cafe", "indoor_seating": "yes", "name": "Caff\u00e9 Wunderbar", "outdoor_seating": "yes"}}, {"type": "node", "id": 4517573154, "lat": 38.1432148, "lon": 15.1548308, "tags": {"amenity": "restaurant", "name": "Helios Garden", "takeaway": "no"}}, {"type": "node", "id": 4536077754, "lat": 38.1113159, "lon": 15.1009359}, {"type": "node", "id": 4536077758, "lat": 38.1112764, "lon": 15.1010851, "tags": {"entrance": "main"}}, {"type": "node", "id": 4536077774, "lat": 38.1113295, "lon": 15.1012842}, {"type": "node", "id": 4536078095, "lat": 38.111409, "lon": 15.1009784}, {"type": "node", "id": 4536078113, "lat": 38.1112352, "lon": 15.1012415}, {"type": "node", "id": 4578475802, "lat": 37.8505684, "lon": 15.2823957, "tags": {"amenity": "restaurant", "name": "Trattoria Don Ciccio"}}, {"type": "node", "id": 4579602660, "lat": 38.1548961, "lon": 15.2489313, "tags": {"amenity": "restaurant", "cuisine": "italian;pizza", "name": "La Salutare", "phone": "+39 328 4199487"}}, {"type": "node", "id": 4579606653, "lat": 38.1581163, "lon": 15.2389773, "tags": {"amenity": "restaurant", "cuisine": "italian;pizza", "name": "La chiave del gusto", "phone": "+39 342 3571173"}}, {"type": "node", "id": 4589063174, "lat": 38.0231244, "lon": 15.0138052}, {"type": "node", "id": 4589082493, "lat": 38.0262723, "lon": 15.0185516, "tags": {"amenity": "restaurant", "name": "La Sciarbonata", "opening_hours": "Mo-Su 11:00-15:00,19:00-22:00; We off", "phone": "+39 389 1840789"}}, {"type": "node", "id": 4589311048, "lat": 38.1235521, "lon": 15.0605845, "tags": {"amenity": "cafe", "name": "Bar centrale"}}, {"type": "node", "id": 4589353314, "lat": 38.1374672, "lon": 15.040846, "tags": {"amenity": "restaurant", "name": "Pane e Vino"}}, {"type": "node", "id": 4589363061, "lat": 38.142284, "lon": 15.0442663, "tags": {"amenity": "cafe"}}, {"type": "node", "id": 4595493891, "lat": 38.1225566, "lon": 15.1894997, "tags": {"amenity": "restaurant", "cuisine": "italian;pizza", "name": "Ala Torre", "opening_hours": "Sa 20:00-24:00; Su 12:30-15:00,20:00-24:00", "phone": "+39 090 9731432", "website": "https://www.torrepensabene.com/"}}, {"type": "node", "id": 4598036179, "lat": 38.1510127, "lon": 15.2254857, "tags": {"amenity": "cafe", "name": "Antico Bar Spadaro"}}, {"type": "node", "id": 4611508154, "lat": 38.1565472, "lon": 15.2152712, "tags": {"amenity": "restaurant", "name": "Il Papiedo"}}, {"type": "node", "id": 4616503790, "lat": 37.8510723, "lon": 15.2835691, "tags": {"addr:housenumber": "3", "addr:street": "Via Paladini", "amenity": "restaurant", "name": "Tischi Toschi"}}, {"type": "node", "id": 4624913711, "lat": 37.8827994, "lon": 15.3105323, "tags": {"amenity": "restaurant", "name": "Ristorante Victor"}}, {"type": "node", "id": 4624913712, "lat": 37.8825971, "lon": 15.3105973}, {"type": "node", "id": 4624913714, "lat": 37.8826302, "lon": 15.3105592}, {"type": "node", "id": 4624913715, "lat": 37.8827598, "lon": 15.3107458}, {"type": "node", "id": 4627069307, "lat": 37.8016439, "lon": 15.2483655}, {"type": "node", "id": 4627069308, "lat": 37.8015383, "lon": 15.2482469}, {"type": "node", "id": 4627069309, "lat": 37.8014634, "lon": 15.2483538}, {"type": "node", "id": 4627069310, "lat": 37.801569, "lon": 15.2484724}, {"type": "node", "id": 4627069311, "lat": 37.8013097, "lon": 15.2488163}, {"type": "node", "id": 4627069312, "lat": 37.8011427, "lon": 15.2491001}, {"type": "node", "id": 4627069313, "lat": 37.801055, "lon": 15.2490174}, {"type": "node", "id": 4627069314, "lat": 37.801222, "lon": 15.2487336}, {"type": "node", "id": 4639631159, "lat": 37.8739136, "lon": 15.302418}, {"type": "node", "id": 4639631161, "lat": 37.8736002, "lon": 15.3024447}, {"type": "node", "id": 4639631162, "lat": 37.8736869, "lon": 15.3022153}, {"type": "node", "id": 4639631163, "lat": 37.8731081, "lon": 15.3020065}, {"type": "node", "id": 4682994369, "lat": 37.8490171, "lon": 15.27957}, {"type": "node", "id": 4682994370, "lat": 37.8489428, "lon": 15.2796641}, {"type": "node", "id": 4682994371, "lat": 37.8490636, "lon": 15.2798973}, {"type": "node", "id": 4682994372, "lat": 37.8491658, "lon": 15.2797966}, {"type": "node", "id": 4688699290, "lat": 37.7940677, "lon": 15.2089148, "tags": {"amenity": "cafe", "name": "Bar Valery"}}, {"type": "node", "id": 4690092159, "lat": 37.8514807, "lon": 15.2884831, "tags": {"addr:housenumber": "11", "addr:street": "Via Roma", "amenity": "cafe", "cuisine": "italian;italian_pizza;mediterranean;fish", "internet_access": "wlan", "name": "Mirage", "name:en": "Ristorante Pizzeria Mirage", "name:it": "Ristorante Pizzeria Mirage", "name:ru": "\u0420\u0435\u0441\u0442\u043e\u0440\u0430\u043d-\u043f\u0438\u0446\u0446\u0435\u0440\u0438\u044f Mirage"}}, {"type": "node", "id": 4690212311, "lat": 37.8516256, "lon": 15.2854005, "tags": {"amenity": "restaurant", "check_date": "2025-06-10", "name": "Cinque Archi"}}, {"type": "node", "id": 4690222870, "lat": 37.8520316, "lon": 15.2859634, "tags": {"amenity": "restaurant", "name": "Viccolo Stretto"}}, {"type": "node", "id": 4690222871, "lat": 37.8520854, "lon": 15.2858594, "tags": {"amenity": "restaurant", "name": "Puglisi"}}, {"type": "node", "id": 4690222872, "lat": 37.8518438, "lon": 15.2860453, "tags": {"amenity": "restaurant", "name": "Ristorante del Corso"}}, {"type": "node", "id": 4690222874, "lat": 37.851882, "lon": 15.2864672, "tags": {"amenity": "restaurant", "name": "La Baronessa"}}, {"type": "node", "id": 4690224573, "lat": 37.8532481, "lon": 15.2876896, "tags": {"amenity": "restaurant", "name": "Sapori di Sicilia"}}, {"type": "node", "id": 4690224574, "lat": 37.8533169, "lon": 15.2879244, "tags": {"amenity": "restaurant", "name": "Ristorante La Griglia", "wheelchair": "no"}}, {"type": "node", "id": 4690226843, "lat": 37.8536501, "lon": 15.2884663, "tags": {"amenity": "restaurant", "name": "Licchio\u2019s"}}, {"type": "node", "id": 4690226844, "lat": 37.85355, "lon": 15.288185, "tags": {"amenity": "restaurant", "name": "Badia"}}, {"type": "node", "id": 4692037365, "lat": 37.8513746, "lon": 15.2812089, "tags": {"amenity": "restaurant", "name": "Ristorante Malvasia"}}, {"type": "node", "id": 4692210791, "lat": 37.8111141, "lon": 15.2602285}, {"type": "node", "id": 4692210792, "lat": 37.8110912, "lon": 15.2603832}, {"type": "node", "id": 4692210793, "lat": 37.8109258, "lon": 15.260344}, {"type": "node", "id": 4692210794, "lat": 37.8109487, "lon": 15.2601893}, {"type": "node", "id": 4692216765, "lat": 37.8232794, "lon": 15.2748739}, {"type": "node", "id": 4692216766, "lat": 37.8232837, "lon": 15.274951}, {"type": "node", "id": 4692216767, "lat": 37.82318, "lon": 15.2749604}, {"type": "node", "id": 4692216768, "lat": 37.8231756, "lon": 15.2748833}, {"type": "node", "id": 4692249929, "lat": 37.8357573, "lon": 15.2727811}, {"type": "node", "id": 4692249930, "lat": 37.8350187, "lon": 15.272188}, {"type": "node", "id": 4692253674, "lat": 37.8355433, "lon": 15.2724562}, {"type": "node", "id": 4692253676, "lat": 37.8356811, "lon": 15.2725481}, {"type": "node", "id": 4692253677, "lat": 37.8358106, "lon": 15.2727042}, {"type": "node", "id": 4692253678, "lat": 37.835594, "lon": 15.272591}, {"type": "node", "id": 4692253679, "lat": 37.8356043, "lon": 15.2725684}, {"type": "node", "id": 4692311499, "lat": 37.8350379, "lon": 15.2721334}, {"type": "node", "id": 4692318222, "lat": 37.8423526, "lon": 15.2800022, "tags": {"addr:city": "Giardini-Naxos", "addr:housenumber": "7/9", "addr:postcode": "98035", "addr:street": "Via Regina Margherita", "amenity": "restaurant", "cuisine": "regional;seafood", "name": "Taverna 2.0", "phone": "+39 329 5694627"}}, {"type": "node", "id": 4692339670, "lat": 37.826747, "lon": 15.2690664}, {"type": "node", "id": 4692339671, "lat": 37.8265819, "lon": 15.2691183}, {"type": "node", "id": 4692339674, "lat": 37.8266186, "lon": 15.269284}, {"type": "node", "id": 4692339675, "lat": 37.8267804, "lon": 15.2692341}, {"type": "node", "id": 4692339676, "lat": 37.8272813, "lon": 15.2688731}, {"type": "node", "id": 4692339677, "lat": 37.8273071, "lon": 15.2689945}, {"type": "node", "id": 4692339678, "lat": 37.8271161, "lon": 15.2690594}, {"type": "node", "id": 4692339679, "lat": 37.8270904, "lon": 15.2689381}, {"type": "node", "id": 4692339680, "lat": 37.8274769, "lon": 15.2688389}, {"type": "node", "id": 4692339681, "lat": 37.8273188, "lon": 15.2688923}, {"type": "node", "id": 4692339682, "lat": 37.8273491, "lon": 15.2690361}, {"type": "node", "id": 4692339683, "lat": 37.8275072, "lon": 15.2689827}, {"type": "node", "id": 4694996778, "lat": 37.8336828, "lon": 15.2709766, "tags": {"amenity": "restaurant", "name": "Ristorante La Lampara"}}, {"type": "node", "id": 4694996779, "lat": 37.8339216, "lon": 15.2711683, "tags": {"amenity": "restaurant", "cuisine": "pizza", "name": "Pizzaria da Antonio"}}, {"type": "node", "id": 4695002607, "lat": 37.8341603, "lon": 15.2712892, "tags": {"amenity": "restaurant", "name": "Ristorante Neussi"}}, {"type": "node", "id": 4695026198, "lat": 37.8279324, "lon": 15.2684064, "tags": {"amenity": "cafe", "name": "Bar Gelateria Sileno", "outdoor_seating": "yes"}}, {"type": "node", "id": 4695632850, "lat": 38.0841498, "lon": 14.8484707, "tags": {"amenity": "cafe", "name": "Bar del corso"}}, {"type": "node", "id": 4699640219, "lat": 37.8266644, "lon": 15.2688249, "tags": {"amenity": "restaurant", "name": "Primavera"}}, {"type": "node", "id": 4699640220, "lat": 37.8269908, "lon": 15.268733, "tags": {"amenity": "restaurant", "name": "Capannina"}}, {"type": "node", "id": 4717036332, "lat": 37.8188506, "lon": 15.2710497}, {"type": "node", "id": 4717036335, "lat": 37.8187928, "lon": 15.2709489}, {"type": "node", "id": 4723073101, "lat": 38.1367864, "lon": 15.1632625, "tags": {"amenity": "restaurant", "cuisine": "pizza", "name": "Papatoga"}}, {"type": "node", "id": 4736201071, "lat": 37.8514545, "lon": 15.2813944, "tags": {"amenity": "restaurant", "name": "Ristorante Tiramisu"}}, {"type": "node", "id": 4736201072, "lat": 37.8512809, "lon": 15.281199, "tags": {"amenity": "restaurant", "name": "Trattoria da Ugo"}}, {"type": "node", "id": 4738016134, "lat": 37.8627895, "lon": 15.296686}, {"type": "node", "id": 4738016135, "lat": 37.8629197, "lon": 15.2966321}, {"type": "node", "id": 4753009786, "lat": 37.8559869, "lon": 14.9687424, "tags": {"access": "customers", "barrier": "gate"}}, {"type": "node", "id": 4781776030, "lat": 37.858447, "lon": 15.2774007}, {"type": "node", "id": 4782170839, "lat": 37.8592665, "lon": 15.27663, "tags": {"amenity": "restaurant"}}, {"type": "node", "id": 4795806471, "lat": 38.0722318, "lon": 15.0984347, "tags": {"amenity": "cafe", "name": "Bar pasticceria Cautela"}}, {"type": "node", "id": 4799093785, "lat": 38.0243386, "lon": 15.0153751}, {"type": "node", "id": 4799093786, "lat": 38.0243799, "lon": 15.0154288}, {"type": "node", "id": 4799093787, "lat": 38.0243923, "lon": 15.0154135}, {"type": "node", "id": 4799093788, "lat": 38.0244105, "lon": 15.0154372}, {"type": "node", "id": 4799093789, "lat": 38.0243993, "lon": 15.0154512}, {"type": "node", "id": 4799093790, "lat": 38.0244191, "lon": 15.015477}, {"type": "node", "id": 4799093791, "lat": 38.0243514, "lon": 15.0155607}, {"type": "node", "id": 4799093792, "lat": 38.024272, "lon": 15.0154574}, {"type": "node", "id": 4820995897, "lat": 37.7577854, "lon": 15.1959512}, {"type": "node", "id": 4820995900, "lat": 37.7577821, "lon": 15.1960336}, {"type": "node", "id": 4820995901, "lat": 37.757754, "lon": 15.1960318}, {"type": "node", "id": 4820995902, "lat": 37.7577573, "lon": 15.1959494}, {"type": "node", "id": 4826113142, "lat": 37.7490545, "lon": 15.1313655, "tags": {"amenity": "restaurant", "name": "Castagno dei Cento Cavalli"}}, {"type": "node", "id": 4833608483, "lat": 37.8228124, "lon": 15.2280775, "tags": {"amenity": "cafe", "name": "Antica Caffeteria"}}, {"type": "node", "id": 4836424421, "lat": 37.855006, "lon": 15.2999163, "tags": {"amenity": "restaurant", "name": "La Marina"}}, {"type": "node", "id": 4870644923, "lat": 38.1441675, "lon": 15.2199609, "tags": {"amenity": "restaurant", "name": "Pizzeria Al Teatro", "phone": "+39 333 7318362"}}, {"type": "node", "id": 4932266737, "lat": 37.8582868, "lon": 15.2773673, "tags": {"amenity": "restaurant", "cuisine": "pizza", "name": "Pizzeria Turrisi"}}, {"type": "node", "id": 4932266738, "lat": 37.8582987, "lon": 15.2774383, "tags": {"amenity": "restaurant", "cuisine": "pizza", "name": "Ciccino's Pizzeria"}}, {"type": "node", "id": 4964472222, "lat": 37.7486204, "lon": 15.1928531, "tags": {"amenity": "cafe", "name": "80 Voglia...", "opening_hours": "Mo-Su 05:00-14:30,15:00-24:00; Tu off"}}, {"type": "node", "id": 4987258535, "lat": 38.1241776, "lon": 15.0614999, "tags": {"amenity": "cafe", "cuisine": "ice_cream;italian;coffee_shop;sandwich", "indoor_seating": "yes", "level": "0", "name": "Capriccio", "outdoor_seating": "yes"}}, {"type": "node", "id": 4988793657, "lat": 38.1241617, "lon": 15.061179, "tags": {"amenity": "restaurant", "cuisine": "coffee_shop;italian;pizza", "indoor_seating": "yes", "internet_access": "wlan", "name": "Donna Rosa", "outdoor_seating": "yes"}}, {"type": "node", "id": 4988793658, "lat": 38.1237424, "lon": 15.0607592, "tags": {"amenity": "cafe", "cuisine": "coffee_shop;ice_cream", "name": "Feel", "outdoor_seating": "yes"}}, {"type": "node", "id": 5011913124, "lat": 38.135934, "lon": 15.1631749, "tags": {"amenity": "cafe", "cuisine": "ice_cream", "level": "0", "name": "jeunesse", "outdoor_seating": "yes", "takeaway": "no"}}, {"type": "node", "id": 5029920255, "lat": 38.1514957, "lon": 15.2784473, "tags": {"amenity": "restaurant", "cuisine": "italian;pizza", "name": "Doppi sapori", "phone": "+39 090 935636"}}, {"type": "node", "id": 5029921923, "lat": 38.150266, "lon": 15.2849945, "tags": {"amenity": "restaurant", "cuisine": "italian;pizza", "name": "La Trota", "phone": "+39 090 9359417"}}, {"type": "node", "id": 5033161521, "lat": 38.0847911, "lon": 14.8196875, "tags": {"addr:street": "Strada Statale 116 Randazzo - Capo d'Orlando", "amenity": "restaurant", "name": "Osteria del tabacchino"}}, {"type": "node", "id": 5033161522, "lat": 38.0836322, "lon": 14.8209461, "tags": {"amenity": "restaurant", "name": "Osteria del Tabacchino"}}, {"type": "node", "id": 5040648718, "lat": 37.8187488, "lon": 15.2709893}, {"type": "node", "id": 5041714918, "lat": 37.8477697, "lon": 15.2965534}, {"type": "node", "id": 5041714919, "lat": 37.847777, "lon": 15.2965728}, {"type": "node", "id": 5041714920, "lat": 37.8476887, "lon": 15.296626}, {"type": "node", "id": 5041714921, "lat": 37.8477246, "lon": 15.2967217}, {"type": "node", "id": 5041714922, "lat": 37.8478812, "lon": 15.2966274}, {"type": "node", "id": 5041714923, "lat": 37.847838, "lon": 15.2965123}, {"type": "node", "id": 5044147622, "lat": 37.8765672, "lon": 14.9431768, "tags": {"amenity": "cafe", "name": "Bar L'oasi"}}, {"type": "node", "id": 5046245826, "lat": 37.854713, "lon": 15.2881339, "tags": {"addr:street": "Via dietro Cappuccini", "amenity": "restaurant", "cuisine": "local;pizza", "name": "Trattoria Pizzeria Santa Lucia"}}, {"type": "node", "id": 5057562225, "lat": 37.8607843, "lon": 15.2965019}, {"type": "node", "id": 5057562226, "lat": 37.8606352, "lon": 15.2965273}, {"type": "node", "id": 5057562227, "lat": 37.8606337, "lon": 15.2965127}, {"type": "node", "id": 5057562228, "lat": 37.8606103, "lon": 15.2965167}, {"type": "node", "id": 5057562229, "lat": 37.8605978, "lon": 15.2964492}, {"type": "node", "id": 5057562230, "lat": 37.860594, "lon": 15.2964122}, {"type": "node", "id": 5057562231, "lat": 37.8606771, "lon": 15.2964145}, {"type": "node", "id": 5057562232, "lat": 37.8607464, "lon": 15.2964029}, {"type": "node", "id": 5057562233, "lat": 37.8607424, "lon": 15.2963643}, {"type": "node", "id": 5057562234, "lat": 37.8607832, "lon": 15.2964912}, {"type": "node", "id": 5057562235, "lat": 37.8608817, "lon": 15.2964407}, {"type": "node", "id": 5057562236, "lat": 37.8608907, "lon": 15.2964392}, {"type": "node", "id": 5059052635, "lat": 37.7341408, "lon": 15.1877194, "tags": {"amenity": "cafe", "name": "Bar Puglia Maria Vera"}}, {"type": "node", "id": 5059052636, "lat": 37.7342384, "lon": 15.1875129, "tags": {"amenity": "restaurant", "name": "250 Grammi"}}, {"type": "node", "id": 5060447322, "lat": 37.8572105, "lon": 15.2881656, "tags": {"amenity": "cafe", "name": "Bar Lumbi"}}, {"type": "node", "id": 5073045191, "lat": 37.9319746, "lon": 15.2677938, "tags": {"window": "yes"}}, {"type": "node", "id": 5073045192, "lat": 37.9319721, "lon": 15.2677504, "tags": {"window": "yes"}}, {"type": "node", "id": 5073045193, "lat": 37.9320651, "lon": 15.2678293, "tags": {"window": "yes"}}, {"type": "node", "id": 5073045194, "lat": 37.9320358, "lon": 15.267832, "tags": {"window": "yes"}}, {"type": "node", "id": 5073045195, "lat": 37.9320064, "lon": 15.2678346, "tags": {"entrance": "main"}}, {"type": "node", "id": 5086462419, "lat": 38.0946882, "lon": 14.9605636, "tags": {"addr:city": "Librizzi", "addr:housenumber": "35", "addr:postcode": "98064", "addr:street": "Via Roma", "amenity": "restaurant", "cuisine": "regional;pizza;italian", "name": "Ristorante pizzeria Il Panorama", "source": "Numeri_Civici_CTN2000 83039_Librizzi"}}, {"type": "node", "id": 5115693619, "lat": 38.1364662, "lon": 15.1706306, "tags": {"addr:city": "Terme Vigliatore", "addr:housenumber": "154", "addr:postcode": "98050", "addr:province": "Messina", "addr:state": "Italia", "addr:street": "Via Nazionale Terme", "amenity": "restaurant", "cuisine": "barbecue", "email": "alfa2.aa@libero.it", "name": "Alfa2", "phone": "+39 329 675 3227", "source": "Numeri Civici da CTN2000 83106_Terme_Vigliatore", "takeaway": "yes", "website": "https://m.facebook.com/alfa2aa/"}}, {"type": "node", "id": 5127832816, "lat": 38.1488621, "lon": 15.0140063}, {"type": "node", "id": 5127832817, "lat": 38.1486431, "lon": 15.0140003}, {"type": "node", "id": 5127832818, "lat": 38.1486783, "lon": 15.0142001}, {"type": "node", "id": 5127832819, "lat": 38.1488439, "lon": 15.0141934}, {"type": "node", "id": 5127832820, "lat": 38.1488406, "lon": 15.0141198}, {"type": "node", "id": 5127833521, "lat": 38.1488588, "lon": 15.0141177}, {"type": "node", "id": 5142441740, "lat": 38.1377689, "lon": 14.9655556, "tags": {"addr:city": "Patti", "addr:housenumber": "1", "addr:postcode": "98066", "addr:street": "Via Roma", "amenity": "cafe", "disused:cuisine": "italian", "name": "NtoChianu Caf\u00e8", "outdoor_seating": "yes"}}, {"type": "node", "id": 5153256581, "lat": 38.0969908, "lon": 14.9702185}, {"type": "node", "id": 5153256582, "lat": 38.0969036, "lon": 14.9705715}, {"type": "node", "id": 5153256583, "lat": 38.0968176, "lon": 14.9705372}, {"type": "node", "id": 5153256584, "lat": 38.0969049, "lon": 14.9701842}, {"type": "node", "id": 5155194692, "lat": 38.0701274, "lon": 14.8586586, "tags": {"amenity": "restaurant", "cuisine": "italian;fish;pizza;regional", "level": "0", "name": "Santa Maria Xilona", "takeaway": "no"}}, {"type": "node", "id": 5179116236, "lat": 38.0520807, "lon": 14.9662169, "tags": {"addr:city": "San Piero Patti", "addr:housenumber": "20", "addr:postcode": "98068", "addr:street": "Via Torquato Tasso", "amenity": "cafe", "name": "Bar Pintaudi"}}, {"type": "node", "id": 5181177121, "lat": 38.124858, "lon": 15.1140485, "tags": {"amenity": "cafe", "changing_table": "no", "cuisine": "ice_cream", "indoor_seating": "yes", "level": "0", "name": "Arthe cafe", "outdoor_seating": "yes", "toilets": "yes", "toilets:access": "customers"}}, {"type": "node", "id": 5210837321, "lat": 37.8436221, "lon": 15.1417881, "tags": {"amenity": "cafe", "cuisine": "coffee_shop;ice_cream;pizza", "facebook": "https://it-it.facebook.com/pages/category/Bar/Bar-pino-azzurro-2012496022367280/", "name": "Pino Azzurro"}}, {"type": "node", "id": 5215746971, "lat": 37.8385157, "lon": 15.1448832, "tags": {"amenity": "cafe", "name": "Bar Europa"}}, {"type": "node", "id": 5256630113, "lat": 38.1257837, "lon": 14.959604, "tags": {"addr:city": "Patti", "addr:postcode": "98066", "addr:street": "Contrada Carasi", "amenity": "restaurant", "email": "info@lacasadelpriore.it", "guest_house": "agritourism", "name": "La Casa del Priore", "phone": "+39 0941241058", "tourism": "guest_house", "website": "http://www.lacasadelpriore.it/"}}, {"type": "node", "id": 5282868456, "lat": 38.1445266, "lon": 15.187873, "tags": {"amenity": "cafe", "name": "Dolce Caff\u00e8", "operator": "Francesco Trapani", "phone": "+39 392 0585341"}}, {"type": "node", "id": 5318757385, "lat": 38.1177873, "lon": 15.0812591, "tags": {"amenity": "restaurant", "cuisine": "italian", "name": "Pianeta pizza"}}, {"type": "node", "id": 5321742723, "lat": 37.7517172, "lon": 15.1282844}, {"type": "node", "id": 5321742724, "lat": 37.751654, "lon": 15.1283741}, {"type": "node", "id": 5321742725, "lat": 37.7517408, "lon": 15.1284718}, {"type": "node", "id": 5321742726, "lat": 37.7518058, "lon": 15.1283794}, {"type": "node", "id": 5321742727, "lat": 37.7517562, "lon": 15.1283235}, {"type": "node", "id": 5321742728, "lat": 37.7517656, "lon": 15.1283102}, {"type": "node", "id": 5331051078, "lat": 38.1473341, "lon": 15.0218403, "tags": {"amenity": "restaurant", "cuisine": "italian", "level": "0", "name": "Il Tempio di Giove", "smoking": "no", "toilets": "yes", "toilets:access": "customers", "wheelchair": "yes"}}, {"type": "node", "id": 5336069192, "lat": 37.851537, "lon": 15.2885158, "tags": {"amenity": "restaurant", "name": "Pizzeria Mirage"}}, {"type": "node", "id": 5339754073, "lat": 38.1373096, "lon": 15.1638087, "tags": {"amenity": "cafe", "cuisine": "ice_cream", "internet_access": "wlan", "internet_access:fee": "no", "level": "0", "mapillary": "601479878846545", "name": "Mojito's Cafe'", "opening_hours": "Mo-Su 06:30-23:00; PH open", "outdoor_seating": "yes", "toilets": "yes", "toilets:access": "customers", "wheelchair": "limited"}}, {"type": "node", "id": 5404320862, "lat": 38.117115, "lon": 15.0584301, "tags": {"amenity": "restaurant", "cuisine": "italian;pizza", "name": "La fattoria del tindari", "toilets": "yes", "toilets:access": "customers", "wheelchair": "yes"}}, {"type": "node", "id": 5444418252, "lat": 38.0453958, "lon": 15.0888956, "tags": {"amenity": "restaurant", "name": "Fontana Regina"}}, {"type": "node", "id": 5466287222, "lat": 38.1309013, "lon": 15.0556855, "tags": {"amenity": "restaurant", "name": "La Ruota"}}, {"type": "node", "id": 5492701903, "lat": 38.0842318, "lon": 14.7474906, "tags": {"amenity": "restaurant", "name": "Manhattan", "outdoor_seating": "yes", "phone": "+39 0941 919420", "toilets:wheelchair": "yes", "wheelchair": "limited"}}, {"type": "node", "id": 5494596522, "lat": 38.153912, "lon": 15.2311908, "tags": {"amenity": "restaurant", "name": "Braceria dei Goti", "shop": "butcher"}}, {"type": "node", "id": 5495349510, "lat": 38.1539076, "lon": 15.2315958, "tags": {"amenity": "cafe", "name": "Bar Igea", "outdoor_seating": "yes"}}, {"type": "node", "id": 5506571345, "lat": 37.8438479, "lon": 15.1420304, "tags": {"amenity": "restaurant", "description": "traditional restaurant, wine tastings", "name": "Lingua Grossa", "opening_hours": "Mo, Tu, Th-Su 19:00-23:00, 11:30-15:30", "website": "https://www.trattorialinguagrossa.it/en/contact-us/"}}, {"type": "node", "id": 5545910221, "lat": 37.724266, "lon": 15.1901673, "tags": {"amenity": "restaurant", "cuisine": "italian_pizza", "name": "Quattro Quarti"}}, {"type": "node", "id": 5562836182, "lat": 37.7616373, "lon": 15.2170113, "tags": {"amenity": "restaurant", "name": "Lido Monsone", "website": "http://www.lidomonsone.it/"}}, {"type": "node", "id": 5562836192, "lat": 37.7619256, "lon": 15.2163389, "tags": {"amenity": "restaurant", "name": "Il Pescatore"}}, {"type": "node", "id": 5576229322, "lat": 37.8586103, "lon": 15.2776578, "tags": {"addr:housenumber": "26", "addr:postcode": "98030", "addr:street": "Via Pio IX", "amenity": "restaurant", "name": "Trattoria Il Vicolo"}}, {"type": "node", "id": 5578153623, "lat": 37.7269925, "lon": 15.1127893, "tags": {"amenity": "restaurant", "name": "Osteria Quattro Archi", "website": "http://4archi.it"}}, {"type": "node", "id": 5578154922, "lat": 38.096537, "lon": 14.732521, "tags": {"addr:city": "Mirto", "addr:postcode": "98070", "addr:street": "Contrada Fornace", "amenity": "restaurant", "contact:email": "info@fattoriailtris.it", "name": "Fattoria Il Tris", "nohousenumber": "yes", "website": "http://www.fattoriailtris.it", "wheelchair": "limited"}}, {"type": "node", "id": 5588477222, "lat": 37.7286134, "lon": 15.1906732, "tags": {"amenity": "cafe", "name": "Today Bar"}}, {"type": "node", "id": 5640491963, "lat": 38.1462623, "lon": 15.2141542, "tags": {"amenity": "restaurant", "contact:phone": "+39 090 240 0401", "contact:website": "http://masterchef-steak-house.business.site", "cuisine": "italian;pizza", "level": "0", "name": "MasterChef Steak House Pizzeria", "opening_hours": "Mo 12:00-14:30; Tu-Fr 12:00-14:30,19:00-23:00; Sa 12:00-14:30,19:00-24:00; Su 19:00-23:00"}}, {"type": "node", "id": 5675625321, "lat": 37.8732787, "lon": 15.2135663, "tags": {"addr:postcode": "98036", "addr:street": "Contrada Missa", "amenity": "restaurant", "cuisine": "italian", "internet_access": "wlan", "name": "Ristorante A Casitta", "operator": "Pippo Lembo", "phone": "+39 0942 47047", "website": "http://www.acasitta.it"}}, {"type": "node", "id": 5706277942, "lat": 37.8528809, "lon": 15.2897058, "tags": {"addr:housenumber": "6", "addr:street": "Via Timoleone", "amenity": "cafe", "check_date": "2023-06-13", "name": "Timoleone Caf\u00e9"}}, {"type": "node", "id": 5710816754, "lat": 38.1377331, "lon": 15.142609, "tags": {"amenity": "restaurant", "cuisine": "italian;pizza", "level": "0", "name": "Club marrakech", "operator": "Carmelo", "outdoor_seating": "yes", "toilets": "yes", "toilets:access": "customers"}}, {"type": "node", "id": 5764048045, "lat": 38.1372598, "lon": 15.1642064, "tags": {"amenity": "restaurant", "cuisine": "friture;pizza", "name": "Da Poldo", "outdoor_seating": "yes", "takeaway": "yes", "wheelchair": "no"}}, {"type": "node", "id": 5801723153, "lat": 37.8410309, "lon": 15.1439619, "tags": {"amenity": "cafe", "name": "Wunderbar"}}, {"type": "node", "id": 5827597271, "lat": 37.8358165, "lon": 15.2534008}, {"type": "node", "id": 5827597272, "lat": 37.8357932, "lon": 15.2535456}, {"type": "node", "id": 5827597273, "lat": 37.8358462, "lon": 15.2535591}, {"type": "node", "id": 5827597274, "lat": 37.8358864, "lon": 15.2535671}, {"type": "node", "id": 5827597275, "lat": 37.8358864, "lon": 15.25361}, {"type": "node", "id": 5827597276, "lat": 37.8359521, "lon": 15.2536449}, {"type": "node", "id": 5827597277, "lat": 37.8359817, "lon": 15.2534625}, {"type": "node", "id": 5827597278, "lat": 37.8360029, "lon": 15.2534625}, {"type": "node", "id": 5827597279, "lat": 37.8360262, "lon": 15.2533632}, {"type": "node", "id": 5827597280, "lat": 37.8359203, "lon": 15.2533418}, {"type": "node", "id": 5827597281, "lat": 37.8358928, "lon": 15.2534303}, {"type": "node", "id": 5827597282, "lat": 37.835844, "lon": 15.2534062}, {"type": "node", "id": 5834357619, "lat": 37.8358797, "lon": 15.2534043, "tags": {"amenity": "restaurant", "building": "house", "name": "Da Antonella"}}, {"type": "node", "id": 5846556870, "lat": 38.1224792, "lon": 14.7890754, "tags": {"amenity": "cafe", "name": "Caff\u00e8 del Corso"}}, {"type": "node", "id": 5889734699, "lat": 37.8252252, "lon": 15.227467}, {"type": "node", "id": 5889734700, "lat": 37.8252224, "lon": 15.2276034}, {"type": "node", "id": 5889734701, "lat": 37.8253415, "lon": 15.2277427}, {"type": "node", "id": 5889734702, "lat": 37.8254277, "lon": 15.2276246}, {"type": "node", "id": 5889734703, "lat": 37.8253361, "lon": 15.2275176}, {"type": "node", "id": 5895248227, "lat": 37.811697, "lon": 15.0809541}, {"type": "node", "id": 5920343630, "lat": 37.8807642, "lon": 15.1242322, "tags": {"amenity": "cafe", "name": "Bar Damico"}}, {"type": "node", "id": 5920346053, "lat": 37.8808209, "lon": 15.1240366, "tags": {"amenity": "restaurant", "name": "President"}}, {"type": "node", "id": 6037250918, "lat": 37.8521981, "lon": 15.2880206, "tags": {"amenity": "restaurant", "check_date": "2025-06-10", "cuisine": "regional", "name": "Osteria da Rita"}}, {"type": "node", "id": 6157209347, "lat": 37.851172, "lon": 15.281609, "tags": {"amenity": "cafe", "name": "Carpe Diem"}}, {"type": "node", "id": 6157228902, "lat": 37.8512208, "lon": 15.2814136, "tags": {"amenity": "cafe", "name": "Luraleo"}}, {"type": "node", "id": 6159309651, "lat": 37.8517501, "lon": 15.2857581, "tags": {"amenity": "cafe", "indoor_seating": "yes", "name": "Mocambo Bar", "outdoor_seating": "pedestrian_zone"}}, {"type": "node", "id": 6159309652, "lat": 37.8517839, "lon": 15.2858703, "tags": {"amenity": "cafe", "name": "Ristorante Del Corso Umberto"}}, {"type": "node", "id": 6393050126, "lat": 38.1453185, "lon": 15.2112518, "tags": {"amenity": "cafe", "cuisine": "ice_cream", "level": "0", "name": "Orchidea", "outdoor_seating": "yes"}}, {"type": "node", "id": 6443784001, "lat": 37.8546208, "lon": 15.2896622, "tags": {"amenity": "restaurant", "name": "Ristorante l'Incontro"}}, {"type": "node", "id": 6502412894, "lat": 38.1069267, "lon": 15.1928728, "tags": {"amenity": "restaurant", "contact:website": "https://www.ristorantevillasalvenere.it", "cuisine": "italian;fish;pizza;regional", "internet_access": "wlan", "level": "0", "name": "VillaSalVenere", "opening_hours": "Tu-Sa 17:00-24:00; Su 11:00-15:00,19:00-24:00; PH closed", "outdoor_seating": "yes", "takeaway": "yes", "toilets": "yes", "toilets:access": "customers", "toilets:wheelchair": "yes", "wheelchair": "yes"}}, {"type": "node", "id": 6511299886, "lat": 37.8802029, "lon": 15.1247533, "tags": {"amenity": "restaurant", "name": "Enoteca Vitis"}}, {"type": "node", "id": 6535716485, "lat": 37.8530545, "lon": 15.2875172, "tags": {"addr:housenumber": "63", "addr:street": "Corso Umberto I", "amenity": "cafe", "name": "Segafredo Zanetti"}}, {"type": "node", "id": 6535716585, "lat": 37.852735, "lon": 15.2888688, "tags": {"addr:housenumber": "28", "addr:street": "Via di Giovanni", "amenity": "restaurant", "cuisine": "regional;pasta;italian", "email": "degustibustao@gmail.com", "name": "Gustibus", "phone": "+39 0942 24595"}}, {"type": "node", "id": 6566575686, "lat": 37.8676088, "lon": 15.2108048, "tags": {"addr:street": "Contradaa Muscian\u00f2, 98036 Graniti, Sicili\u00eb, Itali\u00eb", "amenity": "restaurant", "email": "ristoranteuliveto8@gmail.com", "name": "Ristorante Uliveto", "phone": "+39 338 837 2409", "website": "https://www.ristoranteuliveto.it/"}}, {"type": "node", "id": 6572314986, "lat": 37.8827938, "lon": 15.122929, "tags": {"amenity": "restaurant", "cuisine": "italian", "name": "La Dispensa dell\u2019Etna", "website": "https://www.ladispensadelletna.eu/"}}, {"type": "node", "id": 6595950085, "lat": 37.8511379, "lon": 15.2840998, "tags": {"addr:housenumber": "172", "addr:street": "Corso Umberto I", "amenity": "restaurant", "cuisine": "italian_pizza", "name": "Granduca"}}, {"type": "node", "id": 6632946804, "lat": 37.8529206, "lon": 15.2888625, "tags": {"addr:housenumber": "3", "addr:street": "Piazza Santa Domenica", "amenity": "restaurant", "internet_access": "wlan", "name": "La Botte"}}, {"type": "node", "id": 6635557685, "lat": 37.8400396, "lon": 15.2771024, "tags": {"amenity": "restaurant", "name:en": "Opera Prima"}}, {"type": "node", "id": 6703762936, "lat": 37.7710141, "lon": 15.1259392, "tags": {"amenity": "restaurant", "description": "Trattoria - Pizzeria", "name": "I profumi dell'Etna"}}, {"type": "node", "id": 6732701124, "lat": 38.1366502, "lon": 15.1707452, "tags": {"amenity": "cafe", "cuisine": "ice_cream", "name": "Good", "outdoor_seating": "yes", "toilets": "no", "wheelchair": "yes"}}, {"type": "node", "id": 6732741038, "lat": 38.016841, "lon": 15.1309019, "tags": {"amenity": "restaurant", "cuisine": "italian;pizza", "name": "Il castello", "outdoor_seating": "yes"}}, {"type": "node", "id": 6751083579, "lat": 37.8052755, "lon": 15.2449824, "tags": {"entrance": "main"}}, {"type": "node", "id": 6751083584, "lat": 37.8054406, "lon": 15.2449617}, {"type": "node", "id": 6751084087, "lat": 37.8052137, "lon": 15.2448932}, {"type": "node", "id": 6751084102, "lat": 37.8053036, "lon": 15.2447945}, {"type": "node", "id": 6751084115, "lat": 37.805343, "lon": 15.2450799}, {"type": "node", "id": 6805789036, "lat": 38.1344957, "lon": 15.1649138, "tags": {"addr:city": "Terme Vigliatore", "addr:housenumber": "62", "addr:postcode": "98050", "addr:street": "Via Benedettina Inferiore", "air_conditioning": "yes", "amenity": "restaurant", "cuisine": "pizza;sicilian;italian", "name": "Da Mirabile - trattoria pizzeria", "phone": "+39 3924518622"}}, {"type": "node", "id": 6825407355, "lat": 38.1193586, "lon": 15.1715916, "tags": {"addr:city": "Rod\u00ec Milici", "addr:postcode": "98059", "addr:street": "contrada Sopra Mandria", "amenity": "restaurant", "name": "Villa Katia - sala ricevimenti", "phone": "+393341231706"}}, {"type": "node", "id": 6840261403, "lat": 38.0498012, "lon": 14.9088685, "tags": {"addr:city": "Raccuja", "addr:postcode": "98067", "addr:street": "Contrada Grid\u00e0", "amenity": "restaurant", "cuisine": "Nebroidea;Siciliana", "name": "Agriturismo \"Ponte due Archi\"", "phone": "+393287182465"}}, {"type": "node", "id": 6856576008, "lat": 38.0442023, "lon": 14.7705101}, {"type": "node", "id": 6856576009, "lat": 38.0443089, "lon": 14.7705849}, {"type": "node", "id": 6856576010, "lat": 38.0443464, "lon": 14.7704988}, {"type": "node", "id": 6856576011, "lat": 38.0443771, "lon": 14.7705203}, {"type": "node", "id": 6856576012, "lat": 38.0444075, "lon": 14.7704506}, {"type": "node", "id": 6856576013, "lat": 38.0442701, "lon": 14.7703543}, {"type": "node", "id": 6874925866, "lat": 37.7930186, "lon": 15.2081077, "tags": {"amenity": "cafe", "name": "De Natale"}}, {"type": "node", "id": 6881370256, "lat": 37.8507686, "lon": 15.2833449, "tags": {"amenity": "restaurant", "name": "RossoPeperoncino"}}, {"type": "node", "id": 6882626486, "lat": 37.8513147, "lon": 15.290043, "tags": {"amenity": "restaurant", "name": "AndReas"}}, {"type": "node", "id": 6882686085, "lat": 37.8508071, "lon": 15.2830907, "tags": {"amenity": "restaurant", "name": "Kiste\u2019"}}, {"type": "node", "id": 6948544485, "lat": 37.8534725, "lon": 15.2888709, "tags": {"addr:housenumber": "23", "addr:postcode": "98039", "addr:street": "Via di Giovanni", "amenity": "restaurant", "cuisine": "donut;breakfast;italian_pizza;sandwich;pizza", "indoor_seating": "yes", "name": "StritFUD", "opening_hours": "Mo-Su 10:00-21:00", "outdoor_seating": "yes", "phone": "+39 0942 626110", "website": "http://taorminastritfud.it"}}, {"type": "node", "id": 6959098316, "lat": 38.1419557, "lon": 15.0455185, "tags": {"amenity": "restaurant", "name": "Ristorante Tyndaris"}}, {"type": "node", "id": 7059759327, "lat": 38.1569449, "lon": 15.2071581, "tags": {"amenity": "cafe", "name": "Every Time"}}, {"type": "node", "id": 7119911581, "lat": 37.8559443, "lon": 14.9676704}, {"type": "node", "id": 7119911582, "lat": 37.8560078, "lon": 14.9677187}, {"type": "node", "id": 7119911583, "lat": 37.8560071, "lon": 14.9677537}, {"type": "node", "id": 7119911584, "lat": 37.8560036, "lon": 14.9677831}, {"type": "node", "id": 7119914585, "lat": 37.85594, "lon": 14.9678341}, {"type": "node", "id": 7119914586, "lat": 37.8559485, "lon": 14.9686629}, {"type": "node", "id": 7119914587, "lat": 37.8559866, "lon": 14.9686977}, {"type": "node", "id": 7119914588, "lat": 37.8559887, "lon": 14.9687889}, {"type": "node", "id": 7119914589, "lat": 37.8559485, "lon": 14.9688265}, {"type": "node", "id": 7119914590, "lat": 37.8559506, "lon": 14.968856}, {"type": "node", "id": 7119914591, "lat": 37.8570264, "lon": 14.9687836}, {"type": "node", "id": 7119914592, "lat": 37.8573123, "lon": 14.9687004}, {"type": "node", "id": 7119914593, "lat": 37.8573377, "lon": 14.9686119}, {"type": "node", "id": 7119914594, "lat": 37.8574479, "lon": 14.968451}, {"type": "node", "id": 7119914595, "lat": 37.8576215, "lon": 14.9680755}, {"type": "node", "id": 7119914596, "lat": 37.8576067, "lon": 14.967767}, {"type": "node", "id": 7119914597, "lat": 37.8575093, "lon": 14.9677187}, {"type": "node", "id": 7119914598, "lat": 37.8574436, "lon": 14.967598}, {"type": "node", "id": 7119914599, "lat": 37.8572319, "lon": 14.9676731}, {"type": "node", "id": 7119914600, "lat": 37.8572149, "lon": 14.9676061}, {"type": "node", "id": 7119914601, "lat": 37.8570915, "lon": 14.9675635}, {"type": "node", "id": 7119914602, "lat": 37.8571005, "lon": 14.9671313}, {"type": "node", "id": 7119914603, "lat": 37.8565881, "lon": 14.9669113}, {"type": "node", "id": 7119914604, "lat": 37.8559569, "lon": 14.9670267}, {"type": "node", "id": 7119914623, "lat": 37.8572104, "lon": 14.9675634}, {"type": "node", "id": 7119914629, "lat": 37.8571633, "lon": 14.9675635}, {"type": "node", "id": 7119914631, "lat": 37.8571179, "lon": 14.9675635}, {"type": "node", "id": 7159061492, "lat": 37.8530771, "lon": 14.8134752}, {"type": "node", "id": 7159061493, "lat": 37.8531841, "lon": 14.8134841}, {"type": "node", "id": 7159061494, "lat": 37.853188, "lon": 14.8134096}, {"type": "node", "id": 7159061495, "lat": 37.853081, "lon": 14.8134007}, {"type": "node", "id": 7425466575, "lat": 37.9886933, "lon": 14.9151109}, {"type": "node", "id": 7425466576, "lat": 37.988774, "lon": 14.9152097}, {"type": "node", "id": 7425466577, "lat": 37.9887955, "lon": 14.9151815}, {"type": "node", "id": 7425466578, "lat": 37.9888108, "lon": 14.9151993}, {"type": "node", "id": 7425466581, "lat": 37.9889067, "lon": 14.9149674}, {"type": "node", "id": 7425466582, "lat": 37.9888554, "lon": 14.914912}, {"type": "node", "id": 7622608324, "lat": 37.9888325, "lon": 14.9149482}, {"type": "node", "id": 7622608325, "lat": 37.9888831, "lon": 14.9149419, "tags": {"access": "yes", "entrance": "main"}}, {"type": "node", "id": 7622608326, "lat": 37.9887771, "lon": 14.914986}, {"type": "node", "id": 7622608327, "lat": 37.9889105, "lon": 14.9150501}, {"type": "node", "id": 7622608328, "lat": 37.9888785, "lon": 14.9150146}, {"type": "node", "id": 7622608329, "lat": 37.9888138, "lon": 14.9149314}, {"type": "node", "id": 7764448287, "lat": 37.7832743, "lon": 14.8307136, "tags": {"amenity": "cafe", "name": "Cordialbar"}}, {"type": "node", "id": 7787776538, "lat": 37.7383619, "lon": 15.1018077, "tags": {"amenity": "restaurant", "name": "Ristorante Da Rinuccio"}}, {"type": "node", "id": 7787776540, "lat": 37.8325754, "lon": 15.1075517, "tags": {"amenity": "restaurant", "contact:mobile": "+39 349 4200573;+39 095 647997", "cuisine": "pizza", "email": "info@sole-neve.it", "name": "Sole Neve", "outdoor_seating": "no", "website": "http://www.sole-neve.it"}}, {"type": "node", "id": 7788234196, "lat": 38.1379007, "lon": 15.1637999, "tags": {"amenity": "restaurant", "cuisine": "pizza", "name": "Forno antico"}}, {"type": "node", "id": 7856417986, "lat": 37.8509757, "lon": 15.2818736, "tags": {"addr:housenumber": "8", "addr:street": "Vico De Spuches", "amenity": "restaurant", "name": "Osteria RossoDiVino", "website": "https://osteria-rosso-divino.com/"}}, {"type": "node", "id": 7856417987, "lat": 37.8520956, "lon": 15.291152, "tags": {"addr:housenumber": "59", "addr:street": "Via Teatro Greco", "amenity": "restaurant", "name": "Otto Geleng"}}, {"type": "node", "id": 7856418085, "lat": 37.8521312, "lon": 15.2909298, "tags": {"addr:housenumber": "59", "addr:street": "Via Teatro Greco", "amenity": "restaurant", "check_date": "2024-01-05", "name": "Timeo"}}, {"type": "node", "id": 7856418185, "lat": 37.8554744, "lon": 15.2900234, "tags": {"addr:housenumber": "46", "addr:street": "Viale San Pancrazio", "amenity": "restaurant", "name": "St. George by Heinz Beck", "name:it": "St. George by Heinz Beckv"}}, {"type": "node", "id": 8039152185, "lat": 37.7862197, "lon": 14.8324758, "tags": {"amenity": "restaurant", "name": "Pepe Rosa", "phone": "+39 095 7724476"}}, {"type": "node", "id": 8155260671, "lat": 37.7214577, "lon": 15.1823826, "tags": {"amenity": "restaurant", "name": "Il Giardino d'Inverno"}}, {"type": "node", "id": 8182604017, "lat": 37.8422365, "lon": 15.1425813, "tags": {"amenity": "cafe", "cuisine": "italian;local", "name": "Bar Le Palme"}}, {"type": "node", "id": 8254392835, "lat": 37.8414264, "lon": 15.1430488, "tags": {"air_conditioning": "yes", "amenity": "cafe", "description": "Nica Nuci \u00e8 un bar pasticceria situato al centro di Linguaglossa. Oltre settant'anni sono passati da quando venne aperto al pubblico per la prima volta. Da allora molto \u00e8 cambiato ma per noi resta immutata la volont\u00e0 di offrirvi solo la migliore qualit\u00e0 n", "email": "info@nicanuci.it", "internet_access": "wlan", "internet_access:fee": "no", "name": "Bar Nica Nuci", "outdoor_seating": "yes", "payment:american_express": "yes", "payment:cash": "yes", "payment:coins": "yes", "payment:credit_cards": "yes", "payment:discover_card": "yes", "payment:mastercard": "yes", "payment:visa": "yes", "payment:visa_electron": "yes", "phone": "+39 095 3523854", "website": "https://www.nicanuci.it/", "wheelchair": "yes"}}, {"type": "node", "id": 8274578342, "lat": 38.0598465, "lon": 15.1064959, "tags": {"addr:city": "Tripi", "addr:street": "Strada Provinciale 115 Tripiciana", "amenity": "restaurant", "cuisine": "regional;italian", "diet:meat": "yes", "name": "Trattoria Papa", "phone": "+39 348 8937135"}}, {"type": "node", "id": 8515504221, "lat": 38.1244319, "lon": 15.0607775}, {"type": "node", "id": 8515504222, "lat": 38.124733, "lon": 15.0611172}, {"type": "node", "id": 8515504223, "lat": 38.1246616, "lon": 15.0611664}, {"type": "node", "id": 8515504224, "lat": 38.1244029, "lon": 15.0609819}, {"type": "node", "id": 8515504225, "lat": 38.124334, "lon": 15.060902}, {"type": "node", "id": 8515504226, "lat": 38.1244041, "lon": 15.0607929}, {"type": "node", "id": 8515504227, "lat": 38.1244174, "lon": 15.0607821}, {"type": "node", "id": 8922844837, "lat": 38.1451274, "lon": 15.1581681, "tags": {"amenity": "restaurant", "contact:mobile": "+39 376 0224825", "contact:phone": "+39 090 978 1701", "cuisine": "pasta;italian;pizza;ice_cream;fish", "level": "0", "name": "Vecchio Palmento srl", "outdoor_seating": "yes", "reservation": "recommended", "wheelchair": "yes"}}, {"type": "node", "id": 9032850667, "lat": 37.8586295, "lon": 14.8083151, "tags": {"amenity": "cafe", "name": "Bar Destro"}}, {"type": "node", "id": 9036290217, "lat": 37.7866003, "lon": 14.8327523, "tags": {"amenity": "cafe", "name": "Bar Conti Gallenti", "opening_hours": "Mo-Su 08:00-23:00; We 00:00-24:00", "phone": "+39 095 691165", "website": "https://www.facebook.com/Bar-Conti-Gallenti-385823804858722"}}, {"type": "node", "id": 9036322017, "lat": 37.8679888, "lon": 14.9576763, "tags": {"amenity": "restaurant", "contact:facebook": "pizzeriakaleidos", "cuisine": "italian_pizza", "email": "kaleidosrandazzo@hotmail.it", "name": "Pizzeria Kaleidos", "phone": "+39 095 7991088;+39 334 191 7331"}}, {"type": "node", "id": 9036327117, "lat": 37.8759624, "lon": 14.9724324, "tags": {"amenity": "restaurant", "name": "Ristorante Veneziano", "phone": "+39 095 7991353", "website": "http://www.ristorantevenezianorandazzo.it/"}}, {"type": "node", "id": 9036327118, "lat": 37.8349137, "lon": 15.1117032, "tags": {"amenity": "restaurant", "name": "Sciaramanica", "phone": "+39 095 643007"}}, {"type": "node", "id": 9048697067, "lat": 37.8416989, "lon": 15.1367479, "tags": {"amenity": "cafe", "authorization": "8", "name": "Raiti Caf\u00e8", "tobacco": "yes"}}, {"type": "node", "id": 9052028982, "lat": 37.8088964, "lon": 15.1769296, "tags": {"amenity": "restaurant", "cuisine": "pizza;italian", "name": "G.N.A.M Di Raiti Giuseppe", "outdoor_seating": "yes", "phone": "+39 095 777 8434", "takeaway": "yes"}}, {"type": "node", "id": 9052028983, "lat": 37.8084209, "lon": 15.1770724, "tags": {"amenity": "restaurant", "cuisine": "italian", "name": "Ristorante Pizzeria Gianluca", "outdoor_seating": "yes", "takeaway": "yes"}}, {"type": "node", "id": 9054701210, "lat": 38.1365247, "lon": 14.9656165, "tags": {"addr:city": "Patti", "addr:housenumber": "34", "addr:postcode": "98066", "addr:street": "Via Cesare Battisti", "amenity": "restaurant", "cuisine": "pizza", "name": "Al Vecchio Carcere", "phone": "+390941317072", "website": "https://alvecchiocarcere.it/"}}, {"type": "node", "id": 9061724390, "lat": 37.7300072, "lon": 15.1936312, "tags": {"amenity": "cafe", "authorization": "10", "name": "Bar della Stazione", "outdoor_seating": "yes", "tobacco": "yes"}}, {"type": "node", "id": 9201983717, "lat": 37.8512002, "lon": 15.2832654, "tags": {"amenity": "cafe", "name": "Caf\u00e9 Ferrara"}}, {"type": "node", "id": 9201985517, "lat": 37.8547785, "lon": 15.2892435, "tags": {"amenity": "restaurant", "check_date": "2024-01-05", "name": "La Zagara"}}, {"type": "node", "id": 9326218509, "lat": 37.8803515, "lon": 15.3065407, "tags": {"amenity": "cafe", "name": "Niny Bar"}}, {"type": "node", "id": 9326218510, "lat": 37.8801921, "lon": 15.3072188, "tags": {"amenity": "cafe", "check_date": "2024-10-19", "name": "Sea Blue"}}, {"type": "node", "id": 9326218512, "lat": 37.8802056, "lon": 15.3067485, "tags": {"amenity": "cafe", "name": "Blue Sky"}}, {"type": "node", "id": 9326218515, "lat": 37.880343, "lon": 15.3070253, "tags": {"amenity": "cafe", "name": "Palm Beach"}}, {"type": "node", "id": 9326220953, "lat": 37.8801878, "lon": 15.306359, "tags": {"amenity": "restaurant", "check_date": "2024-10-19", "name": "Il Peperoncino"}}, {"type": "node", "id": 9326220956, "lat": 37.8821344, "lon": 15.3085601, "tags": {"amenity": "cafe", "name": "Lo Zuccherino"}}, {"type": "node", "id": 9326220959, "lat": 37.88191, "lon": 15.3082206, "tags": {"amenity": "restaurant", "name": "Mamma Steakhouse"}}, {"type": "node", "id": 9538562420, "lat": 37.794516, "lon": 15.1468902, "tags": {"amenity": "restaurant", "cuisine": "pizza", "opening_hours": "Mo-Su 19:30-23:30"}}, {"type": "node", "id": 9610409533, "lat": 38.0160008, "lon": 15.1319913, "tags": {"amenity": "cafe", "name": "Buemi"}}, {"type": "node", "id": 9611002361, "lat": 38.0991278, "lon": 15.2106773, "tags": {"amenity": "cafe"}}, {"type": "node", "id": 9661299954, "lat": 38.1363282, "lon": 15.1649098, "tags": {"addr:city": "Terme Vigliatore", "addr:street": "Via Primo Maggio", "amenity": "cafe", "name": "Dolce Peccato", "phone": "+39 090 921 3493"}}, {"type": "node", "id": 9880654148, "lat": 37.8539561, "lon": 15.2839718, "tags": {"amenity": "cafe", "name": "Caf\u00e9"}}, {"type": "node", "id": 9932409031, "lat": 37.7370416, "lon": 15.1120255, "tags": {"amenity": "restaurant", "name": "Nonna Vita"}}, {"type": "node", "id": 9933121115, "lat": 37.7224561, "lon": 15.1167226, "tags": {"amenity": "cafe", "name": "Bar del Sole"}}, {"type": "node", "id": 9952442114, "lat": 37.8599729, "lon": 15.1996832}, {"type": "node", "id": 9952442115, "lat": 37.8600309, "lon": 15.199576}, {"type": "node", "id": 9952442116, "lat": 37.860085, "lon": 15.1996351}, {"type": "node", "id": 9952442118, "lat": 37.8600516, "lon": 15.1996966}, {"type": "node", "id": 9959899505, "lat": 38.02499, "lon": 15.0116758}, {"type": "node", "id": 9959899506, "lat": 38.0249584, "lon": 15.0116322}, {"type": "node", "id": 9959899507, "lat": 38.0250238, "lon": 15.0115508}, {"type": "node", "id": 9959899508, "lat": 38.0250569, "lon": 15.0115949}, {"type": "node", "id": 9960837973, "lat": 38.0294992, "lon": 15.0094385, "tags": {"amenity": "restaurant", "name": "Agriturismo Il Gelso"}}, {"type": "node", "id": 9976516675, "lat": 38.0230953, "lon": 15.0136259}, {"type": "node", "id": 9976516676, "lat": 38.0230465, "lon": 15.0137537}, {"type": "node", "id": 9976516677, "lat": 38.0231777, "lon": 15.0136772}, {"type": "node", "id": 9986094298, "lat": 37.829617, "lon": 15.2687056, "tags": {"amenity": "restaurant", "level": "0", "name": "Forchettone"}}, {"type": "node", "id": 10053763042, "lat": 38.1481809, "lon": 14.9716491, "tags": {"amenity": "restaurant", "cuisine": "pizza", "name": "Pizzeria Zeus"}}, {"type": "node", "id": 10073930098, "lat": 37.8631379, "lon": 15.1974218, "tags": {"amenity": "cafe", "authorization": "13", "tobacco": "yes"}}, {"type": "node", "id": 10080830227, "lat": 37.8829855, "lon": 15.1226492, "tags": {"amenity": "cafe", "authorization": "4", "name": "Le Chevalier", "tobacco": "yes"}}, {"type": "node", "id": 10082912604, "lat": 37.8833369, "lon": 15.1231824, "tags": {"amenity": "restaurant", "name": "Regio Recondo"}}, {"type": "node", "id": 10084510914, "lat": 37.8648161, "lon": 15.0717629, "tags": {"amenity": "restaurant", "email": "sandrodibella@live.it", "name": "Cave Ox", "opening_hours": "Mo-Su 12:00-15:30,19:00-23:00; Tu off", "phone": "+39 0942 986171", "website": "https://www.caveox.it/"}}, {"type": "node", "id": 10148949418, "lat": 37.8511145, "lon": 15.2818373, "tags": {"addr:housenumber": "240", "addr:street": "Corso Umberto I", "amenity": "restaurant", "name": "L'Arco - About Pizza"}}, {"type": "node", "id": 10203834831, "lat": 37.8775906, "lon": 14.9457963, "tags": {"amenity": "restaurant", "name": "Las Vegas", "phone": "+39 388 4551658"}}, {"type": "node", "id": 10308698006, "lat": 37.7865351, "lon": 14.8337004, "tags": {"amenity": "restaurant", "check_date": "2024-10-05", "internet_access": "wlan", "internet_access:fee": "customers", "internet_access:ssid": "Vodafone-guest", "name": "Protosteria", "opening_hours": "Mo-Fr 12:30-15:00,19:30-22:30; Sa-Su 12:30-15:00", "payment:american_express": "no", "payment:cash": "yes", "payment:credit_cards": "yes", "payment:debit_cards": "yes", "wheelchair": "limited"}}, {"type": "node", "id": 10717915090, "lat": 37.794064, "lon": 14.8467498, "tags": {"amenity": "cafe", "authorization": "4", "contact:facebook": "caffetterialucabronte", "contact:phone": "+39 095 7724188", "cuisine": "italian", "email": "info@caffetterialuca.com", "name": "Caffetteria Luca", "ref:vatin": "IT03535200871", "tobacco": "yes", "website": "https://caffetterialuca.com/"}}, {"type": "node", "id": 10722093872, "lat": 37.8416348, "lon": 15.1378304, "tags": {"amenity": "restaurant", "cuisine": "regional", "name": "Boccaperta"}}, {"type": "node", "id": 10796030475, "lat": 37.8351196, "lon": 14.7970431, "tags": {"amenity": "restaurant", "authorization": "22", "name": "Don Ciccio", "tobacco": "yes"}}, {"type": "node", "id": 10796030486, "lat": 37.835414, "lon": 14.7968996, "tags": {"amenity": "restaurant", "name": "Il Fiorentino"}}, {"type": "node", "id": 10796030508, "lat": 37.7819487, "lon": 14.8346271}, {"type": "node", "id": 10796030511, "lat": 37.7820049, "lon": 14.8345948}, {"type": "node", "id": 10796030526, "lat": 37.7880379, "lon": 14.838337, "tags": {"amenity": "cafe", "authorization": "17", "name": "Bar Longhitano", "tobacco": "yes"}}, {"type": "node", "id": 10861200020, "lat": 37.820466, "lon": 14.8644376, "tags": {"barrier": "gate"}}, {"type": "node", "id": 10861200021, "lat": 37.8205187, "lon": 14.8644463}, {"type": "node", "id": 10861200022, "lat": 37.8204824, "lon": 14.8644537}, {"type": "node", "id": 10861200023, "lat": 37.8204496, "lon": 14.8644215}, {"type": "node", "id": 10861200024, "lat": 37.8204537, "lon": 14.8643784}, {"type": "node", "id": 10861200025, "lat": 37.8203362, "lon": 14.8642622}, {"type": "node", "id": 10861200035, "lat": 37.8205873, "lon": 14.864518}, {"type": "node", "id": 10861200036, "lat": 37.8199283, "lon": 14.8639481, "tags": {"barrier": "gate"}}, {"type": "node", "id": 10861200037, "lat": 37.8202716, "lon": 14.8641935}, {"type": "node", "id": 10861200038, "lat": 37.8200375, "lon": 14.8639494}, {"type": "node", "id": 10861200039, "lat": 37.8200131, "lon": 14.863936}, {"type": "node", "id": 10861200040, "lat": 37.8199909, "lon": 14.8639333}, {"type": "node", "id": 10861200041, "lat": 37.8199591, "lon": 14.8639561}, {"type": "node", "id": 10861200042, "lat": 37.8203055, "lon": 14.8652221}, {"type": "node", "id": 10861200043, "lat": 37.8201445, "lon": 14.8651671}, {"type": "node", "id": 10861200044, "lat": 37.8201286, "lon": 14.8651135}, {"type": "node", "id": 10861200045, "lat": 37.8199919, "lon": 14.8647876}, {"type": "node", "id": 10861200046, "lat": 37.81985, "lon": 14.8644657}, {"type": "node", "id": 10861200047, "lat": 37.8196222, "lon": 14.8640272}, {"type": "node", "id": 10861200048, "lat": 37.8196222, "lon": 14.8639923}, {"type": "node", "id": 10861200049, "lat": 37.8196508, "lon": 14.8639226}, {"type": "node", "id": 10861200050, "lat": 37.8198182, "lon": 14.8639078}, {"type": "node", "id": 10861200051, "lat": 37.8198489, "lon": 14.8638971}, {"type": "node", "id": 10861200052, "lat": 37.8198733, "lon": 14.8638985}, {"type": "node", "id": 10861200053, "lat": 37.8198892, "lon": 14.8639172}, {"type": "node", "id": 10861200054, "lat": 37.8198923, "lon": 14.8639387}, {"type": "node", "id": 10861200577, "lat": 37.8341451, "lon": 14.9025115, "tags": {"amenity": "restaurant", "email": "info@ristorantedazino.it", "name": "Da Zino", "phone": "+39 095 699234", "website": "https://ristorantedazino.it/"}}, {"type": "node", "id": 10861200627, "lat": 37.8219243, "lon": 14.8717408, "tags": {"barrier": "gate"}}, {"type": "node", "id": 10861200628, "lat": 37.8218149, "lon": 14.8717427, "tags": {"barrier": "gate"}}, {"type": "node", "id": 10861200629, "lat": 37.8217526, "lon": 14.8717077}, {"type": "node", "id": 10861200634, "lat": 37.8217844, "lon": 14.8717359}, {"type": "node", "id": 10861200635, "lat": 37.8219147, "lon": 14.8717788}, {"type": "node", "id": 10861200636, "lat": 37.8219369, "lon": 14.8717064}, {"type": "node", "id": 10861200637, "lat": 37.8219804, "lon": 14.8716956}, {"type": "node", "id": 10861200638, "lat": 37.822152, "lon": 14.8717412}, {"type": "node", "id": 10861200639, "lat": 37.8221922, "lon": 14.8717868}, {"type": "node", "id": 10861200640, "lat": 37.8221711, "lon": 14.8721221}, {"type": "node", "id": 10861200641, "lat": 37.8223745, "lon": 14.8722964}, {"type": "node", "id": 10861200642, "lat": 37.8224317, "lon": 14.8723957}, {"type": "node", "id": 10861200643, "lat": 37.8223745, "lon": 14.8724869}, {"type": "node", "id": 10861200644, "lat": 37.8223067, "lon": 14.8727015}, {"type": "node", "id": 10861200645, "lat": 37.8221075, "lon": 14.8729804}, {"type": "node", "id": 10861200646, "lat": 37.8214401, "lon": 14.8727229}, {"type": "node", "id": 10861200647, "lat": 37.8216054, "lon": 14.8723447}, {"type": "node", "id": 10861200648, "lat": 37.8216562, "lon": 14.8721918}, {"type": "node", "id": 10861200649, "lat": 37.8217007, "lon": 14.8720202}, {"type": "node", "id": 10861200650, "lat": 37.8217388, "lon": 14.8718324}, {"type": "node", "id": 10861200651, "lat": 37.8217823, "lon": 14.8717171}, {"type": "node", "id": 10863806819, "lat": 37.8583256, "lon": 14.8086114, "tags": {"amenity": "cafe", "name": "Bar Fratelli Paterniti"}}, {"type": "node", "id": 10872319825, "lat": 37.8645865, "lon": 14.8193564}, {"type": "node", "id": 10872319826, "lat": 37.8645781, "lon": 14.8194144}, {"type": "node", "id": 10872319827, "lat": 37.8645313, "lon": 14.8194036}, {"type": "node", "id": 10872319828, "lat": 37.8645397, "lon": 14.8193455}, {"type": "node", "id": 10879679110, "lat": 37.8599277, "lon": 14.8174372, "tags": {"amenity": "cafe", "name": "Bar La Pineta"}}, {"type": "node", "id": 10879679247, "lat": 37.8597508, "lon": 14.8121332, "tags": {"amenity": "restaurant", "name": "Al Castello"}}, {"type": "node", "id": 10885424454, "lat": 37.8751318, "lon": 14.9542031, "tags": {"amenity": "cafe", "authorization": "14", "tobacco": "yes"}}, {"type": "node", "id": 10885424455, "lat": 37.8751562, "lon": 14.9441327, "tags": {"amenity": "cafe", "authorization": "12", "name": "Bar Belvedere", "tobacco": "yes"}}, {"type": "node", "id": 10885424469, "lat": 37.8776258, "lon": 14.9544565, "tags": {"amenity": "cafe", "authorization": "11", "name": "Bar Tabacchi Paparo", "tobacco": "yes"}}, {"type": "node", "id": 10885424572, "lat": 37.8777962, "lon": 14.946055, "tags": {"addr:housenumber": "7", "addr:street": "Piazza Municipio"}}, {"type": "node", "id": 10885424573, "lat": 37.877973, "lon": 14.9459968, "tags": {"amenity": "cafe", "name": "Bar Fratelli Facondo"}}, {"type": "node", "id": 10895064095, "lat": 37.8785935, "lon": 14.9450361}, {"type": "node", "id": 10900674062, "lat": 37.8781654, "lon": 14.9520383, "tags": {"amenity": "restaurant", "name": "Ristorante Le Delizie"}}, {"type": "node", "id": 10903540786, "lat": 37.8748386, "lon": 14.9583162, "tags": {"amenity": "restaurant", "name": "Royal"}}, {"type": "node", "id": 10930612392, "lat": 37.8249402, "lon": 15.1484916, "tags": {"amenity": "cafe", "authorization": "11", "name": "120 Street Bar", "tobacco": "yes"}}, {"type": "node", "id": 10970217346, "lat": 37.827187, "lon": 15.2686536, "tags": {"addr:housenumber": "177", "amenity": "restaurant", "name": "La Sirenetta"}}, {"type": "node", "id": 10976915656, "lat": 37.850789, "lon": 15.2827149, "tags": {"addr:housenumber": "3/5", "amenity": "restaurant", "contact:email": "info@sanicolo.it", "cuisine": "regional;pizza", "indoor_seating": "yes", "name": "Osteria S\u00e0nicol\u00f2 Pizzeria", "opening_hours": "Mo-Su 12:00-00:00", "outdoor_seating": "pedestrian_zone", "phone": "+39 0942 24150", "website": "https://sanicolo.it/"}}, {"type": "node", "id": 10978247085, "lat": 37.8242667, "lon": 15.270409, "tags": {"amenity": "restaurant", "name": "Ristorante Sabbie d'Oro"}}, {"type": "node", "id": 10988837799, "lat": 37.870098, "lon": 15.2787285, "tags": {"addr:city": "Castelmola", "addr:postcode": "98030", "addr:street": "Contrada Ogliastrello", "amenity": "restaurant", "cuisine": "local;italian", "diet:gluten_free": "yes", "diet:vegetarian": "yes", "name": "Chicchirichi", "phone": "+39 0942 27349", "website": "https://www.trattoriachicchirichi.it/"}}, {"type": "node", "id": 11069809516, "lat": 37.8035589, "lon": 15.1762953, "tags": {"amenity": "cafe", "authorization": "9", "name": "Smilie Caff\u00e8", "tobacco": "yes"}}, {"type": "node", "id": 11070146662, "lat": 37.8199125, "lon": 15.2310768, "tags": {"amenity": "cafe", "authorization": "5", "name": "Caffetteria Sunflower", "tobacco": "yes"}}, {"type": "node", "id": 11071411480, "lat": 37.8182325, "lon": 15.2664953, "tags": {"addr:city": "Giardini-Naxos", "addr:housenumber": "31", "addr:postcode": "98035", "addr:street": "Viale Jannuzzo", "amenity": "restaurant", "cuisine": "italian", "name": "Ristorante Sire", "website": "https://ristorante-sire.business.site/"}}, {"type": "node", "id": 11077653774, "lat": 37.7843633, "lon": 15.2021773, "tags": {"amenity": "cafe", "authorization": "11", "name": "Eni Caf\u00e8", "tobacco": "yes"}}, {"type": "node", "id": 11077653787, "lat": 37.7966085, "lon": 15.2058734, "tags": {"amenity": "cafe", "authorization": "9", "name": "Railway Caf\u00e8", "tobacco": "yes"}}, {"type": "node", "id": 11077670622, "lat": 37.8030033, "lon": 15.2012781}, {"type": "node", "id": 11077670623, "lat": 37.8030152, "lon": 15.2013086}, {"type": "node", "id": 11077670624, "lat": 37.8030002, "lon": 15.201337}, {"type": "node", "id": 11077670625, "lat": 37.8029734, "lon": 15.2013348}, {"type": "node", "id": 11077670626, "lat": 37.8029614, "lon": 15.2013042}, {"type": "node", "id": 11077670627, "lat": 37.8029764, "lon": 15.2012759}, {"type": "node", "id": 11077670690, "lat": 37.7975845, "lon": 15.2103822, "tags": {"amenity": "cafe", "authorization": "8", "name": "Caprice", "tobacco": "yes"}}, {"type": "node", "id": 11077670837, "lat": 37.7859521, "lon": 15.2348909}, {"type": "node", "id": 11077670838, "lat": 37.7855329, "lon": 15.2351707}, {"type": "node", "id": 11077670839, "lat": 37.7855769, "lon": 15.2350692}, {"type": "node", "id": 11077670840, "lat": 37.7855748, "lon": 15.2349687}, {"type": "node", "id": 11077670841, "lat": 37.7854401, "lon": 15.2351067}, {"type": "node", "id": 11077670842, "lat": 37.7853536, "lon": 15.2344274}, {"type": "node", "id": 11077670848, "lat": 37.7856472, "lon": 15.2347979}, {"type": "node", "id": 11077670852, "lat": 37.7859341, "lon": 15.2349164}, {"type": "node", "id": 11077670853, "lat": 37.7856914, "lon": 15.2347179}, {"type": "node", "id": 11077670854, "lat": 37.7856458, "lon": 15.2346443}, {"type": "node", "id": 11077670855, "lat": 37.78557, "lon": 15.2348164}, {"type": "node", "id": 11077670863, "lat": 37.7855038, "lon": 15.2345443}, {"type": "node", "id": 11082012853, "lat": 37.7633647, "lon": 15.2177677, "tags": {"amenity": "cafe", "authorization": "4", "name": "Iceberg", "tobacco": "yes"}}, {"type": "node", "id": 11082012854, "lat": 37.7689798, "lon": 15.1974561}, {"type": "node", "id": 11082012855, "lat": 37.7689606, "lon": 15.197559}, {"type": "node", "id": 11082012856, "lat": 37.7688549, "lon": 15.1975275}, {"type": "node", "id": 11082012857, "lat": 37.768874, "lon": 15.1974247}, {"type": "node", "id": 11082012865, "lat": 37.75857, "lon": 15.2137459, "tags": {"amenity": "restaurant", "name": "Spina"}}, {"type": "node", "id": 11082012866, "lat": 37.7587757, "lon": 15.2139002, "tags": {"amenity": "restaurant", "cuisine": "thai", "name": "Da Niracha"}}, {"type": "node", "id": 11082012867, "lat": 37.7586494, "lon": 15.2138055, "tags": {"amenity": "cafe", "authorization": "14", "name": "L'Orizzonte", "tobacco": "yes"}}, {"type": "node", "id": 11082027635, "lat": 37.7537067, "lon": 15.1949286, "tags": {"amenity": "cafe", "name": "Bar Paradise"}}, {"type": "node", "id": 11082027681, "lat": 37.758072, "lon": 15.1991115, "tags": {"amenity": "cafe", "name": "Zanzibar"}}, {"type": "node", "id": 11082027690, "lat": 37.7563034, "lon": 15.1961343, "tags": {"amenity": "cafe", "name": "Bar Ideal"}}, {"type": "node", "id": 11084371613, "lat": 37.7422477, "lon": 15.142934, "tags": {"amenity": "cafe", "name": "Carmelo La Spina"}}, {"type": "node", "id": 11084371688, "lat": 37.7419157, "lon": 15.1424231, "tags": {"amenity": "cafe", "name": "Caff\u00e8 del Duomo"}}, {"type": "node", "id": 11089032305, "lat": 37.8562041, "lon": 15.3006575, "tags": {"amenity": "restaurant", "name:en": "Pizzeria Gallodoro"}}, {"type": "node", "id": 11089032405, "lat": 37.8587172, "lon": 15.2770614, "tags": {"amenity": "restaurant", "name": "La Taverna dell'Etna"}}, {"type": "node", "id": 11090528702, "lat": 37.7452923, "lon": 15.1332767, "tags": {"amenity": "restaurant", "name": "Regina Giovanna"}}, {"type": "node", "id": 11092413014, "lat": 37.7228845, "lon": 15.1145402, "tags": {"amenity": "restaurant", "name": "Al Braciere"}}, {"type": "node", "id": 11105969865, "lat": 38.0242303, "lon": 15.0102792, "tags": {"addr:housenumber": "18", "addr:street": "Via Cavaliere Cernuto", "amenity": "restaurant", "name": "Il Ritrovo Dei Re La taberna di Arnaldo"}}, {"type": "node", "id": 11114585423, "lat": 37.7283155, "lon": 15.2084416, "tags": {"amenity": "cafe", "name": "Alice\u00e8 Caffe\u00e8"}}, {"type": "node", "id": 11145255263, "lat": 37.7269998, "lon": 15.2091121}, {"type": "node", "id": 11145255264, "lat": 37.7270173, "lon": 15.2092028}, {"type": "node", "id": 11145255265, "lat": 37.727111, "lon": 15.2091739}, {"type": "node", "id": 11145255266, "lat": 37.7270935, "lon": 15.2090832}, {"type": "node", "id": 11159493908, "lat": 37.7306093, "lon": 15.1848248, "tags": {"amenity": "cafe", "authorization": "25", "indoor_seating": "yes", "name": "Green Bar", "outdoor_seating": "yes", "tobacco": "yes"}}, {"type": "node", "id": 11159493910, "lat": 37.7181649, "lon": 15.179235, "tags": {"amenity": "cafe", "authorization": "32", "tobacco": "yes"}}, {"type": "node", "id": 11159493969, "lat": 37.7345257, "lon": 15.1572222, "tags": {"amenity": "cafe", "authorization": "16", "name": "Bar Corona", "tobacco": "yes"}}, {"type": "node", "id": 11159494316, "lat": 37.7270331, "lon": 15.1848382, "tags": {"amenity": "cafe", "name": "Caff\u00e8 del Corso"}}, {"type": "node", "id": 11162060476, "lat": 37.7203895, "lon": 15.1675057, "tags": {"amenity": "cafe", "authorization": "31", "name": "Sir\u00f2 Caff\u00e8", "tobacco": "yes"}}, {"type": "node", "id": 11162060641, "lat": 37.7178844, "lon": 15.1704695}, {"type": "node", "id": 11162060642, "lat": 37.7180002, "lon": 15.1704307}, {"type": "node", "id": 11162060643, "lat": 37.7180343, "lon": 15.1705934}, {"type": "node", "id": 11162060644, "lat": 37.7178955, "lon": 15.1706399}, {"type": "node", "id": 11162060645, "lat": 37.7178614, "lon": 15.1704772}, {"type": "node", "id": 11162060671, "lat": 37.7179513, "lon": 15.1706212}, {"type": "node", "id": 11162060675, "lat": 37.7179114, "lon": 15.1704604}, {"type": "node", "id": 11182579057, "lat": 38.1220614, "lon": 15.1126754, "tags": {"amenity": "restaurant", "cuisine": "pizza", "indoor_seating": "no", "name": "Ricomincio da 3", "outdoor_seating": "yes", "website": "https://menu.pienissimo.com/menu"}}, {"type": "node", "id": 11184642152, "lat": 38.1427416, "lon": 15.1525891, "tags": {"amenity": "restaurant", "name": "Il Gabbiano"}}, {"type": "node", "id": 11192854237, "lat": 37.8260502, "lon": 15.2693053, "tags": {"addr:housenumber": "1", "addr:postcode": "98035", "addr:street": "Via Schis\u00f2", "amenity": "restaurant", "cuisine": "italian_pizza", "name": "Materie Prime", "opening_hours": "Tu-Su 18:30-23:30"}}, {"type": "node", "id": 11193176537, "lat": 37.8544763, "lon": 15.2890405, "tags": {"amenity": "cafe", "cuisine": "coffee_shop;ice_cream", "name": "Don Diego", "opening_hours": "Mo-Su 08:00-23:30"}}, {"type": "node", "id": 11462986569, "lat": 37.8253961, "lon": 15.2692957, "tags": {"amenity": "restaurant", "name": "Sotto Sopra Restaurant Lounge Bar Music and More"}}, {"type": "node", "id": 11486053611, "lat": 37.8391801, "lon": 15.1445975, "tags": {"amenity": "cafe", "name": "Garden bar"}}, {"type": "node", "id": 11513774046, "lat": 37.7257014, "lon": 15.1841509, "tags": {"amenity": "cafe", "name": "Bar Edicola Callipoli", "newsagent": "yes"}}, {"type": "node", "id": 11513900905, "lat": 37.7289632, "lon": 15.1842571, "tags": {"amenity": "cafe", "name": "O' Sci\u00e0 Caf\u00e8", "outdoor_seating": "yes"}}, {"type": "node", "id": 11518882218, "lat": 38.1471436, "lon": 15.1612118, "tags": {"amenity": "restaurant", "name": "Sicily food"}}, {"type": "node", "id": 11519074332, "lat": 38.1278417, "lon": 15.1153891, "tags": {"amenity": "restaurant"}}, {"type": "node", "id": 11521326469, "lat": 38.1253062, "lon": 15.0630624, "tags": {"amenity": "restaurant", "name": "Riviera Azzurra"}}, {"type": "node", "id": 11521429935, "lat": 38.136467, "lon": 15.0437837, "tags": {"amenity": "restaurant", "name": "Agavos"}}, {"type": "node", "id": 11521454307, "lat": 38.1376984, "lon": 15.0411102, "tags": {"amenity": "restaurant"}}, {"type": "node", "id": 11521695322, "lat": 38.1484611, "lon": 14.9790195, "tags": {"amenity": "cafe", "indoor_seating": "yes", "name": "Play caf\u00e8", "outdoor_seating": "yes"}}, {"type": "node", "id": 11569260818, "lat": 38.0156523, "lon": 14.7856694, "tags": {"amenity": "cafe", "cuisine": "bistro", "email": "ass.lacascata@gmail.com", "facebook": "https://www.facebook.com/LaCascataParcodeiNebrodi/", "name": "Chioscola la Cascata", "phone": "+39 3203693277"}}, {"type": "node", "id": 11570019654, "lat": 37.9017724, "lon": 15.2992628}, {"type": "node", "id": 11570019655, "lat": 37.9018006, "lon": 15.2992539}, {"type": "node", "id": 11570019656, "lat": 37.9018062, "lon": 15.2992823}, {"type": "node", "id": 11570019657, "lat": 37.901887, "lon": 15.2992569}, {"type": "node", "id": 11570019658, "lat": 37.9018783, "lon": 15.2992125}, {"type": "node", "id": 11570019659, "lat": 37.9019145, "lon": 15.2992011}, {"type": "node", "id": 11570019660, "lat": 37.9018959, "lon": 15.2991062}, {"type": "node", "id": 11570019661, "lat": 37.9017507, "lon": 15.2991518}, {"type": "node", "id": 11591396037, "lat": 38.139478, "lon": 14.9682123, "tags": {"amenity": "cafe", "name": "Speedy Cafe"}}, {"type": "node", "id": 11635289154, "lat": 37.8589752, "lon": 15.276787, "tags": {"amenity": "cafe", "name": "Da Pippo"}}, {"type": "node", "id": 11697528739, "lat": 37.7220898, "lon": 15.182443, "tags": {"amenity": "restaurant"}}, {"type": "node", "id": 11697633186, "lat": 37.7311484, "lon": 15.1846804, "tags": {"amenity": "restaurant", "indoor_seating": "yes", "name": "Ferro di Cavallo", "outdoor_seating": "no"}}, {"type": "node", "id": 11699120380, "lat": 37.7829727, "lon": 14.8259787, "tags": {"amenity": "cafe", "name": "Bar Collina Verde"}}, {"type": "node", "id": 11699120401, "lat": 37.7837064, "lon": 14.8263485}, {"type": "node", "id": 11699120402, "lat": 37.7837599, "lon": 14.8264311}, {"type": "node", "id": 11699120403, "lat": 37.7837887, "lon": 14.8264012}, {"type": "node", "id": 11699120404, "lat": 37.7837351, "lon": 14.8263186}, {"type": "node", "id": 11771197713, "lat": 37.823982, "lon": 15.2723275, "tags": {"addr:city": "Giardini-Naxos", "addr:housenumber": "3", "addr:postcode": "98035", "addr:street": "Via Schis\u00f2", "amenity": "restaurant", "check_date": "2024-03-29", "contact:email": "info@lacambusaristorante.com", "currency:XBT": "yes", "name": "La Cambusa", "payment:lightning": "yes", "payment:lightning_contactless": "no", "payment:onchain": "no", "phone": "+39 09 425 2637", "website": "https://www.lacambusaristorante.com/"}}, {"type": "node", "id": 11826935749, "lat": 37.821239, "lon": 15.2680905, "tags": {"addr:housenumber": "14", "addr:street": "Viale Stracina", "amenity": "cafe", "name": "Ellena Bar&Tabacchi"}}, {"type": "node", "id": 11841013662, "lat": 37.851531, "lon": 15.2956152, "tags": {"amenity": "cafe", "name": "L'Obl\u00f2"}}, {"type": "node", "id": 11843352369, "lat": 37.8517461, "lon": 15.282381}, {"type": "node", "id": 11843352370, "lat": 37.8517568, "lon": 15.2821831}, {"type": "node", "id": 11843352371, "lat": 37.8516852, "lon": 15.2821763}, {"type": "node", "id": 11843352372, "lat": 37.8516789, "lon": 15.2822836}, {"type": "node", "id": 11843352373, "lat": 37.8516942, "lon": 15.282285}, {"type": "node", "id": 11843352374, "lat": 37.8516887, "lon": 15.2823905}, {"type": "node", "id": 11843352376, "lat": 37.8517396, "lon": 15.2823811}, {"type": "node", "id": 11843352377, "lat": 37.8517385, "lon": 15.2823985}, {"type": "node", "id": 11843352387, "lat": 37.8517283, "lon": 15.2823969}, {"type": "node", "id": 11843352391, "lat": 37.8516905, "lon": 15.2823562}, {"type": "node", "id": 11843352401, "lat": 37.8516911, "lon": 15.2823443, "tags": {"access": "customers", "entrance": "yes"}}, {"type": "node", "id": 11846520448, "lat": 37.8514263, "lon": 15.2898175, "tags": {"amenity": "restaurant", "cuisine": "italian", "indoor_seating": "yes", "name": "Al Giardino", "outdoor_seating": "terrace", "phone": "+393393001720", "website": "http://www.algiardino.net", "website:menu": "http://www.algiardino.net/menu/"}}, {"type": "node", "id": 11874814584, "lat": 37.8526175, "lon": 15.2898003}, {"type": "node", "id": 11874814585, "lat": 37.8525347, "lon": 15.2897325}, {"type": "node", "id": 11874814589, "lat": 37.8525243, "lon": 15.2897522}, {"type": "node", "id": 11874814590, "lat": 37.8525583, "lon": 15.2899256}, {"type": "node", "id": 11874814591, "lat": 37.8524691, "lon": 15.2898527}, {"type": "node", "id": 11884266369, "lat": 37.8163897, "lon": 15.2652695, "tags": {"addr:housenumber": "14", "addr:postcode": "98035", "addr:street": "Viale Jannuzzo", "amenity": "restaurant", "cuisine": "italian", "name": "Da Lino Trattoria Sicilia Bedda", "opening_hours": "Mo-Su 10:00-23:30", "phone": "+39 366 258 0407"}}, {"type": "node", "id": 11898826646, "lat": 37.7820163, "lon": 14.8348147}, {"type": "node", "id": 11898826647, "lat": 37.7820726, "lon": 14.8347824}, {"type": "node", "id": 11898826701, "lat": 37.7820228, "lon": 14.8346441}, {"type": "node", "id": 11898826702, "lat": 37.7820426, "lon": 14.834699}, {"type": "node", "id": 11906515831, "lat": 37.78765, "lon": 14.8306069, "tags": {"amenity": "cafe", "name": "Il Chioschetto"}}, {"type": "node", "id": 11914299642, "lat": 37.7822986, "lon": 14.828508, "tags": {"amenity": "cafe", "name": "Urban Coffee"}}, {"type": "node", "id": 11922287717, "lat": 38.050106, "lon": 14.8776411, "tags": {"amenity": "restaurant", "contact:facebook": "https://www.facebook.com/trattoriakeria", "cuisine": "italian;pizza", "level": "0", "name": "Keria"}}, {"type": "node", "id": 11928819819, "lat": 37.7833502, "lon": 14.8360457, "tags": {"amenity": "cafe", "name": "Siyah Coffe House"}}, {"type": "node", "id": 11931224252, "lat": 38.134244, "lon": 15.1667586, "tags": {"amenity": "restaurant", "contact:facebook": "https://www.facebook.com/profile.php?id=100093542954919", "contact:phone": "+39 379 172 3774", "cuisine": "pizza", "name": "L'angolo Della Pizza"}}, {"type": "node", "id": 11950505165, "lat": 38.1041365, "lon": 15.1582641, "tags": {"amenity": "restaurant", "cuisine": "italian", "name": "Agricola Rosa", "toilets": "yes"}}, {"type": "node", "id": 11964085711, "lat": 37.8166844, "lon": 15.2655465, "tags": {"amenity": "restaurant", "name": "La Tortuga"}}, {"type": "node", "id": 11964085712, "lat": 37.816613, "lon": 15.2654745, "tags": {"amenity": "restaurant", "name": "Da Toto"}}, {"type": "node", "id": 11964085713, "lat": 37.8164766, "lon": 15.2653311, "tags": {"amenity": "restaurant", "cuisine": "winebar & restuarant", "name": "Sikelia"}}, {"type": "node", "id": 11964085714, "lat": 37.8165695, "lon": 15.2654311, "tags": {"amenity": "restaurant", "name": "O\u2018Neil"}}, {"type": "node", "id": 11964085716, "lat": 37.8163442, "lon": 15.2651702, "tags": {"amenity": "restaurant", "name": "Cotto E Mangiato"}}, {"type": "node", "id": 11972400978, "lat": 37.7679895, "lon": 14.7891973}, {"type": "node", "id": 11972400979, "lat": 37.7677414, "lon": 14.7892952}, {"type": "node", "id": 11972400980, "lat": 37.7676955, "lon": 14.7891091}, {"type": "node", "id": 11972400981, "lat": 37.7679436, "lon": 14.7890112}, {"type": "node", "id": 11972548235, "lat": 37.8044045, "lon": 14.8061049}, {"type": "node", "id": 11972548236, "lat": 37.8043186, "lon": 14.8060995}, {"type": "node", "id": 11972548237, "lat": 37.8043208, "lon": 14.806176}, {"type": "node", "id": 11972548238, "lat": 37.8043568, "lon": 14.8062323}, {"type": "node", "id": 11972548239, "lat": 37.8044373, "lon": 14.8062403}, {"type": "node", "id": 11972548240, "lat": 37.8044681, "lon": 14.8062229}, {"type": "node", "id": 11972548241, "lat": 37.804538, "lon": 14.8060982}, {"type": "node", "id": 11972548242, "lat": 37.8044045, "lon": 14.8060848}, {"type": "node", "id": 12047460450, "lat": 38.1412003, "lon": 15.2172688, "tags": {"amenity": "restaurant", "contact:phone": "+39 090 979 6499", "contact:website": "https://sites.google.com/view/pizzeriadanatale/info", "cuisine": "italian;pizza", "level": "0", "name": "Da Natale", "reservation": "recommended", "takeaway": "yes", "toilets:access": "customers"}}, {"type": "node", "id": 12081770068, "lat": 37.8525081, "lon": 15.2883812, "tags": {"addr:city": "Taormina", "addr:housenumber": "13", "addr:street": "Via Calapitrulli", "air_conditioning": "yes", "amenity": "restaurant", "cuisine": "italian", "email": "prenotazioni@vineriamodi.com", "name": "Vineria Mod\u00ec", "phone": "+39094223658", "website": "https://www.vineriamodi.com"}}, {"type": "node", "id": 12097706974, "lat": 37.9020292, "lon": 15.1412705, "tags": {"addr:city": "Francavilla di Sicilia", "addr:housenumber": "60", "addr:postcode": "98034", "addr:street": "Via Cesare Battisti", "amenity": "cafe", "name": "Dolce & Salato"}}, {"type": "node", "id": 12104156494, "lat": 38.0879016, "lon": 14.8117723, "tags": {"amenity": "restaurant", "cuisine": "italian;friture;pasta", "name": "Ristorante La Baracca", "reservation": "recommended", "toilets": "yes", "toilets:access": "customers", "wheelchair": "yes"}}, {"type": "node", "id": 12115225402, "lat": 38.1497301, "lon": 15.0223925, "tags": {"addr:postcode": "98066", "addr:street": "Via Grotte", "amenity": "restaurant", "contact:facebook": "https://facebook.com/people/Terrazze-di-Giove/100063590171624", "name": "Terrazze di Giove", "phone": "+39 392 892 2517", "website": "https://www.terrazzedigiove.com/"}}, {"type": "node", "id": 12155965405, "lat": 37.7340697, "lon": 15.1855329, "tags": {"amenity": "restaurant", "name": "Chiacchiri e Muddica"}}, {"type": "node", "id": 12161973601, "lat": 37.8424734, "lon": 15.1414852, "tags": {"amenity": "restaurant", "name": "In Cucina dai Pennisi", "phone": "+39 095 643160", "website": "https://www.daipennisi.it"}}, {"type": "node", "id": 12165946325, "lat": 37.854288, "lon": 15.2839033, "tags": {"addr:city": "Taormina", "addr:housenumber": "16", "addr:postcode": "98039", "addr:street": "Via Madonna Rocca", "amenity": "restaurant", "cuisine": "italian", "name": "Al Saraceno", "opening_hours": "Mo-Su 12:00-14:30,19:00-23:30", "phone": "+393347224790", "website": "https://www.alsaraceno.it/"}}, {"type": "node", "id": 12168048325, "lat": 37.8533995, "lon": 15.2880177, "tags": {"addr:city": "Taormina", "addr:housenumber": "42", "addr:postcode": "98039", "addr:street": "Corso Umberto Primo", "amenity": "restaurant", "name": "Museo della pasta", "opening_hours": "Mo 11:30-24:00; Tu-Sa 11:00-24:00; Su 11:30-24:00", "phone": "+393202303901"}}, {"type": "node", "id": 12192483802, "lat": 38.1223586, "lon": 15.112801, "tags": {"amenity": "restaurant", "name": "Yacht Club Ristorante"}}, {"type": "node", "id": 12198466539, "lat": 38.1385796, "lon": 15.1414, "tags": {"amenity": "restaurant"}}, {"type": "node", "id": 12205292901, "lat": 38.1212902, "lon": 15.112321, "tags": {"amenity": "restaurant", "name": "Casual Restaurant & Lounge"}}, {"type": "node", "id": 12213530679, "lat": 38.0859652, "lon": 14.7341771, "tags": {"amenity": "restaurant", "name": "Antica Filanda"}}, {"type": "node", "id": 12222915140, "lat": 37.7867938, "lon": 14.8332512, "tags": {"amenity": "cafe", "check_date": "2024-10-04", "name": "Carpe Diem"}}, {"type": "node", "id": 12222915145, "lat": 37.785993, "lon": 14.8321784, "tags": {"amenity": "restaurant", "check_date": "2024-10-04", "name": "Gennarios Bistro"}}, {"type": "node", "id": 12224213309, "lat": 37.783259, "lon": 14.826145, "tags": {"amenity": "cafe", "check_date": "2024-10-05"}}, {"type": "node", "id": 12224213312, "lat": 37.7861648, "lon": 14.8330061, "tags": {"amenity": "restaurant", "check_date": "2024-10-05", "name": "Dolce Delizie"}}, {"type": "node", "id": 12224213322, "lat": 37.7829491, "lon": 14.8304568, "tags": {"amenity": "restaurant", "check_date": "2024-10-05", "cuisine": "pizza", "name": "Pizzeria"}}, {"type": "node", "id": 12224213327, "lat": 37.7835105, "lon": 14.8308417, "tags": {"amenity": "cafe", "check_date": "2024-10-05", "name": "Sciccherie Wine & Food"}}, {"type": "node", "id": 12224213338, "lat": 37.7834589, "lon": 14.8307511, "tags": {"amenity": "restaurant", "check_date": "2024-10-05", "cuisine": "italian", "name": "Gusto"}}, {"type": "node", "id": 12237329360, "lat": 38.0300086, "lon": 14.8243069, "tags": {"amenity": "cafe", "name": "Valerio Caf\u00e9 Pasticceria, Gelateria"}}, {"type": "node", "id": 12246617828, "lat": 38.1484644, "lon": 15.013541}, {"type": "node", "id": 12246617829, "lat": 38.1483656, "lon": 15.0135051}, {"type": "node", "id": 12246617830, "lat": 38.1483734, "lon": 15.013563}, {"type": "node", "id": 12246617910, "lat": 38.1484509, "lon": 15.0134543}, {"type": "node", "id": 12246617911, "lat": 38.1484008, "lon": 15.0134664}, {"type": "node", "id": 12246617912, "lat": 38.148406, "lon": 15.0134936}, {"type": "node", "id": 12246617925, "lat": 38.1484154, "lon": 15.0134629}, {"type": "node", "id": 12250897901, "lat": 37.854545, "lon": 15.2883799, "tags": {"amenity": "restaurant", "name": "La Cucina Di Riccobono"}}, {"type": "node", "id": 12451407601, "lat": 37.8781207, "lon": 14.9471414, "tags": {"amenity": "restaurant", "name": "Kaff Ristopub", "phone": "+39 347 8452242"}}, {"type": "node", "id": 12546578076, "lat": 37.8511376, "lon": 15.2809435, "tags": {"amenity": "restaurant", "name": "Veccia Taormina"}}, {"type": "node", "id": 12616153091, "lat": 38.1191508, "lon": 15.1248163, "tags": {"amenity": "cafe", "name": "Ciauru"}}, {"type": "node", "id": 12688270036, "lat": 37.8523159, "lon": 15.2930027, "tags": {"amenity": "cafe", "check_date": "2025-03-21"}}, {"type": "node", "id": 12714342516, "lat": 37.8539259, "lon": 15.2888036, "tags": {"amenity": "cafe", "changing_table": "yes", "changing_table:count": "1", "changing_table:location": "unisex_toilet", "indoor_seating": "yes", "level": "0", "name": "Caf\u00e9 Forastiero", "outdoor_seating": "yes", "toilets": "yes", "toilets:access": "customers", "toilets:disposal": "flush", "toilets:handwashing": "yes", "toilets:paper_supplied": "yes", "toilets:position": "seated", "toilets:wheelchair": "no", "wheelchair": "no"}}, {"type": "node", "id": 12714725192, "lat": 37.8551528, "lon": 15.3000149, "tags": {"amenity": "cafe"}}, {"type": "node", "id": 12714725214, "lat": 37.8554844, "lon": 15.3009119}, {"type": "node", "id": 12714725215, "lat": 37.8554844, "lon": 15.3008604}, {"type": "node", "id": 12714725216, "lat": 37.855427, "lon": 15.3008605}, {"type": "node", "id": 12714725217, "lat": 37.855427, "lon": 15.3008833}, {"type": "node", "id": 12714726944, "lat": 37.8525513, "lon": 15.2988669, "tags": {"amenity": "restaurant", "cuisine": "pizza", "name": "Ristorante Isola del Pescatore"}}, {"type": "node", "id": 12717107129, "lat": 37.8548923, "lon": 15.2882695, "tags": {"amenity": "restaurant", "name": "l\u2019Arco dei Cappuccini"}}, {"type": "node", "id": 12730789002, "lat": 37.87644, "lon": 14.9518924, "tags": {"amenity": "cafe", "outdoor_seating": "yes"}}, {"type": "node", "id": 12730789009, "lat": 37.8783881, "lon": 14.947785, "tags": {"amenity": "restaurant"}}, {"type": "node", "id": 12730789015, "lat": 37.8776905, "lon": 14.9497018, "tags": {"amenity": "cafe"}}, {"type": "node", "id": 12730789031, "lat": 37.8780076, "lon": 14.9507959, "tags": {"amenity": "cafe"}}, {"type": "node", "id": 12730789040, "lat": 37.7305679, "lon": 15.1975875, "tags": {"amenity": "cafe", "internet_access": "wlan", "internet_access:fee": "no", "name": "Moak"}}, {"type": "node", "id": 12764584801, "lat": 37.851608, "lon": 15.2850394, "tags": {"addr:housenumber": "6", "addr:postcode": "98039", "addr:street": "Via D'Orville", "amenity": "restaurant", "contact:facebook": "share/1AbC57YY1n", "cuisine": "buschenschank;coffee_shop;italian;noodles", "email": "salvopelegrino70@icloud.com", "name": "Ristorante La Scala", "opening_hours": "Mo-Su 11:00-02:00", "phone": "+39094224048", "website": "https://ristorantelascalataormina.it/se", "website:menu": "https://ristorantelascalataormina.it/menu/il-nostro-menu/"}}, {"type": "node", "id": 12770881848, "lat": 37.8546993, "lon": 15.2896739, "tags": {"addr:city": "Taormina", "addr:housenumber": "20", "addr:postcode": "98039", "addr:street": "Via Luigi Pirandello", "amenity": "restaurant", "name": "Ristorante Pirandello 2.0", "opening_hours": "Mo-Su 10:00-24:00", "phone": "+390942557411", "website": "https://www.ristorantepirandello20.com/"}}, {"type": "node", "id": 12770923241, "lat": 37.8894409, "lon": 15.1161278, "tags": {"addr:housenumber": "1", "addr:street": "Contrada Ponte San Nicola", "amenity": "restaurant", "name": "\"Al Ponte\" Risto-Degustazione", "opening_hours": "Mo, Fr, Su 12:30-15:30; We, Th 12:00-15:30, 19:00-23:00; Sa 12:00-15:00, 20:00-23:00", "phone": "+393426165619", "website": "https://www.alpontealcantara.it/"}}, {"type": "node", "id": 12778356386, "lat": 37.8521156, "lon": 15.2883921, "tags": {"amenity": "restaurant", "name": "Taverna don Nino"}}, {"type": "node", "id": 12847253977, "lat": 37.853203, "lon": 15.287537, "tags": {"amenity": "restaurant", "cuisine": "fish, pizza, italian", "indoor_seating": "yes", "name": "Grotta di Ulisse", "outdoor_seating": "pedestrian_zone", "smoking": "outside"}}, {"type": "node", "id": 12860958802, "lat": 38.0242464, "lon": 15.0103316, "tags": {"amenity": "restaurant", "cuisine": "italian;regional", "name:en": "Risorante La Taberna di Arnaldo"}}, {"type": "node", "id": 12861044501, "lat": 37.8549202, "lon": 15.2893301, "tags": {"amenity": "restaurant", "cuisine": "italian;seafood", "name:en": "Sapori do Mare"}}, {"type": "node", "id": 12862465301, "lat": 37.8586749, "lon": 15.2773766, "tags": {"amenity": "cafe", "cuisine": "caribbean;coffee_shop", "name:en": "Amuni"}}, {"type": "node", "id": 12882964201, "lat": 37.8785066, "lon": 14.9502908, "tags": {"addr:housenumber": "32", "addr:street": "Via Umberto Primo", "amenity": "restaurant", "cuisine": "italian", "name": "Il Brillo Parlante"}}, {"type": "node", "id": 12909970201, "lat": 37.852192, "lon": 15.2882979, "tags": {"amenity": "restaurant", "name": "Fanaberia"}}, {"type": "way", "id": 52071458, "nodes": [663698054, 663698058, 5895248227, 663698055, 663698054], "tags": {"amenity": "restaurant", "building": "yes", "name": "Chalet delle Ginestre"}}, {"type": "way", "id": 52195007, "nodes": [576318026, 576318028, 576318030, 576318021, 576318026], "tags": {"amenity": "cafe", "building": "yes", "name": "Caff\u00e8 100 Cavalli"}}, {"type": "way", "id": 52732754, "nodes": [669220239, 669220242, 669220241, 669220240, 669220239], "tags": {"amenity": "cafe", "building": "yes", "name": "Ritrovo dei Nebrodi"}}, {"type": "way", "id": 61120775, "nodes": [764636259, 764636296, 764636338, 764636281, 764636223, 764636128, 764636142, 764636231, 764636290, 764636186, 764636253, 764636309, 764636360, 764636349, 764636259], "tags": {"amenity": "restaurant", "building": "yes", "cuisine": "italian", "name": "Ristorante Monte Conca"}}, {"type": "way", "id": 118147891, "nodes": [1329443289, 1329443990, 1329444129, 1329443263, 1329443617, 1329442796, 1329442419, 1329443289], "tags": {"amenity": "cafe", "authorization": "23", "building": "kiosk", "name": "Chiosco La Sciara", "tobacco": "yes"}}, {"type": "way", "id": 127966066, "nodes": [1415074719, 1415074752, 1415074706, 1415074659, 1415074719], "tags": {"amenity": "cafe", "building": "yes", "outdoor_seating": "yes", "takeaway": "yes"}}, {"type": "way", "id": 128118950, "nodes": [1416519945, 1416519928, 1416519931, 1416519942, 1416519944, 1416519930, 1416519929, 1416519919, 1416519918, 1416519913, 1416519912, 1416519922, 1416519921, 1416519943, 1416519945], "tags": {"amenity": "restaurant", "building": "yes", "name": "Etna Wine Agriturismo", "website": "https://www.etnawineagriturismo.com/"}}, {"type": "way", "id": 128284571, "nodes": [1418025266, 1418025231, 1418025237, 1418025255, 1418025256, 1418025274, 1418025266], "tags": {"amenity": "restaurant", "building": "yes", "name": "Gatto Blu"}}, {"type": "way", "id": 128391639, "nodes": [1419090580, 10895064095, 1419090648, 1419090645, 1419090615, 1419090576, 1419090580], "tags": {"amenity": "restaurant", "building": "yes", "cuisine": "regional", "phone": "+39 3290725005"}}, {"type": "way", "id": 128391704, "nodes": [1419091067, 1419091044, 1419091025, 1419091008, 1419090986, 1419090983, 1419090980, 1419091012, 1419091067], "tags": {"amenity": "cafe", "building": "yes"}}, {"type": "way", "id": 128527159, "nodes": [1420224758, 1420224789, 1420224908, 1420224973, 1420224814, 1420224894, 10885424572, 1420224990, 1420224984, 1420225075, 1420225006, 1420224758], "tags": {"amenity": "restaurant", "building": "yes", "contact:mobile": "+39 348 8921637", "cuisine": "regional", "name": "La Bifora"}}, {"type": "way", "id": 141328280, "nodes": [1547102508, 1547102497, 1547102495, 1547102501, 1547102508], "tags": {"amenity": "restaurant", "building": "yes", "cuisine": "italian", "name": "La Casa del Laghetto", "website": "http://www.lacasadellaghetto.it/"}}, {"type": "way", "id": 142247223, "nodes": [1557026721, 1557026709, 1557026705, 1557026697, 1557026701, 1557026669, 1557026666, 1557026693, 1557026686, 1557026711, 1557026715, 1557026718, 1557026721], "tags": {"amenity": "restaurant", "building": "yes", "cuisine": "italian", "name": "Borgata Baldazza", "tourism": "guest_house", "website": "http://www.borgatabaldazza.com/", "wheelchair": "yes", "wikidata": "Q111879751"}}, {"type": "way", "id": 154915243, "nodes": [1673720159, 1673720164, 1673720161, 1673720154, 1673720159], "tags": {"amenity": "restaurant", "cuisine": "regional", "ele": "1500", "name": "Clan dei Ragazzi", "operator": "Mediterranea Rifugi soc. Coop.", "phone": "+39 095 643611", "ref:vatin": "IT05280610873", "source": "gps", "tourism": "hostel", "website": "https://www.chaletclandeiragazzi.it/lo-chalet/"}}, {"type": "way", "id": 230384987, "nodes": [941457423, 2388944390, 941457402, 941457435, 941457423], "tags": {"amenity": "restaurant", "building": "yes", "name": "I Mastri Flavetta"}}, {"type": "way", "id": 233734860, "nodes": [2420748268, 2420748274, 2420748282, 2420748270, 2420748268], "tags": {"addr:street": "Corso Cristoforo Colombo", "amenity": "cafe", "building": "yes", "name": "Pennyroyal Caf\u00e8", "operator": "Micari Pasquale", "outdoor_seating": "yes", "ref:vatin": "IT03366190837", "takeaway": "yes"}}, {"type": "way", "id": 233734868, "nodes": [2420748710, 2420748677, 2419976136, 2420748658, 2420748699, 2420748710], "tags": {"amenity": "restaurant", "building": "yes"}}, {"type": "way", "id": 233746598, "nodes": [2420856882, 2877447311, 2877447312, 2420856872, 2420856855, 2420856867, 2877447315, 2877447313, 2877447314, 2420856882], "tags": {"addr:city": "Oliveri", "addr:postcode": "98060", "addr:street": "Via Roma", "amenity": "restaurant", "building": "yes", "cuisine": "italian", "name": "L'Aragosta", "phone": "+39 0941 313831", "smoking": "no", "website": "https://www.ristorantepizzerialaragosta.it/", "wheelchair": "yes"}}, {"type": "way", "id": 239666031, "nodes": [2474426944, 2474426964, 2474426975, 2474426966, 2474426972, 2474426961, 2474426969, 2474426955, 2474426951, 2474426944], "tags": {"amenity": "restaurant", "building": "yes", "cuisine": "pizza", "name": "Mokambo"}}, {"type": "way", "id": 242384651, "nodes": [2498675812, 2498675811, 2498675821, 2498675824, 2498675851, 2498675852, 2498675829, 2498675831, 2498675812], "tags": {"amenity": "restaurant", "building": "yes", "name": "Quadrifoglio"}}, {"type": "way", "id": 263492654, "nodes": [2691083950, 2691083951, 5073045193, 5073045194, 5073045195, 2691083949, 5073045191, 5073045192, 2691083948, 2691083950], "tags": {"amenity": "restaurant", "building": "yes", "building:levels": "1", "cuisine": "regional;ice_cream;grill;cake;sausage;mediterranean;friture;local;coffee_shop;pasta;italian;deli;diner", "name": "La fermata", "smoking": "no", "wheelchair": "no"}}, {"type": "way", "id": 272406825, "nodes": [2773439849, 2773439852, 2773439844, 2773439851, 2773439846, 2773439826, 2773439841, 2773439849], "tags": {"addr:city": "Taormina", "addr:housenumber": "28", "addr:postcode": "98039", "addr:street": "Via Luigi Pirandello", "amenity": "restaurant", "building": "yes", "name": "Ristorante Pizzeria Bella Blu", "phone": "+39094224239", "source": "survey"}}, {"type": "way", "id": 275660789, "nodes": [2803197743, 2803198294, 2803197745, 2803198014, 2803197743], "tags": {"amenity": "restaurant", "building": "yes", "check_date": "2023-06-06", "name": "Frontemare Lido di Naxos"}}, {"type": "way", "id": 277160573, "nodes": [2816897162, 2816897163, 2816897161, 2816897160, 2816897162], "tags": {"amenity": "restaurant", "building": "yes", "cuisine": "regional", "name": "Ristorante Portella Gazzana"}}, {"type": "way", "id": 283936579, "nodes": [2877447316, 2877447317, 2877447318, 2877447319, 2877447320, 2877447321, 2877447322, 2877447316], "tags": {"addr:city": "Oliveri", "addr:housenumber": "50", "addr:postcode": "98060", "addr:street": "Via Roma", "amenity": "restaurant", "building": "yes", "cuisine": "italian", "name": "La Ficarazza 2.0", "phone": "+39 0941 314517", "smoking": "no", "wheelchair": "yes"}}, {"type": "way", "id": 293152707, "nodes": [2660806897, 2660806864, 2967261508, 4639631159, 2660806897], "tags": {"amenity": "restaurant", "building": "yes", "check_date": "2024-10-19", "cuisine": "italian", "name": "Lido Tropicana"}}, {"type": "way", "id": 318985259, "nodes": [3253913487, 3253913492, 3253913496, 3253913499, 3253913503, 3253913504, 3253913508, 3253913477, 3253913487], "tags": {"amenity": "restaurant", "building": "yes", "name": "Al Santuario"}}, {"type": "way", "id": 328744767, "nodes": [2660806869, 4639631162, 4639631161, 2660806890, 4639631163, 2660806869], "tags": {"amenity": "restaurant", "building": "yes", "check_date": "2024-10-19", "cuisine": "pizza", "name": "Lido Mazzeo"}}, {"type": "way", "id": 330499327, "nodes": [3374677004, 3374677005, 3374677006, 3374677007, 3374677004], "tags": {"amenity": "restaurant", "building": "yes", "check_date": "2024-10-19", "name": "Lido Sole Luna"}}, {"type": "way", "id": 330503840, "nodes": [3374717347, 3374717348, 2660806873, 2660806894, 2660806896, 2660806876, 3374717352, 3374717347], "tags": {"amenity": "restaurant", "building": "yes", "check_date": "2024-10-19", "name": "Lido Copacabana"}}, {"type": "way", "id": 338372831, "nodes": [3454486819, 3454486820, 3454486821, 3454486822, 3454486819], "tags": {"amenity": "restaurant", "building": "yes", "check_date": "2024-10-19", "name": "Pizzeria Ciao Ciao"}}, {"type": "way", "id": 338405464, "nodes": [3454841295, 3454841296, 3454841297, 3454841298, 3454841295], "tags": {"amenity": "restaurant", "building": "yes", "check_date": "2024-10-19", "cuisine": "italian_pizza;mediterranean", "name": "Lido Ristorante Flamingo"}}, {"type": "way", "id": 338406516, "nodes": [3696451971, 3454851447, 3454851448, 3454851449, 3696451971], "tags": {"amenity": "restaurant", "building": "yes", "name": "Pizzeria SeiNodi"}}, {"type": "way", "id": 338406517, "nodes": [3454851450, 3454851451, 3454851452, 3454851453, 3454851450], "tags": {"amenity": "restaurant", "building": "yes", "name": "Lido Ristorante da Nino"}}, {"type": "way", "id": 338407022, "nodes": [3454855265, 3454855266, 3454855267, 2660830987, 3454855265], "tags": {"amenity": "restaurant", "building": "yes", "name": "Lido Ristorante da Peppe le Strand"}}, {"type": "way", "id": 338407116, "nodes": [3454851359, 3454851360, 3454851361, 3454851362, 3454851359], "tags": {"amenity": "restaurant", "building": "yes", "name": "Lido Ristorante la Viletta"}}, {"type": "way", "id": 338408256, "nodes": [3454866836, 4624913715, 3454866837, 3454866838, 3454866839, 3454866836], "tags": {"amenity": "restaurant", "building": "yes", "name": "Ristorante Mezza Luna"}}, {"type": "way", "id": 365631117, "nodes": [3696387186, 3696387187, 3696387188, 3696387189, 3696387186], "tags": {"amenity": "cafe", "building": "yes", "name": "Eric Bar"}}, {"type": "way", "id": 365644464, "nodes": [3696493268, 3696493269, 3696493270, 3696493271, 4124149990, 3696493268], "tags": {"amenity": "restaurant", "building": "yes", "name": "Lido Caparena"}}, {"type": "way", "id": 390174081, "nodes": [3933369004, 4781776030, 3933369005, 3933369006, 3933369007, 3933369008, 3933369009, 3933369004], "tags": {"amenity": "restaurant", "building": "yes", "name": "Bocci\u00f2la", "phone": "+39 0942 28102"}}, {"type": "way", "id": 390174118, "nodes": [3933369286, 3933369287, 3933369288, 3933369289, 3933369286], "tags": {"addr:postcode": "98030", "addr:street": "Piazza Sant'Antonino", "amenity": "cafe", "building": "yes", "check_date": "2025-05-03", "cuisine": "pizza;regional", "indoor_seating": "yes", "name": "Antico Caff\u00e8 San Giorgio", "name:es": "Antiguo caf\u00e9 San Jorge", "opening_hours": "Mo-Su 07:30-23:00; Su 08:00-23:30", "outdoor_seating": "terrace", "payment:credit_cards": "yes", "payment:debit_cards": "yes", "phone": "+39094228228", "website": "https://www.barsangiorgio.com/"}}, {"type": "way", "id": 390174119, "nodes": [3933369288, 3933369289, 3933369292, 3933369293, 3933369288], "tags": {"amenity": "restaurant", "building": "yes", "building:colour": "#ffe0a0", "cuisine": "italian", "indoor_seating": "yes", "name": "Pizzeria Nina", "opening_hours": "Mo-Su 07:30-23:00", "outdoor_seating": "terrace", "payment:credit_cards": "yes", "payment:debit_cards": "yes", "phone": "+39 0942 28228", "website": "https://www.barsangiorgio.com"}}, {"type": "way", "id": 391121017, "nodes": [3942776273, 3942776274, 3942776275, 3942776276, 3942776277, 3942776273], "tags": {"amenity": "restaurant", "building": "yes", "name": "Ristorante Pizzichella"}}, {"type": "way", "id": 391121018, "nodes": [3942776278, 3942776279, 3942776280, 3942776281, 3942776282, 3942776283, 3942776284, 3942776285, 3942776286, 3942776287, 3942776278], "tags": {"amenity": "restaurant", "building": "yes"}}, {"type": "way", "id": 391121790, "nodes": [3942785435, 3942785436, 3942785437, 3942785438, 3942785435], "tags": {"addr:city": "Spiaggia Mazzar\u00f2", "amenity": "restaurant", "building": "yes", "cuisine": "italian", "name": "Trattoria Il Barcaiolo"}}, {"type": "way", "id": 391121928, "nodes": [12714725217, 12714725216, 12714725215, 12714725214, 3942786435, 3942786434, 3942786433, 3942786432, 3942786431, 3942786430, 12714725217], "tags": {"amenity": "restaurant", "building": "yes", "cuisine": "italian", "name": "Lido il Delfino"}}, {"type": "way", "id": 391122640, "nodes": [3942772416, 3942772417, 3942772418, 3942772419, 3942772420, 3942772421, 3942772422, 3942772423, 3942772424, 3942772425, 3942772426, 3942772427, 3942772428, 3942772416], "tags": {"amenity": "restaurant", "building": "yes", "name": "Lido La Pigna"}}, {"type": "way", "id": 391123774, "nodes": [3942802837, 3942802838, 3942802839, 3942802840, 3942802841, 3942802842, 3942802843, 3942802837], "tags": {"addr:city": "Taormina", "addr:housenumber": "159", "addr:street": "Via Nazionale", "amenity": "restaurant", "building": "yes", "cuisine": "italian", "name": "Ristorante Il Baia"}}, {"type": "way", "id": 391907270, "nodes": [3951684559, 3951684658, 4498234190, 3951686257, 3951686258, 3951683159, 3951686357, 3951684560, 3951686358, 3951684659, 3951684660, 3951684561, 3951684661, 3951684662, 3951686259, 3951684663, 3951686260, 4170564617, 3951684559], "tags": {"addr:city": "Sinagra", "addr:country": "IT", "addr:street": "Contrada Forte", "amenity": "restaurant", "building": "yes", "contact:email": "fratelli@trattoriaborrello.it", "contact:phone": "+39 0941 594844", "contact:website": "www.trattoriaborrello.it", "cuisine": "regional", "level": "0", "name": "Fratelli Borrello"}}, {"type": "way", "id": 400191452, "nodes": [3403595914, 4027976907, 4027976908, 4222171167, 3403595913, 3403595914], "tags": {"amenity": "cafe", "building": "yes", "name": "Angolo dei sapori"}}, {"type": "way", "id": 400191459, "nodes": [4027976935, 4027976936, 4027976937, 4027976938, 4027976935], "tags": {"amenity": "restaurant", "building": "yes", "check_date": "2024-10-19", "name": "Ristorante Sicilia Bedda"}}, {"type": "way", "id": 400199038, "nodes": [4028042140, 4028042141, 4028042142, 4028042143, 4028042140], "tags": {"amenity": "restaurant", "building": "yes"}}, {"type": "way", "id": 400199714, "nodes": [4028047283, 4028047284, 4028047285, 4028047286, 4028047283], "tags": {"amenity": "restaurant", "building": "yes", "name": "Lido La Capinera"}}, {"type": "way", "id": 402625398, "nodes": [4050066034, 4050066036, 4050066037, 4050066038, 4050066039, 4050066040, 4050066034], "tags": {"amenity": "restaurant", "building": "yes", "building:levels": "1", "internet_access": "wlan", "name": "Ristorante La Lanterna"}}, {"type": "way", "id": 402625401, "nodes": [4050066046, 4050066047, 4050066048, 4050066049, 4050066050, 4050066046], "tags": {"amenity": "restaurant", "building": "yes", "check_date": "2023-06-11", "name": "Angelina"}}, {"type": "way", "id": 402625402, "nodes": [4050066051, 4050066052, 4050066053, 4050066054, 4050066055, 4050066051], "tags": {"addr:housenumber": "36", "amenity": "restaurant", "building": "yes", "check_date": "2023-06-11", "contact:email": "prenotazioni@lasirenarooms.it", "contact:mobile": "+39 346 3142822", "name": "La Sirena", "phone": "+39 0942 51853", "website": "https://www.lasirenarooms.it/"}}, {"type": "way", "id": 402625404, "nodes": [4050066056, 4154136541, 4050066057, 4050066058, 4050066059, 4050066056], "tags": {"amenity": "restaurant", "building": "yes", "check_date": "2023-06-11", "name": "Royal Bar"}}, {"type": "way", "id": 402625405, "nodes": [4050066060, 4050066061, 4050066062, 4050066063, 4050066060], "tags": {"amenity": "restaurant", "building": "yes", "check_date": "2023-06-11", "name": "La Cambusa"}}, {"type": "way", "id": 404998084, "nodes": [4072301529, 4072301530, 4072301531, 4072301532, 4072301529], "tags": {"amenity": "restaurant", "building": "yes", "cuisine": "italian", "name": "Trattoria Pizzeria il Porticciolo"}}, {"type": "way", "id": 405003345, "nodes": [4072345445, 4072345446, 4072345447, 4072345448, 4072345445], "tags": {"amenity": "restaurant", "building": "yes", "name": "Pizzeria da Lino"}}, {"type": "way", "id": 405006336, "nodes": [4072370304, 4072370306, 4072370307, 4072370308, 4072370304], "tags": {"amenity": "restaurant", "building": "yes"}}, {"type": "way", "id": 405006338, "nodes": [4072370314, 4072370315, 4072370316, 4072370317, 4072370314], "tags": {"amenity": "cafe", "building": "yes", "name": "Caff\u00e8 Cavallaro"}}, {"type": "way", "id": 410609980, "nodes": [4124162105, 4124162106, 4124162107, 4124162108, 4124162105], "tags": {"amenity": "restaurant", "building": "yes", "cuisine": "pizza"}}, {"type": "way", "id": 410612523, "nodes": [3942802837, 4124173516, 4124173517, 4124173518, 3942802843, 3942802837], "tags": {"amenity": "restaurant", "building": "yes", "name": "Ristorante Il Gabbiano"}}, {"type": "way", "id": 410613269, "nodes": [4124173516, 4124175148, 4124175149, 4124175150, 4124175151, 4124173518, 4124173517, 4124173516], "tags": {"amenity": "restaurant", "building": "yes", "name": "Ristorante da Giovanni"}}, {"type": "way", "id": 411472383, "nodes": [4131317862, 3696493288, 3696493289, 4131317863, 4131317864, 4131317865, 4131317866, 4131317862], "tags": {"amenity": "restaurant", "building": "yes", "name": "Lido Ipanema Beach Club"}}, {"type": "way", "id": 411472384, "nodes": [4131317867, 4131317868, 4131317869, 4131317871, 4131317867], "tags": {"amenity": "restaurant", "building": "yes", "name": "Lido Re del Sole"}}, {"type": "way", "id": 411472385, "nodes": [4131317872, 4131317873, 4131317874, 4131317875, 4131317872], "tags": {"amenity": "restaurant", "building": "yes", "name": "Lido Borromeo"}}, {"type": "way", "id": 411472386, "nodes": [4131317876, 4131317877, 4131317878, 4131317879, 4131317876], "tags": {"amenity": "restaurant", "building": "yes", "name": "Hotel Borromeo Resort"}}, {"type": "way", "id": 411472387, "nodes": [4131317879, 4131317880, 4131317881, 4131317878, 4131317879], "tags": {"amenity": "restaurant", "building": "yes", "name": "La Capinera"}}, {"type": "way", "id": 411472388, "nodes": [4131317882, 4131317883, 4131317884, 4131317885, 4131317882], "tags": {"amenity": "restaurant", "building": "yes", "name": "Lido la Dolce Vita"}}, {"type": "way", "id": 411474311, "nodes": [4131331741, 5057562236, 5057562235, 2660854368, 5057562234, 5057562225, 5057562226, 5057562227, 5057562228, 2660854372, 4131331744, 5057562229, 5057562230, 4028047804, 5057562231, 5057562232, 5057562233, 4131331741], "tags": {"amenity": "restaurant", "building": "yes", "name": "Lido Caravella"}}, {"type": "way", "id": 411476280, "nodes": [4131341746, 4131341747, 4131341748, 4131341749, 4131341746], "tags": {"amenity": "restaurant", "building": "yes", "name": "Ristorante Lido Spisone"}}, {"type": "way", "id": 411481264, "nodes": [4131380392, 4131380393, 4131380394, 4131380395, 4131380396, 4131380397, 4738016135, 2660854307, 4738016134, 4131380400, 4131380401, 4131380402, 4131380403, 4131380404, 4131380392], "tags": {"amenity": "restaurant", "building": "yes", "name": "Lido Stockolmo"}}, {"type": "way", "id": 411506322, "nodes": [4131567178, 4131567179, 4131567180, 4131567181, 4131567182, 4131567123, 4131567178], "tags": {"amenity": "restaurant", "building": "yes", "name": "Ristorante la Baia"}}, {"type": "way", "id": 412850515, "nodes": [4141810676, 4141810677, 4141810678, 4141810679, 4141810680, 4141810681, 4141810682, 4141810683, 4141810676], "tags": {"amenity": "restaurant", "building": "yes", "name": "Pizzeria Squisito"}}, {"type": "way", "id": 413054865, "nodes": [4143854634, 4143854635, 4143854636, 4143854637, 4143854634], "tags": {"amenity": "restaurant", "building": "yes", "check_date": "2024-10-19", "name": "Lido Maniel Beach"}}, {"type": "way", "id": 414886046, "nodes": [4160281504, 4160282089, 4160282090, 4160282091, 4160281503, 4160281504], "tags": {"amenity": "restaurant", "building": "yes", "name": "Bar Pizzeria Agua de Mar"}}, {"type": "way", "id": 442025228, "nodes": [4397150785, 4397150786, 4397150787, 4397150788, 4397150789, 4397150790, 4397150785], "tags": {"addr:city": "San Piero Patti", "addr:housenumber": "5", "addr:postcode": "98068", "addr:street": "Strada Provinciale 122 Pattese", "amenity": "restaurant", "building": "yes", "cuisine": "italian;regional", "diet:gluten_free": "yes", "diet:local": "yes", "diet:meat": "yes", "diet:vegan": "yes", "diet:vegetarian": "yes", "name": "Agriturismo Il Daino"}}, {"type": "way", "id": 453015022, "nodes": [3951684658, 4498234195, 4498234191, 4498234201, 4498234194, 4498234204, 4498234196, 4498234190, 3951684658], "tags": {"addr:city": "Sinagra", "addr:country": "IT", "addr:street": "Contrada Forte", "amenity": "restaurant", "building": "yes", "cuisine": "regional", "level": "-1", "name": "Angelo Borrello"}}, {"type": "way", "id": 457464744, "nodes": [4536078095, 4536077754, 4536077758, 4536078113, 4536077774, 4536078095], "tags": {"amenity": "restaurant", "building": "yes", "building:levels": "1", "cuisine": "italian", "name": "La Camelia"}}, {"type": "way", "id": 467907749, "nodes": [4624913714, 4624913715, 3454866837, 4624913712, 4624913714], "tags": {"amenity": "restaurant", "building": "yes"}}, {"type": "way", "id": 468144812, "nodes": [4627069307, 4627069308, 4627069309, 4627069310, 4627069307], "tags": {"amenity": "restaurant", "building": "yes", "name": "Blue Ice"}}, {"type": "way", "id": 468144813, "nodes": [4627069311, 4627069312, 4627069313, 4627069314, 4627069311], "tags": {"amenity": "restaurant", "building": "yes", "name": "Pino Verde"}}, {"type": "way", "id": 474313261, "nodes": [4682994369, 4682994370, 4682994371, 4682994372, 4682994369], "tags": {"amenity": "restaurant", "building": "yes"}}, {"type": "way", "id": 475481131, "nodes": [4692210791, 4692210792, 4692210793, 4692210794, 4692210791], "tags": {"amenity": "restaurant", "building": "yes"}}, {"type": "way", "id": 475481843, "nodes": [4692216765, 4692216766, 4692216767, 4692216768, 4692216765], "tags": {"amenity": "restaurant", "building": "yes", "name": "Porto Azzurro"}}, {"type": "way", "id": 475485684, "nodes": [4692253674, 2663366162, 4692249930, 4692311499, 4692253674], "tags": {"amenity": "restaurant", "building": "yes", "name": "Lido Europa"}}, {"type": "way", "id": 475485685, "nodes": [4692253674, 4692253676, 4692253677, 4692249929, 4692253678, 4692253679, 2663366162, 4692253674], "tags": {"amenity": "restaurant", "building": "yes", "name": "Lido da Angelo"}}, {"type": "way", "id": 475493018, "nodes": [4692339670, 4692339671, 4692339674, 4692339675, 4692339670], "tags": {"amenity": "restaurant", "building": "yes", "check_date": "2023-06-06", "internet_access": "wlan", "name": "Lido La Romantica"}}, {"type": "way", "id": 475493020, "nodes": [4692339676, 4692339677, 4692339678, 4692339679, 4692339676], "tags": {"amenity": "restaurant", "building": "yes", "name": "Lido Sayonara"}}, {"type": "way", "id": 475493022, "nodes": [4692339680, 4692339681, 4692339682, 4692339683, 4692339680], "tags": {"amenity": "restaurant", "building": "yes", "name": "Ristorante Arcobaleno"}}, {"type": "way", "id": 478487830, "nodes": [4717036335, 5040648718, 2803198148, 4717036332, 4717036335], "tags": {"amenity": "restaurant", "building": "yes", "name": "Dal Pirata Beach"}}, {"type": "way", "id": 487455863, "nodes": [4799093792, 4799093791, 4799093790, 4799093789, 4799093788, 4799093787, 4799093786, 4799093785, 4799093792], "tags": {"amenity": "cafe", "building": "commercial", "name": "Bar Bartolone"}}, {"type": "way", "id": 489889802, "nodes": [4820995902, 4820995901, 4820995900, 4820995897, 4820995902], "tags": {"amenity": "cafe", "building": "kiosk", "name": "Malib\u00f9"}}, {"type": "way", "id": 516467370, "nodes": [5041714923, 5041714922, 5041714921, 5041714920, 5041714919, 5041714918, 5041714923], "tags": {"addr:city": "Taormina", "addr:housenumber": "88", "addr:postcode": "98039", "addr:street": "Via Luigi Pirandello", "amenity": "restaurant", "building": "yes", "name": "Ristorante Villa Antonio"}}, {"type": "way", "id": 527453255, "nodes": [5127832816, 5127832817, 5127832818, 5127832819, 5127832820, 5127833521, 5127832816], "tags": {"addr:city": "Patti", "addr:housenumber": "3", "addr:postcode": "98066", "addr:street": "Via Messina", "amenity": "restaurant", "building": "yes", "contact:facebook": "lidojohnnyspizza", "cuisine": "pizza", "indoor_seating": "no", "name": "Lido Johnny's pizza", "outdoor_seating": "yes", "phone": "+39 331 947 4408"}}, {"type": "way", "id": 527453256, "nodes": [12246617830, 12246617829, 12246617912, 12246617911, 12246617925, 12246617910, 12246617828, 12246617830], "tags": {"addr:city": "Patti", "addr:hamlet": "Mongiove", "addr:housenumber": "17", "addr:postcode": "98066", "addr:street": "Via Napoli", "amenity": "restaurant", "building": "yes", "contact:facebook": "https://facebook.com/people/Da-Betta-Ristorante-Pizzeria/100062993272411", "cuisine": "italian;pizza;regional", "email": "giuseppebetta10@gmail.com", "name": "Da Betta", "phone": "0941 334 351", "website": "https://www.dabetta.it/"}}, {"type": "way", "id": 530764739, "nodes": [5153256581, 5153256582, 5153256583, 5153256584, 5153256581], "tags": {"addr:city": "Librizzi", "addr:housenumber": "222", "addr:postcode": "98064", "addr:street": "Via Generale Carlo Alberto Dalla Chiesa", "amenity": "restaurant", "building": "yes", "cuisine": "regional;italian", "name": "Il rosmarino"}}, {"type": "way", "id": 551030001, "nodes": [5321742723, 5321742724, 5321742725, 5321742726, 5321742727, 5321742728, 5321742723], "tags": {"amenity": "restaurant", "building": "yes", "name": "L'Antica Taverna del Castagno"}}, {"type": "way", "id": 616358727, "nodes": [5827597282, 5827597281, 5827597280, 5827597279, 5827597278, 5827597277, 5827597276, 5827597275, 5827597274, 5827597273, 5827597272, 5827597271, 5827597282], "tags": {"amenity": "restaurant", "cuisine": "noodle", "name": "Da Antonella", "operator": "Privato", "tourism": "guest_house", "wheelchair": "yes"}}, {"type": "way", "id": 623705683, "nodes": [2472176108, 5889734699, 5889734700, 5889734701, 5889734702, 5889734703, 2472176108], "tags": {"amenity": "restaurant", "building": "yes", "name": "Borgo del Saraceno"}}, {"type": "way", "id": 719024440, "nodes": [6751083584, 6751084115, 6751083579, 6751084087, 6751084102, 6751083584], "tags": {"amenity": "restaurant", "building": "yes"}}, {"type": "way", "id": 732244783, "nodes": [6856576013, 6856576012, 6856576011, 6856576010, 6856576009, 6856576008, 6856576013], "tags": {"amenity": "restaurant", "building": "yes", "name": "Trattoria Fabio"}}, {"type": "way", "id": 762044612, "nodes": [7119914604, 7119914603, 7119914602, 7119914601, 7119914631, 7119914629, 7119914623, 7119914600, 7119914599, 7119914598, 7119914597, 7119914596, 7119914595, 7119914594, 7119914593, 7119914592, 7119914591, 7119914590, 7119914589, 7119914588, 4753009786, 7119914587, 7119914586, 7119914585, 7119911584, 7119911583, 7119911582, 7119911581, 7119914604], "tags": {"amenity": "restaurant", "contact:email": "info@etnaquotamille.it", "contact:mobile": "+39 328 4283799", "contact:phone": "+39 095 5187293", "cuisine": "regional", "name": "Etna Quota Mille", "nohousenumber": "yes", "official_name": "Turismo Rurale Etna Quota Mille", "ref:vatin": "IT03795000870", "short_name": "Quota Mille", "website": "https://www.etnaquotamille.it/", "wheelchair": "yes"}}, {"type": "way", "id": 766514623, "nodes": [7159061495, 7159061494, 7159061493, 7159061492, 7159061495], "tags": {"amenity": "cafe", "authorization": "24", "building": "yes", "tobacco": "yes"}}, {"type": "way", "id": 793823586, "nodes": [7425466582, 7622608325, 7425466581, 7622608328, 7622608327, 7425466578, 7425466577, 7425466576, 7425466575, 7622608326, 7622608329, 7622608324, 7425466582], "tags": {"amenity": "restaurant", "building": "yes", "changing_table": "yes", "cuisine": "italian;pasta", "level": "0", "name": "Villa Ribot", "outdoor_seating": "yes", "phone": "+39 338 656 0294", "reservation": "recommended", "toilets": "yes", "toilets:access": "customers", "wheelchair": "limited"}}, {"type": "way", "id": 916838459, "nodes": [8515504221, 8515504222, 8515504223, 8515504224, 8515504225, 8515504226, 8515504227, 8515504221], "tags": {"amenity": "restaurant", "building": "yes", "name": "Ristorante Donna roaa (Giardino interno)"}}, {"type": "way", "id": 1086171042, "nodes": [9952442116, 9952442115, 9952442114, 9952442118, 9952442116], "tags": {"amenity": "cafe", "building": "retail", "name": "Bar Monaco"}}, {"type": "way", "id": 1087028999, "nodes": [9959899508, 9959899505, 9959899506, 9959899507, 9959899508], "tags": {"amenity": "cafe", "building": "commercial", "name": "Pub Lo Chalet"}}, {"type": "way", "id": 1089007399, "nodes": [9976516676, 4589063174, 9976516677, 9976516675, 9976516676], "tags": {"addr:city": "Montalbano Elicona", "addr:housenumber": "42", "addr:postcode": "98065", "addr:street": "Corso Principe Umberto", "air_conditioning": "yes", "amenity": "restaurant", "bar": "yes", "building": "yes", "cuisine": "italian", "name": "Il Focolare", "opening_hours": "Mo-Su 09:00-23:00", "phone": "0941679135", "website": "https://il-focolare.metro.bar/?lang=it"}}, {"type": "way", "id": 1160774133, "nodes": [11898826647, 11898826646, 10796030508, 10796030511, 11898826701, 11898826702, 11898826647], "tags": {"amenity": "cafe", "authorization": "21", "building": "yes", "name": "Caf\u00e8 Champagne", "tobacco": "yes"}}, {"type": "way", "id": 1167830666, "nodes": [10861200054, 10861200036, 10861200041, 10861200040, 10861200039, 10861200038, 10861200037, 10861200025, 10861200024, 10861200023, 10861200020, 10861200022, 10861200021, 10861200035, 10861200042, 10861200043, 10861200044, 10861200045, 10861200046, 10861200047, 10861200048, 10861200049, 10861200050, 10861200051, 10861200052, 10861200053, 10861200054], "tags": {"amenity": "restaurant", "name": "Etna Lake"}}, {"type": "way", "id": 1167830762, "nodes": [10861200651, 10861200629, 10861200650, 10861200649, 10861200648, 10861200647, 10861200646, 10861200645, 10861200644, 10861200643, 10861200642, 10861200641, 10861200640, 10861200639, 10861200638, 10861200637, 10861200636, 10861200627, 10861200635, 10861200628, 10861200634, 10861200651], "tags": {"amenity": "restaurant", "name": "Ristorante Fontana Murata", "phone": "+39 095 698196", "website": "www.ristorantefontanamurata.it"}}, {"type": "way", "id": 1169203985, "nodes": [10872319828, 10872319827, 10872319826, 10872319825, 10872319828], "tags": {"amenity": "cafe", "building": "kiosk", "name": "Chiosco Bar Crazy Horse"}}, {"type": "way", "id": 1193423770, "nodes": [11077670627, 11077670626, 11077670625, 11077670624, 11077670623, 11077670622, 11077670627], "tags": {"amenity": "cafe", "building": "kiosk", "name": "Chiosco San Pio"}}, {"type": "way", "id": 1193423809, "nodes": [11077670848, 11077670840, 11077670839, 11077670838, 2670455563, 2670455878, 11077670837, 11077670852, 11077670853, 11077670848], "tags": {"amenity": "restaurant", "name": "Mare Kambo"}}, {"type": "way", "id": 1193423810, "nodes": [11077670842, 11077670863, 11077670854, 11077670855, 11077670841, 1615522733, 11077670842], "tags": {"amenity": "restaurant", "name": "Bosco Marino"}}, {"type": "way", "id": 1193867721, "nodes": [11082012857, 11082012856, 11082012855, 11082012854, 11082012857], "tags": {"amenity": "cafe", "authorization": "13", "building": "yes", "name": "Bar Ricrio", "tobacco": "yes"}}, {"type": "way", "id": 1202191649, "nodes": [11145255266, 11145255265, 11145255264, 11145255263, 11145255266], "tags": {"amenity": "cafe", "building": "yes", "name": "Torre Sea Caf\u00e8"}}, {"type": "way", "id": 1204315045, "nodes": [11162060675, 11162060641, 11162060645, 11162060644, 11162060671, 11162060643, 11162060642, 11162060675], "tags": {"amenity": "cafe", "building": "yes", "name": "Damusco"}}, {"type": "way", "id": 1244663432, "nodes": [11570019661, 11570019660, 11570019659, 11570019658, 11570019657, 11570019656, 11570019655, 11570019654, 11570019661], "tags": {"addr:street": "Contrada Mitta", "amenity": "restaurant", "name": "Le Pietre", "opening_hours": "Mo-Su 10:00-22:00", "phone": "+393358271993"}}, {"type": "way", "id": 1258448319, "nodes": [11699120404, 11699120403, 11699120402, 11699120401, 11699120404], "tags": {"amenity": "cafe", "building": "kiosk", "name": "Life Caff\u00e8"}}, {"type": "way", "id": 1275518261, "nodes": [11843352369, 11843352370, 11843352371, 11843352372, 11843352373, 11843352401, 11843352391, 11843352374, 11843352387, 11843352377, 11843352376, 11843352369], "tags": {"addr:housenumber": "5", "addr:street": "Piazza Carmine", "amenity": "restaurant", "building": "yes", "cuisine": "pizza", "name": "Villa Zuccaro", "phone": "0942 628018", "website": "https://www.villazuccaro.com/"}}, {"type": "way", "id": 1279173701, "nodes": [11874814584, 11874814590, 11874814591, 11874814589, 11874814585, 11874814584], "tags": {"amenity": "restaurant", "building": "house"}}, {"type": "way", "id": 1291360625, "nodes": [11972400981, 11972400978, 11972400979, 11972400980, 11972400981], "tags": {"amenity": "restaurant", "building": "yes", "cuisine": "italian", "name": "Ristorante Feudo Marullo"}}, {"type": "way", "id": 1291381095, "nodes": [11972548242, 11972548241, 11972548240, 11972548239, 11972548238, 11972548237, 11972548236, 11972548235, 11972548242], "tags": {"amenity": "restaurant", "building": "yes", "name": "Locanda del Carrettiere"}}]}