{"version": 0.6, "generator": "Overpass API 0.7.62.7 375dc00a", "osm3s": {"timestamp_osm_base": "2025-06-14T14:50:30Z", "copyright": "The data included in this document is from www.openstreetmap.org. The data is made available under ODbL."}, "elements": [{"type": "node", "id": 418038456, "lat": 39.9563419, "lon": 26.249827, "tags": {"amenity": "cafe", "name": "Helen & Paris Coffee Shop"}}, {"type": "node", "id": 3067952939, "lat": 39.5828919, "lon": 26.6790823, "tags": {"amenity": "restaurant", "cuisine": "turkish", "name": "K\u0131s\u0131k Restaurant", "source": "GPS"}}, {"type": "node", "id": 3655931722, "lat": 39.5463534, "lon": 26.6014854, "tags": {"amenity": "restaurant"}}, {"type": "node", "id": 3672373940, "lat": 39.603185, "lon": 26.4024193, "tags": {"amenity": "restaurant", "cuisine": "pizza"}}, {"type": "node", "id": 6003232555, "lat": 39.5488061, "lon": 26.6167199, "tags": {"amenity": "restaurant", "name": "K\u00fcp Tepe"}}, {"type": "node", "id": 6018491425, "lat": 39.5671546, "lon": 26.6148747, "tags": {"amenity": "restaurant", "name": "Tanyeri Kahvalt\u0131 Evi"}}, {"type": "node", "id": 6018491445, "lat": 39.558167, "lon": 26.6157223, "tags": {"amenity": "cafe", "name": "Umut Teras Cafe"}}, {"type": "node", "id": 6117288070, "lat": 39.8204659, "lon": 26.1639136}, {"type": "node", "id": 6117288071, "lat": 39.8203772, "lon": 26.1639293}, {"type": "node", "id": 6117288072, "lat": 39.8203135, "lon": 26.1637173}, {"type": "node", "id": 6117288073, "lat": 39.8203907, "lon": 26.1636472}, {"type": "node", "id": 6117288074, "lat": 39.8203606, "lon": 26.1638157}, {"type": "node", "id": 6117288075, "lat": 39.8203181, "lon": 26.1637826}, {"type": "node", "id": 6117288076, "lat": 39.8204465, "lon": 26.1637567}, {"type": "node", "id": 6117288077, "lat": 39.820439, "lon": 26.1636934}, {"type": "node", "id": 6117288134, "lat": 39.8031319, "lon": 26.1591971, "tags": {"addr:city": "\u00c7anakkale", "addr:district": "Ezine", "addr:neighbourhood": "Dalyan K\u00f6y\u00fc", "addr:postcode": "17600", "amenity": "cafe", "name": "Mert Cafe"}}, {"type": "node", "id": 6117288136, "lat": 39.8080526, "lon": 26.161809, "tags": {"amenity": "restaurant", "name": "Apero Beach & Restaurant"}}, {"type": "node", "id": 6117288167, "lat": 39.782868, "lon": 26.1577625, "tags": {"amenity": "restaurant", "cuisine": "seafood", "name": "Bal\u0131k\u00e7\u0131 Mustafa"}}, {"type": "node", "id": 6131518684, "lat": 39.8135608, "lon": 26.16532}, {"type": "node", "id": 6131518785, "lat": 39.8135491, "lon": 26.1653938}, {"type": "node", "id": 6131518786, "lat": 39.813444, "lon": 26.1653655}, {"type": "node", "id": 6131518787, "lat": 39.8134558, "lon": 26.1652917}, {"type": "node", "id": 6532260686, "lat": 39.5240922, "lon": 26.4703119, "tags": {"amenity": "restaurant", "cuisine": "local", "name": "Kaynana'n\u0131n Yeri"}}, {"type": "node", "id": 6700770758, "lat": 39.9592184, "lon": 26.2490389, "tags": {"amenity": "cafe", "name": "Elis cafe"}}, {"type": "node", "id": 6700781638, "lat": 39.9594289, "lon": 26.2498443, "tags": {"amenity": "cafe", "name": "Globi"}}, {"type": "node", "id": 8754506310, "lat": 39.5591363, "lon": 26.5551185, "tags": {"amenity": "restaurant", "name": "\u00c7amtepe Et Lokantas\u0131"}}, {"type": "node", "id": 8754506316, "lat": 39.5586571, "lon": 26.5551782, "tags": {"amenity": "restaurant", "name": "Malatyal\u0131 Eni\u015fte'nin K\u0131r Lokantas\u0131"}}, {"type": "node", "id": 9133810372, "lat": 39.5692471, "lon": 26.6189249, "tags": {"amenity": "cafe", "name": "Dutdibi Kahvesi"}}, {"type": "node", "id": 9133810387, "lat": 39.555156, "lon": 26.5768826, "tags": {"amenity": "restaurant", "name": "Dogus Kahvalti Ve Mangal"}}, {"type": "node", "id": 9133810388, "lat": 39.5587119, "lon": 26.5698136, "tags": {"addr:country": "TR", "addr:district": "Ayvac\u0131k", "addr:province": "\u00c7anakkale", "addr:subdistrict": "Ye\u015filyurt", "amenity": "restaurant", "mobile": "+905468522887", "name": "Sevgi Kahvalt\u0131 Evi"}}, {"type": "node", "id": 9133810405, "lat": 39.556555, "lon": 26.5732267, "tags": {"amenity": "restaurant", "name": "\u00c7\u0131naralt\u0131 \u015eelale Restaurant", "opening_hours": "07:00-24:00", "phone": "+902867525555", "website": "http://www.cinaraltiselale.com/"}}, {"type": "node", "id": 11046736861, "lat": 39.667041, "lon": 26.1631891, "tags": {"amenity": "restaurant", "cuisine": "turkish", "name": "Tek\u00e7am Restoran"}}, {"type": "node", "id": 11055031843, "lat": 39.5325147, "lon": 26.5184849, "tags": {"amenity": "restaurant", "name": "Sude'nin Mutfa\u011f\u0131"}}, {"type": "node", "id": 11055043872, "lat": 39.5390151, "lon": 26.5734172, "tags": {"amenity": "restaurant", "name": "Limanta\u015f\u0131 Beach Restaurant"}}, {"type": "node", "id": 11055044331, "lat": 39.5404557, "lon": 26.5807031, "tags": {"amenity": "restaurant", "name": "Gulet Restaurant"}}, {"type": "node", "id": 11449698990, "lat": 39.5405328, "lon": 26.5259093, "tags": {"amenity": "restaurant", "name": "Sakl\u0131 Vadi"}}, {"type": "node", "id": 11629906223, "lat": 39.5460943, "lon": 26.6042622, "tags": {"addr:city": "\u00c7anakkale", "addr:district": "Ayvac\u0131k/K\u00fc\u00e7\u00fckkuyu", "addr:housenumber": "13/C", "addr:neighbourhood": "Sahil Mahallesi / K\u00fc\u00e7\u00fckkuyu", "addr:postcode": "17980", "addr:street": "S\u00fcleyman Sakall\u0131 Caddesi", "amenity": "cafe", "cuisine": "pizza", "name": "Bene Pizzeria", "outdoor_seating": "yes", "phone": "+90 286 752 25 26"}}, {"type": "node", "id": 12033083069, "lat": 39.6867321, "lon": 26.1650492, "tags": {"amenity": "restaurant", "cuisine": "pizza", "internet_access": "wlan", "name": "Ali Kaptann", "phone": "05464101610"}}, {"type": "node", "id": 12088554442, "lat": 39.5575268, "lon": 26.5701613, "tags": {"amenity": "cafe", "check_date": "2024-08-02", "name": "Dulda"}}, {"type": "node", "id": 12088572569, "lat": 39.5575057, "lon": 26.5702849, "tags": {"amenity": "cafe", "check_date": "2024-08-02", "name": "\u00c7ak\u0131r Kahvalt\u0131 Evi", "name:en": "\u00c7ak\u0131r Breakfast House", "name:tr": "\u00c7ak\u0131r Kahvalt\u0131 Evi", "wheelchair": "no"}}, {"type": "node", "id": 12088572571, "lat": 39.5573644, "lon": 26.5702306, "tags": {"amenity": "cafe", "check_date": "2024-08-02", "name": "Ye\u015filyurt K\u00f6y Kona\u011f\u0131"}}, {"type": "node", "id": 12088708393, "lat": 39.5571764, "lon": 26.569788, "tags": {"amenity": "cafe", "check_date": "2024-08-02", "name": "Radika Kafe"}}, {"type": "node", "id": 12450632895, "lat": 39.7657108, "lon": 26.3510783}, {"type": "node", "id": 12450678621, "lat": 39.7655954, "lon": 26.3507779}, {"type": "node", "id": 12450678622, "lat": 39.7653768, "lon": 26.3512607}, {"type": "node", "id": 12450678623, "lat": 39.7652531, "lon": 26.3509603}, {"type": "node", "id": 12450710233, "lat": 39.776813, "lon": 26.3487103}, {"type": "node", "id": 12450710234, "lat": 39.7768368, "lon": 26.3489125}, {"type": "node", "id": 12450710235, "lat": 39.7767769, "lon": 26.348914}, {"type": "node", "id": 12450710236, "lat": 39.7767592, "lon": 26.348711}, {"type": "node", "id": 12767888787, "lat": 39.5468868, "lon": 26.5980568, "tags": {"amenity": "restaurant", "name": "Kekik K\u00f6fte"}}, {"type": "node", "id": 12770132462, "lat": 39.5478796, "lon": 26.6091699, "tags": {"amenity": "cafe", "name": "Han\u0131meli Kafe"}}, {"type": "node", "id": 12770277878, "lat": 39.6291329, "lon": 26.4027858, "tags": {"amenity": "restaurant", "name": "\u00d6\u011fretmenin Yeri"}}, {"type": "node", "id": 12894218782, "lat": 39.9796784, "lon": 26.236665, "tags": {"addr:floor": "0", "amenity": "restaurant", "check_date": "2025-06-07", "level": "0", "name": "Uygur Lokantas\u0131", "wheelchair": "no"}}, {"type": "node", "id": 12905531260, "lat": 39.6733959, "lon": 26.1629407, "tags": {"addr:neighbourhood": "Tavakl\u0131 \u0130skelesi, No:102 Ezine, \u00c7anakkale,", "amenity": "restaurant", "cuisine": "turkish;pizza;pasta;breakfast;tapas;salad", "diet:healthy": "yes", "name": "Agora Restaurant", "opening_hours": "24/7", "phone": "05301391700", "website": "https://sanatagora.com/"}}, {"type": "way", "id": 652536814, "nodes": [6117288070, 6117288071, 6117288074, 6117288075, 6117288072, 6117288073, 6117288077, 6117288076, 6117288070], "tags": {"amenity": "cafe", "building": "yes", "name": "Yeni \u0130skele \u0130\u015fletmesi"}}, {"type": "way", "id": 654341138, "nodes": [6131518684, 6131518785, 6131518786, 6131518787, 6131518684], "tags": {"amenity": "restaurant", "building": "yes", "cuisine": "seafood", "name": "\u00d6zg\u00fcl Restorant"}}, {"type": "way", "id": 1346119711, "nodes": [12450678621, 12450632895, 12450678622, 12450678623, 12450678621], "tags": {"amenity": "restaurant", "building": "yes"}}, {"type": "way", "id": 1346121469, "nodes": [12450710233, 12450710234, 12450710235, 12450710236, 12450710233], "tags": {"amenity": "cafe", "building": "yes"}}]}