{"version": 0.6, "generator": "Overpass API 0.7.62.7 375dc00a", "osm3s": {"timestamp_osm_base": "2025-06-14T15:08:54Z", "copyright": "The data included in this document is from www.openstreetmap.org. The data is made available under ODbL."}, "elements": [{"type": "node", "id": 3231255292, "lat": 39.9332798, "lon": 33.3992748, "tags": {"amenity": "restaurant"}}, {"type": "node", "id": 3231255313, "lat": 39.9347198, "lon": 33.4005305, "tags": {"amenity": "restaurant"}}, {"type": "node", "id": 5618527093, "lat": 39.8818564, "lon": 33.450728}, {"type": "node", "id": 5618527094, "lat": 39.8817177, "lon": 33.4507286}, {"type": "node", "id": 5618527095, "lat": 39.8817188, "lon": 33.4512081}, {"type": "node", "id": 5618527096, "lat": 39.8818575, "lon": 33.4512076}, {"type": "node", "id": 7784051035, "lat": 39.9391089, "lon": 33.3261115, "tags": {"amenity": "restaurant"}}, {"type": "node", "id": 10116399491, "lat": 39.8672006, "lon": 33.6326249, "tags": {"amenity": "restaurant", "name": "Kara Dinlenme Tesisleri"}}, {"type": "node", "id": 10116399517, "lat": 39.869091, "lon": 33.6041541, "tags": {"amenity": "cafe", "name": "Y\u0131ld\u0131r\u0131m et"}}, {"type": "node", "id": 10119157397, "lat": 39.9443711, "lon": 33.295724, "tags": {"amenity": "cafe"}}, {"type": "node", "id": 10119157721, "lat": 39.9323751, "lon": 33.3346109, "tags": {"amenity": "cafe", "name": "K\u00f6fteci Yusuf"}}, {"type": "node", "id": 10119157753, "lat": 39.9302614, "lon": 33.3377985, "tags": {"amenity": "cafe", "name": "Kayadibi Cennet Bah\u00e7esi"}}, {"type": "node", "id": 10119157760, "lat": 39.9300492, "lon": 33.3400337, "tags": {"amenity": "restaurant"}}, {"type": "node", "id": 10119704760, "lat": 39.9179526, "lon": 33.4326885, "tags": {"amenity": "cafe", "name": "K\u00f6fteci Yusuf"}}, {"type": "node", "id": 10119704791, "lat": 39.9170745, "lon": 33.4314424, "tags": {"amenity": "cafe", "name": "K\u00f6fteci Yusuf"}}, {"type": "node", "id": 10119704806, "lat": 39.8794107, "lon": 33.4383783, "tags": {"amenity": "cafe", "name": "\u00c7alkan K\u00f6fte Evi"}}, {"type": "node", "id": 12698863748, "lat": 39.9324251, "lon": 33.3344378}, {"type": "node", "id": 12698863749, "lat": 39.9323654, "lon": 33.3345865}, {"type": "node", "id": 12698863750, "lat": 39.9323858, "lon": 33.3345971}, {"type": "node", "id": 12698863751, "lat": 39.9323587, "lon": 33.334682}, {"type": "node", "id": 12698863752, "lat": 39.9323383, "lon": 33.3346643}, {"type": "node", "id": 12698863753, "lat": 39.9322691, "lon": 33.3348607}, {"type": "node", "id": 12698863754, "lat": 39.9321429, "lon": 33.3347811}, {"type": "node", "id": 12698863755, "lat": 39.932189, "lon": 33.3346555}, {"type": "node", "id": 12698863756, "lat": 39.9320846, "lon": 33.3345829}, {"type": "node", "id": 12698863757, "lat": 39.9321768, "lon": 33.3343723}, {"type": "node", "id": 12698863758, "lat": 39.9322691, "lon": 33.3344307}, {"type": "node", "id": 12698863759, "lat": 39.9322976, "lon": 33.3343564}, {"type": "way", "id": 588239779, "nodes": [5618527096, 5618527095, 5618527094, 5618527093, 5618527096], "tags": {"addr:neighbourhood": "Yeni\u015fehir Mahallesi", "amenity": "cafe", "building": "yes", "building:levels": "2", "height": "15", "name": "Resicafe"}}, {"type": "way", "id": 1371172513, "nodes": [12698863748, 12698863749, 12698863750, 12698863751, 12698863752, 12698863753, 12698863754, 12698863755, 12698863756, 12698863757, 12698863758, 12698863759, 12698863748], "tags": {"amenity": "restaurant", "building": "yes", "cuisine": "turkish"}}]}