{"version": 0.6, "generator": "Overpass API 0.7.62.7 375dc00a", "osm3s": {"timestamp_osm_base": "2025-06-14T15:17:02Z", "copyright": "The data included in this document is from www.openstreetmap.org. The data is made available under ODbL."}, "elements": [{"type": "node", "id": 1511833594, "lat": 29.1567289, "lon": 34.690217, "tags": {"amenity": "restaurant", "name": "Blue Fish"}}, {"type": "node", "id": 1511833606, "lat": 29.156798, "lon": 34.6900829, "tags": {"amenity": "restaurant", "name": "Itallian Restauran"}}, {"type": "node", "id": 1511833622, "lat": 29.1570896, "lon": 34.6892447, "tags": {"amenity": "restaurant"}}, {"type": "node", "id": 1511833637, "lat": 29.1584997, "lon": 34.6877963, "tags": {"amenity": "restaurant"}}, {"type": "node", "id": 2362991034, "lat": 29.3914096, "lon": 34.7916141, "tags": {"amenity": "cafe", "name": "Bedouin Tent"}}, {"type": "node", "id": 2363005243, "lat": 29.3921879, "lon": 34.7931215, "tags": {"amenity": "cafe", "name": "El Fuego"}}, {"type": "node", "id": 2368430608, "lat": 29.3918377, "lon": 34.7920889, "tags": {"amenity": "cafe", "name": "Afandina Cafe"}}, {"type": "node", "id": 2368430610, "lat": 29.3921296, "lon": 34.7925031, "tags": {"amenity": "restaurant", "name": "Chez Pascal"}}, {"type": "node", "id": 2368430611, "lat": 29.3917331, "lon": 34.7928601, "tags": {"amenity": "restaurant", "name": "Main Restaurant"}}, {"type": "node", "id": 2404690029, "lat": 29.3880135, "lon": 34.8099257, "tags": {"amenity": "cafe"}}, {"type": "node", "id": 2404690038, "lat": 29.3880976, "lon": 34.8096776, "tags": {"amenity": "cafe", "name": "Lotus"}}, {"type": "node", "id": 2404722734, "lat": 29.3882137, "lon": 34.8091995, "tags": {"amenity": "restaurant", "cuisine": "international", "name": "Aladdin (Main)"}}, {"type": "node", "id": 2404722736, "lat": 29.3885651, "lon": 34.8089762, "tags": {"amenity": "restaurant", "cuisine": "asian", "name": "Asiatique (A la carte)"}}, {"type": "node", "id": 2404762600, "lat": 29.3880089, "lon": 34.8103253, "tags": {"amenity": "cafe"}}, {"type": "node", "id": 2405042144, "lat": 29.3906633, "lon": 34.791634, "tags": {"amenity": "cafe", "cuisine": "pizza", "name": "Pizza"}}, {"type": "node", "id": 2546406855, "lat": 29.4297585, "lon": 34.9752792, "tags": {"amenity": "restaurant"}}, {"type": "node", "id": 4058094545, "lat": 29.408117, "lon": 34.9797364, "tags": {"addr:city": "Aqaba", "addr:postcode": "77110", "amenity": "restaurant", "cuisine": "seafood", "email": "info.seabass@talabay.net", "name": "SeaBass Restaurant", "opening_hours": "Mo-Su 11:00-00:00", "payment:credit_cards": "yes", "phone": "+962 7 7044 1256", "website": "https://www.talabay.net/"}}, {"type": "node", "id": 4490988570, "lat": 29.4083466, "lon": 34.9783954, "tags": {"addr:city": "Aqaba", "addr:postcode": "77110", "amenity": "restaurant", "cuisine": "italian", "delivery": "yes", "email": "desoto.rahmani@gmail.com", "internet_access": "wlan", "name": "DeSoto Restaurant", "opening_hours": "Mo-Su 09:30-23:45", "outdoor_seating": "yes", "payment:american_express": "yes", "payment:mastercard": "yes", "payment:visa": "yes", "phone": "+962 7 9860 0630", "reservation": "yes", "smoking": "outside", "takeaway": "no", "website": "https://www.talabay.net/"}}, {"type": "node", "id": 4490988571, "lat": 29.4083583, "lon": 34.9782615, "tags": {"addr:city": "Aqaba", "addr:postcode": "77110", "amenity": "restaurant", "cuisine": "seafood", "email": "suzana.talabay@yahoo.com", "internet_access": "wlan", "name": "Suzanna Bar & Restaurant", "opening_hours": "Mo-Su 12:00-00:00", "outdoor_seating": "yes", "payment:credit_cards": "yes", "phone": "+962 7 9088 3232", "reservation": "yes", "smoking": "outside", "website": "https://facebook.com/Suzanarestaurantandbar/", "wheelchair": "yes"}}, {"type": "node", "id": 4490988572, "lat": 29.4083733, "lon": 34.9781132, "tags": {"addr:city": "Aqaba", "addr:postcode": "77110", "amenity": "restaurant", "cuisine": "regional", "delivery": "no", "email": "info@rahamaniarabianeatery.com", "internet_access": "wlan", "name": "Rahamani Arabian Eatery", "opening_hours": "Mo-Su 09:30-23:45", "payment:american_express": "yes", "payment:mastercard": "yes", "payment:visa": "yes", "phone": "+962 7 9656 0287", "reservation": "yes", "smoking": "outside", "takeaway": "no", "website": "https://www.facebook.com/RahamaniArabianEatery", "wheelchair": "yes"}}, {"type": "node", "id": 4490988573, "lat": 29.4105074, "lon": 34.9787396, "tags": {"addr:city": "Aqaba", "addr:postcode": "77110", "amenity": "restaurant", "cuisine": "mexican", "email": "info@talabay.net", "internet_access": "wlan", "name": "C4 Shots Sports lounge", "opening_hours": "Mo-Su 11:00-00:00", "outdoor_seating": "yes", "payment:credit_cards": "yes", "phone": "+962 7 7844 6694", "reservation": "yes", "website": "https://www.talabay.net/"}}, {"type": "node", "id": 4491163069, "lat": 29.4083099, "lon": 34.9799589, "tags": {"addr:city": "\u0627\u0644\u0639\u0642\u0628\u0629", "amenity": "restaurant", "name": "\u062a\u0627\u0644\u0627", "name:ar": "\u062a\u0627\u0644\u0627", "name:en": "Tala"}}, {"type": "node", "id": 4493718149, "lat": 29.4055975, "lon": 34.977786, "tags": {"addr:city": "\u0627\u0644\u0639\u0642\u0628\u0629", "amenity": "restaurant", "capacity": "50", "cuisine": "italian", "delivery": "no", "name": "\u0643\u0627\u0632\u0627\u0644\u0646\u063a\u0648", "name:ar": "\u0643\u0627\u0632\u0627\u0644\u0646\u063a\u0648", "name:en": "Casalingo", "note": "M\u00f6venpick Hotel", "opening_hours": "18:30-23:30", "smoking": "outside", "takeaway": "no"}}, {"type": "node", "id": 4494308611, "lat": 29.4061821, "lon": 34.9775695, "tags": {"addr:city": "\u0627\u0644\u0639\u0642\u0628\u0629", "amenity": "restaurant", "capacity": "50", "cuisine": "regional", "delivery": "no", "name": "\u0633\u062c\u0627\u0646", "name:ar": "\u0633\u062c\u0627\u0646", "name:en": "Sejan", "smoking": "outside", "takeaway": "no"}}, {"type": "node", "id": 4494308612, "lat": 29.4131844, "lon": 34.9783273, "tags": {"amenity": "restaurant", "name": "Aziab"}}, {"type": "node", "id": 4494308613, "lat": 29.4102179, "lon": 34.9813627, "tags": {"amenity": "restaurant", "name": "Solero"}}, {"type": "node", "id": 4494308614, "lat": 29.4120273, "lon": 34.978035, "tags": {"amenity": "restaurant", "name": "Heat Wave"}}, {"type": "node", "id": 4496353870, "lat": 29.4051291, "lon": 34.9774645, "tags": {"addr:city": "\u0627\u0644\u0639\u0642\u0628\u0629", "amenity": "restaurant", "capacity": "100", "cuisine": "regional", "delivery": "no", "name": "\u0646\u0627\u062c\u0644", "name:ar": "\u0646\u0627\u062c\u0644", "name:en": "Najel", "opening_hours": "06:00-23:00", "smoking": "outside", "takeaway": "no"}}, {"type": "node", "id": 5603008100, "lat": 29.4277096, "lon": 34.9818454, "tags": {"amenity": "restaurant"}}, {"type": "node", "id": 5899987585, "lat": 29.2840591, "lon": 34.9512206, "tags": {"amenity": "restaurant", "name": "\u0634\u0627\u0648\u0631\u0645\u062a\u0643 2 / \u0645\u0637\u0639\u0645 \u0648\u062c\u0628\u0627\u062a \u0633\u0631\u064a\u0639\u0629", "name:ar": "\u0634\u0627\u0648\u0631\u0645\u062a\u0643 2 / \u0645\u0637\u0639\u0645 \u0648\u062c\u0628\u0627\u062a \u0633\u0631\u064a\u0639\u0629"}}, {"type": "node", "id": 6003000361, "lat": 29.4251165, "lon": 34.9747463, "tags": {"amenity": "restaurant", "name": "Darna", "outdoor_seating": "yes"}}, {"type": "node", "id": 6167686016, "lat": 29.4121617, "lon": 34.9779371}, {"type": "node", "id": 6167686017, "lat": 29.4121945, "lon": 34.9780873}, {"type": "node", "id": 6167686018, "lat": 29.4118907, "lon": 34.9781758}, {"type": "node", "id": 6167686019, "lat": 29.4118627, "lon": 34.9780202}, {"type": "node", "id": 6167686061, "lat": 29.4125522, "lon": 34.9779846}, {"type": "node", "id": 6167686062, "lat": 29.4124531, "lon": 34.9780143}, {"type": "node", "id": 6167686063, "lat": 29.4124199, "lon": 34.9778686}, {"type": "node", "id": 6167686064, "lat": 29.412519, "lon": 34.9778389}, {"type": "node", "id": 7095967991, "lat": 29.1990165, "lon": 34.7340552, "tags": {"amenity": "cafe", "name:en": "Cafe Del Mar"}}, {"type": "node", "id": 7276368108, "lat": 29.4346992, "lon": 34.9738327, "tags": {"amenity": "restaurant"}}, {"type": "node", "id": 7711125849, "lat": 29.2884, "lon": 34.9515, "tags": {"amenity": "restaurant", "name": "\u0645\u0637\u0639\u0645 \u0627\u0633\u0645\u0627\u0643"}}, {"type": "node", "id": 9795436617, "lat": 29.4086286, "lon": 34.9798649, "tags": {"addr:street": "Commercial Area, Tala Bay Resort, Aqaba", "amenity": "cafe", "cuisine": "arab;lebanese", "name": "Cedar Ka'akeh", "opening_hours": "Mo-Su 12:00-03:00", "phone": "+962790144000"}}, {"type": "node", "id": 12433029614, "lat": 29.392397, "lon": 34.7935367, "tags": {"amenity": "restaurant", "name": "Pub Tandoori"}}, {"type": "node", "id": 12864507642, "lat": 29.2865789, "lon": 34.9504203, "tags": {"amenity": "restaurant", "name": "\u0633\u0648\u0642 \u0627\u0644\u062c\u0645\u0639\u064a\u0629"}}, {"type": "way", "id": 658671359, "nodes": [6167686016, 6167686017, 6167686018, 6167686019, 6167686016], "tags": {"amenity": "restaurant", "building": "yes"}}, {"type": "way", "id": 658671368, "nodes": [6167686061, 6167686062, 6167686063, 6167686064, 6167686061], "tags": {"amenity": "restaurant", "building": "yes"}}]}