{"version": 0.6, "generator": "Overpass API 0.7.62.7 375dc00a", "osm3s": {"timestamp_osm_base": "2025-06-14T13:14:57Z", "copyright": "The data included in this document is from www.openstreetmap.org. The data is made available under ODbL."}, "elements": [{"type": "node", "id": 2925028633, "lat": 34.4498095, "lon": 5.0660433, "tags": {"addr:country": "DZ", "amenity": "cafe", "internet_access": "no", "name": "\u0645\u0642\u0647\u0649", "name:ar": "\u0645\u0642\u0647\u0649", "name:fr": "Caf\u00e9", "smoking": "yes"}}, {"type": "node", "id": 3140163640, "lat": 34.4258791, "lon": 5.0650933, "tags": {"amenity": "cafe"}}, {"type": "node", "id": 3140163641, "lat": 34.4249255, "lon": 5.0652579, "tags": {"addr:country": "DZ", "amenity": "cafe", "name": "\u0645\u0642\u0647\u0649", "name:ar": "\u0645\u0642\u0647\u0649", "name:fr": "Caf\u00e9"}}, {"type": "node", "id": 3140163642, "lat": 34.4262264, "lon": 5.0647392, "tags": {"addr:country": "DZ", "amenity": "cafe", "name": "\u0645\u0642\u0647\u0649", "name:ar": "\u0645\u0642\u0647\u0649", "name:fr": "Caf\u00e9"}}, {"type": "node", "id": 3140163643, "lat": 34.4290715, "lon": 5.0673647, "tags": {"addr:country": "DZ", "amenity": "cafe", "name": "\u0645\u0642\u0647\u0649", "name:ar": "\u0645\u0642\u0647\u0649", "name:fr": "Caf\u00e9"}}, {"type": "node", "id": 3140163644, "lat": 34.4301556, "lon": 5.0576647, "tags": {"addr:country": "DZ", "amenity": "cafe", "name": "\u0645\u0642\u0647\u0649", "name:ar": "\u0645\u0642\u0647\u0649", "name:fr": "Caf\u00e9"}}, {"type": "node", "id": 3140163645, "lat": 34.4364957, "lon": 5.0687914, "tags": {"addr:country": "DZ", "amenity": "cafe", "name": "\u0645\u0642\u0647\u0649 \u062a\u0631\u0646\u0632\u064a\u062a", "name:ar": "\u0645\u0642\u0647\u0649 \u062a\u0631\u0646\u0632\u064a\u062a", "name:fr": "Caf\u00e9 transit"}}, {"type": "node", "id": 3140163646, "lat": 34.4241755, "lon": 5.0617173, "tags": {"amenity": "cafe"}}, {"type": "node", "id": 3141646030, "lat": 34.4364502, "lon": 5.0687851, "tags": {"addr:country": "DZ", "amenity": "restaurant", "name": "\u0645\u0637\u0639\u0645 \u062a\u0631\u0646\u0632\u064a\u062a", "name:ar": "\u0645\u0637\u0639\u0645 \u062a\u0631\u0646\u0632\u064a\u062a", "name:fr": "Restaurant transit"}}, {"type": "node", "id": 3141646033, "lat": 34.4254993, "lon": 5.0654918, "tags": {"amenity": "restaurant"}}, {"type": "node", "id": 3141646034, "lat": 34.4253695, "lon": 5.0656404, "tags": {"amenity": "restaurant"}}, {"type": "node", "id": 3141646035, "lat": 34.425129, "lon": 5.0658707, "tags": {"amenity": "restaurant"}}, {"type": "node", "id": 3141646036, "lat": 34.4212219, "lon": 5.0693977, "tags": {"addr:country": "DZ", "amenity": "cafe", "internet_access": "no", "name": "\u0645\u0642\u0647\u0649", "name:ar": "\u0645\u0642\u0647\u0649", "name:fr": "Caf\u00e9", "smoking": "yes"}}, {"type": "node", "id": 3159091833, "lat": 34.362816, "lon": 5.2352794}, {"type": "node", "id": 3159091834, "lat": 34.3627137, "lon": 5.2352847}, {"type": "node", "id": 3159091835, "lat": 34.3627122, "lon": 5.2350281}, {"type": "node", "id": 3159091836, "lat": 34.3628174, "lon": 5.2350281}, {"type": "node", "id": 3167111479, "lat": 34.4239874, "lon": 5.0614334, "tags": {"amenity": "restaurant"}}, {"type": "node", "id": 3192916265, "lat": 34.4283844, "lon": 5.0561812, "tags": {"amenity": "cafe"}}, {"type": "node", "id": 3212057697, "lat": 34.3895732, "lon": 4.9996648, "tags": {"addr:country": "DZ", "amenity": "cafe", "name": "\u0645\u0642\u0647\u0649 \u062d\u0644\u064a\u0633", "name:ar": "\u0645\u0642\u0647\u0649 \u062d\u0644\u064a\u0633", "name:fr": "Caf\u00e9 Halis"}}, {"type": "node", "id": 3215226567, "lat": 34.3959936, "lon": 4.9970177}, {"type": "node", "id": 3215226568, "lat": 34.3959051, "lon": 4.9970298}, {"type": "node", "id": 3215226569, "lat": 34.3959506, "lon": 4.9973759}, {"type": "node", "id": 3215226570, "lat": 34.3960393, "lon": 4.9973629}, {"type": "node", "id": 3217326493, "lat": 34.425128, "lon": 5.0638833, "tags": {"amenity": "cafe"}}, {"type": "node", "id": 3218735578, "lat": 34.3961357, "lon": 4.9970519, "tags": {"addr:city": "\u0633\u064a\u062f\u064a \u062e\u0627\u0644\u062f", "addr:city:ar": "\u0633\u064a\u062f\u064a \u062e\u0627\u0644\u062f", "amenity": "cafe"}}, {"type": "node", "id": 3222097166, "lat": 34.3895795, "lon": 4.9939029, "tags": {"addr:country": "DZ", "amenity": "cafe"}}, {"type": "node", "id": 3237786213, "lat": 34.4279078, "lon": 5.0652273, "tags": {"addr:country": "DZ", "amenity": "cafe", "name": "\u0645\u0642\u0647\u0649", "name:ar": "\u0645\u0642\u0647\u0649", "name:fr": "Caf\u00e9"}}, {"type": "node", "id": 3241209602, "lat": 34.4261359, "lon": 5.0649957, "tags": {"addr:country": "DZ", "amenity": "restaurant", "name": "\u0645\u0637\u0639\u0645 \u0627\u0644\u0641\u062a\u062d", "name:ar": "\u0645\u0637\u0639\u0645 \u0627\u0644\u0641\u062a\u062d", "name:fr": "restaurant Elfath"}}, {"type": "node", "id": 3257302637, "lat": 34.3958784, "lon": 4.9953529, "tags": {"addr:country": "DZ", "amenity": "restaurant", "name": "\u0645\u0637\u0639\u0645 \u0637\u0643\u0648\u0643", "name:ar": "\u0645\u0637\u0639\u0645 \u0637\u0643\u0648\u0643", "name:fr": "Restaurant Takouk"}}, {"type": "node", "id": 3860736157, "lat": 34.4306618, "lon": 5.0679691, "tags": {"addr:country": "DZ", "amenity": "cafe", "name": "\u0645\u0642\u0647\u0649", "name:ar": "\u0645\u0642\u0647\u0649", "name:fr": "Caf\u00e9"}}, {"type": "node", "id": 3871211876, "lat": 34.4216424, "lon": 5.0564659, "tags": {"addr:country": "DZ", "alt_name": "\u0642\u0647\u0648\u0629 \u0627\u0644\u0635\u064a\u0627\u062f\u064a\u0646", "amenity": "cafe", "name": "\u0645\u0642\u0647\u0649", "name:ar": "\u0645\u0642\u0647\u0649", "name:fr": "Caf\u00e9"}}, {"type": "node", "id": 3880705887, "lat": 34.3918793, "lon": 5.0002218, "tags": {"addr:city": "\u0633\u064a\u062f\u064a \u062e\u0627\u0644\u062f", "addr:city:ar": "\u0633\u064a\u062f\u064a \u062e\u0627\u0644\u062f", "amenity": "cafe"}}, {"type": "node", "id": 3894809101, "lat": 34.4383971, "lon": 5.0701162, "tags": {"addr:country": "DZ", "amenity": "restaurant", "name": "\u0645\u0637\u0639\u0645 \u0627\u0644\u0647\u0646\u0627\u0621", "name:ar": "\u0645\u0637\u0639\u0645 \u0627\u0644\u0647\u0646\u0627\u0621", "name:fr": "restaurant El Hana", "operator": "Aqchiche"}}, {"type": "node", "id": 3929047460, "lat": 34.4305424, "lon": 5.0681862, "tags": {"addr:country": "DZ", "amenity": "restaurant", "name": "\u0645\u0637\u0639\u0645", "name:ar": "\u0645\u0637\u0639\u0645", "name:fr": "Resto"}}, {"type": "node", "id": 4010751444, "lat": 34.4251684, "lon": 5.0659222, "tags": {"amenity": "restaurant"}}, {"type": "node", "id": 4010753331, "lat": 34.4254257, "lon": 5.0657136, "tags": {"amenity": "restaurant"}}, {"type": "node", "id": 4282920382, "lat": 34.3962152, "lon": 4.9973177, "tags": {"addr:city": "\u0633\u064a\u062f\u064a \u062e\u0627\u0644\u062f", "addr:city:ar": "\u0633\u064a\u062f\u064a \u062e\u0627\u0644\u062f", "amenity": "restaurant", "brand": "\u0628\u064a\u062a\u0632\u0627 \u0647\u062a", "brand:ar": "\u0628\u064a\u062a\u0632\u0627 \u0647\u062a", "brand:wikidata": "Q191615", "brand:wikipedia": "ar:\u0628\u064a\u062a\u0632\u0627 \u0647\u062a", "cuisine": "pizza", "name": "\u0628\u064a\u062a\u0632\u0627 \u0647\u062a", "name:ar": "\u0628\u064a\u062a\u0632\u0627 \u0647\u062a", "name:en": "Pizza Hut", "name:fr": "Pizza Hut"}}, {"type": "node", "id": 4400792779, "lat": 34.4027159, "lon": 4.9945208, "tags": {"addr:country": "DZ", "amenity": "cafe"}}, {"type": "node", "id": 4429659817, "lat": 34.4308269, "lon": 5.0569671, "tags": {"addr:country": "DZ", "amenity": "cafe", "name": "\u0645\u0642\u0647\u0649", "name:ar": "\u0645\u0642\u0647\u0649", "name:fr": "Caf\u00e9"}}, {"type": "node", "id": 4787180716, "lat": 34.3959824, "lon": 4.9968651, "tags": {"addr:country": "DZ", "amenity": "restaurant", "name": "\u0645\u0637\u0639\u0645 \u062e\u0644\u064a\u0641\u0629", "name:ar": "\u0645\u0637\u0639\u0645 \u062e\u0644\u064a\u0641\u0629", "name:en": "Restaurant khelifa", "name:fr": "Restaurant khelifa"}}, {"type": "node", "id": 5102878627, "lat": 34.4487249, "lon": 5.0669106, "tags": {"amenity": "restaurant", "name": "\u0645\u0637\u0639\u0645 \u062f\u0627\u0631 \u0627\u0644\u0636\u064a\u0627\u0641", "name:ar": "\u0645\u0637\u0639\u0645 \u062f\u0627\u0631 \u0627\u0644\u0636\u064a\u0627\u0641", "name:fr": "Restaurant Dar Edhiaf"}}, {"type": "node", "id": 5138139867, "lat": 34.4081622, "lon": 5.0054446, "tags": {"addr:country": "DZ", "amenity": "cafe"}}, {"type": "node", "id": 5957384686, "lat": 34.3959509, "lon": 4.9970771, "tags": {"addr:street": "\u0634\u0627\u0631\u0639 \u0647\u0627\u0646\u064a \u0645\u062d\u0645\u062f", "amenity": "cafe", "name": "\u0645\u0642\u0647\u0649 \u062e\u0631\u064a\u0641 \u0623\u062d\u0645\u062f", "name:ar": "\u0645\u0642\u0647\u0649 \u062e\u0631\u064a\u0641 \u0623\u062d\u0645\u062f", "name:en": "Caf\u00e9 khareif ahmed", "name:fr": "Caf\u00e9 Kharif Ahmed"}}, {"type": "node", "id": 6234267793, "lat": 34.4349828, "lon": 5.0644798, "tags": {"amenity": "restaurant", "name": "\u0645\u0637\u0639\u0645 \u0627\u0646\u0633", "name:ar": "\u0645\u0637\u0639\u0645 \u0627\u0646\u0633", "name:fr": "restaurant Anas"}}, {"type": "node", "id": 6710661762, "lat": 34.3957626, "lon": 5.0002324, "tags": {"amenity": "cafe", "name": "\u0645\u0642\u0647\u0649 \u0627\u0644\u0645\u062d\u0637\u0629", "name:ar": "\u0645\u0642\u0647\u0649 \u0627\u0644\u0645\u062d\u0637\u0629", "name:fr": "Le caf\u00e9 de la gare"}}, {"type": "node", "id": 6949523628, "lat": 34.424878, "lon": 5.0605434, "tags": {"amenity": "cafe", "name": "\u0634\u0627\u064a", "name:ar": "\u0634\u0627\u064a", "name:fr": "Th\u00e9"}}, {"type": "node", "id": 7044810986, "lat": 34.4250302, "lon": 5.0666587, "tags": {"amenity": "restaurant"}}, {"type": "node", "id": 7229473085, "lat": 34.397703, "lon": 5.0007578, "tags": {"amenity": "cafe", "name": "\u0634\u0627\u064a \u0643\u0645\u064a\u0629 \u0639\u0646\u062f \u064a\u0648\u0633\u0641 \u0645\u062f\u0644\u0644", "name:ar": "\u0634\u0627\u064a \u0643\u0645\u064a\u0629 \u0639\u0646\u062f \u064a\u0648\u0633\u0641 \u0645\u062f\u0644\u0644", "name:fr": "Youssef"}}, {"type": "node", "id": 9930734417, "lat": 34.396128, "lon": 4.9930032, "tags": {"addr:street": "\u0634\u0627\u0631\u0639 \u0642\u0631\u0645\u064a \u0645\u062d\u0645\u062f", "amenity": "restaurant", "cuisine": "breakfast", "name": "\u0644\u0639\u0631\u0648\u0633\u064a \u0644\u0644\u062e\u0641\u0627\u0641 \u0648 \u0627\u0644\u0641\u0648\u0644", "name:en": "Djoudi Laarroussi", "opening_hours": "Th-Tu 04:20-09:20"}}, {"type": "node", "id": 12654108518, "lat": 34.4446041, "lon": 5.0696676, "tags": {"amenity": "cafe", "name": "\u0645\u0642\u0647\u0649"}}, {"type": "way", "id": 310487716, "nodes": [3159091833, 3159091834, 3159091835, 3159091836, 3159091833], "tags": {"amenity": "cafe", "building": "yes", "name": "\u0645\u0642\u0647\u0649", "name:ar": "\u0645\u0642\u0647\u0649", "name:fr": "Caf\u00e9", "smoking": "yes"}}, {"type": "way", "id": 315406514, "nodes": [3215226567, 3215226568, 3215226569, 3215226570, 3215226567], "tags": {"addr:city": "\u0633\u064a\u062f\u064a \u062e\u0627\u0644\u062f", "addr:city:ar": "\u0633\u064a\u062f\u064a \u062e\u0627\u0644\u062f", "amenity": "cafe", "building": "yes", "building:levels": "1", "name": "618", "name:ar": "618"}}]}