{"version": 0.6, "generator": "Overpass API 0.7.62.7 375dc00a", "osm3s": {"timestamp_osm_base": "2025-06-14T14:43:30Z", "copyright": "The data included in this document is from www.openstreetmap.org. The data is made available under ODbL."}, "elements": [{"type": "node", "id": 1411142668, "lat": 40.7069044, "lon": 23.7019995, "tags": {"amenity": "cafe", "internet_access": "yes", "internet_access:fee": "yes", "name": "Internet Cafe Sante"}}, {"type": "node", "id": 1411549868, "lat": 40.7087383, "lon": 23.7028205, "tags": {"amenity": "cafe", "name": "NEON"}}, {"type": "node", "id": 1445623486, "lat": 40.675818, "lon": 23.5608322, "tags": {"amenity": "restaurant", "cuisine": "fish;steak_house;coffee_shop", "int_name": "Skala", "name": "\u03a3\u03ba\u03ac\u03bb\u03b1", "opening_hours": "Mo-Su 08:00-22:00", "phone": "+302397051144"}}, {"type": "node", "id": 1548547196, "lat": 40.5908114, "lon": 23.7858023, "tags": {"addr:street": "Main Road of Olympiada", "alt_name": "Hotel Germany", "amenity": "restaurant", "cuisine": "greek", "name": "Restaurant \"Akrogiali\""}}, {"type": "node", "id": 1870800289, "lat": 40.708883, "lon": 23.7028812, "tags": {"amenity": "cafe", "name": "Pomodoro"}}, {"type": "node", "id": 1954390888, "lat": 40.7040031, "lon": 23.652046, "tags": {"amenity": "restaurant", "name": "\u0386\u03bc\u03c0\u03b5\u03bb\u03bf\u03c2"}}, {"type": "node", "id": 1964836945, "lat": 40.8184815, "lon": 23.3549692, "tags": {"amenity": "cafe"}}, {"type": "node", "id": 1964837006, "lat": 40.8183191, "lon": 23.3550201, "tags": {"amenity": "cafe"}}, {"type": "node", "id": 1964837084, "lat": 40.8182115, "lon": 23.3551194, "tags": {"amenity": "restaurant", "cuisine": "pizza"}}, {"type": "node", "id": 2348999977, "lat": 40.7041849, "lon": 23.6519482, "tags": {"amenity": "cafe"}}, {"type": "node", "id": 2753541516, "lat": 40.7404266, "lon": 23.7218977}, {"type": "node", "id": 2753541521, "lat": 40.7404709, "lon": 23.7218266}, {"type": "node", "id": 2753541525, "lat": 40.7404928, "lon": 23.721855}, {"type": "node", "id": 2753541529, "lat": 40.7405009, "lon": 23.7218494}, {"type": "node", "id": 2753541531, "lat": 40.7405182, "lon": 23.7218687}, {"type": "node", "id": 2753541535, "lat": 40.7404682, "lon": 23.7219648}, {"type": "node", "id": 2753541538, "lat": 40.7404493, "lon": 23.7219358}, {"type": "node", "id": 2753541541, "lat": 40.7404551, "lon": 23.7219252}, {"type": "node", "id": 3024939552, "lat": 40.652891, "lon": 23.6979021, "tags": {"amenity": "restaurant", "cuisine": "fish;greek;regional;seafood", "name": "\u0391\u03b3\u03bd\u03ac\u03bd\u03c4\u03b9", "name:el": "\u0391\u03b3\u03bd\u03ac\u03bd\u03c4\u03b9", "name:en": "Agnanti", "smoking": "separated", "wheelchair": "limited"}}, {"type": "node", "id": 3029314703, "lat": 40.6693223, "lon": 23.6689817, "tags": {"amenity": "cafe", "name": "Go Kart"}}, {"type": "node", "id": 3184731545, "lat": 40.7179628, "lon": 23.705983, "tags": {"amenity": "cafe", "name": "Liaros"}}, {"type": "node", "id": 3184731900, "lat": 40.7181417, "lon": 23.7060679, "tags": {"amenity": "cafe", "name": "renkio"}}, {"type": "node", "id": 3184734274, "lat": 40.7183256, "lon": 23.705633, "tags": {"amenity": "restaurant", "name": "\u0389\u03c6\u03b1\u03b9\u03c3\u03c4\u03bf\u03c2"}}, {"type": "node", "id": 3184734278, "lat": 40.7183167, "lon": 23.7061213, "tags": {"amenity": "cafe", "name": "Cranberrie"}}, {"type": "node", "id": 3184753596, "lat": 40.719427, "lon": 23.706018, "tags": {"amenity": "cafe"}}, {"type": "node", "id": 3189643143, "lat": 40.720448, "lon": 23.7087575, "tags": {"amenity": "cafe", "name": "Nitoz"}}, {"type": "node", "id": 3189654374, "lat": 40.7189274, "lon": 23.707926, "tags": {"amenity": "cafe", "name": "Reggel"}}, {"type": "node", "id": 3189689135, "lat": 40.7196186, "lon": 23.7091651, "tags": {"amenity": "restaurant"}}, {"type": "node", "id": 3189690942, "lat": 40.7179712, "lon": 23.7078585, "tags": {"amenity": "restaurant", "name": "\u03a4\u03bf \u03ba\u03bf\u03c5\u03c4\u03bf\u03c5\u03ba\u03b9 \u03c4\u03bf\u03c5 \u039d\u03b9\u03ba\u03bf\u03bb\u03b1"}}, {"type": "node", "id": 3189691119, "lat": 40.7184001, "lon": 23.7078836, "tags": {"amenity": "cafe"}}, {"type": "node", "id": 3189691130, "lat": 40.7182577, "lon": 23.7077102, "tags": {"amenity": "cafe", "name": "Ghetto"}}, {"type": "node", "id": 3189693887, "lat": 40.7177719, "lon": 23.7077834, "tags": {"amenity": "restaurant", "cuisine": "balkan;fish;fish_and_chips;friture;greek;local;regional", "name": "\u0392\u03bf\u03c4\u03c3\u03b1\u03bb\u03b1\u03ba\u03b9\u03b1", "name:el": "\u0392\u03bf\u03c4\u03c3\u03b1\u03bb\u03b1\u03ba\u03b9\u03b1", "name:en": "Votsalakia tavern"}}, {"type": "node", "id": 3189697136, "lat": 40.7168848, "lon": 23.7074334, "tags": {"amenity": "restaurant"}}, {"type": "node", "id": 3189720285, "lat": 40.7198525, "lon": 23.708367, "tags": {"amenity": "cafe"}}, {"type": "node", "id": 3189737403, "lat": 40.7205139, "lon": 23.7064575, "tags": {"amenity": "restaurant", "name": "\u03a3\u03a4\u03a1\u03a5\u039c\u03a9\u039d\u0399\u039a\u039f", "name:el": "\u03a3\u03a4\u03a1\u03a5\u039c\u03a9\u039d\u0399\u039a\u039f", "name:en": "Strimoniko"}}, {"type": "node", "id": 3189749654, "lat": 40.7180857, "lon": 23.705469, "tags": {"amenity": "cafe", "name": "Paraiso"}}, {"type": "node", "id": 3189772344, "lat": 40.7137331, "lon": 23.7034184, "tags": {"amenity": "restaurant", "name": "\u039a\u03c9\u03bd\u03c3\u03c4\u03b1\u03bd\u03c4\u03b9\u03bd\u03bf\u03c5\u03c0\u03bf\u03bb\u03b7\u03c2"}}, {"type": "node", "id": 3189795723, "lat": 40.727032, "lon": 23.7098303, "tags": {"amenity": "restaurant"}}, {"type": "node", "id": 3189795791, "lat": 40.7268369, "lon": 23.7098142, "tags": {"amenity": "cafe"}}, {"type": "node", "id": 3375013775, "lat": 40.7061258, "lon": 23.6994649, "tags": {"amenity": "cafe"}}, {"type": "node", "id": 3375014182, "lat": 40.7059103, "lon": 23.699363, "tags": {"amenity": "cafe"}}, {"type": "node", "id": 3619297347, "lat": 40.820288, "lon": 23.3624241, "tags": {"amenity": "cafe", "name": "\u0391\u03b3. \u0391\u03c0\u03cc\u03c3\u03c4\u03bf\u03bb\u03bf\u03b9"}}, {"type": "node", "id": 3622185346, "lat": 40.528646, "lon": 23.7487096}, {"type": "node", "id": 3622185347, "lat": 40.5286993, "lon": 23.7489462}, {"type": "node", "id": 3622185348, "lat": 40.5288305, "lon": 23.7488697}, {"type": "node", "id": 3622185349, "lat": 40.5288763, "lon": 23.7488237}, {"type": "node", "id": 3622185350, "lat": 40.5289127, "lon": 23.7487114}, {"type": "node", "id": 3622185351, "lat": 40.5288582, "lon": 23.7486775}, {"type": "node", "id": 3622185352, "lat": 40.5288174, "lon": 23.7487508}, {"type": "node", "id": 3622185353, "lat": 40.5287821, "lon": 23.7486833}, {"type": "node", "id": 3622185354, "lat": 40.5286861, "lon": 23.7486395}, {"type": "node", "id": 3697300027, "lat": 40.6646092, "lon": 23.7005562, "tags": {"amenity": "restaurant", "cuisine": "kebab", "drive_in": "no", "internet_access": "wlan", "internet_access:fee": "no", "microbrewery": "no", "name": "Gyrovoli", "organic": "no", "outdoor_seating": "yes", "smoking": "yes", "takeaway": "yes", "wheelchair": "yes"}}, {"type": "node", "id": 3697301125, "lat": 40.6646241, "lon": 23.700401, "tags": {"amenity": "restaurant", "cuisine": "italian", "internet_access": "wlan", "internet_access:fee": "no", "name": "Posidonio", "name:el": "\u03a0\u03bf\u03c3\u03b5\u03b9\u03b4\u03ce\u03bd\u03b9\u03bf", "smoking": "yes", "wheelchair": "yes"}}, {"type": "node", "id": 3698574526, "lat": 40.6645885, "lon": 23.700771, "tags": {"amenity": "restaurant", "cuisine": "greek", "drive_in": "no", "internet_access": "wlan", "internet_access:fee": "no", "name": "Moustakas", "name:el": "\u039c\u03bf\u03c5\u03c3\u03c4\u03b1\u03ba\u03b1\u03c2", "name:en": "Moustakas", "organic": "yes", "outdoor_seating": "yes", "smoking": "yes", "takeaway": "yes", "wheelchair": "limited"}}, {"type": "node", "id": 3698699651, "lat": 40.6646324, "lon": 23.7003144, "tags": {"amenity": "restaurant", "cuisine": "italian", "name": "Il Mondo"}}, {"type": "node", "id": 3698771625, "lat": 40.6646429, "lon": 23.7002051, "tags": {"amenity": "cafe", "name": "Whatever"}}, {"type": "node", "id": 4294757089, "lat": 40.8037918, "lon": 23.4690186, "tags": {"amenity": "cafe", "name": "kafe bar cizos", "opening_hours": "Mo-Su 06:00-22:00"}}, {"type": "node", "id": 4366657390, "lat": 40.6602628, "lon": 23.7253912, "tags": {"amenity": "restaurant", "name": "\u039a\u03b1\u03bb\u03b1\u03bc\u03b1\u03c4\u03b9\u03b1\u03bd\u03bf\u03c2 fish food"}}, {"type": "node", "id": 4715681864, "lat": 40.7624498, "lon": 23.771166, "tags": {"amenity": "cafe", "name": "BRATSAKI BEACH BAR"}}, {"type": "node", "id": 4791565624, "lat": 40.530047, "lon": 23.7548749, "tags": {"addr:place": "\u03a3\u03c4\u03ac\u03b3\u03b5\u03b9\u03c1\u03b1", "amenity": "cafe", "name": "\u03a0\u03b1\u03c0\u03b1\u03b6\u03b1\u03c1\u03af\u03b1\u03c2", "name:el": "\u03a0\u03b1\u03c0\u03b1\u03b6\u03b1\u03c1\u03af\u03b1\u03c2"}}, {"type": "node", "id": 4791575022, "lat": 40.5296476, "lon": 23.7566441, "tags": {"amenity": "cafe", "name": "\u03a4\u03c3\u03b9\u03c4\u03c3\u03ac\u03bd\u03b7\u03c2", "name:el": "\u03a4\u03c3\u03b9\u03c4\u03c3\u03ac\u03bd\u03b7\u03c2"}}, {"type": "node", "id": 4791600321, "lat": 40.5247635, "lon": 23.7658053, "tags": {"amenity": "restaurant", "name": "\u038a\u03c3\u03b2\u03bf\u03c1\u03bf\u03c2", "name:el": "\u038a\u03c3\u03b2\u03bf\u03c1\u03bf\u03c2", "name:en": "Isvoros", "operator": "\u03a7\u03b1\u03c4\u03b6\u03ae \u0399. \u0391\u03c1\u03b3\u03cd\u03c1\u03b7", "phone": "+30 2376041078", "website": "https://www.facebook.com/p/ISVOROS-100057228800566/"}}, {"type": "node", "id": 4791600421, "lat": 40.5273927, "lon": 23.7623084, "tags": {"amenity": "cafe"}}, {"type": "node", "id": 4968773335, "lat": 40.591545, "lon": 23.7845086, "tags": {"amenity": "restaurant", "name": "BeeRaki"}}, {"type": "node", "id": 4968773336, "lat": 40.5916234, "lon": 23.7844073, "tags": {"amenity": "cafe", "name": "PasseParTout"}}, {"type": "node", "id": 4970207461, "lat": 40.6635211, "lon": 23.7092109, "tags": {"amenity": "cafe", "cuisine": "coffee_shop;sandwich", "leisure": "beach_resort", "name": "Favela", "outdoor_seating": "yes"}}, {"type": "node", "id": 5597327533, "lat": 40.6362066, "lon": 23.2725464, "tags": {"amenity": "cafe"}}, {"type": "node", "id": 7471742986, "lat": 40.6646039, "lon": 23.701936, "tags": {"amenity": "restaurant", "cuisine": "pizza", "name": "\u0394\u03bf\u03bd \u039a\u03b9\u03c7\u03ce\u03c4\u03b7\u03c2", "name:el": "\u0394\u03bf\u03bd \u039a\u03b9\u03c7\u03ce\u03c4\u03b7\u03c2", "name:en": "Don Quijote"}}, {"type": "node", "id": 7646601685, "lat": 40.6651007, "lon": 23.6959252, "tags": {"amenity": "restaurant", "cuisine": "fish;greek;grill", "name": "\u03a4\u03b1\u03b2\u03ad\u03c1\u03bd\u03b1 \u039b\u03b5\u03c5\u03c4\u03ad\u03c1\u03b7\u03c2", "name:el": "\u03a4\u03b1\u03b2\u03ad\u03c1\u03bd\u03b1 \u039b\u03b5\u03c5\u03c4\u03ad\u03c1\u03b7\u03c2", "name:en": "Taverna Lefteris"}}, {"type": "node", "id": 7646601785, "lat": 40.6653647, "lon": 23.6959843, "tags": {"amenity": "restaurant", "name": "\u03a4\u03b1 \u03b1\u03b4\u03ad\u03c1\u03c6\u03b9\u03b1"}}, {"type": "node", "id": 7659420185, "lat": 40.6637395, "lon": 23.7129933, "tags": {"amenity": "cafe", "name": "\u039c\u03c0\u03bb\u03b5", "name:el": "\u039c\u03c0\u03bb\u03b5", "name:en": "Ble beach bar"}}, {"type": "node", "id": 7685296985, "lat": 40.6649641, "lon": 23.7023932, "tags": {"amenity": "restaurant", "cuisine": "fish;greek;seafood", "name": "\u039a\u03b1\u03bb\u03c5\u03b2\u03b9\u03ce\u03c4\u03b7\u03c2"}}, {"type": "node", "id": 7685296986, "lat": 40.6653242, "lon": 23.7031076, "tags": {"amenity": "restaurant", "cuisine": "fish;greek;seafood", "name": "\u039d\u03ad\u03bf \u03a6\u03ac\u03bb\u03b7\u03c1\u03bf"}}, {"type": "node", "id": 7685296987, "lat": 40.6670437, "lon": 23.6950994, "tags": {"amenity": "restaurant", "cuisine": "fish;greek;seafood", "name": "\u03a4\u03b6\u03b1\u03b6", "name:el": "\u03a4\u03b6\u03b1\u03b6", "name:en": "Jazz"}}, {"type": "node", "id": 7685297387, "lat": 40.6646136, "lon": 23.7017428, "tags": {"amenity": "restaurant", "cuisine": "balkan"}}, {"type": "node", "id": 7688185386, "lat": 40.6634064, "lon": 23.7114461, "tags": {"amenity": "cafe", "name": "\u0393\u03b9\u03b1\u03bc\u03c0\u03b1\u03bd\u03ac\u03ba\u03b9", "name:el": "\u0393\u03b9\u03b1\u03bc\u03c0\u03b1\u03bd\u03ac\u03ba\u03b9", "name:en": "Yabanaki beach bar"}}, {"type": "node", "id": 7746463986, "lat": 40.7071631, "lon": 23.7020675, "tags": {"amenity": "restaurant", "cuisine": "barbecue;fish;fish_and_chips;friture;greek;local;mediterranean", "name": "\u039c\u03b1\u03c1\u03b9\u03c9 \u03c4\u03b1\u03b2\u03b5\u03c1\u03bd\u03b1", "name:el": "\u039c\u03b1\u03c1\u03b9\u03c9 \u03c4\u03b1\u03b2\u03b5\u03c1\u03bd\u03b1", "name:en": "Mario tavern"}}, {"type": "node", "id": 8990385933, "lat": 40.7207221, "lon": 23.7070598, "tags": {"amenity": "cafe", "name": "Enzo all day"}}, {"type": "node", "id": 8990385934, "lat": 40.7204262, "lon": 23.7069414, "tags": {"amenity": "cafe", "ice_cream": "yes", "name": "Loukou Loukou Mam", "outdoor_seating": "yes"}}, {"type": "node", "id": 9339672121, "lat": 40.6646707, "lon": 23.7023285, "tags": {"amenity": "restaurant", "name": "\u03a3\u03a4\u03a1\u0391\u03a4\u0397\u03a3"}}, {"type": "node", "id": 9455165512, "lat": 40.8556004, "lon": 23.8566095, "tags": {"amenity": "cafe", "name": "\u0395\u03bd\u03bd\u03ad\u03b1 \u039f\u03b4\u03bf\u03af"}}, {"type": "node", "id": 9560615034, "lat": 40.7803206, "lon": 23.8232303, "tags": {"amenity": "restaurant", "cuisine": "seafood", "name": "\u03a8\u03b1\u03c1\u03bf\u03c4\u03b1\u03b2\u03ad\u03c1\u03bd\u03b1 \u039c\u03ac\u03ba\u03b7\u03c2"}}, {"type": "node", "id": 9560649012, "lat": 40.7948472, "lon": 23.8416294, "tags": {"addr:city": "\u039d\u03ad\u03b1 \u039a\u03b5\u03c1\u03b4\u03cd\u03bb\u03b9\u03b1", "amenity": "cafe", "name": "\u039c\u03c0\u03bf\u03c5\u03b3\u03ac\u03c4\u03c3\u03b1 ''\u0397 \u0393\u03b5\u03cd\u03c3\u03b7''"}}, {"type": "node", "id": 9874059680, "lat": 40.6389607, "lon": 23.4846044, "tags": {"amenity": "cafe", "check_date": "2023-06-12", "internet_access": "wlan", "internet_access:fee": "customers", "outdoor_seating": "yes", "payment:mastercard": "yes", "payment:visa": "yes", "wheelchair": "limited"}}, {"type": "node", "id": 9874059690, "lat": 40.6392318, "lon": 23.4849446, "tags": {"amenity": "cafe", "check_date": "2023-06-12", "contact:phone": "+30 697 099 9510", "cuisine": "coffee_shop;breakfast;brunch", "internet_access": "wlan", "internet_access:fee": "customers", "name": "Panagiotis Coffee & Food", "outdoor_seating": "yes", "payment:mastercard": "yes", "payment:visa": "yes", "wheelchair": "limited"}}, {"type": "node", "id": 9942705144, "lat": 40.6281317, "lon": 23.7675888, "tags": {"amenity": "cafe", "name": "SunTan beach bar"}}, {"type": "node", "id": 10024352791, "lat": 40.5799636, "lon": 23.8019502, "tags": {"amenity": "restaurant", "contact:facebook": "https://www.facebook.com/balkonakiseasidebar/", "name": "Balkonaki Seaside Bar Restaurant"}}, {"type": "node", "id": 11100315509, "lat": 40.7196036, "lon": 23.7085204, "tags": {"amenity": "restaurant", "outdoor_seating": "yes"}}, {"type": "node", "id": 11100315605, "lat": 40.7050258, "lon": 23.7007957, "tags": {"amenity": "restaurant", "cuisine": "greek", "name": "Kalogyros", "outdoor_seating": "yes"}}, {"type": "node", "id": 11100317305, "lat": 40.7048685, "lon": 23.7006974, "tags": {"amenity": "cafe", "name": "Veranda"}}, {"type": "node", "id": 11353438490, "lat": 40.6229136, "lon": 23.5611044, "tags": {"amenity": "cafe"}}, {"type": "node", "id": 11361082005, "lat": 40.5286152, "lon": 23.748725}, {"type": "node", "id": 11361082006, "lat": 40.5286345, "lon": 23.7486677}, {"type": "node", "id": 11405124020, "lat": 40.66496, "lon": 23.6959309, "tags": {"amenity": "cafe", "name": "Bruno"}}, {"type": "node", "id": 11431883945, "lat": 40.6257379, "lon": 23.4401138, "tags": {"amenity": "cafe"}}, {"type": "node", "id": 11840663571, "lat": 40.7074579, "lon": 23.6999144, "tags": {"addr:housenumber": "5", "addr:street": "\u03a0\u03b1\u03c1\u03b9\u03b1\u03bb\u03b9\u03b1\u03ba\u03ae \u039d\u03bf\u03cd\u03bc\u03b5\u03c1\u03bf 5", "amenity": "restaurant", "cuisine": "greek;grill", "internet_access": "wlan", "name:en": "souvlaki Shop POSEIDON", "opening_hours": "Mo-Su 09:00-00:00", "phone": "+302397026700"}}, {"type": "node", "id": 11981566568, "lat": 40.6639257, "lon": 23.7079131, "tags": {"amenity": "cafe", "name": "Coconut", "outdoor_seating": "yes"}}, {"type": "node", "id": 11981578069, "lat": 40.6645193, "lon": 23.7050786, "tags": {"amenity": "cafe", "name": "\u0386\u03ba\u03c4\u03b9\u03bf", "outdoor_seating": "yes"}}, {"type": "node", "id": 11981578070, "lat": 40.6632217, "lon": 23.7174558, "tags": {"amenity": "cafe", "name": "\u039c\u03c0\u03ad\u03bb\u03b5\u03c2"}}, {"type": "node", "id": 12062745376, "lat": 40.6616599, "lon": 23.7209814, "tags": {"amenity": "cafe", "name": "Stavraki"}}, {"type": "node", "id": 12062745377, "lat": 40.661982, "lon": 23.7203507, "tags": {"amenity": "restaurant", "description": "Ble Akrogiali Beach bar & Restaurant", "name": "Akrogiali"}}, {"type": "node", "id": 12062745378, "lat": 40.6625574, "lon": 23.7192418, "tags": {"amenity": "cafe", "name": "Helios"}}, {"type": "node", "id": 12062745379, "lat": 40.6639198, "lon": 23.7155214, "tags": {"amenity": "cafe", "name": "YOLO"}}, {"type": "node", "id": 12062745380, "lat": 40.6638517, "lon": 23.7144982, "tags": {"amenity": "cafe", "name": "\u03a6\u03bf\u03cd\u03c3\u03ba\u03b5\u03c2"}}, {"type": "node", "id": 12062745382, "lat": 40.6634238, "lon": 23.711748, "tags": {"amenity": "cafe", "name": "ILIOS"}}, {"type": "node", "id": 12078533295, "lat": 40.5911906, "lon": 23.7849609, "tags": {"amenity": "restaurant", "cuisine": "seafood", "description": "\u038c\u03bc\u03bf\u03c1\u03c6\u03b7 \u03c4\u03bf\u03c0\u03bf\u03b8\u03b5\u03c3\u03af\u03b1 \u03ba\u03b1\u03b9 \u03ac\u03c1\u03b9\u03c3\u03c4\u03b7 \u03b5\u03be\u03c5\u03c0\u03b7\u03c1\u03ad\u03c4\u03b7\u03c3\u03b7. \u03a6\u03b1\u03b3\u03b7\u03c4\u03ac \u03c3\u03c5\u03bd\u03b7\u03b8\u03b9\u03c3\u03bc\u03ad\u03bd\u03b1. \u03a7\u03c1\u03ad\u03c9\u03c3\u03b7 \u03c0\u03ac\u03bd\u03c9 \u03b1\u03c0' \u03c4\u03bf \u03b1\u03bd\u03b1\u03bc\u03b5\u03bd\u03cc\u03bc\u03b5\u03bd\u03bf.", "name": "\u039a\u03b1\u03c0\u03b5\u03c4\u03ac\u03bd \u039c\u03b1\u03bd\u03ce\u03bb\u03b7\u03c2"}}, {"type": "node", "id": 12364774622, "lat": 40.7051593, "lon": 23.7008591, "tags": {"amenity": "restaurant", "contact:phone": "+30 698 212 5251", "name": "Meltemi Sea Side Tavern"}}, {"type": "node", "id": 12485815179, "lat": 40.8846929, "lon": 23.7655155, "tags": {"addr:place": "\u03a4\u03c1\u03ac\u03b3\u03b9\u03bb\u03bf\u03c2", "amenity": "cafe", "name": "\u03a4\u03bf \u03bc\u03b9\u03ba\u03c1\u03cc \u03a0\u03b1\u03c1\u03af\u03c3\u03b9"}}, {"type": "node", "id": 12485863851, "lat": 40.8846176, "lon": 23.7657375, "tags": {"addr:place": "\u03a4\u03c1\u03ac\u03b3\u03b9\u03bb\u03bf\u03c2", "amenity": "restaurant"}}, {"type": "node", "id": 12913913838, "lat": 40.8111123, "lon": 23.8539737, "tags": {"amenity": "restaurant", "contact:facebook": "https://www.facebook.com/leonamfipoli/", "name": "Leon", "phone": "+30 2322032201"}}, {"type": "way", "id": 270311555, "nodes": [2753541516, 2753541521, 2753541525, 2753541529, 2753541531, 2753541535, 2753541538, 2753541541, 2753541516], "tags": {"amenity": "restaurant", "building": "yes", "capacity": "100", "cuisine": "regional,pizza", "name": "Elena", "smoking": "yes"}}, {"type": "way", "id": 356814091, "nodes": [3622185346, 11361082005, 3622185347, 3622185348, 3622185349, 3622185350, 3622185351, 3622185352, 3622185353, 3622185354, 11361082006, 3622185346], "tags": {"addr:place": "\u03a3\u03c4\u03ac\u03b3\u03b5\u03b9\u03c1\u03b1", "amenity": "cafe", "building": "yes", "name": "\u039e\u03b5\u03bd\u03af\u03b1", "name:el": "\u039e\u03b5\u03bd\u03af\u03b1", "name:en": "Xenia"}}]}