{"version": 0.6, "generator": "Overpass API 0.7.62.7 375dc00a", "osm3s": {"timestamp_osm_base": "2025-06-14T15:14:02Z", "copyright": "The data included in this document is from www.openstreetmap.org. The data is made available under ODbL."}, "elements": [{"type": "node", "id": 1041548450, "lat": 24.0810903, "lon": 32.8875969, "tags": {"amenity": "restaurant", "name": "Nubian house", "name:en": "Nubian house"}}, {"type": "node", "id": 1200093638, "lat": 24.0727765, "lon": 32.8809652}, {"type": "node", "id": 1200093640, "lat": 24.0725634, "lon": 32.8809662}, {"type": "node", "id": 1200093643, "lat": 24.0726352, "lon": 32.8811812}, {"type": "node", "id": 1200093645, "lat": 24.0727765, "lon": 32.8811812}, {"type": "node", "id": 1200093685, "lat": 24.0725634, "lon": 32.8811812}, {"type": "node", "id": 2613886089, "lat": 24.0245856, "lon": 32.8847335}, {"type": "node", "id": 2691573437, "lat": 24.0922369, "lon": 32.8860089}, {"type": "node", "id": 2691573441, "lat": 24.0923033, "lon": 32.8860702}, {"type": "node", "id": 2691573446, "lat": 24.0923455, "lon": 32.8858775}, {"type": "node", "id": 2691573449, "lat": 24.092352, "lon": 32.8858988}, {"type": "node", "id": 2691573450, "lat": 24.0923753, "lon": 32.8859303}, {"type": "node", "id": 2691573452, "lat": 24.0924025, "lon": 32.8859453}, {"type": "node", "id": 2691796224, "lat": 24.0903101, "lon": 32.8949146, "tags": {"amenity": "restaurant", "cuisine": "regional", "int_name": "Aswan Moon", "internet_access": "wlan", "name": "Aswan Moon", "name:en": "Aswan Moon"}}, {"type": "node", "id": 2691796234, "lat": 24.0860309, "lon": 32.8916496, "tags": {"amenity": "restaurant", "int_name": "Panorama", "name": "Panorama", "name:en": "Panorama"}}, {"type": "node", "id": 2691796235, "lat": 24.0832574, "lon": 32.8889741, "tags": {"amenity": "cafe"}}, {"type": "node", "id": 2691796241, "lat": 24.0907987, "lon": 32.8952631}, {"type": "node", "id": 2691796242, "lat": 24.0908607, "lon": 32.8951362}, {"type": "node", "id": 2691796247, "lat": 24.0910182, "lon": 32.8953918}, {"type": "node", "id": 2691796249, "lat": 24.0910522, "lon": 32.8954118}, {"type": "node", "id": 2691796251, "lat": 24.0911142, "lon": 32.8952849}, {"type": "node", "id": 2691881571, "lat": 24.0827001, "lon": 32.884647, "tags": {"amenity": "restaurant", "cuisine": "regional", "int_name": "El Dokka", "name": "El Jokka", "name:en": "El Dokka"}}, {"type": "node", "id": 2691881575, "lat": 24.0826444, "lon": 32.8849943, "tags": {"amenity": "cafe"}}, {"type": "node", "id": 3411360982, "lat": 24.0982295, "lon": 32.9013194, "tags": {"amenity": "restaurant"}}, {"type": "node", "id": 3684114360, "lat": 24.0926805, "lon": 32.8899715, "tags": {"amenity": "cafe"}}, {"type": "node", "id": 3685884155, "lat": 24.0893649, "lon": 32.890724, "tags": {"amenity": "cafe", "ele": "96", "name": "Nubian Dreams", "smoking": "yes"}}, {"type": "node", "id": 3694868079, "lat": 24.0857463, "lon": 32.887112, "tags": {"amenity": "cafe", "name": "Nubian House Coffee Shop", "name:en": "Nubian House Coffee Shop"}}, {"type": "node", "id": 3698445999, "lat": 24.100329, "lon": 32.9017787, "tags": {"amenity": "restaurant", "name": "Pizza Biti"}}, {"type": "node", "id": 4446031990, "lat": 24.088374, "lon": 32.8930888, "tags": {"amenity": "restaurant", "name:en": "Floating Restaurant - El Mabrouka"}}, {"type": "node", "id": 4567023691, "lat": 24.0910487, "lon": 32.8977123, "tags": {"amenity": "restaurant", "email": "apdllh_elssol@yahoo.com", "internet_access": "wlan", "name": "\u0645\u0637\u0639\u0645 \u0627\u0644\u062f\u064a\u0630\u0644", "name:ar": "\u0645\u0637\u0639\u0645 \u0627\u0644\u062f\u064a\u0630\u0644", "name:en": "Eldethl", "operator": "\u0643\u0628\u062f\u0647 \u0648\u0645\u062e", "phone": "01210526313"}}, {"type": "node", "id": 4796915922, "lat": 24.0877493, "lon": 32.8937137, "tags": {"amenity": "restaurant"}}, {"type": "node", "id": 4796992624, "lat": 24.0950371, "lon": 32.896688, "tags": {"amenity": "cafe"}}, {"type": "node", "id": 5106446623, "lat": 24.0856284, "lon": 32.8907113, "tags": {"addr:street": "\u0643\u0648\u0631\u0646\u064a\u0634", "amenity": "cafe", "internet_access": "wlan", "name": "\u0645\u0643\u0627\u0646\u064a", "name:ar": "\u0645\u0643\u0627\u0646\u064a", "name:en": "Makani", "opening_hours": "24/7"}}, {"type": "node", "id": 5288524121, "lat": 24.0988748, "lon": 32.9012727, "tags": {"amenity": "restaurant", "name:en": "Koshary Alsafoa"}}, {"type": "node", "id": 5290573421, "lat": 24.098892, "lon": 32.9015573, "tags": {"amenity": "restaurant", "name:en": "El Salam Restaurant"}}, {"type": "node", "id": 5316869018, "lat": 24.0922616, "lon": 32.8978365, "tags": {"amenity": "restaurant", "description": "Best Falafel & Ba Ba Ganoug Sandwich", "description:payment": "LE5 per half sandwhich", "name": "Mahmut Falafel"}}, {"type": "node", "id": 5486745921, "lat": 24.1324066, "lon": 32.891612, "tags": {"amenity": "cafe", "name:en": "Eplis"}}, {"type": "node", "id": 5540088521, "lat": 24.0895718, "lon": 32.8978032, "tags": {"amenity": "restaurant", "cuisine": "fish", "name": "\u062c\u0645\u0628\u0631\u064a\u0643\u0627", "name:ar": "\u062c\u0645\u0628\u0631\u064a\u0643\u0627", "name:en": "Jambarika"}}, {"type": "node", "id": 5982194841, "lat": 24.1014253, "lon": 32.9019094, "tags": {"amenity": "restaurant", "name": "\u0641\u0648\u0644 \u0648\u0641\u0644\u0627\u0641\u0644 \u0627\u0644\u0648\u0646\u0634", "name:ar": "\u0641\u0648\u0644 \u0648\u0641\u0644\u0627\u0641\u0644 \u0627\u0644\u0648\u0646\u0634"}}, {"type": "node", "id": 6168927962, "lat": 24.0911723, "lon": 32.8973521, "tags": {"amenity": "restaurant", "cuisine": "regional", "name": "El Shawesh", "name:de": "El Shawesh", "outdoor_seating": "yes", "source": "Reise-Taschenbuch \u00c4gypten - Die klassische Nilreise"}}, {"type": "node", "id": 6168929850, "lat": 24.097358, "lon": 32.8983258, "tags": {"amenity": "restaurant", "cuisine": "coffee_shop;burger", "name": "Aswan Plaza / Cilantro", "source": "Reise-Taschenbuch \u00c4gypten - Die klassische Nilreise"}}, {"type": "node", "id": 6655800778, "lat": 24.1028058, "lon": 32.9010527}, {"type": "node", "id": 6655800779, "lat": 24.1028241, "lon": 32.9010943}, {"type": "node", "id": 6655800780, "lat": 24.1027592, "lon": 32.9011452}, {"type": "node", "id": 6655800781, "lat": 24.1027898, "lon": 32.9012418}, {"type": "node", "id": 6655800782, "lat": 24.1027617, "lon": 32.9012686}, {"type": "node", "id": 6655800783, "lat": 24.1027947, "lon": 32.901341}, {"type": "node", "id": 6655800784, "lat": 24.1028217, "lon": 32.9013249}, {"type": "node", "id": 6655808185, "lat": 24.1029465, "lon": 32.9015435}, {"type": "node", "id": 6655808186, "lat": 24.1030885, "lon": 32.901447}, {"type": "node", "id": 6655808187, "lat": 24.1030506, "lon": 32.9013678}, {"type": "node", "id": 6655808188, "lat": 24.1032795, "lon": 32.9012109}, {"type": "node", "id": 6655808189, "lat": 24.103184, "lon": 32.9010004}, {"type": "node", "id": 6655808190, "lat": 24.1029637, "lon": 32.9011345}, {"type": "node", "id": 6655808191, "lat": 24.1028951, "lon": 32.9010084}, {"type": "node", "id": 6886700385, "lat": 24.0621209, "lon": 32.8850625, "tags": {"amenity": "restaurant", "name:en": "Koshary and Falafel Sandwiches"}}, {"type": "node", "id": 6979577991, "lat": 24.0998065, "lon": 32.9014806, "tags": {"amenity": "restaurant", "name:en": "Palestine"}}, {"type": "node", "id": 7003801228, "lat": 24.0946389, "lon": 32.8962805, "tags": {"amenity": "cafe", "name:en": "Mirabelle"}}, {"type": "node", "id": 7124837887, "lat": 24.0903892, "lon": 32.8995387, "tags": {"amenity": "restaurant", "name": "Cheap Fish Restaurant"}}, {"type": "node", "id": 7229016085, "lat": 24.0907032, "lon": 32.8915802, "tags": {"amenity": "restaurant", "name:en": "Ashri Toki", "name:fr": "Ashri Toki"}}, {"type": "node", "id": 7235548891, "lat": 24.0943616, "lon": 32.8915801, "tags": {"amenity": "restaurant", "name:en": "Baba Dooi", "name:fr": "Baba Dooi"}}, {"type": "node", "id": 7239763186, "lat": 24.0901468, "lon": 32.8952171, "tags": {"amenity": "restaurant", "cuisine": "local", "name": "Local restaurant"}}, {"type": "node", "id": 8222085618, "lat": 24.0927083, "lon": 32.8987551, "tags": {"amenity": "restaurant", "name": "Al masry"}}, {"type": "node", "id": 8222085619, "lat": 24.0985146, "lon": 32.9015886, "tags": {"amenity": "restaurant", "name": "Chef Kahlil"}}, {"type": "node", "id": 8244937417, "lat": 24.0900037, "lon": 32.8950781, "tags": {"addr:housenumber": "83", "addr:street": "\u0634\u0627\u0631\u0639 \u0643\u0648\u0631\u0646\u064a\u0634 \u0627\u0644\u0646\u064a\u0644", "amenity": "cafe", "internet_access": "wlan", "name": "Rich Coffee"}}, {"type": "node", "id": 8494044717, "lat": 24.092523, "lon": 32.899042, "tags": {"amenity": "restaurant", "name:en": "Ismailia"}}, {"type": "node", "id": 8497660918, "lat": 24.0991194, "lon": 32.9007941, "tags": {"amenity": "restaurant", "name:en": "Abeer Restaurant"}}, {"type": "node", "id": 8773397417, "lat": 24.0720701, "lon": 32.8873274, "tags": {"amenity": "restaurant", "name": "\u062c\u0645\u0628\u0631\u064a \u0627\u0641\u0646\u062f\u064a", "name:en": "Jambari Afendi"}}, {"type": "node", "id": 9118343635, "lat": 24.1053175, "lon": 32.9041197, "tags": {"amenity": "restaurant", "contact:facebook": "https://www.facebook.com/Anakassmyahoo/", "contact:phone": "+20 1104875709", "contact:whatsapp": "+20 1114142217", "name": "\u0645\u0637\u0639\u0645 \u0641\u0633\u0641\u0648\u0631\u064a\u0643\u0648", "name:ar": "\u0645\u0637\u0639\u0645 \u0641\u0633\u0641\u0648\u0631\u064a\u0643\u0648", "name:en": "Phosphorico Restaurant"}}, {"type": "node", "id": 9209659717, "lat": 24.0988808, "lon": 32.9006439, "tags": {"amenity": "restaurant", "name:en": "Makka"}}, {"type": "node", "id": 9391454938, "lat": 24.0891742, "lon": 32.8905965, "tags": {"amenity": "cafe"}}, {"type": "node", "id": 9572965417, "lat": 24.0605888, "lon": 32.8640546, "tags": {"amenity": "cafe", "name": "Sudanese coffee", "name:en": "Jabbana"}}, {"type": "node", "id": 9595281517, "lat": 24.0894223, "lon": 32.8910197, "tags": {"amenity": "restaurant", "name": "Jamaica Guest House"}}, {"type": "node", "id": 9608373217, "lat": 24.0989422, "lon": 32.9007223, "tags": {"amenity": "restaurant", "name:en": "Makka"}}, {"type": "node", "id": 10093582187, "lat": 24.0890581, "lon": 32.8856693, "tags": {"amenity": "restaurant", "name": "Kafana Guest House Nile View", "tourism": "guest_house"}}, {"type": "node", "id": 10110742631, "lat": 24.0315912, "lon": 32.8847615, "tags": {"amenity": "restaurant", "name": "Old Nubian Guest House Philae & Restaurant", "tourism": "guest_house"}}, {"type": "node", "id": 10244340309, "lat": 24.0894069, "lon": 32.8908624, "tags": {"amenity": "restaurant", "name": "King Jamaica Restaurant & Cafe"}}, {"type": "node", "id": 10265604709, "lat": 24.0597117, "lon": 32.8625301, "tags": {"amenity": "cafe", "name:en": "Gamalat House"}}, {"type": "node", "id": 10285975768, "lat": 24.0852998, "lon": 32.8906005, "tags": {"amenity": "restaurant", "name": "Makani"}}, {"type": "node", "id": 10698161405, "lat": 24.0885437, "lon": 32.8854316, "tags": {"addr:street": "3VQQ+6HQ\u060c \u0634\u064a\u0627\u062e\u0629 \u0623\u0648\u0644\u0649\u060c \u0642\u0633\u0645 \u0623\u0633\u0648\u0627\u0646\u060c, Aswan 1, Aswan Governorate", "amenity": "restaurant", "cuisine": "breakfast;chicken;coffee_shop;fish;friture;grill;pasta", "name": "Kana Kato Restaurant & cafe", "opening_hours": "Mo-Su 09:00-23:45"}}, {"type": "node", "id": 10737052806, "lat": 24.0722919, "lon": 32.8874974, "tags": {"amenity": "restaurant", "name:en": "Seafood restaurant $"}}, {"type": "node", "id": 10737066105, "lat": 24.0631753, "lon": 32.8854747, "tags": {"amenity": "restaurant", "name:en": "The African club restaurant and cafe"}}, {"type": "node", "id": 10827544505, "lat": 24.0231607, "lon": 32.8829807, "tags": {"amenity": "restaurant", "name": "Soliah Restaurant"}}, {"type": "node", "id": 10827556105, "lat": 24.0370488, "lon": 32.8829133, "tags": {"amenity": "restaurant", "name": "Al Batanyoun Port parking"}}, {"type": "node", "id": 10965817179, "lat": 23.9674109, "lon": 32.8246018, "tags": {"amenity": "restaurant", "check_date": "2023-06-09", "name": "Negroni", "payment:credit_cards": "yes", "payment:debit_cards": "yes", "payment:mastercard": "yes", "payment:visa": "yes"}}, {"type": "node", "id": 11368335991, "lat": 24.0245617, "lon": 32.8846892}, {"type": "node", "id": 11368335992, "lat": 24.0245085, "lon": 32.884655}, {"type": "node", "id": 11368335993, "lat": 24.0244644, "lon": 32.8846584}, {"type": "node", "id": 11368335994, "lat": 24.0244252, "lon": 32.8847187}, {"type": "node", "id": 11368335995, "lat": 24.024547, "lon": 32.8847824}, {"type": "node", "id": 11551075143, "lat": 24.0845047, "lon": 32.8977402, "tags": {"amenity": "restaurant", "cuisine": "fish"}}, {"type": "node", "id": 11559563633, "lat": 24.1343654, "lon": 32.8807659, "tags": {"amenity": "cafe", "name": "Abu Al Hawa caf\u00e9"}}, {"type": "node", "id": 11697715413, "lat": 24.0850166, "lon": 32.893316, "tags": {"amenity": "cafe", "cuisine": "coffee_shop", "drive_through": "no", "food": "no", "outdoor_seating": "yes", "smoking": "yes", "television": "yes", "wheelchair": "no"}}, {"type": "node", "id": 11697715418, "lat": 24.0853103, "lon": 32.893404, "tags": {"amenity": "restaurant", "name": "\u0645\u0637\u0639\u0645 \u0632\u0628\u0632\u0648", "outdoor_seating": "yes"}}, {"type": "node", "id": 11697715423, "lat": 24.0849925, "lon": 32.893542, "tags": {"amenity": "cafe", "cuisine": "coffee_shop", "name": "\u0643\u0627\u0641\u064a \u0634\u0648\u0628 \u0627\u0644\u062e\u0627\u0646", "name:ar": "\u0643\u0627\u0641\u064a \u0634\u0648\u0628 \u0627\u0644\u062e\u0627\u0646", "outdoor_seating": "yes"}}, {"type": "node", "id": 12117387865, "lat": 24.0616876, "lon": 32.864415, "tags": {"amenity": "cafe", "name": "Asywsy", "source": "survey"}}, {"type": "node", "id": 12718451227, "lat": 24.0625379, "lon": 32.8639556, "tags": {"amenity": "restaurant", "cuisine": "regional", "name:en": "Kerma Restaurent"}}, {"type": "node", "id": 12773108801, "lat": 24.061108, "lon": 32.8645564, "tags": {"amenity": "restaurant", "name:en": "Dolty Kato"}}, {"type": "way", "id": 103972272, "nodes": [1200093638, 1200093645, 1200093643, 1200093685, 1200093640, 1200093638], "tags": {"amenity": "restaurant", "cuisine": "regional", "name": "Aussichtsrestaurant", "tourism": "viewpoint"}}, {"type": "way", "id": 263534895, "nodes": [2691573446, 2691573449, 2691573450, 2691573452, 2691573441, 2691573437, 2691573446], "tags": {"amenity": "cafe", "building": "yes"}}, {"type": "way", "id": 263548645, "nodes": [2691796249, 2691796247, 2691796241, 2691796242, 2691796251, 2691796249], "tags": {"amenity": "restaurant", "building": "yes", "cuisine": "regional", "int_name": "Salah Ed-Din", "name": "Salah Ed-Din", "name:en": "Salah Ed-Din"}}, {"type": "way", "id": 708311798, "nodes": [6655808191, 6655808190, 6655808189, 6655808188, 6655808187, 6655808186, 6655808185, 6655800784, 6655800783, 6655800782, 6655800781, 6655800780, 6655800779, 6655800778, 6655808191], "tags": {"amenity": "restaurant", "cuisine": "regional", "name": "Touristic restaurant"}}, {"type": "way", "id": 1225872973, "nodes": [11368335995, 11368335994, 11368335993, 11368335992, 11368335991, 2613886089, 11368335995], "tags": {"amenity": "cafe", "name": "\u0643\u0627\u0641\u062a\u064a\u0631\u064a\u0627", "name:ar": "\u0643\u0627\u0641\u062a\u064a\u0631\u064a\u0627", "name:en": "Cafeteria"}}]}