{"version": 0.6, "generator": "Overpass API 0.7.62.7 375dc00a", "osm3s": {"timestamp_osm_base": "2025-06-14T14:50:30Z", "copyright": "The data included in this document is from www.openstreetmap.org. The data is made available under ODbL."}, "elements": [{"type": "node", "id": 5340349625, "lat": 29.203526, "lon": 25.5193836, "tags": {"amenity": "cafe", "name": "\u0645\u0642\u0647\u0649 \u0622\u0646\u0627 \u0645\u0631\u064a\u0627", "name:ar": "\u0645\u0642\u0647\u0649 \u0622\u0646\u0627 \u0645\u0631\u064a\u0627", "name:en": "Ana Maria Caf\u00e9"}}, {"type": "node", "id": 5474016433, "lat": 29.1970447, "lon": 25.5501151, "tags": {"amenity": "restaurant", "name:en": "Tanta waa restaurant"}}, {"type": "node", "id": 6121187689, "lat": 29.2025602, "lon": 25.5203119, "tags": {"addr:city": "\u0633\u064a\u0648\u0629", "amenity": "restaurant", "cuisine": "regional;arab", "internet_access": "wlan", "name": "\u0645\u0637\u0639\u0645 \u0634\u0647\u0631\u0632\u0627\u062f", "name:ar": "\u0645\u0637\u0639\u0645 \u0634\u0647\u0631\u0632\u0627\u062f", "name:en": "Shahrazad Restaurant"}}, {"type": "node", "id": 6121187691, "lat": 29.2023261, "lon": 25.520534, "tags": {"addr:city": "\u0633\u064a\u0648\u0629", "amenity": "restaurant", "cuisine": "pizza;regional;arab", "name": "\u0645\u0637\u0639\u0645 \u0639\u0628\u062f\u0647", "name:ar": "\u0645\u0637\u0639\u0645 \u0639\u0628\u062f\u0647", "name:en": "Abdu Restaurant"}}, {"type": "node", "id": 8841223817, "lat": 29.198992, "lon": 25.5212424, "tags": {"amenity": "restaurant", "cuisine": "regional", "name:en": "Ali Eleva Restoran"}}, {"type": "node", "id": 9058066018, "lat": 29.2014843, "lon": 25.5207969, "tags": {"amenity": "cafe", "name:en": "Hayat Caf\u00e9", "name:fr": "Hayat Caf\u00e9"}}, {"type": "node", "id": 9594952517, "lat": 29.1977759, "lon": 25.5830903, "tags": {"amenity": "cafe", "name:en": "Awsat coffee tea shop"}}, {"type": "node", "id": 11608484447, "lat": 29.2027159, "lon": 25.5195383, "tags": {"amenity": "restaurant", "name": "Siwa Gate"}}, {"type": "node", "id": 11608500798, "lat": 29.2010327, "lon": 25.5216614, "tags": {"amenity": "restaurant", "name": "Ola restaurant"}}, {"type": "node", "id": 11608500803, "lat": 29.2023127, "lon": 25.5204341, "tags": {"amenity": "restaurant", "cuisine": "pizza"}}, {"type": "node", "id": 11611483758, "lat": 29.2042968, "lon": 25.5197672, "tags": {"amenity": "restaurant", "name": "Tekeyet Elamir"}}, {"type": "node", "id": 11611483767, "lat": 29.2003386, "lon": 25.520369, "tags": {"amenity": "restaurant", "name": "Abo Ayman"}}, {"type": "node", "id": 11611483768, "lat": 29.1996014, "lon": 25.5207809, "tags": {"amenity": "restaurant", "name": "Abo Mordem"}}, {"type": "node", "id": 11611553470, "lat": 29.1984914, "lon": 25.5202693, "tags": {"amenity": "restaurant", "cuisine": "pizza"}}, {"type": "node", "id": 11618954795, "lat": 29.2143533, "lon": 25.6199133, "tags": {"amenity": "cafe"}}, {"type": "node", "id": 11627655947, "lat": 29.2018691, "lon": 25.5202531, "tags": {"amenity": "restaurant", "cuisine": "chicken", "name": "Aboomar Gril Restaurant"}}]}