{"version": 0.6, "generator": "Overpass API 0.7.62.7 375dc00a", "osm3s": {"timestamp_osm_base": "2025-06-14T15:19:03Z", "copyright": "The data included in this document is from www.openstreetmap.org. The data is made available under ODbL."}, "elements": [{"type": "node", "id": 1082056202, "lat": 29.5776898, "lon": 35.4197438}, {"type": "node", "id": 1082056251, "lat": 29.5774669, "lon": 35.4196624}, {"type": "node", "id": 1082056256, "lat": 29.5775073, "lon": 35.4196472}, {"type": "node", "id": 1082056269, "lat": 29.5776357, "lon": 35.4198789}, {"type": "node", "id": 1082056273, "lat": 29.5774249, "lon": 35.4197674}, {"type": "node", "id": 2161699471, "lat": 29.6137552, "lon": 35.4802631, "tags": {"amenity": "cafe", "note": "yes, really", "shop": "gift"}}, {"type": "node", "id": 2344061481, "lat": 29.5767062, "lon": 35.4195881, "tags": {"amenity": "cafe"}}, {"type": "node", "id": 2497783052, "lat": 29.5774952, "lon": 35.4196773}, {"type": "node", "id": 3053233247, "lat": 29.6363265, "lon": 35.5120666}, {"type": "node", "id": 3053233248, "lat": 29.6361969, "lon": 35.5123777}, {"type": "node", "id": 3053233249, "lat": 29.6358189, "lon": 35.5121921}, {"type": "node", "id": 3053233250, "lat": 29.6359533, "lon": 35.5118755}, {"type": "node", "id": 4395031898, "lat": 29.8260859, "lon": 35.3330047, "tags": {"amenity": "restaurant", "name:en": "Alanya Restaurant"}}, {"type": "node", "id": 6088732853, "lat": 29.576119, "lon": 35.4193847, "tags": {"amenity": "restaurant", "name": "\u0623\u0628\u0648 \u0639\u0644\u064a", "name:ar": "\u0623\u0628\u0648 \u0639\u0644\u064a", "name:en": "Abu Ali"}}, {"type": "node", "id": 6435163785, "lat": 29.8011758, "lon": 35.3104911, "tags": {"amenity": "cafe", "name:en": "Small coffee stand"}}, {"type": "node", "id": 7004117247, "lat": 29.560141, "lon": 35.4514905}, {"type": "node", "id": 7004117248, "lat": 29.5602085, "lon": 35.4514214}, {"type": "node", "id": 7004117249, "lat": 29.5603146, "lon": 35.4515584}, {"type": "node", "id": 7004117250, "lat": 29.5602959, "lon": 35.4515775}, {"type": "node", "id": 7004117251, "lat": 29.5603324, "lon": 35.4516246}, {"type": "node", "id": 7004117252, "lat": 29.5602835, "lon": 35.4516746}, {"type": "node", "id": 7063000043, "lat": 29.7379005, "lon": 35.2847251}, {"type": "node", "id": 7063000044, "lat": 29.7378807, "lon": 35.284819}, {"type": "node", "id": 7063000045, "lat": 29.7381054, "lon": 35.284878}, {"type": "node", "id": 7063000046, "lat": 29.7381264, "lon": 35.2847774}, {"type": "node", "id": 7096129945, "lat": 29.6981928, "lon": 35.3959052, "tags": {"amenity": "cafe", "name": "Bedouin Cafe"}}, {"type": "node", "id": 10304711325, "lat": 29.6390649, "lon": 35.435155, "tags": {"amenity": "restaurant", "name": "Food Ex", "outdoor_seating": "yes"}}, {"type": "node", "id": 10718293788, "lat": 29.5764242, "lon": 35.4206234, "tags": {"air_conditioning": "yes", "amenity": "restaurant", "bar": "no", "cuisine": "regional", "diet:vegan": "yes", "diet:vegetarian": "yes", "internet_access": "wlan", "internet_access:fee": "no", "internet_access:ssid": "Orange-F547", "microbrewery": "no", "name": "Restaurant & Coffee", "outdoor_seating": "yes"}}, {"type": "node", "id": 10718293790, "lat": 29.5755022, "lon": 35.4190229, "tags": {"amenity": "restaurant", "cuisine": "lebanese", "name": "Falafel Restaurant"}}, {"type": "node", "id": 10718293803, "lat": 29.5752669, "lon": 35.4188924, "tags": {"amenity": "restaurant", "name": "Rum Castle Restaurant & Caf\u00e9"}}, {"type": "node", "id": 11899370697, "lat": 29.4886291, "lon": 35.4692707, "tags": {"amenity": "cafe", "cuisine": "regional;coffee_shop", "internet_access": "no", "name": "Sand Skiers Rest", "opening_hours": "24/7", "outdoor_seating": "yes", "phone": "+962785440434"}}, {"type": "way", "id": 93326697, "nodes": [1082056273, 1082056269, 1082056202, 1082056256, 2497783052, 1082056251, 1082056273], "tags": {"amenity": "restaurant", "building": "yes", "name": "Wadi Rum Rest House"}}, {"type": "way", "id": 301226638, "nodes": [3053233247, 3053233248, 3053233249, 3053233250, 3053233247], "tags": {"amenity": "restaurant", "building": "yes"}}, {"type": "way", "id": 748972449, "nodes": [7004117252, 7004117251, 7004117250, 7004117249, 7004117248, 7004117247, 7004117252], "tags": {"amenity": "restaurant", "building": "tent", "cuisine": "international", "internet_access": "no"}}, {"type": "way", "id": 756213412, "nodes": [7063000046, 7063000045, 7063000044, 7063000043, 7063000046], "tags": {"alt_name": "Rest House", "amenity": "cafe", "building": "yes", "name": "Moon Valley Treasures", "name:en": "Moon Valley Treasures", "shop": "gift"}}]}