{"version": 0.6, "generator": "Overpass API 0.7.62.7 375dc00a", "osm3s": {"timestamp_osm_base": "2025-06-14T14:55:36Z", "copyright": "The data included in this document is from www.openstreetmap.org. The data is made available under ODbL."}, "elements": [{"type": "node", "id": 462225849, "lat": 36.2710852, "lon": 27.8252592, "tags": {"amenity": "restaurant"}}, {"type": "node", "id": 528908846, "lat": 36.2224122, "lon": 27.6042662, "tags": {"amenity": "restaurant", "name": "Taverna Pontamos"}}, {"type": "node", "id": 529536355, "lat": 36.2170784, "lon": 27.6160263, "tags": {"amenity": "restaurant", "name": "Taverna Ftenagaia"}}, {"type": "node", "id": 529557037, "lat": 36.2220397, "lon": 27.612168, "tags": {"amenity": "cafe", "internet_access": "wlan", "name": "Theodosia", "smoking": "yes", "wheelchair": "limited"}}, {"type": "node", "id": 529935247, "lat": 36.222202, "lon": 27.6119642, "tags": {"amenity": "restaurant", "name": "Taverne Maria", "phone": "+302246045300"}}, {"type": "node", "id": 529935251, "lat": 36.2212702, "lon": 27.612348, "tags": {"amenity": "restaurant", "cuisine": "greek", "name": "Black Sea"}}, {"type": "node", "id": 946045833, "lat": 36.2721974, "lon": 27.8245923, "tags": {"amenity": "restaurant", "name": "Loukas", "phone": "+30 22460 31271"}}, {"type": "node", "id": 978901586, "lat": 36.2219024, "lon": 27.6120861, "tags": {"amenity": "cafe", "internet_access": "wlan", "name": "La Piazza"}}, {"type": "node", "id": 978915196, "lat": 36.2217985, "lon": 27.6121129, "tags": {"amenity": "restaurant", "cuisine": "greek", "name": "Remezzo"}}, {"type": "node", "id": 978915200, "lat": 36.2216384, "lon": 27.6121451, "tags": {"amenity": "restaurant", "cuisine": "greek", "name": "Babis"}}, {"type": "node", "id": 1260633627, "lat": 35.9653627, "lon": 27.8612595, "tags": {"amenity": "restaurant", "cuisine": "greek", "email": "lachaniaplatanos@hotmail.com", "internet_access": "wlan", "name": "Platanos", "phone": "+30 22440 46027", "website": "www.lachaniaplatanos.com"}}, {"type": "node", "id": 1260633843, "lat": 36.0456595, "lon": 27.9536568, "tags": {"amenity": "restaurant", "int_name": "Paralia", "name": "\u03a0\u03b1\u03c1\u03b1\u03bb\u03af\u03b1"}}, {"type": "node", "id": 1260638417, "lat": 36.072806, "lon": 27.9304108, "tags": {"amenity": "restaurant"}}, {"type": "node", "id": 1267523141, "lat": 35.8913394, "lon": 27.7733512, "tags": {"amenity": "restaurant", "cuisine": "greek", "name": "Lighthouse"}}, {"type": "node", "id": 1267524443, "lat": 36.2742524, "lon": 28.0247907, "tags": {"amenity": "restaurant", "cuisine": "greek", "name": "Steki"}}, {"type": "node", "id": 1267954890, "lat": 36.0943551, "lon": 28.0168548, "tags": {"addr:street": "Lardos Square", "amenity": "restaurant", "cuisine": "greek", "name": "Valantina's", "self_service": "no", "website": "http://www.valantinas.gr"}}, {"type": "node", "id": 1326693613, "lat": 36.2604037, "lon": 27.9652029, "tags": {"amenity": "restaurant", "cuisine": "greek", "int_name": "Paspallas", "name": "\u03a0\u03b1\u03c3\u03c0\u03b1\u03bb\u03bb\u03ac\u03c2"}}, {"type": "node", "id": 1353919655, "lat": 36.0551196, "lon": 27.9747641, "tags": {"amenity": "restaurant", "cuisine": "regional", "name": "Mourella"}}, {"type": "node", "id": 1354097595, "lat": 36.0464439, "lon": 27.955306, "tags": {"amenity": "restaurant", "name": "Stefano"}}, {"type": "node", "id": 1354097596, "lat": 36.0463384, "lon": 27.955004, "tags": {"amenity": "restaurant", "name": "La Strada"}}, {"type": "node", "id": 1375272150, "lat": 36.0675707, "lon": 27.7861201, "tags": {"amenity": "restaurant", "cuisine": "greek", "name": "Perouli's"}}, {"type": "node", "id": 1375272213, "lat": 36.0669546, "lon": 27.7875335, "tags": {"amenity": "restaurant", "cuisine": "greek"}}, {"type": "node", "id": 1377297404, "lat": 36.0607178, "lon": 27.8846874, "tags": {"amenity": "restaurant", "cuisine": "greek", "name": "Taverna Pelecanos"}}, {"type": "node", "id": 1377303461, "lat": 36.1318305, "lon": 27.741254, "tags": {"amenity": "restaurant", "cuisine": "greek", "name": "Christos Corner", "phone": "+30-224460-61310", "tourism": "hotel", "website": "http://www.christos-corner.com/"}}, {"type": "node", "id": 1377303464, "lat": 36.1289966, "lon": 27.7362289, "tags": {"amenity": "restaurant", "cuisine": "greek", "name": "Panorama of Monolithos"}}, {"type": "node", "id": 1377303663, "lat": 36.1236484, "lon": 27.7273993, "tags": {"amenity": "cafe", "name": "The Castle"}}, {"type": "node", "id": 1408924451, "lat": 36.0735092, "lon": 28.0542028, "tags": {"amenity": "restaurant", "cuisine": "greek", "name": "Taverna Dama-Dama"}}, {"type": "node", "id": 1787279945, "lat": 36.0521087, "lon": 27.971202}, {"type": "node", "id": 1787279948, "lat": 36.0522152, "lon": 27.9713939}, {"type": "node", "id": 1787279950, "lat": 36.0522222, "lon": 27.9711058}, {"type": "node", "id": 1787279961, "lat": 36.0523286, "lon": 27.9712976}, {"type": "node", "id": 1803104897, "lat": 36.2278929, "lon": 27.855059, "tags": {"amenity": "restaurant", "cuisine": "greek", "name": "\u03a4\u03b1\u03b2\u03b5\u03c1\u03bd\u03b1 \u0391\u03bb\u03c9\u03bd\u03b9\u03b1", "name:el": "\u03a4\u03b1\u03b2\u03b5\u03c1\u03bd\u03b1 \u0391\u03bb\u03c9\u03bd\u03b9\u03b1", "name:en": "Taverna Alonia", "source": "survey"}}, {"type": "node", "id": 1844098140, "lat": 35.9535079, "lon": 27.7683371, "tags": {"amenity": "restaurant", "cuisine": "greek", "name": "Aspasia"}}, {"type": "node", "id": 1849416989, "lat": 35.8914799, "lon": 27.7736587, "tags": {"amenity": "restaurant", "name": "Oasis"}}, {"type": "node", "id": 1852455235, "lat": 35.9540531, "lon": 27.7685044, "tags": {"amenity": "restaurant", "cuisine": "greek", "name": "Eftihia"}}, {"type": "node", "id": 1914057491, "lat": 36.1661842, "lon": 27.8497507, "tags": {"amenity": "cafe", "name": "Ataviros"}}, {"type": "node", "id": 1914057504, "lat": 36.1535227, "lon": 27.7786734, "tags": {"amenity": "restaurant", "name": "Manos"}}, {"type": "node", "id": 1914057506, "lat": 36.2717403, "lon": 27.9033379, "tags": {"amenity": "restaurant"}}, {"type": "node", "id": 2320333570, "lat": 36.071412, "lon": 28.0517158, "tags": {"amenity": "restaurant", "cuisine": "greek", "internet_access": "wlan", "internet_access:fee": "no", "name": "Lee Beach Taverna", "opening_hours": "09:30-20:00"}}, {"type": "node", "id": 2320387951, "lat": 36.0723898, "lon": 28.0507822, "tags": {"amenity": "restaurant", "cuisine": "greek", "name": "Flyer's", "source": "local_knowledge"}}, {"type": "node", "id": 2320398982, "lat": 36.0746806, "lon": 28.0550423, "tags": {"amenity": "restaurant", "cuisine": "greek", "name": "Fish Taverna Mary & Gina"}}, {"type": "node", "id": 2320401904, "lat": 36.0760728, "lon": 28.0528181, "tags": {"amenity": "restaurant", "cuisine": "greek", "name": "Artemis Garden Restaurant"}}, {"type": "node", "id": 2320402519, "lat": 36.0736048, "lon": 28.0559914, "tags": {"amenity": "restaurant", "cuisine": "Greek-Cypriot", "name": "Smile Garden"}}, {"type": "node", "id": 2320413884, "lat": 36.0747446, "lon": 28.0555558, "tags": {"amenity": "restaurant", "cuisine": "greek", "name": "Enigma"}}, {"type": "node", "id": 2364155114, "lat": 36.0378302, "lon": 27.9383986, "tags": {"amenity": "restaurant", "int_name": "Angelaki Taverna", "name": "\u03c4\u03b1\u03b2\u03ad\u03c1\u03bd\u03b1 \u03c4\u03bf\u03c5 \u0391\u03b3\u03b3\u03b5\u03bb\u03ac\u03ba\u03b7", "name:el": "\u03c4\u03b1\u03b2\u03ad\u03c1\u03bd\u03b1 \u03c4\u03bf\u03c5 \u0391\u03b3\u03b3\u03b5\u03bb\u03ac\u03ba\u03b7"}}, {"type": "node", "id": 2364517998, "lat": 36.2738783, "lon": 28.0251531, "tags": {"amenity": "restaurant", "cuisine": "greek", "name": "Oasis"}}, {"type": "node", "id": 2375002837, "lat": 36.2719055, "lon": 27.8253222, "tags": {"amenity": "restaurant", "name": "Athemenis"}}, {"type": "node", "id": 2375945682, "lat": 36.0933086, "lon": 28.0170465, "tags": {"amenity": "restaurant", "cuisine": "greek", "name": "Savvas"}}, {"type": "node", "id": 2408192082, "lat": 36.1275493, "lon": 28.0609875}, {"type": "node", "id": 2408192084, "lat": 36.1274677, "lon": 28.0610542}, {"type": "node", "id": 2408192086, "lat": 36.127574, "lon": 28.0612523}, {"type": "node", "id": 2408192090, "lat": 36.1276547, "lon": 28.0611853}, {"type": "node", "id": 2408311030, "lat": 36.113146, "lon": 28.0568951, "tags": {"amenity": "cafe", "name": "Zuccero", "wheelchair": "limited"}}, {"type": "node", "id": 2411535272, "lat": 36.0767449, "lon": 28.0507977, "tags": {"amenity": "restaurant", "name": "La Plazza"}}, {"type": "node", "id": 2414505712, "lat": 36.0764976, "lon": 28.0552752, "tags": {"amenity": "restaurant", "name": "Tsambikos"}}, {"type": "node", "id": 2415307399, "lat": 36.0723121, "lon": 28.0508172}, {"type": "node", "id": 2415307403, "lat": 36.0723709, "lon": 28.0508667}, {"type": "node", "id": 2415307404, "lat": 36.072378, "lon": 28.0506974}, {"type": "node", "id": 2415307408, "lat": 36.0724368, "lon": 28.0507468}, {"type": "node", "id": 2416958532, "lat": 36.0751334, "lon": 28.0555845, "tags": {"amenity": "restaurant", "name": "Nostalgia"}}, {"type": "node", "id": 2417021910, "lat": 36.0702978, "lon": 28.0546811}, {"type": "node", "id": 2417021912, "lat": 36.0703531, "lon": 28.0547267}, {"type": "node", "id": 2417021914, "lat": 36.0703804, "lon": 28.0545278}, {"type": "node", "id": 2417021917, "lat": 36.0704357, "lon": 28.0545734}, {"type": "node", "id": 2421875185, "lat": 36.070066, "lon": 28.0588882, "tags": {"amenity": "restaurant", "name": "Anixis"}}, {"type": "node", "id": 2422353175, "lat": 36.0789608, "lon": 28.0244616, "tags": {"amenity": "restaurant", "name": "Mare Matto"}}, {"type": "node", "id": 2422353178, "lat": 36.0791252, "lon": 28.0250546, "tags": {"amenity": "restaurant", "name": "Periklis"}}, {"type": "node", "id": 2425966277, "lat": 36.0771738, "lon": 28.0214036}, {"type": "node", "id": 2425966278, "lat": 36.0771862, "lon": 28.0214845}, {"type": "node", "id": 2425966281, "lat": 36.0772832, "lon": 28.0216544}, {"type": "node", "id": 2425966282, "lat": 36.0772859, "lon": 28.0214869}, {"type": "node", "id": 2425966293, "lat": 36.0773992, "lon": 28.0212752}, {"type": "node", "id": 2425966294, "lat": 36.0774093, "lon": 28.0213929}, {"type": "node", "id": 2425966297, "lat": 36.0774241, "lon": 28.0214651}, {"type": "node", "id": 2425966298, "lat": 36.0774252, "lon": 28.0213933}, {"type": "node", "id": 2425966304, "lat": 36.0774522, "lon": 28.0216586}, {"type": "node", "id": 2425966305, "lat": 36.0774552, "lon": 28.0214659}, {"type": "node", "id": 2462192476, "lat": 36.0479445, "lon": 27.9507807}, {"type": "node", "id": 2462192482, "lat": 36.0480124, "lon": 27.9508617}, {"type": "node", "id": 2462192484, "lat": 36.0480272, "lon": 27.9506745}, {"type": "node", "id": 2462192493, "lat": 36.0480951, "lon": 27.9507556}, {"type": "node", "id": 2462964599, "lat": 36.0249098, "lon": 27.9322516}, {"type": "node", "id": 2462964607, "lat": 36.0249497, "lon": 27.9321837}, {"type": "node", "id": 2462964614, "lat": 36.024986, "lon": 27.9323534}, {"type": "node", "id": 2462964616, "lat": 36.0249881, "lon": 27.9322182}, {"type": "node", "id": 2462964617, "lat": 36.0249989, "lon": 27.9323315}, {"type": "node", "id": 2462964618, "lat": 36.0250016, "lon": 27.9321953}, {"type": "node", "id": 2462964620, "lat": 36.0250168, "lon": 27.932381}, {"type": "node", "id": 2462964621, "lat": 36.0250408, "lon": 27.9323195}, {"type": "node", "id": 2462964622, "lat": 36.0250487, "lon": 27.9323266}, {"type": "node", "id": 2462964624, "lat": 36.025075, "lon": 27.9322611}, {"type": "node", "id": 2474305059, "lat": 36.1530695, "lon": 27.7756084, "tags": {"amenity": "restaurant"}}, {"type": "node", "id": 2474305080, "lat": 36.1530785, "lon": 27.778134, "tags": {"addr:city": "\u03a3\u03b9\u03ac\u03bd\u03b1", "addr:postcode": "85108", "amenity": "cafe", "name": "Sofia's Cafe Restaurant", "opening_hours": "Mo-Su 10:30-16:30", "outdoor_seating": "yes", "payment:credit_cards": "yes", "phone": "+302246061296"}}, {"type": "node", "id": 2474305280, "lat": 36.1536517, "lon": 27.7784463, "tags": {"amenity": "restaurant", "name": "Village Place"}}, {"type": "node", "id": 2474549205, "lat": 36.2245031, "lon": 27.8554243, "tags": {"amenity": "restaurant", "cuisine": "regional", "name": "Attaviros"}}, {"type": "node", "id": 2476637481, "lat": 36.2278748, "lon": 27.8546805, "tags": {"amenity": "cafe", "name": "Sweet Home"}}, {"type": "node", "id": 2476637827, "lat": 36.2273569, "lon": 27.8548929, "tags": {"amenity": "restaurant"}}, {"type": "node", "id": 2476637851, "lat": 36.2274357, "lon": 27.8550881, "tags": {"amenity": "restaurant", "name": "Savva's Taverna"}}, {"type": "node", "id": 2479515798, "lat": 36.2740344, "lon": 28.0245818, "tags": {"amenity": "restaurant", "cuisine": "regional"}}, {"type": "node", "id": 2496146313, "lat": 36.2727958, "lon": 27.8307766, "tags": {"addr:city": "Rhodos", "addr:housename": "Kamiros Skala", "addr:postcode": "85108", "amenity": "restaurant", "contact:email": "liros@otenet.gr", "contact:facebook": "https://www.facebook.com/www.liros.gr/", "contact:phone": "+30 22460 312 64", "contact:website": "http://www.liros.gr/", "cuisine": "greek;seafood", "name": "Pension Restaurant LIROS"}}, {"type": "node", "id": 2613141532, "lat": 36.1304881, "lon": 27.7411931, "tags": {"amenity": "restaurant", "check_date": "2024-10-12", "cuisine": "greek", "name": "Old Monolithos", "opening_hours": "Mo-Tu off; We-Th 12:00-18:00; Fr-Sa 12:00-22:30; Su 12:00-19:00"}}, {"type": "node", "id": 2752120685, "lat": 36.0724375, "lon": 28.0530112, "tags": {"addr:postcode": "85107", "amenity": "restaurant", "contact:facebook": "https://www.facebook.com/MeltemiRestaurant", "cuisine": "greek;mediterranean", "description": "Freshly cooked Greek and Mediterranean dishes served with a friendly smile...", "diet:vegetarian": "yes", "email": "dinner@meltemipefkos.gr", "highchair": "yes", "internet_access": "wlan", "name": "Meltemi Restaurant", "opening_hours": "Mo-Su 18:00-23:00", "outdoor_seating": "yes", "reservation": "yes", "toilets": "yes", "website": "https://meltemipefkos.gr/", "wheelchair": "yes"}}, {"type": "node", "id": 2854590513, "lat": 36.0591175, "lon": 27.8826011}, {"type": "node", "id": 2854590885, "lat": 36.059273, "lon": 27.8829586}, {"type": "node", "id": 2854590932, "lat": 36.0591484, "lon": 27.882612}, {"type": "node", "id": 2854591336, "lat": 36.0591356, "lon": 27.8826676}, {"type": "node", "id": 2854591642, "lat": 36.0593118, "lon": 27.8829013}, {"type": "node", "id": 2854591646, "lat": 36.0592511, "lon": 27.8828771}, {"type": "node", "id": 2854591694, "lat": 36.059232, "lon": 27.8829403}, {"type": "node", "id": 2854591712, "lat": 36.0592916, "lon": 27.8829654}, {"type": "node", "id": 2854591778, "lat": 36.0591047, "lon": 27.8826567}, {"type": "node", "id": 2878268030, "lat": 36.234237, "lon": 27.6182376, "tags": {"amenity": "cafe", "cuisine": "greek", "name": "Kania"}}, {"type": "node", "id": 2880414477, "lat": 36.223149, "lon": 27.6128635, "tags": {"amenity": "restaurant", "name": "Magefseis"}}, {"type": "node", "id": 2915819715, "lat": 36.2609103, "lon": 27.9653664, "tags": {"amenity": "restaurant", "cuisine": "greek", "int_name": "Panorama", "name": "\u03a0\u03b1\u03bd\u03cc\u03c1\u03b1\u03bc\u03b1"}}, {"type": "node", "id": 2915819725, "lat": 36.2602986, "lon": 27.9658388, "tags": {"amenity": "cafe", "int_name": "Pernos", "name": "\u03a0\u03b5\u03c1\u03bd\u03cc\u03c2"}}, {"type": "node", "id": 2915819726, "lat": 36.2602541, "lon": 27.9660452, "tags": {"amenity": "cafe", "name": "Pallasio di Giovani"}}, {"type": "node", "id": 2915819728, "lat": 36.2599262, "lon": 27.9694287, "tags": {"amenity": "cafe"}}, {"type": "node", "id": 2915819729, "lat": 36.2605294, "lon": 27.9677352, "tags": {"amenity": "restaurant", "cuisine": "greek", "name": "Paraga"}}, {"type": "node", "id": 2932868994, "lat": 36.259146, "lon": 27.9668578, "tags": {"amenity": "cafe"}}, {"type": "node", "id": 2940847156, "lat": 36.0511985, "lon": 27.9684447, "tags": {"amenity": "restaurant", "cuisine": "greek", "name": "Dionysos"}}, {"type": "node", "id": 2940849893, "lat": 36.0510597, "lon": 27.9683748, "tags": {"amenity": "cafe", "name": "Venus"}}, {"type": "node", "id": 2940849894, "lat": 36.0495352, "lon": 27.9685464, "tags": {"amenity": "cafe", "cuisine": "pizza", "name": "Diogenis Beach Snack Restaurant"}}, {"type": "node", "id": 3318397080, "lat": 36.1303191, "lon": 27.7373872, "tags": {"amenity": "restaurant", "cuisine": "regional", "name": "Limeri"}}, {"type": "node", "id": 3519066752, "lat": 36.1262381, "lon": 28.0636514, "tags": {"amenity": "restaurant", "cuisine": "regional", "email": "manolisgeorgiou@hotmail.ch", "name": "Konstantin", "opening_hours": "Mo-Su,PH 12:00-24:00", "outdoor_seating": "yes", "phone": "00302244032211"}}, {"type": "node", "id": 3519070870, "lat": 36.1247675, "lon": 28.0663628, "tags": {"amenity": "restaurant", "name": "Mo ViDa", "opening_hours": "Mo-Su,PH 12:00-02:00"}}, {"type": "node", "id": 3519073973, "lat": 36.1250167, "lon": 28.0677098, "tags": {"amenity": "restaurant", "cuisine": "regional", "name": "Milo's", "opening_hours": "Mo-Su,PH 12:00-24:00"}}, {"type": "node", "id": 3553502236, "lat": 36.0112462, "lon": 27.820359, "tags": {"amenity": "restaurant"}}, {"type": "node", "id": 3553743839, "lat": 36.0667315, "lon": 27.7880343, "tags": {"addr:city": "\u0391\u03c0\u03bf\u03bb\u03b1\u03ba\u03ba\u03b9\u03ac", "amenity": "restaurant", "cuisine": "regional", "name": "Restaurant Manolis"}}, {"type": "node", "id": 3553743840, "lat": 36.0670335, "lon": 27.7880574, "tags": {"amenity": "restaurant", "cuisine": "regional", "internet_access": "wlan", "name": "Taverna Amalia"}}, {"type": "node", "id": 3553948003, "lat": 36.0594004, "lon": 27.8134059, "tags": {"amenity": "restaurant"}}, {"type": "node", "id": 3554160624, "lat": 36.0619206, "lon": 27.8139518, "tags": {"amenity": "restaurant", "cuisine": "regional", "name": "Taverna", "outdoor": "yes"}}, {"type": "node", "id": 3554275003, "lat": 36.1107582, "lon": 27.8291887, "tags": {"amenity": "restaurant"}}, {"type": "node", "id": 3554275023, "lat": 36.1106926, "lon": 27.8284943, "tags": {"amenity": "restaurant", "name": "Snack Bar"}}, {"type": "node", "id": 3554275050, "lat": 36.1115949, "lon": 27.8293458, "tags": {"amenity": "cafe"}}, {"type": "node", "id": 3554360785, "lat": 36.0994856, "lon": 27.8474671, "tags": {"amenity": "restaurant", "cuisine": "regional", "name": "To limeti tou listi"}}, {"type": "node", "id": 3554397993, "lat": 36.1656211, "lon": 27.8496659, "tags": {"amenity": "cafe", "cuisine": "greek", "name": "\"Aletro\" Snack Bar - Taverna", "phone": "6946562930"}}, {"type": "node", "id": 3554397994, "lat": 36.1659188, "lon": 27.8498287, "tags": {"amenity": "cafe"}}, {"type": "node", "id": 3554398006, "lat": 36.1664329, "lon": 27.8497605, "tags": {"amenity": "restaurant"}}, {"type": "node", "id": 3554398019, "lat": 36.1663913, "lon": 27.849946, "tags": {"amenity": "restaurant"}}, {"type": "node", "id": 3556047234, "lat": 36.2283889, "lon": 27.8589901, "tags": {"amenity": "restaurant", "cuisine": "regional", "name": "Bakis Taverna"}}, {"type": "node", "id": 3556047326, "lat": 36.2260248, "lon": 27.8567553, "tags": {"amenity": "restaurant", "cuisine": "regional", "name": "Bakis Brothers"}}, {"type": "node", "id": 3556047327, "lat": 36.2261024, "lon": 27.8566563, "tags": {"amenity": "restaurant"}}, {"type": "node", "id": 3556398384, "lat": 36.2718901, "lon": 27.8184374, "tags": {"amenity": "restaurant", "cuisine": "greek", "internet_access": "wlan", "internet_access:fee": "no", "name": "Johnny's Grill Taverna", "opening_hours": "10:00 - 22:00", "outdoor_seating": "yes", "phone": "22460 31342", "smoking": "outside"}}, {"type": "node", "id": 3556399213, "lat": 36.2722831, "lon": 27.8210093}, {"type": "node", "id": 3556399214, "lat": 36.2723314, "lon": 27.8211366}, {"type": "node", "id": 3556399215, "lat": 36.2722877, "lon": 27.8211653}, {"type": "node", "id": 3556399216, "lat": 36.2723009, "lon": 27.8211998}, {"type": "node", "id": 3556399217, "lat": 36.2722473, "lon": 27.8212351}, {"type": "node", "id": 3556399218, "lat": 36.272254, "lon": 27.8212515}, {"type": "node", "id": 3556399219, "lat": 36.2722321, "lon": 27.8212917}, {"type": "node", "id": 3556399220, "lat": 36.2721911, "lon": 27.8212958}, {"type": "node", "id": 3556399221, "lat": 36.2721851, "lon": 27.821286}, {"type": "node", "id": 3556399222, "lat": 36.2721447, "lon": 27.8213155}, {"type": "node", "id": 3556399223, "lat": 36.2721044, "lon": 27.8212285}, {"type": "node", "id": 3556399224, "lat": 36.2721394, "lon": 27.8211957}, {"type": "node", "id": 3556399225, "lat": 36.2720858, "lon": 27.8210684}, {"type": "node", "id": 3556399226, "lat": 36.2721977, "lon": 27.8209921}, {"type": "node", "id": 3556399227, "lat": 36.272207, "lon": 27.8210134}, {"type": "node", "id": 3556399228, "lat": 36.2722374, "lon": 27.8209921}, {"type": "node", "id": 3556399229, "lat": 36.272254, "lon": 27.8210298}, {"type": "node", "id": 3556399238, "lat": 36.2721115, "lon": 27.8212439}, {"type": "node", "id": 3556399241, "lat": 36.2721292, "lon": 27.821282}, {"type": "node", "id": 3563862995, "lat": 36.0465125, "lon": 27.955388}, {"type": "node", "id": 3563862996, "lat": 36.0464431, "lon": 27.9554378}, {"type": "node", "id": 3563862997, "lat": 36.0465512, "lon": 27.9556682}, {"type": "node", "id": 3563862998, "lat": 36.0466206, "lon": 27.9556184}, {"type": "node", "id": 3596089326, "lat": 35.9291743, "lon": 27.8586078}, {"type": "node", "id": 3596089327, "lat": 35.9292767, "lon": 27.8587211}, {"type": "node", "id": 3596089328, "lat": 35.929217, "lon": 27.8588035}, {"type": "node", "id": 3596089329, "lat": 35.9292348, "lon": 27.8588231}, {"type": "node", "id": 3596089330, "lat": 35.9291257, "lon": 27.8589737}, {"type": "node", "id": 3596089331, "lat": 35.9290889, "lon": 27.8589331}, {"type": "node", "id": 3596089332, "lat": 35.9291428, "lon": 27.8588587}, {"type": "node", "id": 3596089333, "lat": 35.9290798, "lon": 27.8587892}, {"type": "node", "id": 3596089334, "lat": 35.9291045, "lon": 27.8587551}, {"type": "node", "id": 3596089335, "lat": 35.9290536, "lon": 27.8586989}, {"type": "node", "id": 3596089336, "lat": 35.9291038, "lon": 27.8586612}, {"type": "node", "id": 3596089337, "lat": 35.9291412, "lon": 27.8587025}, {"type": "node", "id": 3596089338, "lat": 35.9291516, "lon": 27.8586881}, {"type": "node", "id": 3596089339, "lat": 35.9291319, "lon": 27.8586663}, {"type": "node", "id": 3658354436, "lat": 36.0716764, "lon": 27.9307436, "tags": {"amenity": "restaurant", "cuisine": "greek", "name": "Taverna", "name:el": "Restaurant Taverna Agapitos"}}, {"type": "node", "id": 3658354437, "lat": 36.0723871, "lon": 27.9305097, "tags": {"amenity": "restaurant", "check_date": "2024-10-11", "cuisine": "greek", "name": "Nikolas Taverna", "wheelchair": "no"}}, {"type": "node", "id": 3662279013, "lat": 36.1253351, "lon": 28.0678001}, {"type": "node", "id": 3662279014, "lat": 36.1253925, "lon": 28.0678117}, {"type": "node", "id": 3662279015, "lat": 36.1253925, "lon": 28.0678291}, {"type": "node", "id": 3662279016, "lat": 36.1254569, "lon": 28.0678465}, {"type": "node", "id": 3662279017, "lat": 36.1254405, "lon": 28.067932}, {"type": "node", "id": 3662279018, "lat": 36.1254978, "lon": 28.0679479}, {"type": "node", "id": 3662279019, "lat": 36.1254814, "lon": 28.0680015}, {"type": "node", "id": 3662279020, "lat": 36.1254532, "lon": 28.0680561}, {"type": "node", "id": 3662279021, "lat": 36.1254151, "lon": 28.0680943}, {"type": "node", "id": 3662279022, "lat": 36.125369, "lon": 28.0681233}, {"type": "node", "id": 3662279023, "lat": 36.1253187, "lon": 28.0681305}, {"type": "node", "id": 3662279024, "lat": 36.1252848, "lon": 28.0681218}, {"type": "node", "id": 3662279225, "lat": 36.1252976, "lon": 28.0680436}, {"type": "node", "id": 3662279226, "lat": 36.1252215, "lon": 28.0680291}, {"type": "node", "id": 3662279227, "lat": 36.1252543, "lon": 28.0678044}, {"type": "node", "id": 3662279228, "lat": 36.1253129, "lon": 28.0678189}, {"type": "node", "id": 4217413216, "lat": 36.2770279, "lon": 27.943784, "tags": {"amenity": "cafe"}}, {"type": "node", "id": 4217413217, "lat": 36.2770665, "lon": 27.9435186, "tags": {"amenity": "restaurant", "capacity": "80", "cuisine": "regional", "delivery": "no", "name": "Elafaki", "smoking": "outside", "takeaway": "no"}}, {"type": "node", "id": 4280926089, "lat": 35.9540877, "lon": 27.7683626, "tags": {"amenity": "restaurant", "name": "Lou"}}, {"type": "node", "id": 4300298801, "lat": 36.0777794, "lon": 28.0430745, "tags": {"amenity": "restaurant", "cuisine": "greek;grill", "name": "Coralli"}}, {"type": "node", "id": 4318090398, "lat": 36.2764951, "lon": 27.9437594, "tags": {"amenity": "cafe", "internet_access": "wlan", "name": "Cafe"}}, {"type": "node", "id": 4331298792, "lat": 36.0237339, "lon": 27.9229684, "tags": {"amenity": "restaurant", "name": "Maria & Nikos Souvlaki Place"}}, {"type": "node", "id": 4378004940, "lat": 36.1222124, "lon": 28.0659791, "tags": {"amenity": "restaurant", "cuisine": "traditional,_greek;greek;traditional;snackbar;snack;international;seafood;regional", "name": "Taverna Sea Harmony", "outdoor_seating": "yes", "smoking": "outside"}}, {"type": "node", "id": 4446639730, "lat": 35.9536196, "lon": 27.7681536, "tags": {"amenity": "restaurant", "name": "Taverna"}}, {"type": "node", "id": 4479819507, "lat": 36.0228037, "lon": 27.9229849, "tags": {"amenity": "restaurant", "cuisine": "Regional,_pizza", "name": "Mama's Kitchen", "takeaway": "yes"}}, {"type": "node", "id": 4479819508, "lat": 36.0223454, "lon": 27.9235709, "tags": {"amenity": "restaurant", "cuisine": "regional;pizza", "name": "Sergio's", "takeaway": "only"}}, {"type": "node", "id": 4796551465, "lat": 36.0450202, "lon": 27.7619565, "tags": {"amenity": "restaurant", "cuisine": "regional", "name": "Chrisama"}}, {"type": "node", "id": 4796752454, "lat": 35.9478274, "lon": 27.8739489, "tags": {"amenity": "restaurant", "cuisine": "fish", "delivery": "no", "name": "Votsalo"}}, {"type": "node", "id": 4881618626, "lat": 36.2582535, "lon": 28.0193666, "tags": {"amenity": "restaurant", "name": "Taverna Perama"}}, {"type": "node", "id": 4931154546, "lat": 36.1547091, "lon": 27.9370431, "tags": {"amenity": "restaurant", "cuisine": "greek", "internet_access": "wlan", "name": "Takis Taverna Platanos", "self_service": "no"}}, {"type": "node", "id": 4931154551, "lat": 36.1542795, "lon": 27.9368593, "tags": {"amenity": "restaurant", "cuisine": "regional;greek", "name": "Restaurant Ingos", "outdoor_seating": "yes"}}, {"type": "node", "id": 4931154574, "lat": 36.154922, "lon": 27.9379371, "tags": {"amenity": "cafe"}}, {"type": "node", "id": 4931160783, "lat": 36.1543938, "lon": 27.9388654, "tags": {"amenity": "restaurant"}}, {"type": "node", "id": 4946937445, "lat": 36.2897716, "lon": 27.9434693, "tags": {"amenity": "restaurant", "cuisine": "greek", "name": "\u039a\u03b1\u03c6\u03b5\u03bd\u03b5\u03af\u03bf \u03c4\u03bf \u03a3\u03b9\u03bd\u03c4\u03c1\u03b9\u03b2\u03ac\u03bd\u03b9"}}, {"type": "node", "id": 4946937452, "lat": 36.2897061, "lon": 27.9436011, "tags": {"amenity": "restaurant", "cuisine": "greek", "name": "La Piazza", "name:en": "La Piazza"}}, {"type": "node", "id": 4946937455, "lat": 36.2896431, "lon": 27.9437177, "tags": {"amenity": "restaurant"}}, {"type": "node", "id": 4946937456, "lat": 36.2897951, "lon": 27.9437346, "tags": {"amenity": "restaurant", "internet_access": "wlan", "name": "\u03a4\u03b1 \u03ba\u03af\u03c4\u03b1\u03bb\u03b1", "name:el": "\u03a4\u03b1 \u03ba\u03af\u03c4\u03b1\u03bb\u03b1", "name:en": "Ta Kitala"}}, {"type": "node", "id": 5062447299, "lat": 36.0644282, "lon": 27.9920527}, {"type": "node", "id": 5062447300, "lat": 36.0642846, "lon": 27.9920707}, {"type": "node", "id": 5062447301, "lat": 36.0643002, "lon": 27.9922611}, {"type": "node", "id": 5062447302, "lat": 36.0644438, "lon": 27.9922431}, {"type": "node", "id": 5062447303, "lat": 36.0642762, "lon": 27.9912591}, {"type": "node", "id": 5062447304, "lat": 36.0644693, "lon": 27.991068}, {"type": "node", "id": 5062447305, "lat": 36.064342, "lon": 27.9908538}, {"type": "node", "id": 5062447306, "lat": 36.064279, "lon": 27.9909175}, {"type": "node", "id": 5062447307, "lat": 36.0642962, "lon": 27.9909547}, {"type": "node", "id": 5062447308, "lat": 36.0641746, "lon": 27.9910821}, {"type": "node", "id": 5062447309, "lat": 36.064711, "lon": 27.990937}, {"type": "node", "id": 5062447310, "lat": 36.0646138, "lon": 27.9907689}, {"type": "node", "id": 5062447311, "lat": 36.0645351, "lon": 27.9908538}, {"type": "node", "id": 5062447312, "lat": 36.0646613, "lon": 27.991047}, {"type": "node", "id": 5062447313, "lat": 36.0646982, "lon": 27.9910007}, {"type": "node", "id": 5062447314, "lat": 36.0646881, "lon": 27.9909759}, {"type": "node", "id": 5066943373, "lat": 36.2814927, "lon": 28.0081171, "tags": {"amenity": "restaurant", "name:en": "Taverna Mitsos"}}, {"type": "node", "id": 5085108654, "lat": 36.0208558, "lon": 27.9293048, "tags": {"addr:city": "Gennadi", "amenity": "restaurant", "cuisine": "regional", "name": "Thalassa", "opening_hours": "09:00-01:00", "outdoor_seating": "yes", "phone": "+30 698 108 9551", "takeaway": "yes", "wheelchair": "yes"}}, {"type": "node", "id": 5085121045, "lat": 36.0195852, "lon": 27.9286166, "tags": {"addr:city": "Gennadi", "amenity": "restaurant", "cuisine": "regional", "name": "\u0391\u03bd\u03c4\u03ce\u03bd\u03b7\u03c2 | \u03a8\u03b1\u03c1\u03bf\u03c4\u03b1\u03b2\u03ad\u03c1\u03bd\u03b1", "name:el": "\u0391\u03bd\u03c4\u03ce\u03bd\u03b7\u03c2 | \u03a8\u03b1\u03c1\u03bf\u03c4\u03b1\u03b2\u03ad\u03c1\u03bd\u03b1", "name:en": "Antonis | Fish Taverna", "opening_hours": "08:00-24:00", "outdoor_seating": "yes", "phone": "+30 2244 043124", "takeaway": "yes", "wheelchair": "yes"}}, {"type": "node", "id": 5098377821, "lat": 36.0697713, "lon": 28.0041718, "tags": {"addr:street": "Limanaki Lardos", "amenity": "restaurant", "contact:email": "molos.limanaki@gmail.com", "contact:facebook": "https://www.facebook.com/TavernaMolosLardos/", "cuisine": "seafood;greek;grill", "internet_access": "wlan", "name:en": "Taverna Molos", "name:ru": "\u0422\u0430\u0432\u0435\u0440\u043d\u0430 \u041c\u043e\u043b\u043e\u0441", "phone": "+30 22440 44 384", "website": "https://molosrestaurantkiotari.com/"}}, {"type": "node", "id": 5098377921, "lat": 36.2268738, "lon": 27.8551997, "tags": {"amenity": "cafe", "cuisine": "ice_cream;coffee_shop", "name:en": "Creperie", "name:ru": "\u041a\u0440\u0435\u043f\u0435\u0440\u0438"}}, {"type": "node", "id": 5383758122, "lat": 36.2261339, "lon": 27.8564171, "tags": {"amenity": "restaurant", "name": "\u0411\u0430\u043a\u0438\u0441 \u043c\u044f\u0441\u043e"}}, {"type": "node", "id": 5607130622, "lat": 36.1217269, "lon": 28.0638544, "tags": {"amenity": "restaurant", "name": "Glyka Nera Taverne - Meze Bar", "opening_hours": "Mo-Su 12:00-23:00"}}, {"type": "node", "id": 5652436238, "lat": 36.2227187, "lon": 27.6122673, "tags": {"amenity": "restaurant", "name": "Apaggio"}}, {"type": "node", "id": 5652436239, "lat": 36.2223364, "lon": 27.6119417, "tags": {"amenity": "restaurant", "name": "Valantis"}}, {"type": "node", "id": 5652436241, "lat": 36.2225328, "lon": 27.6121415, "tags": {"amenity": "restaurant", "name": "Kifi", "outdoor_seating": "yes", "wheelchair": "limited"}}, {"type": "node", "id": 5652436242, "lat": 36.2230778, "lon": 27.6126966, "tags": {"amenity": "cafe", "name": "Apostolis"}}, {"type": "node", "id": 5728022322, "lat": 36.0420825, "lon": 27.9477482, "tags": {"amenity": "restaurant", "name:de": "Leuchtturm Restaurant Kiotari", "name:en": "The Lighthouse Kiotari"}}, {"type": "node", "id": 5933846641, "lat": 35.9960415, "lon": 27.75031, "tags": {"access": "customers", "amenity": "toilets"}}, {"type": "node", "id": 5933846642, "lat": 35.9959405, "lon": 27.7501764}, {"type": "node", "id": 5933846643, "lat": 35.9959166, "lon": 27.7502944}, {"type": "node", "id": 5933846644, "lat": 35.9960371, "lon": 27.7503316}, {"type": "node", "id": 5933846645, "lat": 35.996061, "lon": 27.7502136}, {"type": "node", "id": 6430179190, "lat": 36.2498706, "lon": 27.8310724, "tags": {"amenity": "cafe", "name": "Anaktora"}}, {"type": "node", "id": 6430209075, "lat": 36.2462666, "lon": 27.829125, "tags": {"amenity": "restaurant", "name": "Kalamaris"}}, {"type": "node", "id": 6430209076, "lat": 36.2496255, "lon": 27.8308139, "tags": {"amenity": "restaurant", "name": "Obelistiria"}}, {"type": "node", "id": 6430209078, "lat": 36.249894, "lon": 27.8307306, "tags": {"amenity": "restaurant", "name": "Piatsa"}}, {"type": "node", "id": 6430227654, "lat": 36.2535923, "lon": 27.8344868, "tags": {"amenity": "restaurant", "name": "Milos"}}, {"type": "node", "id": 6430561669, "lat": 36.2217594, "lon": 27.8522255, "tags": {"amenity": "restaurant", "email": "stheoulakis_96@hotmail.com", "name": "Empona\u2019s View", "operator": "Theoulakis Kiriakos", "phone": "+30 22460 41152", "website": "www.emponaview.gr"}}, {"type": "node", "id": 6475624281, "lat": 36.222838, "lon": 27.6123284, "tags": {"amenity": "cafe"}}, {"type": "node", "id": 6483909408, "lat": 36.2219421, "lon": 27.6119487, "tags": {"amenity": "cafe", "name": "Soula and Zoe's", "wheelchair": "limited"}}, {"type": "node", "id": 6535212985, "lat": 36.2604871, "lon": 27.9653313, "tags": {"amenity": "restaurant", "name": "Yiarenis"}}, {"type": "node", "id": 6586925085, "lat": 36.0937858, "lon": 28.0166866, "tags": {"addr:street": "\u039b\u03ac\u03c1\u03b4\u03bf\u03c2 - \u039b\u03af\u03bd\u03b4\u03bf\u03c2", "amenity": "restaurant", "cuisine": "greek", "name:en": "Roulas", "opening_hours": "Mo-Su 17:30-23:00"}}, {"type": "node", "id": 6593607271, "lat": 35.9661441, "lon": 27.8618486, "tags": {"amenity": "restaurant", "cuisine": "greek", "level": "0", "name": "Sole Giguare", "outdoor_seating": "yes", "wheelchair": "limited"}}, {"type": "node", "id": 6596492287, "lat": 36.0943925, "lon": 28.01707, "tags": {"addr:street": "\u039b\u03ac\u03c1\u03b4\u03bf\u03c2 - \u039b\u03af\u03bd\u03b4\u03bf\u03c2", "amenity": "restaurant", "cuisine": "italian_pizza", "name:en": "Il Gelso", "opening_hours": "Mo-Su 18:30-00:00"}}, {"type": "node", "id": 6605746766, "lat": 36.0229575, "lon": 27.9231675, "tags": {"amenity": "restaurant", "name": "\u039c\u03c0\u03c5\u03c1\u03b1\u03c3\u03bc\u03bf\u03c3 - Grill House \"Temptation\""}}, {"type": "node", "id": 6605746782, "lat": 36.0235821, "lon": 27.9230844, "tags": {"amenity": "restaurant", "description": "Yes, it is not \"7 dwarves\"", "name": "7 Dwarfs", "outdoor_seating": "yes"}}, {"type": "node", "id": 6605795507, "lat": 36.0233073, "lon": 27.9230997, "tags": {"amenity": "restaurant", "name": "Zorbas"}}, {"type": "node", "id": 6612816400, "lat": 36.0216777, "lon": 27.92454, "tags": {"amenity": "restaurant", "cuisine": "greek;american;barbecue", "name": "Lime Grill", "takeaway": "yes", "wheelchair": "no"}}, {"type": "node", "id": 6618802166, "lat": 35.9726086, "lon": 27.8975368, "tags": {"amenity": "restaurant", "check_date": "2024-10-12", "name": "Mojito Beach Bar", "outdoor_seating": "yes", "toilets": "yes", "wheelchair": "limited"}}, {"type": "node", "id": 6624527599, "lat": 36.0118676, "lon": 27.9228431}, {"type": "node", "id": 6624527600, "lat": 36.0118125, "lon": 27.9228118}, {"type": "node", "id": 6624527601, "lat": 36.0118, "lon": 27.9228453}, {"type": "node", "id": 6624527602, "lat": 36.0118552, "lon": 27.9228766}, {"type": "node", "id": 6624552886, "lat": 36.011693, "lon": 27.9202971, "tags": {"amenity": "restaurant", "level": "0", "name": "\u03a6iloxenia"}}, {"type": "node", "id": 6624552887, "lat": 36.0115948, "lon": 27.9201897, "tags": {"amenity": "restaurant", "cuisine": "fine_dining", "level": "2", "name": "\u0395\u03b4esma"}}, {"type": "node", "id": 6624552888, "lat": 36.0118214, "lon": 27.9200309, "tags": {"amenity": "restaurant", "cuisine": "steak_house", "level": "0", "name": "\u03c3\u03c4\u039a"}}, {"type": "node", "id": 6624552889, "lat": 36.0119253, "lon": 27.9200916, "tags": {"amenity": "restaurant", "cuisine": "snacks", "name": "Ten2One"}}, {"type": "node", "id": 6624552890, "lat": 36.0116099, "lon": 27.921077, "tags": {"amenity": "restaurant", "cuisine": "greek", "name": "\u039fu\u03b6o"}}, {"type": "node", "id": 6624552892, "lat": 36.0115495, "lon": 27.9201967, "tags": {"amenity": "restaurant", "cuisine": "breakfast", "name": "Level 2 Exclusive Breakfast Restaurant"}}, {"type": "node", "id": 6634963093, "lat": 36.0628697, "lon": 27.9885395}, {"type": "node", "id": 6634963094, "lat": 36.0628672, "lon": 27.9884836}, {"type": "node", "id": 6634963095, "lat": 36.062799, "lon": 27.9884816}, {"type": "node", "id": 6634963096, "lat": 36.0627966, "lon": 27.9884694}, {"type": "node", "id": 6634963097, "lat": 36.0627645, "lon": 27.9884745}, {"type": "node", "id": 6634963098, "lat": 36.0627547, "lon": 27.9884877}, {"type": "node", "id": 6634963099, "lat": 36.0627193, "lon": 27.988508}, {"type": "node", "id": 6634963100, "lat": 36.0627169, "lon": 27.9885324}, {"type": "node", "id": 6634963101, "lat": 36.0627004, "lon": 27.9885426}, {"type": "node", "id": 6634963102, "lat": 36.0626947, "lon": 27.9885578}, {"type": "node", "id": 6634963103, "lat": 36.0627317, "lon": 27.9886066}, {"type": "node", "id": 6634963104, "lat": 36.0627497, "lon": 27.9885954}, {"type": "node", "id": 6634963105, "lat": 36.0627604, "lon": 27.9885965}, {"type": "node", "id": 6634963106, "lat": 36.0628097, "lon": 27.9885619}, {"type": "node", "id": 6634963107, "lat": 36.0628114, "lon": 27.9885497}, {"type": "node", "id": 6634963108, "lat": 36.0628697, "lon": 27.9885497}, {"type": "node", "id": 6634963196, "lat": 36.0625595, "lon": 27.9906601}, {"type": "node", "id": 6634963197, "lat": 36.0624126, "lon": 27.990805}, {"type": "node", "id": 6634963198, "lat": 36.0625309, "lon": 27.9909898}, {"type": "node", "id": 6634963199, "lat": 36.062633, "lon": 27.9908712}, {"type": "node", "id": 6634963200, "lat": 36.062694, "lon": 27.9907972}, {"type": "node", "id": 6634963201, "lat": 36.0625757, "lon": 27.9906478}, {"type": "node", "id": 6634984826, "lat": 36.0611621, "lon": 27.986966}, {"type": "node", "id": 6634984827, "lat": 36.0611377, "lon": 27.9869657}, {"type": "node", "id": 6634984828, "lat": 36.0610999, "lon": 27.9870393}, {"type": "node", "id": 6634984829, "lat": 36.0610904, "lon": 27.9871262}, {"type": "node", "id": 6634984830, "lat": 36.061111, "lon": 27.9872324}, {"type": "node", "id": 6634984831, "lat": 36.0611655, "lon": 27.9872616}, {"type": "node", "id": 6634984832, "lat": 36.061182, "lon": 27.9872483}, {"type": "node", "id": 6634984833, "lat": 36.0612065, "lon": 27.9871751}, {"type": "node", "id": 6634984834, "lat": 36.0612124, "lon": 27.9870973}, {"type": "node", "id": 6634984835, "lat": 36.0612034, "lon": 27.9870343}, {"type": "node", "id": 6634984836, "lat": 36.0611825, "lon": 27.9869824}, {"type": "node", "id": 6738205946, "lat": 36.2635111, "lon": 27.8097495, "tags": {"amenity": "cafe", "check_date": "2023-05-11", "cuisine": "greek;cafe", "name": "Caf\u00e9 @ Kritinia Castle", "name:de": "Caf\u00e9 an der Kritinia Burgruine", "outdoor_seating": "yes", "wheelchair": "no"}}, {"type": "node", "id": 7775503385, "lat": 36.1543879, "lon": 27.9391684, "tags": {"addr:street": "\u039b\u03ac\u03c1\u03b4\u03bf\u03c2 - \u039b\u03ac\u03b5\u03c1\u03bc\u03b1", "amenity": "restaurant", "email": "alexpatounas@hotmail.gr", "internet_access": "wlan", "name:en": "To Anoi Tou Patouna", "phone": "+302244061107"}}, {"type": "node", "id": 8852127914, "lat": 36.0611335, "lon": 27.9872611}, {"type": "node", "id": 8852127915, "lat": 36.0610979, "lon": 27.9871844}, {"type": "node", "id": 8852127916, "lat": 36.061091, "lon": 27.9870809}, {"type": "node", "id": 8852132717, "lat": 36.0611155, "lon": 27.9869987}, {"type": "node", "id": 8852132718, "lat": 36.0612114, "lon": 27.9871379}, {"type": "node", "id": 8852132719, "lat": 36.061198, "lon": 27.9872107}, {"type": "node", "id": 8944852000, "lat": 36.0830123, "lon": 28.0152467, "tags": {"amenity": "cafe", "name": "Alexandra"}}, {"type": "node", "id": 8944869642, "lat": 36.2653125, "lon": 28.077091, "tags": {"amenity": "restaurant", "name": "Taverna Krioneri"}}, {"type": "node", "id": 8944870240, "lat": 36.2671143, "lon": 28.0639857, "tags": {"amenity": "restaurant", "name": "Ampelos taverna"}}, {"type": "node", "id": 8944875525, "lat": 36.1314797, "lon": 27.743088, "tags": {"amenity": "restaurant", "name": "Taverna"}}, {"type": "node", "id": 8963663151, "lat": 35.9480991, "lon": 27.7983736, "tags": {"amenity": "cafe", "name": "Saint Marco", "note": "there is a snack cafe in the Saint Marco.colony"}}, {"type": "node", "id": 9061580517, "lat": 36.2607896, "lon": 27.9698156, "tags": {"amenity": "cafe", "name:en": "Mageirotechneio Taverna Paraga"}}, {"type": "node", "id": 9126025001, "lat": 36.0197128, "lon": 27.9281382, "tags": {"amenity": "restaurant", "name": "Blue Waves"}}, {"type": "node", "id": 9126058275, "lat": 36.0199647, "lon": 27.9289175, "tags": {"amenity": "restaurant", "name": "Klimis Taverna", "wheelchair": "yes"}}, {"type": "node", "id": 9155829217, "lat": 36.1019754, "lon": 27.7988554, "tags": {"amenity": "cafe", "name": "Rhodescape - outdoor activities", "website": "http://rhodescape.gr"}}, {"type": "node", "id": 9749320718, "lat": 36.0759676, "lon": 28.051795, "tags": {"amenity": "restaurant", "name:en": "Restaurant Spitaki"}}, {"type": "node", "id": 10112259642, "lat": 36.0750109, "lon": 28.0552034, "tags": {"amenity": "restaurant", "check_date": "2018-09-18", "indoor_seating": "yes", "name": "Greek Story", "note": "Not been Roumeli Restaurant since 2015-2016", "outdoor_seating": "yes"}}, {"type": "node", "id": 10979229805, "lat": 36.0720985, "lon": 28.0512039, "tags": {"amenity": "restaurant", "cuisine": "greek", "name": "Kritamo", "outdoor_seating": "yes", "toilets": "yes", "website": "https://www.kritamopefkos.gr/"}}, {"type": "node", "id": 10994018028, "lat": 36.2897913, "lon": 27.9434209, "tags": {"amenity": "cafe", "name": "Piede"}}, {"type": "node", "id": 11068877852, "lat": 36.0481111, "lon": 27.9665714}, {"type": "node", "id": 11068877853, "lat": 36.0481225, "lon": 27.9665513}, {"type": "node", "id": 11068877854, "lat": 36.0481393, "lon": 27.966538}, {"type": "node", "id": 11068877855, "lat": 36.0481589, "lon": 27.9665337}, {"type": "node", "id": 11068877856, "lat": 36.0481783, "lon": 27.9665391}, {"type": "node", "id": 11068877857, "lat": 36.0481946, "lon": 27.9665532}, {"type": "node", "id": 11068877858, "lat": 36.0482053, "lon": 27.9665739}, {"type": "node", "id": 11068877859, "lat": 36.0482045, "lon": 27.9666221}, {"type": "node", "id": 11068877860, "lat": 36.0481931, "lon": 27.9666423}, {"type": "node", "id": 11068877861, "lat": 36.0481763, "lon": 27.9666555}, {"type": "node", "id": 11068877862, "lat": 36.0481567, "lon": 27.9666598}, {"type": "node", "id": 11068877863, "lat": 36.0481373, "lon": 27.9666545}, {"type": "node", "id": 11068877864, "lat": 36.048121, "lon": 27.9666404}, {"type": "node", "id": 11068877865, "lat": 36.0481103, "lon": 27.9666197}, {"type": "node", "id": 11068877866, "lat": 36.0481068, "lon": 27.9665954}, {"type": "node", "id": 11068877867, "lat": 36.0482087, "lon": 27.9665981}, {"type": "node", "id": 11180658238, "lat": 36.1236705, "lon": 27.7273994, "tags": {"amenity": "cafe"}}, {"type": "node", "id": 12053032233, "lat": 36.0725606, "lon": 28.0532211, "tags": {"addr:postcode": "85107", "amenity": "restaurant", "contact:facebook": "61560659353820", "cuisine": "italian;pizza;pasta", "description": "Located in the resort of Pefkos, Rhodes, La Strada serves the tastes and atmosphere of a traditional Italian trattoria.", "highchair": "yes", "name": "La Strada Pefkos", "opening_hours": "Mo-Su 18:00-00:00", "outdoor_seating": "yes", "phone": "00302241122134", "takeaway": "yes", "toilets": "yes"}}, {"type": "node", "id": 12095832413, "lat": 36.2002179, "lon": 28.0725836, "tags": {"addr:city": "\u039c\u03b1\u03bb\u03ce\u03bd\u03b1\u03c2", "addr:housenumber": "6", "addr:postcode": "85102", "addr:street": "\u03a0\u03b1\u03bb\u03b1\u03b9\u03ac \u0395\u03b8\u03bd\u03b9\u03ba\u03ae \u039f\u03b4\u03cc\u03c2 95", "amenity": "restaurant", "name": "Taverna Eirini", "opening_hours": "Mo 13:00-22:30; Tu 09:00-22:30; We-Su 13:00-22:30", "phone": "+302244114253"}}, {"type": "node", "id": 12162101382, "lat": 36.0898032, "lon": 28.0204326, "tags": {"amenity": "restaurant", "cuisine": "greek", "email": "esatsalliu595@gmail.com", "int_name": "Salliu", "name": "Salliu", "opening_hours": "24/7", "payment:credit_cards": "yes", "payment:debit_cards": "yes", "phone": "6996324174"}}, {"type": "node", "id": 12169873959, "lat": 36.0622983, "lon": 27.986039, "tags": {"amenity": "restaurant", "bar": "no", "cuisine": "breakfast;international", "level": "-1", "name": "Waterfront Restaurant", "opening_hours": "Mo-Su 07:00-11:00,12:30-16:30,18:30-21:30; PH open", "operator": "Mayia Resort", "outdoor_seating": "yes", "self_service": "yes", "takeaway": "no"}}, {"type": "node", "id": 12169873974, "lat": 36.0613573, "lon": 27.9865422}, {"type": "node", "id": 12169873975, "lat": 36.0621631, "lon": 27.9857427, "tags": {"amenity": "restaurant", "cuisine": "asian;sushi", "level": "2", "name": "Wasabi", "opening_hours": "Mo-Su 19:00-22:00; PH open", "operator": "Mayia Resort", "takeaway": "no"}}, {"type": "node", "id": 12169873980, "lat": 36.0614676, "lon": 27.9864643}, {"type": "node", "id": 12169873983, "lat": 36.0612305, "lon": 27.9865286}, {"type": "node", "id": 12169873986, "lat": 36.0613134, "lon": 27.9866002}, {"type": "node", "id": 12169873990, "lat": 36.0613477, "lon": 27.9864053}, {"type": "node", "id": 12169873993, "lat": 36.0612882, "lon": 27.9864601}, {"type": "node", "id": 12169900007, "lat": 36.0614157, "lon": 27.9863628}, {"type": "node", "id": 12169900014, "lat": 36.0617401, "lon": 27.9869119, "tags": {"access": "customers", "amenity": "cafe", "name": "Coffee Break", "operator": "Mayia Resort", "outdoor_seating": "yes"}}, {"type": "node", "id": 12169900021, "lat": 36.0613992, "lon": 27.9865063}, {"type": "node", "id": 12186706599, "lat": 36.0483377, "lon": 27.9513501, "tags": {"amenity": "restaurant", "outdoor_seating": "yes"}}, {"type": "node", "id": 12211821730, "lat": 36.1291129, "lon": 28.0688642}, {"type": "node", "id": 12211821731, "lat": 36.1290719, "lon": 28.068979}, {"type": "node", "id": 12211821732, "lat": 36.1290838, "lon": 28.0689855}, {"type": "node", "id": 12211821733, "lat": 36.1290622, "lon": 28.069046}, {"type": "node", "id": 12211821734, "lat": 36.1291093, "lon": 28.0690717}, {"type": "node", "id": 12211821735, "lat": 36.1290618, "lon": 28.0692051}, {"type": "node", "id": 12211821736, "lat": 36.1287911, "lon": 28.0690573}, {"type": "node", "id": 12211821737, "lat": 36.1288363, "lon": 28.0689304}, {"type": "node", "id": 12211821738, "lat": 36.1288193, "lon": 28.0689211}, {"type": "node", "id": 12211821739, "lat": 36.1288394, "lon": 28.0688645}, {"type": "node", "id": 12211821740, "lat": 36.1289047, "lon": 28.0689002}, {"type": "node", "id": 12211821741, "lat": 36.1289267, "lon": 28.0688384}, {"type": "node", "id": 12211821742, "lat": 36.128983, "lon": 28.0688692}, {"type": "node", "id": 12211821743, "lat": 36.1289968, "lon": 28.0688304}, {"type": "node", "id": 12211821744, "lat": 36.1290197, "lon": 28.0688429}, {"type": "node", "id": 12211821745, "lat": 36.1290285, "lon": 28.0688181}, {"type": "way", "id": 167320500, "nodes": [1787279950, 1787279945, 1787279948, 1787279961, 1787279950], "tags": {"amenity": "restaurant", "building": "yes", "name": "Il Ponte"}}, {"type": "way", "id": 232469616, "nodes": [2408192090, 2408192086, 2408192084, 2408192082, 2408192090], "tags": {"addr:city": "Kalathos", "addr:country": "GR", "addr:postcode": "85102", "amenity": "restaurant", "building": "yes", "cuisine": "greek", "name": "Stefanos Family", "opening_hours": "PH,Mo-Su 13:00-23:00", "phone": "00302244031508", "website": "www.stefanosfamily.com", "wheelchair": "limited"}}, {"type": "way", "id": 233179113, "nodes": [2415307408, 2415307403, 2415307399, 2415307404, 2415307408], "tags": {"amenity": "restaurant", "building": "yes", "cuisine": "greek", "name": "Flyers"}}, {"type": "way", "id": 233317835, "nodes": [2417021912, 2417021910, 2417021914, 2417021917, 2417021912], "tags": {"amenity": "restaurant", "building": "yes", "email": "stefanos20000@gmail.com", "name": "Sunset Restaurant", "phone": "+30 698 568 7280"}}, {"type": "way", "id": 234344912, "nodes": [2425966281, 2425966282, 2425966278, 2425966277, 2425966293, 2425966294, 2425966298, 2425966297, 2425966305, 2425966304, 2425966281], "tags": {"amenity": "restaurant", "building": "retail", "nohousenumber": "yes", "operator": "Hotel Costa Lindia Beach"}}, {"type": "way", "id": 238378348, "nodes": [2462192493, 2462192482, 2462192476, 2462192484, 2462192493], "tags": {"amenity": "restaurant", "building": "yes", "building:levels": "1", "cuisine": "pizza", "name": "Capi di Pizza", "opening_hours": "Mo-Tu 13:00-23:00; We off; Th-Su 13:00-23:00", "phone": "+302244047167"}}, {"type": "way", "id": 238461714, "nodes": [2462964624, 2462964621, 2462964622, 2462964620, 2462964614, 2462964617, 2462964599, 2462964607, 2462964616, 2462964618, 2462964624], "tags": {"amenity": "restaurant", "building": "yes", "name": "Sposa del Sol"}}, {"type": "way", "id": 281500974, "nodes": [2854590932, 2854591336, 2854591778, 2854590513, 2854590932], "tags": {"addr:postcode": "85109", "addr:street": "\u0393\u03b5\u03bd\u03bd\u03ac\u03b4\u03b9 - \u0391\u03c0\u03bf\u03bb\u03b1\u03ba\u03ba\u03b9\u03ac", "amenity": "restaurant", "building": "yes", "name": "Petrino", "outdoor_seating": "yes", "wheelchair": "yes"}}, {"type": "way", "id": 281501119, "nodes": [2854591642, 2854591712, 2854590885, 2854591694, 2854591646, 2854591642], "tags": {"amenity": "restaurant", "building": "yes", "name": "Platanos", "outdoor_seating": "yes", "stars": "4", "toilets": "yes"}}, {"type": "way", "id": 349857035, "nodes": [3556399213, 3556399214, 3556399215, 3556399216, 3556399217, 3556399218, 3556399219, 3556399220, 3556399221, 3556399222, 3556399241, 3556399238, 3556399223, 3556399224, 3556399225, 3556399226, 3556399227, 3556399228, 3556399229, 3556399213], "tags": {"amenity": "restaurant", "building": "yes", "name": "Amythita Restaurant - Caf\u00e9"}}, {"type": "way", "id": 350635396, "nodes": [3563862995, 3563862996, 3563862997, 3563862998, 3563862995], "tags": {"amenity": "restaurant", "building": "yes", "contact:phone": "+30 2244042124", "cuisine": "regional", "instagram": "https://www.instagram.com/il_porto_kiotari/", "name": "Il Porto"}}, {"type": "way", "id": 353804269, "nodes": [3596089326, 3596089327, 3596089328, 3596089329, 3596089330, 3596089331, 3596089332, 3596089333, 3596089334, 3596089335, 3596089336, 3596089337, 3596089338, 3596089339, 3596089326], "tags": {"addr:city": "\u03a1\u03cc\u03b4\u03bf\u03c2", "addr:postcode": "85109", "addr:street": "\u039a\u03b1\u03c4\u03b1\u03b2\u03b9\u03ac", "amenity": "restaurant", "building": "yes", "cuisine": "fish", "name": "Plimmiri", "phone": "+302244046003", "website": "https://plimmirifishrestaurant.com/"}}, {"type": "way", "id": 361798537, "nodes": [3662279013, 3662279014, 3662279015, 3662279016, 3662279017, 3662279018, 3662279019, 3662279020, 3662279021, 3662279022, 3662279023, 3662279024, 3662279225, 3662279226, 3662279227, 3662279228, 3662279013], "tags": {"amenity": "restaurant", "building": "yes", "cuisine": "regional", "name": "Asterias", "opening_hours": "PH,Mo-Su 12:00-23:30"}}, {"type": "way", "id": 519114250, "nodes": [5062447299, 5062447300, 5062447301, 5062447302, 5062447299], "tags": {"amenity": "restaurant", "building": "yes", "cuisine": "italian", "name": "Pizzaiolo"}}, {"type": "way", "id": 519114251, "nodes": [5062447303, 5062447304, 5062447305, 5062447306, 5062447307, 5062447308, 5062447303], "tags": {"amenity": "restaurant", "building": "yes", "name": "Estia Main Restaurant", "opening_hours": "Mo-Su 06:30-10:30,13:00-15:00,18:30-21:30"}}, {"type": "way", "id": 519114252, "nodes": [5062447309, 5062447310, 5062447311, 5062447312, 5062447313, 5062447314, 5062447309], "tags": {"amenity": "restaurant", "building": "yes", "description": "sea food", "name": "Helios"}}, {"type": "way", "id": 628536461, "nodes": [5933846645, 5933846641, 5933846644, 5933846643, 5933846642, 5933846645], "tags": {"amenity": "cafe", "building": "yes"}}, {"type": "way", "id": 705225562, "nodes": [6624527599, 6624527600, 6624527601, 6624527602, 6624527599], "tags": {"amenity": "restaurant", "building": "yes", "cuisine": "pizza;snack", "name": "A\u03bbati"}}, {"type": "way", "id": 706132381, "nodes": [6634963093, 6634963094, 6634963095, 6634963096, 6634963097, 6634963098, 6634963099, 6634963100, 6634963101, 6634963102, 6634963103, 6634963104, 6634963105, 6634963106, 6634963107, 6634963108, 6634963093], "tags": {"amenity": "restaurant", "building": "yes", "cuisine": "burger;asian"}}, {"type": "way", "id": 706132394, "nodes": [6634963196, 6634963197, 6634963198, 6634963199, 6634963200, 6634963201, 6634963196], "tags": {"amenity": "restaurant", "building": "yes"}}, {"type": "way", "id": 706135514, "nodes": [6634984826, 6634984827, 8852132717, 6634984828, 8852127916, 6634984829, 8852127915, 6634984830, 8852127914, 6634984831, 6634984832, 8852132719, 6634984833, 8852132718, 6634984834, 6634984835, 6634984836, 6634984826], "tags": {"amenity": "restaurant", "building": "yes", "building:colour": "white", "building:levels": "1", "building:use": "foodservice", "name": "Thymari", "opening_hours": "Mo-Su,PH 12:30-15:30,19:00-22:00", "roof:colour": "white", "roof:shape": "dome"}}, {"type": "way", "id": 1192366850, "nodes": [11068877866, 11068877865, 11068877864, 11068877863, 11068877862, 11068877861, 11068877860, 11068877859, 11068877867, 11068877858, 11068877857, 11068877856, 11068877855, 11068877854, 11068877853, 11068877852, 11068877866], "tags": {"amenity": "cafe"}}, {"type": "way", "id": 1314841240, "nodes": [12169873983, 12169873986, 12169873974, 12169900021, 12169873980, 12169900007, 12169873990, 12169873993, 12169873983], "tags": {"amenity": "restaurant", "building": "yes", "building:colour": "white", "building:levels": "1", "building:use": "foodservice", "cuisine": "italian", "name": "Al Dente", "opening_hours": "Mo-Su 12:30-14:30,19:00-22:00", "operator": "Mayia Resort", "reservation": "members_only", "roof:shape": "flat", "takeaway": "no"}}, {"type": "way", "id": 1319633051, "nodes": [12211821730, 12211821731, 12211821732, 12211821733, 12211821734, 12211821735, 12211821736, 12211821737, 12211821738, 12211821739, 12211821740, 12211821741, 12211821742, 12211821743, 12211821744, 12211821745, 12211821730], "tags": {"addr:city": "Kalathos", "addr:postcode": "85102", "amenity": "restaurant", "building": "yes", "cuisine": "greek", "email": "ostriakalathos@gmail.com", "name": "Ostria", "opening_hours": "Mo-Su 14:00-22:00", "phone": "+30 697 814 7839"}}]}