{"version": 0.6, "generator": "Overpass API 0.7.62.7 375dc00a", "osm3s": {"timestamp_osm_base": "2025-06-14T14:38:18Z", "copyright": "The data included in this document is from www.openstreetmap.org. The data is made available under ODbL."}, "elements": [{"type": "node", "id": 1523390837, "lat": 40.3296497, "lon": 21.786984, "tags": {"amenity": "restaurant", "name": "Labela"}}, {"type": "node", "id": 1523392530, "lat": 40.3310954, "lon": 21.7896233, "tags": {"amenity": "cafe", "name": "Corner"}}, {"type": "node", "id": 1523394443, "lat": 40.3296109, "lon": 21.7899907, "tags": {"amenity": "cafe", "name": "No name for this- \"Clasic cafe"}}, {"type": "node", "id": 1523396273, "lat": 40.3278586, "lon": 21.7915035, "tags": {"amenity": "cafe", "name": "Piksida"}}, {"type": "node", "id": 1523398407, "lat": 40.3290752, "lon": 21.7927292, "tags": {"amenity": "restaurant", "name": "Karafaki"}}, {"type": "node", "id": 1523411302, "lat": 40.3305453, "lon": 21.7892638, "tags": {"addr:postcode": "50100", "amenity": "cafe", "name": "Roksani"}}, {"type": "node", "id": 1523421434, "lat": 40.3281399, "lon": 21.7912787, "tags": {"amenity": "restaurant", "cuisine": "greek", "name": "Stani"}}, {"type": "node", "id": 1523425045, "lat": 40.3308272, "lon": 21.7863566, "tags": {"amenity": "restaurant", "name": "Kostas"}}, {"type": "node", "id": 2081310098, "lat": 40.3015957, "lon": 21.7871661, "tags": {"amenity": "restaurant", "name": "Strada"}}, {"type": "node", "id": 2081310103, "lat": 40.3011719, "lon": 21.7884083, "tags": {"amenity": "restaurant", "name": "\u03a4\u03bf \u039c\u03b1\u03b3\u03b1\u03b6\u03ac\u03ba\u03b9 \u03a0\u03bf\u03c5 \u039b\u03ad\u03b3\u03b1\u03bc\u03b5"}}, {"type": "node", "id": 2081318397, "lat": 40.3005009, "lon": 21.7863651, "tags": {"amenity": "cafe", "name": "\u0394\u03b9\u03b1 \u03a4\u03b1\u03cd\u03c4\u03b1"}}, {"type": "node", "id": 2429329093, "lat": 40.2373586, "lon": 21.5741204, "tags": {"amenity": "cafe", "outdoor_seating": "yes", "smoking": "outside"}}, {"type": "node", "id": 2611355669, "lat": 40.2707724, "lon": 21.7797029, "tags": {"amenity": "restaurant", "name": "\u03a4\u03bf \u03c3\u03c4\u03ad\u03ba\u03b9 \u03c4\u03bf\u03c5 \u03a0\u03b1\u03bd\u03ac\u03b3\u03bf\u03c5", "phone": "+30 2461024991"}}, {"type": "node", "id": 4904489402, "lat": 40.4003889, "lon": 22.089944, "tags": {"addr:street": "Beroia-Kozane", "amenity": "restaurant", "name": "Venteta", "phone": "+30 46190430"}}, {"type": "node", "id": 5058015221, "lat": 40.1347264, "lon": 21.7397631, "tags": {"amenity": "restaurant", "name": "\u03a0\u03ad\u03c4\u03c1\u03b9\u03bd\u03bf"}}, {"type": "node", "id": 5058015222, "lat": 40.1346979, "lon": 21.7404091, "tags": {"amenity": "cafe"}}, {"type": "node", "id": 5058015229, "lat": 40.1349096, "lon": 21.7390129, "tags": {"amenity": "cafe"}}, {"type": "node", "id": 5058033430, "lat": 40.1647239, "lon": 21.8194782, "tags": {"amenity": "restaurant"}}, {"type": "node", "id": 5058033431, "lat": 40.1645749, "lon": 21.8193376, "tags": {"amenity": "cafe"}}, {"type": "node", "id": 5058074383, "lat": 40.2309212, "lon": 21.7487842, "tags": {"amenity": "cafe", "name": "\u03a0\u03bb\u03ac\u03c4\u03b1\u03bd\u03bf\u03c2"}}, {"type": "node", "id": 5058074400, "lat": 40.3030295, "lon": 21.8035265, "tags": {"amenity": "cafe", "name": "\u03a4\u03b1\u03be\u03af\u03b4\u03b9 \u03c3\u03c4\u03bf \u03c7\u03c1\u03cc\u03bd\u03bf"}}, {"type": "node", "id": 5058074403, "lat": 40.2993794, "lon": 21.7981772, "tags": {"amenity": "cafe"}}, {"type": "node", "id": 5058074412, "lat": 40.2872865, "lon": 21.7777317, "tags": {"addr:postcode": "50132", "addr:street": "\u039a\u03bf\u03b6\u03ac\u03bd\u03b7\u03c2 - \u0399\u03c9\u03b1\u03bd\u03bd\u03af\u03bd\u03c9\u03bd", "amenity": "cafe", "contact:facebook": "camelotcoffeecocktailsdrinks", "name": "Camelot", "opening_hours": "Mo-Su 09:00-15:00", "phone": "+302461021120"}}, {"type": "node", "id": 5058084316, "lat": 40.3000839, "lon": 21.7997924, "tags": {"amenity": "cafe", "name": "4Coffee"}}, {"type": "node", "id": 5058084317, "lat": 40.3004646, "lon": 21.7996733, "tags": {"amenity": "cafe"}}, {"type": "node", "id": 5071069071, "lat": 40.2999156, "lon": 21.788601, "tags": {"addr:city": "\u039a\u03bf\u03b6\u03ac\u03bd\u03b7", "addr:postcode": "50131", "addr:street": "\u0391\u03c5\u03be\u03b5\u03bd\u03c4\u03af\u03bf\u03c5", "amenity": "cafe", "mapillary": "4052440651742967", "mobile": "6973909904", "name": "Blue Castle", "shop": "supermarket"}}, {"type": "node", "id": 5071069072, "lat": 40.2996001, "lon": 21.7877001, "tags": {"amenity": "cafe", "name": "\u03a6\u03bb\u03bf\u03c5 cafe bar"}}, {"type": "node", "id": 5088104265, "lat": 40.2929844, "lon": 21.7836289, "tags": {"amenity": "cafe"}}, {"type": "node", "id": 5230098223, "lat": 40.3731688, "lon": 21.9853662, "tags": {"amenity": "cafe"}}, {"type": "node", "id": 5331335490, "lat": 40.2591725, "lon": 22.0780326, "tags": {"amenity": "cafe", "name": "\u039a\u03b1\u03c6\u03b5\u03c4\u03ad\u03c1\u03b9\u03b1-\u03a0\u03bf\u03bb\u03c5\u03c7\u03ce\u03c1\u03bf\u03c2 \"\u0386\u03bb\u03c3\u03bf\u03c2\""}}, {"type": "node", "id": 5331336175, "lat": 40.2510173, "lon": 22.0871928, "tags": {"amenity": "restaurant", "name": "\u039c\u03b5\u03c4\u03cc\u03c7\u03b9"}}, {"type": "node", "id": 5768668611, "lat": 40.2999105, "lon": 21.785422, "tags": {"addr:street": "\u03a0\u03b1\u03cd\u03bb\u03bf\u03c5 \u03a7\u03b1\u03c1\u03af\u03c3\u03b7", "amenity": "cafe", "name": "Caf\u00e9 \u03a4\u03b9\u03ac\u03bd\u03bd\u03b7\u03c2", "source": "Kaart Ground Survey 2018"}}, {"type": "node", "id": 5790267773, "lat": 40.3055316, "lon": 21.7897014, "tags": {"addr:city": "\u039a\u03bf\u03b6\u03ac\u03bd\u03b7", "addr:country": "GR", "addr:housenumber": "66", "addr:postcode": "50131", "addr:street": "\u03a0\u03b1\u03cd\u03bb\u03bf\u03c5 \u039c\u03b5\u03bb\u03ac", "amenity": "restaurant", "cuisine": "greek", "delivery": "yes", "name": "\u03a7\u03c1\u03c5\u03c3\u03cc\u03c2 \u03a3\u03ba\u03bf\u03cd\u03c6\u03bf\u03c2", "reservation": "yes", "source": "Local Survey 2021", "takeaway": "yes"}}, {"type": "node", "id": 5790611533, "lat": 40.3014662, "lon": 21.7973283, "tags": {"addr:street": "\u03a0\u03b1\u03c4\u03c1\u03b9\u03ac\u03c1\u03c7\u03bf\u03c5 \u0399\u03c9\u03b1\u03ba\u03b5\u03af\u03bc", "amenity": "cafe", "name": "Delightful", "source": "Kaart Ground Survey 2018"}}, {"type": "node", "id": 6126369941, "lat": 40.2999281, "lon": 21.7826903, "tags": {"addr:city": "\u039a\u03bf\u03b6\u03ac\u03bd\u03b7", "addr:street": "\u0396\u03ae\u03c3\u03b7 \u0393\u03b9\u03b1\u03c7\u03bd\u03af\u03ba\u03b1", "amenity": "cafe", "facebook": "https://el-gr.facebook.com/%CE%9A%CE%B9%CE%BC%CF%89%CE%BB%CE%AF%CE%B1-%CE%A3%CF%85%CE%B3%CF%87%CF%81%CE%BF%CE%BD%CE%BF%CF%82-%CE%9A%CE%B1%CF%86%CE%B5%CE%BD%CE%AD%CF%82-992046767502930/", "name": "\u039a\u03b9\u03bc\u03c9\u03bb\u03af\u03b1", "phone": "2461022197"}}, {"type": "node", "id": 6207773501, "lat": 40.3012783, "lon": 21.7874976, "tags": {"amenity": "cafe", "name": "Le Roi"}}, {"type": "node", "id": 6213667465, "lat": 40.5412089, "lon": 22.0104731}, {"type": "node", "id": 6213667466, "lat": 40.5409642, "lon": 22.0103826}, {"type": "node", "id": 6213667467, "lat": 40.5410051, "lon": 22.0101911}, {"type": "node", "id": 6213667468, "lat": 40.5412498, "lon": 22.0102817}, {"type": "node", "id": 6346761902, "lat": 40.311985, "lon": 21.6959792, "tags": {"amenity": "cafe", "name:fr": "caf\u00e9"}}, {"type": "node", "id": 6425642385, "lat": 40.2554001, "lon": 22.0707745, "tags": {"amenity": "cafe", "name": "Allez Day caf\u00e9 bar"}}, {"type": "node", "id": 6431079986, "lat": 40.3186319, "lon": 21.5535079, "tags": {"amenity": "cafe"}}, {"type": "node", "id": 6733369094, "lat": 40.2508466, "lon": 22.0870581, "tags": {"amenity": "restaurant"}}, {"type": "node", "id": 8234714323, "lat": 40.301726, "lon": 21.7917824, "tags": {"amenity": "cafe", "mapillary": "925313629662467"}}, {"type": "node", "id": 9117210020, "lat": 40.2913693, "lon": 21.8651241}, {"type": "node", "id": 9117210021, "lat": 40.2912618, "lon": 21.8652378}, {"type": "node", "id": 9117210022, "lat": 40.2913751, "lon": 21.8654218}, {"type": "node", "id": 9117210023, "lat": 40.2914826, "lon": 21.865308}, {"type": "node", "id": 9117210048, "lat": 40.2906994, "lon": 21.8640338}, {"type": "node", "id": 9117210049, "lat": 40.2907011, "lon": 21.8641772}, {"type": "node", "id": 9117210050, "lat": 40.2909452, "lon": 21.8640396}, {"type": "node", "id": 9117210051, "lat": 40.2909052, "lon": 21.8639179}, {"type": "node", "id": 9117210052, "lat": 40.2907358, "lon": 21.8643793}, {"type": "node", "id": 9117210053, "lat": 40.2909624, "lon": 21.864239}, {"type": "node", "id": 9117210054, "lat": 40.2910232, "lon": 21.8644078}, {"type": "node", "id": 9117210055, "lat": 40.2907966, "lon": 21.8645481}, {"type": "node", "id": 9124059637, "lat": 40.2389341, "lon": 21.96723}, {"type": "node", "id": 9124059638, "lat": 40.2388256, "lon": 21.9673937}, {"type": "node", "id": 9124059639, "lat": 40.2387068, "lon": 21.9674849}, {"type": "node", "id": 9124059640, "lat": 40.2388276, "lon": 21.9676082}, {"type": "node", "id": 9124059641, "lat": 40.2390037, "lon": 21.967281}, {"type": "node", "id": 9220617149, "lat": 40.1912745, "lon": 22.011967}, {"type": "node", "id": 9220617150, "lat": 40.1912156, "lon": 22.0119778}, {"type": "node", "id": 9220617151, "lat": 40.1912639, "lon": 22.0119466}, {"type": "node", "id": 9220617152, "lat": 40.1912462, "lon": 22.0119385}, {"type": "node", "id": 9220617153, "lat": 40.1912282, "lon": 22.0119458}, {"type": "node", "id": 9220617154, "lat": 40.1912214, "lon": 22.0119545}, {"type": "node", "id": 9220617155, "lat": 40.1912225, "lon": 22.0120028}, {"type": "node", "id": 9220617156, "lat": 40.1912399, "lon": 22.0120164}, {"type": "node", "id": 9220617157, "lat": 40.19126, "lon": 22.0120123}, {"type": "node", "id": 9220617158, "lat": 40.1912735, "lon": 22.0119925}, {"type": "node", "id": 9223193642, "lat": 40.2200836, "lon": 21.9775005}, {"type": "node", "id": 9223193643, "lat": 40.2201578, "lon": 21.9776943}, {"type": "node", "id": 9223193644, "lat": 40.2199182, "lon": 21.9778518}, {"type": "node", "id": 9223193645, "lat": 40.2198953, "lon": 21.9777921}, {"type": "node", "id": 9223193646, "lat": 40.2198817, "lon": 21.9778011}, {"type": "node", "id": 9223193647, "lat": 40.2198746, "lon": 21.9777825}, {"type": "node", "id": 9223193648, "lat": 40.2198033, "lon": 21.9778293}, {"type": "node", "id": 9223193649, "lat": 40.219759, "lon": 21.9777138}, {"type": "node", "id": 9238073781, "lat": 40.2711036, "lon": 21.7801741}, {"type": "node", "id": 9238073782, "lat": 40.271032, "lon": 21.7802626}, {"type": "node", "id": 9238073783, "lat": 40.2710811, "lon": 21.7803565}, {"type": "node", "id": 9238073784, "lat": 40.2710514, "lon": 21.7803968}, {"type": "node", "id": 9238073785, "lat": 40.2710893, "lon": 21.7804584}, {"type": "node", "id": 9238073786, "lat": 40.2711015, "lon": 21.7804464}, {"type": "node", "id": 9238073787, "lat": 40.271121, "lon": 21.7804786}, {"type": "node", "id": 9238073788, "lat": 40.2711537, "lon": 21.7804437}, {"type": "node", "id": 9238073789, "lat": 40.271168, "lon": 21.7804598}, {"type": "node", "id": 9238073790, "lat": 40.2712294, "lon": 21.7803874}, {"type": "node", "id": 9238073805, "lat": 40.2708548, "lon": 21.7787832}, {"type": "node", "id": 9238073806, "lat": 40.2708662, "lon": 21.7789353}, {"type": "node", "id": 9238073807, "lat": 40.2709952, "lon": 21.7789187}, {"type": "node", "id": 9238073808, "lat": 40.2709838, "lon": 21.7787666}, {"type": "node", "id": 9243252606, "lat": 40.2269834, "lon": 21.8300078}, {"type": "node", "id": 9243252607, "lat": 40.2268774, "lon": 21.8300599}, {"type": "node", "id": 9243252608, "lat": 40.2269427, "lon": 21.8302878}, {"type": "node", "id": 9243252609, "lat": 40.2270486, "lon": 21.8302358}, {"type": "node", "id": 9247553465, "lat": 40.2392828, "lon": 21.9673801}, {"type": "node", "id": 9247553466, "lat": 40.2390954, "lon": 21.9678079}, {"type": "node", "id": 9247553467, "lat": 40.2392725, "lon": 21.9678253}, {"type": "node", "id": 9247553468, "lat": 40.2393033, "lon": 21.9676898}, {"type": "node", "id": 9247553469, "lat": 40.2393821, "lon": 21.9674484}, {"type": "node", "id": 9247553470, "lat": 40.239334, "lon": 21.967427}, {"type": "node", "id": 9247553471, "lat": 40.2393422, "lon": 21.9674042}, {"type": "node", "id": 9247553472, "lat": 40.2392147, "lon": 21.967385}, {"type": "node", "id": 9247553473, "lat": 40.2391517, "lon": 21.967347}, {"type": "node", "id": 9247553474, "lat": 40.2390808, "lon": 21.9675488}, {"type": "node", "id": 9247553475, "lat": 40.2391484, "lon": 21.9675896}, {"type": "node", "id": 9247553476, "lat": 40.2391712, "lon": 21.9675245}, {"type": "node", "id": 9247553477, "lat": 40.2391873, "lon": 21.9675342}, {"type": "node", "id": 9247553478, "lat": 40.2392133, "lon": 21.96746}, {"type": "node", "id": 9247553479, "lat": 40.2391927, "lon": 21.9674476}, {"type": "node", "id": 10040765826, "lat": 40.3014559, "lon": 21.7883053, "tags": {"amenity": "cafe", "brand": "Mikel", "brand:wikidata": "Q16952021", "cuisine": "coffee_shop", "delivery": "yes", "internet_access": "wlan", "internet_access:fee": "no", "name": "Mikel", "outdoor_seating": "yes", "takeaway": "yes"}}, {"type": "node", "id": 10040765830, "lat": 40.3011266, "lon": 21.7869589, "tags": {"addr:city": "\u039a\u03bf\u03b6\u03ac\u03bd\u03b7", "addr:country": "GR", "addr:housenumber": "3", "addr:street": "\u0394\u03c1\u03af\u03b6\u03b7", "amenity": "restaurant", "cuisine": "greek", "name": "\u03a4\u03bf \u039a\u03bf\u03c4\u03ad\u03c4\u03c3\u03b9"}}, {"type": "node", "id": 10040765833, "lat": 40.301235, "lon": 21.7870152, "tags": {"amenity": "cafe", "name": "Volta Memories"}}, {"type": "node", "id": 10040765834, "lat": 40.3014334, "lon": 21.7870903, "tags": {"addr:city": "\u039a\u03bf\u03b6\u03ac\u03bd\u03b7", "addr:country": "GR", "addr:housenumber": "4A", "addr:street": "\u039c\u03bf\u03c5\u03c1\u03ac\u03c4\u03b7", "amenity": "cafe", "name": "\u0392\u03b1\u03c4\u03c1\u03b1\u03ba\u03bf\u03cd\u03ba\u03bf\u03c2", "name:el": "\u0392\u03b1\u03c4\u03c1\u03b1\u03ba\u03bf\u03cd\u03ba\u03bf\u03c2", "outdoor_seating": "yes"}}, {"type": "node", "id": 10040765836, "lat": 40.3016871, "lon": 21.7870293, "tags": {"amenity": "restaurant", "cuisine": "diner", "name": "\u03a4\u03c1\u03c5\u03c0\u03bf\u03ba\u03ac\u03c1\u03c5\u03b4\u03bf\u03c2", "name:el": "\u03a4\u03c1\u03c5\u03c0\u03bf\u03ba\u03ac\u03c1\u03c5\u03b4\u03bf\u03c2"}}, {"type": "node", "id": 10710401478, "lat": 40.3008338, "lon": 21.7998524}, {"type": "node", "id": 10710401479, "lat": 40.3007213, "lon": 21.8000272}, {"type": "node", "id": 10710401482, "lat": 40.3009093, "lon": 21.8002716}, {"type": "node", "id": 10710401483, "lat": 40.3009952, "lon": 21.8001154}, {"type": "node", "id": 10710401484, "lat": 40.3009733, "lon": 21.8000938}, {"type": "node", "id": 10710401485, "lat": 40.3010088, "lon": 21.8000315}, {"type": "node", "id": 10744978228, "lat": 40.2536881, "lon": 22.0786193, "tags": {"amenity": "restaurant", "cuisine": "regional", "name": "\u03a1\u03ad\u03bc\u03b2\u03b7"}}, {"type": "node", "id": 11012610322, "lat": 40.2520384, "lon": 21.5526553, "tags": {"amenity": "restaurant"}}, {"type": "node", "id": 11064355057, "lat": 40.1787517, "lon": 21.9970694}, {"type": "node", "id": 11064355058, "lat": 40.1786907, "lon": 21.996936}, {"type": "node", "id": 11064355059, "lat": 40.1786158, "lon": 21.9969947}, {"type": "node", "id": 11064355060, "lat": 40.1786768, "lon": 21.9971281}, {"type": "node", "id": 11400948071, "lat": 40.302556, "lon": 21.8028031, "tags": {"addr:housenumber": "19", "addr:postcode": "50100", "addr:street": "\u039a\u03c9\u03bd\u03c3\u03c4\u03b1\u03bd\u03c4\u03af\u03bd\u03bf\u03c5 \u039a\u03b1\u03c1\u03b1\u03bc\u03b1\u03bd\u03bb\u03ae", "amenity": "restaurant", "cuisine": "steak_house", "name": "\u0386\u03bc\u03c0\u03b1\u03ba\u03bf\u03c2"}}, {"type": "node", "id": 11400948073, "lat": 40.301519, "lon": 21.7883165, "tags": {"amenity": "cafe", "name": "Mikel"}}, {"type": "node", "id": 11400955069, "lat": 40.502687, "lon": 21.7765979, "tags": {"amenity": "restaurant", "name": "\u038c\u03c0\u03c9\u03c2 \u03c0\u03b1\u03bb\u03b9\u03ac"}}, {"type": "node", "id": 11801371068, "lat": 40.2835486, "lon": 21.7907922}, {"type": "node", "id": 11801372969, "lat": 40.2834185, "lon": 21.7906424}, {"type": "node", "id": 11801372970, "lat": 40.2835116, "lon": 21.7905036}, {"type": "node", "id": 11801372971, "lat": 40.2836417, "lon": 21.7906534}, {"type": "node", "id": 11804618629, "lat": 40.2662096, "lon": 21.7453666}, {"type": "node", "id": 11804618630, "lat": 40.2663105, "lon": 21.7455548}, {"type": "node", "id": 11804618631, "lat": 40.2661676, "lon": 21.7456865}, {"type": "node", "id": 11804618632, "lat": 40.2660667, "lon": 21.7454983}, {"type": "node", "id": 11818158581, "lat": 40.2897689, "lon": 21.7407074}, {"type": "node", "id": 11818158582, "lat": 40.2896607, "lon": 21.7412935}, {"type": "node", "id": 11818158583, "lat": 40.2904984, "lon": 21.7415593}, {"type": "node", "id": 11818158584, "lat": 40.2906066, "lon": 21.7409732}, {"type": "node", "id": 11828493929, "lat": 40.2965883, "lon": 21.7848332, "tags": {"addr:housenumber": "7", "addr:postcode": "50100", "addr:street": "3\u03b7\u03c2 \u03a3\u03b5\u03c0\u03c4\u03b5\u03bc\u03b2\u03c1\u03af\u03bf\u03c5", "amenity": "cafe", "cuisine": "coffee_shop", "internet_access": "wlan", "name": "Mikel", "opening_hours": "Mo-Su 05:00-23:00", "phone": "2461023944", "website": "https://mikelcoffee.com/"}}, {"type": "node", "id": 11875048618, "lat": 40.2496687, "lon": 21.5576164, "tags": {"addr:city": "\u03a3\u03b9\u03ac\u03c4\u03b9\u03c3\u03c4\u03b1", "addr:housenumber": "2", "addr:postcode": "50300", "addr:street": "\u03a3\u03b9\u03b1\u03c4\u03b9\u03c3\u03c4\u03ad\u03c9\u03bd \u0398\u03b5\u03c3\u03c3\u03b1\u03bb\u03bf\u03bd\u03af\u03ba\u03b7\u03c2", "amenity": "restaurant", "contact:instagram": "estiatorio_to_petrino_siatista", "cuisine": "greek", "name": "\u03a4\u03bf \u03a0\u03ad\u03c4\u03c1\u03b9\u03bd\u03bf", "opening_hours": "Tu-Su 11:00-23:00", "phone": "+30 24653 00545", "takeaway": "yes"}}, {"type": "node", "id": 11919453022, "lat": 40.2410032, "lon": 21.8277945, "tags": {"access": "customers", "barrier": "gate", "entrance": "main"}}, {"type": "node", "id": 11919453023, "lat": 40.241003, "lon": 21.828015}, {"type": "node", "id": 11919453024, "lat": 40.2410208, "lon": 21.827834}, {"type": "node", "id": 11919453025, "lat": 40.2409845, "lon": 21.8277524}, {"type": "node", "id": 11919453026, "lat": 40.2409444, "lon": 21.8277767}, {"type": "node", "id": 11919453027, "lat": 40.2409098, "lon": 21.8277831}, {"type": "node", "id": 11919453028, "lat": 40.2415203, "lon": 21.8279326}, {"type": "node", "id": 11919453029, "lat": 40.2413366, "lon": 21.8281636}, {"type": "node", "id": 11919453030, "lat": 40.2410517, "lon": 21.8282574}, {"type": "node", "id": 11919453031, "lat": 40.2409949, "lon": 21.827868}, {"type": "node", "id": 11919453032, "lat": 40.2408136, "lon": 21.8276288}, {"type": "node", "id": 11919453033, "lat": 40.2414019, "lon": 21.8274123}, {"type": "node", "id": 11933391844, "lat": 40.2446709, "lon": 21.7484468, "tags": {"amenity": "cafe", "name": "Saloon", "outdoor_seating": "yes"}}, {"type": "node", "id": 11933391845, "lat": 40.2441373, "lon": 21.7506145}, {"type": "node", "id": 11933391846, "lat": 40.2440858, "lon": 21.7507722}, {"type": "node", "id": 11933391847, "lat": 40.2443557, "lon": 21.7507758}, {"type": "node", "id": 11933391848, "lat": 40.2443961, "lon": 21.7507056}, {"type": "node", "id": 11933391849, "lat": 40.244227, "lon": 21.7504978}, {"type": "node", "id": 11933666991, "lat": 40.319614, "lon": 21.7884825}, {"type": "node", "id": 11933666992, "lat": 40.3196499, "lon": 21.7884825}, {"type": "node", "id": 11933666993, "lat": 40.3196543, "lon": 21.788298}, {"type": "node", "id": 11933666994, "lat": 40.319759, "lon": 21.7883061}, {"type": "node", "id": 11933666995, "lat": 40.3197912, "lon": 21.788337}, {"type": "node", "id": 11933666996, "lat": 40.3198029, "lon": 21.7883971}, {"type": "node", "id": 11933666997, "lat": 40.3198141, "lon": 21.7884743}, {"type": "node", "id": 11933666998, "lat": 40.3198476, "lon": 21.7884833}, {"type": "node", "id": 11933666999, "lat": 40.3198426, "lon": 21.78871}, {"type": "node", "id": 11933667000, "lat": 40.3196078, "lon": 21.7886905}, {"type": "node", "id": 12000173005, "lat": 40.3052995, "lon": 21.7852793, "tags": {"amenity": "cafe", "cuisine": "greek", "name": "\u03a3\u03c4\u03bf\u03c5 \u039b\u03ac\u03b2\u03b1", "outdoor_seating": "yes"}}, {"type": "node", "id": 12018455834, "lat": 40.3042229, "lon": 21.789152, "tags": {"entrance": "main"}}, {"type": "node", "id": 12018455835, "lat": 40.3042031, "lon": 21.7892402}, {"type": "node", "id": 12018455836, "lat": 40.3041151, "lon": 21.7892062}, {"type": "node", "id": 12018455837, "lat": 40.3041564, "lon": 21.7890228}, {"type": "node", "id": 12018455838, "lat": 40.3042444, "lon": 21.7890568}, {"type": "node", "id": 12147214801, "lat": 40.2947016, "lon": 21.7930305, "tags": {"amenity": "cafe", "contact:facebook": "TheGreenWagonKozani", "name": "\u039a\u03b1\u03c6\u03b5 \u0393\u03c1\u03b1\u03bc\u03bc\u03ad\u03c2 \"The Green Wagon\"", "name:el": "\u039a\u03b1\u03c6\u03b5 \u0393\u03c1\u03b1\u03bc\u03bc\u03ad\u03c2 \"The Green Wagon\"", "name:en": "Coffee lines \"The green wagon\"'", "opening_hours": "Mo-Su 08:30-01:00", "outdoor_seating": "no", "phone": "2461034941"}}, {"type": "node", "id": 12396607526, "lat": 40.2923533, "lon": 21.7682332}, {"type": "node", "id": 12396607528, "lat": 40.2923252, "lon": 21.7677461}, {"type": "node", "id": 12396607531, "lat": 40.2923661, "lon": 21.7680765}, {"type": "node", "id": 12396607532, "lat": 40.2921275, "lon": 21.7677233}, {"type": "node", "id": 12396607533, "lat": 40.2923218, "lon": 21.7677182}, {"type": "node", "id": 12396607534, "lat": 40.2923847, "lon": 21.7682264}, {"type": "node", "id": 12396607535, "lat": 40.2922117, "lon": 21.7682636}, {"type": "node", "id": 12419203668, "lat": 40.2951932, "lon": 21.7921914, "tags": {"addr:city": "\u039a\u03bf\u03b6\u03ac\u03bd\u03b7", "addr:housenumber": "19", "addr:street": "\u03a0\u03bb\u03b1\u03c4\u03b1\u03b9\u03ce\u03bd", "amenity": "cafe", "name": "Da Capo"}}, {"type": "node", "id": 12430297448, "lat": 40.3176016, "lon": 21.786282}, {"type": "node", "id": 12430297449, "lat": 40.3175759, "lon": 21.7861368}, {"type": "node", "id": 12430297450, "lat": 40.3176056, "lon": 21.7861261}, {"type": "node", "id": 12430297451, "lat": 40.3175822, "lon": 21.7860157}, {"type": "node", "id": 12430297452, "lat": 40.3174499, "lon": 21.7860647}, {"type": "node", "id": 12430297453, "lat": 40.3175093, "lon": 21.7863204}, {"type": "node", "id": 12453587207, "lat": 40.3017546, "lon": 21.7852637, "tags": {"addr:housenumber": "4", "addr:postcode": "50100", "addr:street": "\u0392\u03b1\u03c3\u03b9\u03bb\u03b5\u03af\u03bf\u03c5 \u03a6\u03cc\u03c1\u03b7", "amenity": "restaurant", "cuisine": "greek", "internet_access": "wlan", "name": "\u039a\u03bf\u03c5\u03c1\u03bf\u03cd\u03bc\u03c0\u03b5\u03bb\u03bf", "opening_hours": "Mo-Su 06:00-02:30", "phone": "2461303581"}}, {"type": "node", "id": 12458735601, "lat": 40.3003514, "lon": 21.7882687, "tags": {"addr:housenumber": "2", "addr:postcode": "50132", "addr:street": "\u039a\u03bf\u03bc\u03c0\u03b1\u03bd\u03af\u03b1\u03c2", "amenity": "restaurant", "contact:facebook": "https://www.facebook.com/paragkakozani/", "delivery": "yes", "internet_access": "wlan", "name": "\u03a3\u03c4\u03bf\u03c5 \u0391\u03b9\u03ce\u03bd\u03b1 \u03c4\u03b7\u03bd \u03a0\u03b1\u03c1\u03ac\u03b3\u03ba\u03b1", "opening_hours": "Th-Tu 10:00-01:00", "outdoor_seating": "yes", "phone": "2461021037"}}, {"type": "node", "id": 12458735602, "lat": 40.3014062, "lon": 21.7875765, "tags": {"addr:housenumber": "11-13", "addr:postcode": "50100", "addr:street": "\u03a0\u03bb\u03b1\u03c4\u03b5\u03af\u03b1 \u039d\u03af\u03ba\u03b7\u03c2", "amenity": "cafe", "internet_access": "wlan", "name": "Q Garden", "opening_hours": "Mo-Su 10:00-00:00", "website": "https://qgardenbyermionio.gr/"}}, {"type": "node", "id": 12459009001, "lat": 40.3011719, "lon": 21.7883186, "tags": {"addr:housenumber": "16", "addr:postcode": "50132", "addr:street": "\u03a0\u03bb\u03b1\u03c4\u03b5\u03af\u03b1 \u039d\u03af\u03ba\u03b7\u03c2", "amenity": "restaurant", "cuisine": "pizza", "internet_access": "wlan", "name": "Tip Top", "phone": "2461038815", "website": "http://tiptoprestaurant.gr", "website:menu": "http://tiptoprestaurant.gr"}}, {"type": "node", "id": 12459040702, "lat": 40.299232, "lon": 21.789673, "tags": {"addr:housenumber": "8", "addr:postcode": "50100", "addr:street": "\u03a0\u03bb\u03b1\u03c4\u03b5\u03af\u03b1 \u039b\u03b1\u03c3\u03c3\u03ac\u03bd\u03b7", "amenity": "cafe", "cuisine": "coffee_shop", "internet_access": "wlan", "name": "The Cups Coffee Workshop", "opening_hours": "Mo-Su 07:00-21:30", "phone": "2461034663"}}, {"type": "node", "id": 12459153906, "lat": 40.2975517, "lon": 21.7847424, "tags": {"addr:housenumber": "58", "addr:postcode": "50100", "addr:street": "\u03a0\u03b1\u03cd\u03bb\u03bf\u03c5 \u03a7\u03b1\u03c1\u03af\u03c3\u03b7", "amenity": "cafe", "cuisine": "coffee_shop", "internet_access": "wlan", "name": "Coffee Berry", "opening_hours": "Mo-Su 05:30-21:00", "phone": "2461023400", "website": "https://www.coffeeberry.coffee/"}}, {"type": "node", "id": 12459153908, "lat": 40.2962438, "lon": 21.7862975, "tags": {"addr:housenumber": "2", "addr:postcode": "50132", "addr:street": "\u0392\u03bf\u03b3\u03b1\u03c4\u03c3\u03b9\u03ba\u03bf\u03cd", "amenity": "cafe", "cuisine": "coffee_shop", "internet_access": "wlan", "name": "Coffee Island", "opening_hours": "Mo-Sa 05:30-22:00; Su 07:00-22:00", "phone": "2461026625", "website": "https://www.coffeeisland.gr/"}}, {"type": "node", "id": 12459153909, "lat": 40.2967611, "lon": 21.7902288, "tags": {"addr:housenumber": "5", "addr:postcode": "50100", "addr:street": "\u03a0\u03bb\u03b1\u03c4\u03b1\u03b9\u03ce\u03bd", "amenity": "restaurant", "cuisine": "seafood", "name": "\u03a0\u03ad\u03bb\u03b1\u03b3\u03bf\u03c2 \u03a8\u03b1\u03c1\u03bf\u03c4\u03b1\u03b2\u03ad\u03c1\u03bd\u03b1", "opening_hours": "Su, Tu-Fr 12:30-00:00; Sa 12:30-19:00", "phone": "2461021201"}}, {"type": "node", "id": 12459154002, "lat": 40.2918717, "lon": 21.782686, "tags": {"addr:housenumber": "21", "addr:postcode": "50100", "addr:street": "\u0391\u03bd\u03b4\u03c1\u03ad\u03b1 \u03a0\u03b1\u03c0\u03b1\u03bd\u03b4\u03c1\u03ad\u03bf\u03c5", "amenity": "cafe", "cuisine": "coffee_shop", "name": "Bruno Box Kozani", "opening_hours": "Mo-Su 05:00-23:00", "phone": "2461308145"}}, {"type": "node", "id": 12459154005, "lat": 40.2963749, "lon": 21.7861366, "tags": {"addr:postcode": "50100", "addr:street": "\u039a\u03b1\u03c3\u03bf\u03bc\u03bf\u03cd\u03bb\u03b7", "amenity": "restaurant", "cuisine": "chicken", "name": "\u03a7\u03c1\u03c5\u03c3\u03cc \u039a\u03bf\u03c4\u03cc\u03c0\u03bf\u03c5\u03bb\u03bf", "opening_hours": "Mo-Su 11:00-22:00", "phone": "2461028590"}}, {"type": "node", "id": 12459154301, "lat": 40.3004979, "lon": 21.7865285, "tags": {"addr:housenumber": "14", "addr:postcode": "50100", "addr:street": "\u0394\u03c1\u03af\u03b6\u03b7", "amenity": "restaurant", "cuisine": "italian", "name": "Trattoria Pulcinella Kozani", "opening_hours": "Tu-Su 12:00-01:00", "phone": "2461304506"}}, {"type": "node", "id": 12459154302, "lat": 40.3013558, "lon": 21.7866278, "tags": {"addr:housenumber": "17", "addr:postcode": "50100", "addr:street": "\u0395\u03b9\u03c1\u03ae\u03bd\u03b7\u03c2", "amenity": "cafe", "cuisine": "coffee_shop", "internet_access": "wlan", "name": "Grogory's (\u0393\u03c1\u03b7\u03b3\u03cc\u03c1\u03b7\u03c2)", "opening_hours": "Mo-Su 06:00-22:00", "phone": "2461308270", "website": "https://www.gregorys.gr/"}}, {"type": "node", "id": 12476286184, "lat": 40.302839, "lon": 21.7872769, "tags": {"addr:city": "\u039a\u03bf\u03b6\u03ac\u03bd\u03b7", "addr:housenumber": "6", "addr:street": "\u0393\u03b5\u03c9\u03c1\u03b3\u03ac\u03ba\u03b7 \u039f\u03bb\u03c5\u03bc\u03c0\u03af\u03bf\u03c5", "amenity": "restaurant", "contact:facebook": "https://www.facebook.com/avli.kozani", "contact:instagram": "https://www.instagram.com/avli.kozani", "cuisine": "greek", "name": "\u0391\u03c5\u03bb\u03ae", "outdoor_seating": "yes", "phone": "2461032801"}}, {"type": "node", "id": 12639354509, "lat": 40.3015172, "lon": 21.7851214, "tags": {"addr:city": "\u039a\u03bf\u03b6\u03ac\u03bd\u03b7", "addr:country": "GR", "addr:housenumber": "7", "addr:postcode": "50131", "addr:street": "\u0392\u03b1\u03c3\u03b9\u03bb\u03b5\u03af\u03bf\u03c5 \u03a6\u03cc\u03c1\u03b7", "amenity": "restaurant", "contact:email": "settebr@gmail.com", "contact:facebook": "https://www.facebook.com/settebr", "contact:instagram": "https://www.instagram.com/sette_bar_restaurant/", "contact:phone": "2461027777", "cuisine": "mediterranean", "delivery": "yes", "diet:gluten_free": "yes", "name": "Sette 7", "takeaway": "yes"}}, {"type": "node", "id": 12639384395, "lat": 40.2988954, "lon": 21.7883959, "tags": {"addr:city": "\u039a\u03bf\u03b6\u03ac\u03bd\u03b7", "addr:country": "GR", "addr:housenumber": "11", "addr:postcode": "50131", "addr:street": "\u03a4\u03b1\u03ba\u03b9\u03b1\u03c4\u03b6\u03ae\u03b4\u03c9\u03bd", "amenity": "restaurant", "contact:facebook": "https://www.facebook.com/bentetaestiatorio/", "cuisine": "greek", "diet:gluten_free": "yes", "email": "ventetagroup@gmail.com", "name": "\u0392\u03b5\u03bd\u03c4\u03ad\u03c4\u03b1", "phone": "2461027720", "website": "https://venteta.gr/"}}, {"type": "node", "id": 12690469793, "lat": 40.1738199, "lon": 22.0230765, "tags": {"amenity": "restaurant", "cuisine": "greek", "name": "\u039f \u03a6\u03ce\u03c4\u03b7\u03c2", "outdoor_seating": "yes"}}, {"type": "node", "id": 12692519554, "lat": 40.296132, "lon": 21.7850221, "tags": {"amenity": "restaurant", "cuisine": "greek", "name": "\u03a0\u03b5\u03bd\u03ae\u03bd\u03c4\u03b1 \u03a0\u03b5\u03bd\u03ae\u03bd\u03c4\u03b1", "phone": "2461401142"}}, {"type": "node", "id": 12692519557, "lat": 40.2974364, "lon": 21.7859771, "tags": {"addr:city": "\u039a\u03bf\u03b6\u03ac\u03bd\u03b7", "addr:country": "GR", "addr:housenumber": "52", "addr:postcode": "50100", "addr:street": "\u0399\u03c9\u03ac\u03bd\u03bd\u03bf\u03c5 \u03a4\u03c1\u03ac\u03bd\u03c4\u03b1", "amenity": "restaurant", "cuisine": "pizza", "delivery": "yes", "name": "Va Bene", "phone": "2461049300", "takeaway": "yes"}}, {"type": "node", "id": 12848339169, "lat": 40.2051734, "lon": 21.751535, "tags": {"amenity": "restaurant", "cuisine": "greek", "name": "\u03a1\u03cc\u03b4\u03bf\u03bd"}}, {"type": "node", "id": 12848339172, "lat": 40.2064178, "lon": 21.7521162, "tags": {"amenity": "restaurant", "contact:phone": "+30 2461099605", "cuisine": "greek", "name": "\u03a4\u03b1 \u039d\u03b1\u03bd\u03ac\u03ba\u03b9\u03b1"}}, {"type": "node", "id": 12853342222, "lat": 40.2984903, "lon": 21.6721409, "tags": {"amenity": "cafe", "name": "Cafe Xristos"}}, {"type": "node", "id": 12853919425, "lat": 40.3060564, "lon": 21.6703211, "tags": {"amenity": "cafe", "name": "A A", "phone": "+30 2461091253"}}, {"type": "node", "id": 12853919426, "lat": 40.3061207, "lon": 21.67004, "tags": {"amenity": "cafe", "name": "\u03a4\u03bf \u039c\u03b9\u03ba\u03b9\u03cc", "shop": "convenience"}}, {"type": "node", "id": 12881378423, "lat": 40.1799616, "lon": 21.5921383, "tags": {"amenity": "cafe", "outdoor_seating": "yes"}}, {"type": "node", "id": 12881555406, "lat": 40.2025333, "lon": 21.600639, "tags": {"amenity": "cafe", "outdoor_seating": "yes"}}, {"type": "node", "id": 12882954064, "lat": 40.2528054, "lon": 21.5563116, "tags": {"amenity": "cafe", "outdoor_seating": "yes"}}, {"type": "node", "id": 12882954068, "lat": 40.2526353, "lon": 21.5553681, "tags": {"amenity": "cafe", "bar": "yes", "name": "\u039f \u03a0\u03bb\u03ac\u03c4\u03b1\u03bd\u03bf\u03c2", "outdoor_seating": "yes"}}, {"type": "node", "id": 12882954074, "lat": 40.2527217, "lon": 21.5553836, "tags": {"amenity": "cafe", "bar": "yes", "name": "\u03a4\u03bf \u03a3\u03bf\u03ba\u03ac\u03ba\u03b9", "outdoor_seating": "yes"}}, {"type": "node", "id": 12882954076, "lat": 40.2524478, "lon": 21.5553939, "tags": {"amenity": "cafe", "name": "\u03a3\u03ce\u03ba\u03c1\u03b1\u03c4\u03b7\u03c2", "outdoor_seating": "yes"}}, {"type": "node", "id": 12883410674, "lat": 40.2591104, "lon": 21.5514547, "tags": {"amenity": "cafe", "outdoor_seating": "yes"}}, {"type": "node", "id": 12883410679, "lat": 40.2623401, "lon": 21.5478093, "tags": {"amenity": "cafe", "outdoor_seating": "yes"}}, {"type": "node", "id": 12883410680, "lat": 40.2625395, "lon": 21.547576, "tags": {"amenity": "cafe", "outdoor_seating": "yes"}}, {"type": "node", "id": 12883410915, "lat": 40.253147, "lon": 21.5559273, "tags": {"amenity": "cafe", "name": "Sunrise", "outdoor_seating": "yes"}}, {"type": "node", "id": 12886367520, "lat": 40.4538753, "lon": 21.5251936, "tags": {"amenity": "cafe", "internet_access": "wlan", "name": "\u03a3\u03c4\u03bf\u03bd \u0391\u03bb\u03ad\u03ba\u03b1", "outdoor_seating": "yes"}}, {"type": "node", "id": 12886367533, "lat": 40.453475, "lon": 21.5251935, "tags": {"amenity": "restaurant", "internet_access": "wlan", "name": "\u03a4\u03bf \u039c\u03c0\u03bb\u03ac\u03c4\u03c3\u03b9", "outdoor_seating": "yes"}}, {"type": "node", "id": 12886460530, "lat": 40.4536898, "lon": 21.5254074, "tags": {"amenity": "restaurant", "name": "\u039f \u0392\u03bb\u03b1\u03c7\u03bf\u03b4\u03ae\u03bc\u03bf\u03c2", "outdoor_seating": "yes"}}, {"type": "way", "id": 663848383, "nodes": [6213667465, 6213667466, 6213667467, 6213667468, 6213667465], "tags": {"amenity": "cafe", "building": "yes", "name": "\u03a0\u03bb\u03b1\u03c4\u03af\u03c4\u03c3\u03b1\u03c2"}}, {"type": "way", "id": 986274349, "nodes": [9117210020, 9117210021, 9117210022, 9117210023, 9117210020], "tags": {"amenity": "cafe", "building": "yes", "name": "Baron cafe"}}, {"type": "way", "id": 986274352, "nodes": [9117210048, 9117210049, 9117210050, 9117210051, 9117210048], "tags": {"amenity": "cafe", "building": "yes", "name": "Senses Cafe"}}, {"type": "way", "id": 986274353, "nodes": [9117210052, 9117210053, 9117210054, 9117210055, 9117210052], "tags": {"amenity": "cafe", "building": "yes"}}, {"type": "way", "id": 987109661, "nodes": [9124059637, 9124059638, 9124059639, 9124059640, 9124059641, 9124059637], "tags": {"amenity": "restaurant", "building": "yes", "name": "\u0391\u03bd\u03b5\u03bc\u03bf\u03c7\u03ac\u03b4\u03b9", "website": "https://www.facebook.com/Anemochadi/"}}, {"type": "way", "id": 998676597, "nodes": [9220617155, 9220617156, 9220617157, 9220617158, 9220617149, 9220617151, 9220617152, 9220617153, 9220617154, 9220617150, 9220617155], "tags": {"amenity": "cafe", "building": "yes", "name": "8 \u0393\u03a9\u039d\u039f"}}, {"type": "way", "id": 998989884, "nodes": [9223193642, 9223193643, 9223193644, 9223193645, 9223193646, 9223193647, 9223193648, 9223193649, 9223193642], "tags": {"amenity": "restaurant", "building": "yes", "cuisine": "regional", "name": "\u03bf \u039c\u03c0\u03ac\u03bc\u03c0\u03b7\u03c2"}}, {"type": "way", "id": 1000810647, "nodes": [9238073781, 9238073782, 9238073783, 9238073784, 9238073785, 9238073786, 9238073787, 9238073788, 9238073789, 9238073790, 9238073781], "tags": {"amenity": "cafe", "building": "yes", "name": "El Clasico", "outdoor_seating": "yes"}}, {"type": "way", "id": 1000810651, "nodes": [9238073805, 9238073806, 9238073807, 9238073808, 9238073805], "tags": {"amenity": "cafe", "building": "yes", "check_date": "2024-03-31", "name": "\u03a4\u03b1 \u039a\u03bf\u03c5\u03bc\u03c0\u03b1\u03c1\u03ac\u03ba\u03b9\u03b1", "outdoor_seating": "yes"}}, {"type": "way", "id": 1001430676, "nodes": [9243252606, 9243252607, 9243252608, 9243252609, 9243252606], "tags": {"amenity": "cafe", "building": "yes", "name": "\u0388\u03bd\u03b1\u03c3\u03c4\u03c1\u03bf", "outdoor_seating": "yes"}}, {"type": "way", "id": 1001944997, "nodes": [9247553465, 9247553466, 9247553467, 9247553468, 9247553469, 9247553470, 9247553471, 9247553465], "tags": {"addr:city": "\u039d\u03b5\u03c1\u03ac\u03b9\u03b4\u03b1", "addr:postcode": "50100", "amenity": "restaurant", "building": "yes", "cuisine": "pizza;coffee_shop", "name": "Balconi"}}, {"type": "way", "id": 1001944998, "nodes": [9247553472, 9247553473, 9247553474, 9247553475, 9247553476, 9247553477, 9247553478, 9247553479, 9247553472], "tags": {"addr:city": "\u039d\u03b5\u03c1\u03ac\u03b9\u03b4\u03b1", "addr:postcode": "50100", "addr:street": "\u039d\u03b5\u03c1\u03ac\u03b9\u03b4\u03b1 \u039a\u03bf\u03b6\u03ac\u03bd\u03b7\u03c2", "amenity": "cafe", "building": "yes", "cuisine": "burger;pizza;coffee_shop", "internet_access": "wlan", "name": "Ostria", "opening_hours": "\u039a\u03ac\u03b8\u03b5 \u03bc\u03ad\u03c1\u03b1 \u03b1\u03c0\u03cc \u03c4\u03b9\u03c2 10:00 \u03ad\u03c9\u03c2 \u03c0\u03bf\u03bb\u03cd \u03b1\u03c1\u03b3\u03ac \u03c4\u03bf \u03b2\u03c1\u03ac\u03b4\u03c5", "outdoor_seating": "yes"}}, {"type": "way", "id": 1151286137, "nodes": [10710401485, 10710401478, 10710401479, 10710401482, 10710401483, 10710401484, 10710401485], "tags": {"amenity": "restaurant", "building": "yes", "name": "Restobar", "source": "microsoft/BuildingFootprints"}}, {"type": "way", "id": 1191727871, "nodes": [11064355057, 11064355058, 11064355059, 11064355060, 11064355057], "tags": {"addr:city": "\u03a3\u03ad\u03c1\u03b2\u03b9\u03b1", "amenity": "restaurant", "building": "yes", "cuisine": "greek", "name": "\u03a4\u03b1 \u039a\u03ac\u03c3\u03c4\u03c1\u03b1"}}, {"type": "way", "id": 1270794647, "nodes": [11801372971, 11801372970, 11801372969, 11801371068, 11801372971], "tags": {"amenity": "cafe", "building": "yes", "building:levels": "1"}}, {"type": "way", "id": 1271143340, "nodes": [11804618632, 11804618631, 11804618630, 11804618629, 11804618632], "tags": {"amenity": "restaurant", "building": "yes", "name": "\u03a8\u03b7\u03c4\u03bf\u03c0\u03c9\u03bb\u03b5\u03af\u03bf \u0396\u03b1\u03ba\u03bf\u03cd"}}, {"type": "way", "id": 1272696687, "nodes": [11818158584, 11818158583, 11818158582, 11818158581, 11818158584], "tags": {"amenity": "cafe", "name": "Aslan", "outdoor_seating": "yes"}}, {"type": "way", "id": 1284822608, "nodes": [11919453033, 11919453032, 11919453027, 11919453026, 11919453025, 11919453022, 11919453024, 11919453031, 11919453023, 11919453030, 11919453029, 11919453028, 11919453033], "tags": {"amenity": "restaurant", "name": "\u039f \u03c0\u03b1\u03bb\u03b9\u03cc\u03c2 \u03bc\u03cd\u03bb\u03bf\u03c2", "outdoor_seating": "yes"}}, {"type": "way", "id": 1286619022, "nodes": [11933391849, 11933391848, 11933391847, 11933391846, 11933391845, 11933391849], "tags": {"amenity": "restaurant", "cuisine": "greek;pizza", "delivery": "yes", "name": "\u039c\u03b5\u03b6\u03b5\u03b4\u03bf\u03c0\u03c9\u03bb\u03b5\u03af\u03bf \u039d\u03cc\u03c3\u03c4\u03b9\u03bc\u03bf", "outdoor_seating": "yes", "takeaway": "yes", "url": "https://www.facebook.com/nostimokozani"}}, {"type": "way", "id": 1286655727, "nodes": [11933667000, 11933666999, 11933666998, 11933666997, 11933666996, 11933666995, 11933666994, 11933666993, 11933666992, 11933666991, 11933667000], "tags": {"amenity": "cafe", "name": "Nefeli Hotel cafe", "outdoor_seating": "yes"}}, {"type": "way", "id": 1297169783, "nodes": [12018455838, 12018455837, 12018455836, 12018455835, 12018455834, 12018455838], "tags": {"amenity": "cafe", "building": "yes", "name": "\u039c\u03c0\u03bb\u03b5 \u0395\u03bb\u03ac\u03c6\u03b9"}}, {"type": "way", "id": 1340144856, "nodes": [12396607535, 12396607526, 12396607534, 12396607531, 12396607528, 12396607533, 12396607532, 12396607535], "tags": {"amenity": "restaurant", "email": "siopoto@hotmail.com", "name": "\u03a3\u03b9\u03cc\u03c0\u03bf\u03c4\u03bf", "outdoor_seating": "yes", "phone": "2461504845"}}, {"type": "way", "id": 1343423719, "nodes": [12430297453, 12430297452, 12430297451, 12430297450, 12430297449, 12430297448, 12430297453], "tags": {"amenity": "restaurant", "building": "yes", "name": "\u039a\u03bb\u03b9\u03bf\u03cd\u03b3\u03ba\u03b9"}}]}