{"version": 0.6, "generator": "Overpass API 0.7.62.7 375dc00a", "osm3s": {"timestamp_osm_base": "2025-06-14T14:50:30Z", "copyright": "The data included in this document is from www.openstreetmap.org. The data is made available under ODbL."}, "elements": [{"type": "node", "id": 338389794, "lat": 38.1878961, "lon": 26.0280072, "tags": {"amenity": "restaurant", "cuisine": "greek", "name": "Porto Emporios"}}, {"type": "node", "id": 3097316616, "lat": 38.1881251, "lon": 26.0283243, "tags": {"amenity": "restaurant", "cuisine": "greek", "email": "gkaragiorges@Gmail.com", "internet_access": "wlan", "name": "Emporios", "phone": "2271070269"}}, {"type": "node", "id": 3097316627, "lat": 38.1881483, "lon": 26.0285442, "tags": {"amenity": "restaurant", "cuisine": "seafood", "name": "Neptune"}}, {"type": "node", "id": 3098836519, "lat": 38.1877123, "lon": 26.0282613, "tags": {"amenity": "restaurant", "cuisine": "greek", "name": "\u0397\u03a6\u0391\u0399\u03a3\u03a4\u0395\u0399\u039f", "name:el": "\u0397\u03a6\u0391\u0399\u03a3\u03a4\u0395\u0399\u039f", "name:en": "Volcano"}}, {"type": "node", "id": 3098836522, "lat": 38.1880401, "lon": 26.0280883, "tags": {"amenity": "restaurant", "name": "Lava stone"}}]}