{"version": 0.6, "generator": "Overpass API 0.7.62.7 375dc00a", "osm3s": {"timestamp_osm_base": "2025-06-14T14:58:44Z", "copyright": "The data included in this document is from www.openstreetmap.org. The data is made available under ODbL."}, "elements": [{"type": "node", "id": 722782778, "lat": 40.5509514, "lon": 29.4644179, "tags": {"amenity": "cafe"}}, {"type": "node", "id": 1389290222, "lat": 40.602187, "lon": 29.1759587}, {"type": "node", "id": 1389290234, "lat": 40.6022792, "lon": 29.1760598}, {"type": "node", "id": 1389290245, "lat": 40.6023111, "lon": 29.1756858}, {"type": "node", "id": 1389290259, "lat": 40.6024226, "lon": 29.1757564}, {"type": "node", "id": 1389290262, "lat": 40.6024541, "lon": 29.1755366}, {"type": "node", "id": 1389290274, "lat": 40.6025463, "lon": 29.1756377}, {"type": "node", "id": 1389290294, "lat": 40.6030241, "lon": 29.1735794}, {"type": "node", "id": 1389290297, "lat": 40.6030642, "lon": 29.1734175}, {"type": "node", "id": 1389290301, "lat": 40.6031455, "lon": 29.1736316}, {"type": "node", "id": 1389290303, "lat": 40.6031857, "lon": 29.1734697}, {"type": "node", "id": 1389290336, "lat": 40.6035141, "lon": 29.1723639, "tags": {"amenity": "restaurant"}}, {"type": "node", "id": 2588122756, "lat": 40.6595255, "lon": 29.2758322}, {"type": "node", "id": 2588122758, "lat": 40.6595221, "lon": 29.2757962}, {"type": "node", "id": 2588122760, "lat": 40.6594863, "lon": 29.275785}, {"type": "node", "id": 2588122762, "lat": 40.6594505, "lon": 29.2757693}, {"type": "node", "id": 2588122764, "lat": 40.6594216, "lon": 29.2757468}, {"type": "node", "id": 2588122766, "lat": 40.6593926, "lon": 29.2757199}, {"type": "node", "id": 2588122768, "lat": 40.6593585, "lon": 29.2756862}, {"type": "node", "id": 2588122770, "lat": 40.6593279, "lon": 29.2756457}, {"type": "node", "id": 2588122772, "lat": 40.6593057, "lon": 29.2756031}, {"type": "node", "id": 2588122774, "lat": 40.6592853, "lon": 29.2755604}, {"type": "node", "id": 2588122776, "lat": 40.6592699, "lon": 29.2755132}, {"type": "node", "id": 2588122778, "lat": 40.6592546, "lon": 29.2754683}, {"type": "node", "id": 2588122780, "lat": 40.6592444, "lon": 29.2754077}, {"type": "node", "id": 2588122782, "lat": 40.6592427, "lon": 29.2753425}, {"type": "node", "id": 2588122784, "lat": 40.6592495, "lon": 29.2752819}, {"type": "node", "id": 2588122785, "lat": 40.659258, "lon": 29.2752257}, {"type": "node", "id": 2588122787, "lat": 40.6592716, "lon": 29.2751763}, {"type": "node", "id": 2588122789, "lat": 40.6592853, "lon": 29.2751314}, {"type": "node", "id": 2588122791, "lat": 40.6593091, "lon": 29.2750842}, {"type": "node", "id": 2588122793, "lat": 40.6593296, "lon": 29.2750483}, {"type": "node", "id": 2588122795, "lat": 40.6592836, "lon": 29.2749787}, {"type": "node", "id": 2588122818, "lat": 40.6592427, "lon": 29.275055}, {"type": "node", "id": 2588122823, "lat": 40.659212, "lon": 29.2751494}, {"type": "node", "id": 2588122824, "lat": 40.6591933, "lon": 29.2752392}, {"type": "node", "id": 2588122825, "lat": 40.659183, "lon": 29.2753246}, {"type": "node", "id": 2588122826, "lat": 40.6592001, "lon": 29.275484}, {"type": "node", "id": 2588122827, "lat": 40.6591779, "lon": 29.2754975}, {"type": "node", "id": 2588122828, "lat": 40.6592052, "lon": 29.2755918}, {"type": "node", "id": 2588122829, "lat": 40.6592358, "lon": 29.2756592}, {"type": "node", "id": 2588122830, "lat": 40.6592682, "lon": 29.2757154}, {"type": "node", "id": 2588122831, "lat": 40.6593091, "lon": 29.275767}, {"type": "node", "id": 2588122832, "lat": 40.6593534, "lon": 29.2758164}, {"type": "node", "id": 2588122833, "lat": 40.6593994, "lon": 29.2758501}, {"type": "node", "id": 2588122834, "lat": 40.6594556, "lon": 29.2758816}, {"type": "node", "id": 2588122835, "lat": 40.6594982, "lon": 29.2758995}, {"type": "node", "id": 2588122836, "lat": 40.6595323, "lon": 29.2759018}, {"type": "node", "id": 2588122837, "lat": 40.6591864, "lon": 29.2754279}, {"type": "node", "id": 2589491439, "lat": 40.6601756, "lon": 29.27125}, {"type": "node", "id": 2589491440, "lat": 40.6599031, "lon": 29.2712705}, {"type": "node", "id": 2589491441, "lat": 40.6599187, "lon": 29.2717118}, {"type": "node", "id": 2589491442, "lat": 40.6601834, "lon": 29.2717015}, {"type": "node", "id": 4037205012, "lat": 40.5722611, "lon": 29.2277703}, {"type": "node", "id": 4037205013, "lat": 40.5721724, "lon": 29.2279259}, {"type": "node", "id": 4037205014, "lat": 40.5720641, "lon": 29.2278189}, {"type": "node", "id": 4037205015, "lat": 40.5721527, "lon": 29.2276633}, {"type": "node", "id": 4086599626, "lat": 40.553882, "lon": 29.2784954}, {"type": "node", "id": 4086599627, "lat": 40.5539003, "lon": 29.2785571}, {"type": "node", "id": 4086599628, "lat": 40.5538045, "lon": 29.2786188}, {"type": "node", "id": 4086599629, "lat": 40.5537862, "lon": 29.2785571}, {"type": "node", "id": 4102677942, "lat": 40.5255525, "lon": 29.2625734}, {"type": "node", "id": 4102677943, "lat": 40.5255443, "lon": 29.2627448}, {"type": "node", "id": 4102677944, "lat": 40.5254775, "lon": 29.2627392}, {"type": "node", "id": 4102677945, "lat": 40.5254857, "lon": 29.2625679}, {"type": "node", "id": 4111339604, "lat": 40.5183928, "lon": 29.4506261, "tags": {"amenity": "cafe", "name": "G\u00fclery\u00fcz K\u0131raathanesi"}}, {"type": "node", "id": 4112248753, "lat": 40.521425, "lon": 29.5997303, "tags": {"amenity": "cafe"}}, {"type": "node", "id": 4118429224, "lat": 40.5178631, "lon": 29.4504564, "tags": {"amenity": "restaurant", "name": "A\u00e7\u0131kg\u00f6z D\u00f6ner"}}, {"type": "node", "id": 4348299738, "lat": 40.5541258, "lon": 29.2773645, "tags": {"amenity": "restaurant", "name": "Da\u011f\u0131stan Pidesi"}}, {"type": "node", "id": 4358054893, "lat": 40.5225185, "lon": 29.545863, "tags": {"amenity": "cafe", "name": "Onur B\u00fcfe"}}, {"type": "node", "id": 4460205592, "lat": 40.658468, "lon": 29.27188, "tags": {"amenity": "cafe", "name": "Yalova S\u00fctl\u00fcs\u00fc", "name:tr": "Yalova S\u00fctl\u00fcs\u00fc", "phone": "+90 226 813 7799"}}, {"type": "node", "id": 4597967273, "lat": 40.5710686, "lon": 29.2287086}, {"type": "node", "id": 4597967274, "lat": 40.5710786, "lon": 29.2285996}, {"type": "node", "id": 4597967275, "lat": 40.5710499, "lon": 29.228595}, {"type": "node", "id": 4597967276, "lat": 40.5710399, "lon": 29.228704}, {"type": "node", "id": 4620379443, "lat": 40.5349422, "lon": 29.3398996, "tags": {"amenity": "cafe"}}, {"type": "node", "id": 4623970767, "lat": 40.5349304, "lon": 29.3544055, "tags": {"amenity": "restaurant", "name": "Bahar Lokantas\u0131"}}, {"type": "node", "id": 4719050248, "lat": 40.418841, "lon": 29.1368666, "tags": {"amenity": "restaurant", "name": "Gemlik Atatepe Sosyal Tesisleri"}}, {"type": "node", "id": 4822921557, "lat": 40.4228411, "lon": 29.1651199, "tags": {"amenity": "restaurant", "brand": "K\u00f6fteci Yusuf", "brand:wikidata": "Q126125081", "cuisine": "turkish", "name": "K\u00f6fteci Yusuf"}}, {"type": "node", "id": 4963923341, "lat": 40.5537049, "lon": 29.2777354, "tags": {"amenity": "cafe"}}, {"type": "node", "id": 5030100931, "lat": 40.6597837, "lon": 29.2789027, "tags": {"amenity": "cafe", "name": "Cafe Nero", "name:en": "Caff\u00e8 Nero", "name:tr": "Cafe Nero"}}, {"type": "node", "id": 5030100932, "lat": 40.496291, "lon": 29.3112248, "tags": {"amenity": "cafe"}}, {"type": "node", "id": 5030102224, "lat": 40.4964245, "lon": 29.3113329, "tags": {"amenity": "cafe"}}, {"type": "node", "id": 5030114821, "lat": 40.4961793, "lon": 29.3111064, "tags": {"amenity": "cafe"}}, {"type": "node", "id": 5030131833, "lat": 40.4960536, "lon": 29.3110309, "tags": {"amenity": "cafe"}}, {"type": "node", "id": 5057075311, "lat": 40.6584311, "lon": 29.2713771, "tags": {"addr:city": "Yalova", "amenity": "restaurant", "name": "Merkez \u0130\u015fkembe Salonu"}}, {"type": "node", "id": 5183828890, "lat": 40.4820952, "lon": 29.5621973, "tags": {"amenity": "cafe"}}, {"type": "node", "id": 5287231155, "lat": 40.6059772, "lon": 29.173599, "tags": {"amenity": "restaurant"}}, {"type": "node", "id": 5356029321, "lat": 40.6034018, "lon": 29.2701364, "tags": {"amenity": "restaurant", "name": "Sepetcioglu"}}, {"type": "node", "id": 5356037021, "lat": 40.6574822, "lon": 29.2693831, "tags": {"amenity": "restaurant", "name": "Unsal Balik"}}, {"type": "node", "id": 5356045721, "lat": 40.661178, "lon": 29.2783967, "tags": {"amenity": "restaurant", "name": "ALTIN BALIK MARIN RESTORANT"}}, {"type": "node", "id": 5356045723, "lat": 40.6054646, "lon": 29.2525377, "tags": {"amenity": "restaurant", "name": "Masal k\u00f6y\u00fc K\u0131r sofras\u0131"}}, {"type": "node", "id": 5356066221, "lat": 40.6579888, "lon": 29.2677326, "tags": {"amenity": "restaurant", "name": "Acarlar Kebap"}}, {"type": "node", "id": 6233184881, "lat": 40.6646967, "lon": 29.2976872}, {"type": "node", "id": 6233184882, "lat": 40.6647354, "lon": 29.2978589}, {"type": "node", "id": 6233184883, "lat": 40.6646235, "lon": 29.2978937}, {"type": "node", "id": 6233184884, "lat": 40.6645868, "lon": 29.2977301}, {"type": "node", "id": 6399833085, "lat": 40.6577453, "lon": 29.276664, "tags": {"addr:street": "\u062e\u0644\u0641 \u0633\u0648\u0642 \u0627\u0644\u0641\u0648\u0627\u0643\u0647 \u0648\u0627\u0644\u062e\u0636\u0631\u0627\u0648\u0627\u062a", "amenity": "restaurant", "name": "arap\u00e7a i\u015fletmelere hay\u0131r", "name:ar": "\u0641\u0644\u0627\u0641\u0644 \u062d\u064f\u0645\u064f\u0651\u0635 \u0645\u0633\u0628\u062d\u0629 \u0641\u0648\u0644", "name:en": "\u0641\u0644\u0627\u0641\u0644  \u0645\u0637\u0639\u0645"}}, {"type": "node", "id": 6399833185, "lat": 40.6577343, "lon": 29.2765733, "tags": {"amenity": "restaurant", "name:ar": "\u0645\u0637\u0639\u0645 \u0641\u0644\u0627\u0641\u0644 \u062d\u064f\u0645\u064f\u0651\u0635 \u0639\u0631\u0628\u064a", "name:en": "Palestine"}}, {"type": "node", "id": 6564426271, "lat": 40.5990206, "lon": 29.2316518, "tags": {"amenity": "restaurant"}}, {"type": "node", "id": 6564426272, "lat": 40.599044, "lon": 29.2317196, "tags": {"amenity": "cafe"}}, {"type": "node", "id": 6726103800, "lat": 40.6567168, "lon": 29.2816135, "tags": {"amenity": "restaurant", "name:en": "Savda Pastahanesi"}}, {"type": "node", "id": 6726103801, "lat": 40.6573744, "lon": 29.280389, "tags": {"amenity": "restaurant", "name:en": "Karadeniz Aile Salonu"}}, {"type": "node", "id": 6726103802, "lat": 40.6577414, "lon": 29.279667, "tags": {"amenity": "cafe", "name:en": "Yayla Cafe"}}, {"type": "node", "id": 6726103806, "lat": 40.657463, "lon": 29.2771465, "tags": {"amenity": "restaurant", "name:en": "Oktay Kebap Salonu"}}, {"type": "node", "id": 6726103809, "lat": 40.6571393, "lon": 29.2728461, "tags": {"amenity": "cafe", "name": "Aperatif Cafe", "opening_hours": "Mo-Sa 08:00-19:00", "phone": "+90 226 800 0070"}}, {"type": "node", "id": 6726103816, "lat": 40.6549192, "lon": 29.2734264, "tags": {"amenity": "cafe", "name:en": "Semaver Chay Evi"}}, {"type": "node", "id": 6726103892, "lat": 40.6570225, "lon": 29.277337, "tags": {"amenity": "cafe", "name:en": "Crazy Internet Cafe"}}, {"type": "node", "id": 6726103893, "lat": 40.6570961, "lon": 29.2770687, "tags": {"amenity": "restaurant", "name:en": "Acar Plastik Pazarlama"}}, {"type": "node", "id": 6726103897, "lat": 40.6534634, "lon": 29.2735079, "tags": {"amenity": "restaurant", "name": "Ceren Pastanesi"}}, {"type": "node", "id": 6726106697, "lat": 40.6577369, "lon": 29.2732335, "tags": {"amenity": "restaurant", "name": "Doyum Pide Lahmacun"}}, {"type": "node", "id": 6726106699, "lat": 40.6565654, "lon": 29.2732218, "tags": {"amenity": "restaurant"}}, {"type": "node", "id": 6726106702, "lat": 40.6577378, "lon": 29.2484809, "tags": {"amenity": "cafe", "name:en": "Yalova Garden", "opening_hours": "Mo-Su 09:00-19:00"}}, {"type": "node", "id": 6726106789, "lat": 40.657133, "lon": 29.280193, "tags": {"amenity": "cafe"}}, {"type": "node", "id": 6726106790, "lat": 40.6572506, "lon": 29.2728494, "tags": {"amenity": "restaurant", "name": "Osmanli Doner", "opening_hours": "Mo-Sa 09:00-20:30", "phone": "+90 226 800 0030"}}, {"type": "node", "id": 6726106791, "lat": 40.6603095, "lon": 29.2778306, "tags": {"amenity": "restaurant"}}, {"type": "node", "id": 6775763985, "lat": 40.5670849, "lon": 29.2187243, "tags": {"addr:postcode": "77200", "addr:street": "Kurtk\u00f6y \u0130\u00e7i Yolu", "amenity": "restaurant", "name": "Derei\u00e7i Restaurant Alabal\u0131k Tesisleri", "phone": "+90 532 206 61 50"}}, {"type": "node", "id": 6779347986, "lat": 40.4833746, "lon": 29.5656077, "tags": {"amenity": "cafe", "name": "Boyal\u0131ca \u00e7ay bah\u00e7esi", "name:tr": "Boyal\u0131ca Bulut \u00e7ay bah\u00e7esi"}}, {"type": "node", "id": 6846686896, "lat": 40.4684996, "lon": 29.0984767}, {"type": "node", "id": 6846686897, "lat": 40.4682547, "lon": 29.0986671}, {"type": "node", "id": 6846686898, "lat": 40.4681842, "lon": 29.0985104}, {"type": "node", "id": 6846686899, "lat": 40.4684291, "lon": 29.09832}, {"type": "node", "id": 6846686900, "lat": 40.468881, "lon": 29.098187}, {"type": "node", "id": 6846686901, "lat": 40.468626, "lon": 29.0983801}, {"type": "node", "id": 6846686902, "lat": 40.4685597, "lon": 29.0982288}, {"type": "node", "id": 6846686903, "lat": 40.4688147, "lon": 29.0980357}, {"type": "node", "id": 6846686904, "lat": 40.4691835, "lon": 29.097935}, {"type": "node", "id": 6846686905, "lat": 40.4689488, "lon": 29.0981335}, {"type": "node", "id": 6846686906, "lat": 40.468876, "lon": 29.0979847}, {"type": "node", "id": 6846686907, "lat": 40.4691106, "lon": 29.0977862}, {"type": "node", "id": 6938608188, "lat": 40.6176344, "lon": 29.2730956, "tags": {"amenity": "restaurant"}}, {"type": "node", "id": 6938649052, "lat": 40.6251382, "lon": 29.2715514, "tags": {"amenity": "restaurant", "name": "K\u00f6fteci Yusuf"}}, {"type": "node", "id": 6976489485, "lat": 40.4838049, "lon": 29.5176612, "tags": {"amenity": "restaurant", "cuisine": "turkish", "email": "info@iznikaskania.com", "name": "Askania", "phone": "0090 534 275 16 46", "website": "http://www.iznikaskania.com"}}, {"type": "node", "id": 6988957271, "lat": 40.6357746, "lon": 29.2242534, "tags": {"amenity": "cafe", "name": "K\u00f6y Kahvesi"}}, {"type": "node", "id": 6988957272, "lat": 40.63637, "lon": 29.2252198, "tags": {"addr:city": "Samanl\u0131", "addr:postcode": "77200", "addr:street": "Termal Yolu", "amenity": "restaurant", "name": "Serin Bah\u00e7e Restoran"}}, {"type": "node", "id": 7096414300, "lat": 40.6428598, "lon": 29.2573335, "tags": {"addr:city": "Yalova", "addr:district": "Merkez", "amenity": "cafe", "name": "Cafe Mola"}}, {"type": "node", "id": 7101035665, "lat": 40.6571476, "lon": 29.2598234, "tags": {"addr:city": "Yalova", "addr:district": "Merkez", "addr:housenumber": "89/B", "addr:neighbourhood": "Bah\u00e7elievler Mah.", "addr:street": "Gazi Pa\u015fa Caddesi", "amenity": "cafe", "brand": "Mado", "brand:wikidata": "Q17116336", "brand:wikipedia": "en:Mado (food company)", "cuisine": "coffee_shop", "name": "Mado", "takeaway": "yes"}}, {"type": "node", "id": 7105561056, "lat": 40.6584949, "lon": 29.2704035, "tags": {"addr:city": "Yalova", "addr:district": "Merkez", "amenity": "cafe", "name": "Kristal Cafe"}}, {"type": "node", "id": 7118852785, "lat": 40.6586438, "lon": 29.2768871, "tags": {"addr:city": "Yalova", "addr:district": "Merkez", "amenity": "cafe", "brand": "Mado", "brand:wikidata": "Q17116336", "brand:wikipedia": "en:Mado (food company)", "cuisine": "coffee_shop", "name": "Mado", "takeaway": "yes"}}, {"type": "node", "id": 7118852790, "lat": 40.6587815, "lon": 29.2777944, "tags": {"addr:city": "Yalova", "addr:district": "Merkez", "amenity": "cafe", "name": "G\u00f6n\u00fcl Kahvesi"}}, {"type": "node", "id": 7143308148, "lat": 40.6571589, "lon": 29.2591114, "tags": {"addr:city": "Yalova", "addr:district": "Merkez", "addr:housenumber": "95/A", "addr:neighbourhood": "Bah\u00e7elievler Mah.", "addr:street": "Gazi Pa\u015fa Caddesi", "amenity": "cafe", "name": "Meya Cafe"}}, {"type": "node", "id": 7173066775, "lat": 40.6808919, "lon": 29.3957668, "tags": {"addr:city": "Yalova", "amenity": "restaurant", "name": "K\u00f6fteci Deniz Baba"}}, {"type": "node", "id": 7809835504, "lat": 40.6689093, "lon": 29.3206761}, {"type": "node", "id": 7809835505, "lat": 40.6687609, "lon": 29.320755}, {"type": "node", "id": 7809835506, "lat": 40.6688484, "lon": 29.3210412}, {"type": "node", "id": 7809835507, "lat": 40.6689968, "lon": 29.3209624}, {"type": "node", "id": 7878354885, "lat": 40.657676, "lon": 29.2739147, "tags": {"amenity": "restaurant", "name": "B\u0130RB\u0130\u00c7ER ADANALI MURAT USTA"}}, {"type": "node", "id": 8193266515, "lat": 40.6630119, "lon": 29.3188308}, {"type": "node", "id": 8193266516, "lat": 40.6627611, "lon": 29.3188768}, {"type": "node", "id": 8193278117, "lat": 40.6627894, "lon": 29.3191452}, {"type": "node", "id": 8193278118, "lat": 40.6630403, "lon": 29.3190993}, {"type": "node", "id": 8218546604, "lat": 40.6126107, "lon": 29.1729603, "tags": {"amenity": "restaurant", "name": "KYK Termal Erkek \u00d6\u011frenci Yurdu Kantini"}}, {"type": "node", "id": 8734923704, "lat": 40.6599167, "lon": 29.2787681, "tags": {"amenity": "restaurant", "cuisine": "turkish;kebab;steak_house", "diet:meat": "yes", "name": "K\u00f6fteci Yusuf", "opening_hours": "Mo-Su 09:00-21:00"}}, {"type": "node", "id": 8849171517, "lat": 40.665, "lon": 29.3165077, "tags": {"addr:street": "\u00c7iftlikk\u00f6y sahil mahallesi Be\u015fevler  sokak 1", "amenity": "restaurant", "name": "Eyl\u00fcl sofras\u0131 )yemek ve \u0131zgara (", "name:en": "\u0645\u0637\u0639\u0645 \u0633\u0641\u0631\u0629 \u0627\u064a\u0644\u0648\u0644", "name:tr": "Eyl\u00fcl sofras\u0131 (yemek ve \u0131zgara)", "phone": "05534537025", "website": "https://instagram.com/eylul.sofrasi?utm_medium=copy_link"}}, {"type": "node", "id": 9070537417, "lat": 40.6030864, "lon": 29.1729943, "tags": {"amenity": "cafe", "name": "Sinema"}}, {"type": "node", "id": 9430712511, "lat": 40.2687938, "lon": 29.0853702, "tags": {"air_conditioning": "no", "amenity": "restaurant", "check_date:opening_hours": "2022-08-26", "indoor_seating": "yes", "name": "Ke\u015ffet pide", "opening_hours:signed": "no", "outdoor_seating": "no"}}, {"type": "node", "id": 9430712513, "lat": 40.2682619, "lon": 29.0851934, "tags": {"amenity": "cafe", "cuisine": "pastry", "indoor_seating": "yes", "name": "Derya", "opening_hours:signed": "no", "outdoor_seating": "yes"}}, {"type": "node", "id": 9430717830, "lat": 40.2678962, "lon": 29.0815767, "tags": {"amenity": "restaurant", "self_service": "yes"}}, {"type": "node", "id": 9430717833, "lat": 40.2678916, "lon": 29.0814617, "tags": {"amenity": "restaurant"}}, {"type": "node", "id": 9502033320, "lat": 40.6573804, "lon": 29.265966, "tags": {"amenity": "cafe", "name:en": "David People"}}, {"type": "node", "id": 9502033519, "lat": 40.6534925, "lon": 29.254436, "tags": {"amenity": "cafe", "name:en": "Coffee House"}}, {"type": "node", "id": 9505582217, "lat": 40.6572975, "lon": 29.271284, "tags": {"amenity": "restaurant", "name:en": "Domino's Pizza", "phone": "8129595", "website": "https://www.dominos.com.tr/"}}, {"type": "node", "id": 10270978512, "lat": 40.316402, "lon": 29.457505, "tags": {"air_conditioning": "no", "amenity": "cafe", "indoor_seating": "yes", "name": "tea", "outdoor_seating": "no", "smoking": "yes", "wheelchair": "yes"}}, {"type": "node", "id": 10293192409, "lat": 40.6067089, "lon": 29.173492, "tags": {"addr:street": "Atat\u00fcrk Caddesi", "amenity": "cafe", "cuisine": "turkish", "name": "\u00d6z urfa sofras\u0131"}}, {"type": "node", "id": 10974143370, "lat": 40.6563335, "lon": 29.2691897, "tags": {"addr:city": "Yalova", "addr:district": "Merkez", "addr:housenumber": "33", "addr:neighbourhood": "R\u00fcstem Pa\u015fa mah.", "addr:postcode": "77200", "addr:street": "Fatih Caddesi", "amenity": "cafe", "cuisine": "coffee_shop", "diet:vegan": "yes", "internet_access": "wlan", "internet_access:fee": "customers", "name": "Magnolia", "opening_hours": "Mo-Su 10:00-22:00", "outdoor_seating": "yes", "phone": "+90 58443751", "website": "https://magnolia.yalova.com//"}}, {"type": "node", "id": 10981607554, "lat": 40.6597114, "lon": 29.2710137, "tags": {"addr:city": "Yalova", "addr:district": "Merkez", "addr:neighbourhood": "S\u00fcleyman Bey, Do\u011fu Sahil Band\u0131, Ba\u015fbu\u011f Alparslan T\u00fcrke\u015f Caddesi, 77100 Merkez/Yalova", "addr:postcode": "77100", "amenity": "restaurant", "cuisine": "pizza;coffee_shop;burger;italian;chicken;turkish;regional", "diet:vegetarian": "yes", "name": "My World Lounge", "phone": "05421066978"}}, {"type": "node", "id": 11040038820, "lat": 40.5656313, "lon": 29.2976589, "tags": {"amenity": "restaurant"}}, {"type": "node", "id": 11080105705, "lat": 40.4318243, "lon": 29.153149, "tags": {"amenity": "cafe", "name": "Armodies"}}, {"type": "node", "id": 11083754405, "lat": 40.6791189, "lon": 29.3912278, "tags": {"addr:street": "Mimar Sinan caddesi", "amenity": "restaurant", "name": "Ta\u015fk\u00f6pr\u00fc Belediyesi Sosyal Tesisi", "operator": "Ta\u015fk\u00f6pr\u00fc Belediyesi"}}, {"type": "node", "id": 11107547405, "lat": 40.6792573, "lon": 29.3912523, "tags": {"amenity": "cafe", "name": "Ta\u015fk\u00f6pr\u00fc Belediyesi Sosyal Tesisleri", "name:tr": "Ta\u015fk\u00f6pr\u00fc Belediyesi Sosyal Tesisleri"}}, {"type": "node", "id": 11278529417, "lat": 40.4316391, "lon": 29.170037, "tags": {"amenity": "cafe"}}, {"type": "node", "id": 11290795337, "lat": 40.467326, "lon": 29.1010261}, {"type": "node", "id": 11290795338, "lat": 40.4672064, "lon": 29.1013364}, {"type": "node", "id": 11290795339, "lat": 40.4670534, "lon": 29.1012402}, {"type": "node", "id": 11290795340, "lat": 40.4671847, "lon": 29.1008951}, {"type": "node", "id": 11290795341, "lat": 40.4673327, "lon": 29.100965}, {"type": "node", "id": 11290795342, "lat": 40.4671133, "lon": 29.101297}, {"type": "node", "id": 11290795343, "lat": 40.4670767, "lon": 29.1014128}, {"type": "node", "id": 11290795344, "lat": 40.4669686, "lon": 29.101357}, {"type": "node", "id": 11290795345, "lat": 40.4669371, "lon": 29.1013385}, {"type": "node", "id": 11290795346, "lat": 40.466972, "lon": 29.1012402}, {"type": "node", "id": 11290795347, "lat": 40.4670078, "lon": 29.1012639}, {"type": "node", "id": 11290795348, "lat": 40.4670269, "lon": 29.1012708}, {"type": "node", "id": 11290795349, "lat": 40.4670385, "lon": 29.1012446}, {"type": "node", "id": 11290795366, "lat": 40.4679622, "lon": 29.0988361}, {"type": "node", "id": 11290795367, "lat": 40.4678483, "lon": 29.0990629}, {"type": "node", "id": 11290795368, "lat": 40.4676671, "lon": 29.0990039}, {"type": "node", "id": 11290795369, "lat": 40.4677068, "lon": 29.0987907}, {"type": "node", "id": 11290795370, "lat": 40.467762, "lon": 29.0986614}, {"type": "node", "id": 11290795371, "lat": 40.4678794, "lon": 29.098734}, {"type": "node", "id": 11290795372, "lat": 40.4678759, "lon": 29.0987771}, {"type": "node", "id": 11341240271, "lat": 40.6607385, "lon": 29.2780811, "tags": {"amenity": "restaurant", "cuisine": "international;turkish", "name:en": "Big Chefs"}}, {"type": "node", "id": 11452257072, "lat": 40.5239958, "lon": 29.343287, "tags": {"amenity": "restaurant", "name": "K\u00f6fteci Sebahattin"}}, {"type": "node", "id": 11672591214, "lat": 40.6535774, "lon": 29.21827}, {"type": "node", "id": 11672591215, "lat": 40.6536929, "lon": 29.2185602}, {"type": "node", "id": 11672591216, "lat": 40.6533868, "lon": 29.2187655}, {"type": "node", "id": 11672591217, "lat": 40.6532713, "lon": 29.2184788}, {"type": "node", "id": 11980544923, "lat": 40.6479681, "lon": 29.1514678, "tags": {"addr:city": "Koru", "addr:postcode": "77340", "amenity": "restaurant", "contact:instagram": "https://www.instagram.com/gardenia.caffe/?hl=tr", "facebook": "https://www.facebook.com/Gardenia.caffe/", "name": "Gardenia Caffee & Restaurant", "opening_hours": "Mo-Su 08:00-23:30", "phone": "+905304789317", "website": "https://gardenia.dijital.menu/"}}, {"type": "node", "id": 12507240732, "lat": 40.5256112, "lon": 29.3406044, "tags": {"amenity": "restaurant", "cuisine": "turkish", "name": "Bursa Kebap Evi"}}, {"type": "node", "id": 12567387851, "lat": 40.3905023, "lon": 29.1400961, "tags": {"amenity": "cafe", "name": "Kahve D\u00fcnyas\u0131"}}, {"type": "node", "id": 12573253581, "lat": 40.4234549, "lon": 29.1545609}, {"type": "node", "id": 12573253582, "lat": 40.4234933, "lon": 29.1544618}, {"type": "node", "id": 12573253585, "lat": 40.4234107, "lon": 29.1543889}, {"type": "node", "id": 12573253586, "lat": 40.42336, "lon": 29.1544914}, {"type": "node", "id": 12641575578, "lat": 40.6056943, "lon": 29.1745352, "tags": {"amenity": "cafe", "name": "\u00d6z \u00d6rnek Muhallebicisi"}}, {"type": "node", "id": 12641575580, "lat": 40.6054663, "lon": 29.1748909, "tags": {"amenity": "cafe", "name": "Cafe Moringa"}}, {"type": "node", "id": 12760659916, "lat": 40.500868, "lon": 29.31459}, {"type": "node", "id": 12760659917, "lat": 40.5007971, "lon": 29.3147036}, {"type": "node", "id": 12760659918, "lat": 40.5007012, "lon": 29.3146093}, {"type": "node", "id": 12760659919, "lat": 40.5007719, "lon": 29.3144858}, {"type": "node", "id": 12760659920, "lat": 40.5008657, "lon": 29.3145688}, {"type": "node", "id": 12760660258, "lat": 40.5013504, "lon": 29.3133289}, {"type": "node", "id": 12760660259, "lat": 40.5012304, "lon": 29.3132581}, {"type": "node", "id": 12760660260, "lat": 40.5012574, "lon": 29.3131878}, {"type": "node", "id": 12760660261, "lat": 40.5013756, "lon": 29.3132533}, {"type": "node", "id": 12760660342, "lat": 40.5015013, "lon": 29.312976}, {"type": "node", "id": 12760660343, "lat": 40.501454, "lon": 29.313032}, {"type": "node", "id": 12760660344, "lat": 40.5014083, "lon": 29.313197}, {"type": "node", "id": 12760660345, "lat": 40.5012831, "lon": 29.3131264}, {"type": "node", "id": 12760660346, "lat": 40.5014361, "lon": 29.3129089}, {"type": "node", "id": 12760660347, "lat": 40.50145, "lon": 29.3129015}, {"type": "node", "id": 12760660348, "lat": 40.5014773, "lon": 29.3129331}, {"type": "node", "id": 12785349792, "lat": 40.643356, "lon": 29.2376787, "tags": {"amenity": "cafe", "name": "Mimo Coffee", "opening_hours": "Mo off; Tu-Sa 09:00-23:00; Su 10:30-23:00", "phone": "+905462269877"}}, {"type": "node", "id": 12806902338, "lat": 40.6369713, "lon": 29.2707143, "tags": {"addr:city": "Yalova", "addr:district": "Merkez", "addr:housenumber": "162/A", "addr:neighbourhood": "ba\u011flarba\u015f\u0131", "addr:postcode": "77200", "addr:street": "Radar caddesi", "amenity": "cafe", "cuisine": "coffee_shop;sandwich", "internet_access": "yes", "internet_access:fee": "no", "name": "Deep Corner Coffee", "opening_hours": "Mo-Su 09:00-24:00", "outdoor_seating": "yes", "phone": "05312876177", "website": "https://www.facebook.com/profile.php?id=61567338242234"}}, {"type": "node", "id": 12839871274, "lat": 40.4803369, "lon": 29.3083459, "tags": {"addr:city": "Bursa", "addr:district": "Orhangazi", "addr:housenumber": "14", "addr:neighbourhood": "Fatih", "addr:street": "Fatih 1 Nolu Sokak", "amenity": "cafe", "name": "Nova Davet D\u00fc\u011f\u00fcn Salonu"}}, {"type": "node", "id": 12883287420, "lat": 40.6465286, "lon": 29.1184638, "tags": {"addr:floor": "0", "amenity": "restaurant", "check_date": "2025-06-03", "level": "0", "name": "\u0130skele Bal\u0131k"}}, {"type": "node", "id": 12883287421, "lat": 40.6464468, "lon": 29.1179761, "tags": {"addr:floor": "0", "amenity": "cafe", "check_date": "2025-06-03", "level": "0", "name": "\u00c7\u0131naralt\u0131", "payment:cash": "yes", "payment:credit_cards": "yes", "payment:debit_cards": "yes", "wheelchair": "yes"}}, {"type": "node", "id": 12883400024, "lat": 40.6473471, "lon": 29.1236222, "tags": {"addr:floor": "0", "amenity": "cafe", "check_date": "2025-06-03", "level": "0", "name": "Onur Kafe", "payment:cash": "yes", "payment:credit_cards": "yes", "payment:debit_cards": "yes", "wheelchair": "no"}}, {"type": "node", "id": 12883409637, "lat": 40.6473625, "lon": 29.1231597, "tags": {"addr:floor": "0", "amenity": "cafe", "check_date": "2025-06-03", "level": "0", "name": "Bilim Cafe", "payment:cash": "yes", "payment:credit_cards": "yes", "payment:debit_cards": "yes", "wheelchair": "no"}}, {"type": "node", "id": 12894382372, "lat": 40.5190434, "lon": 29.1234449, "tags": {"amenity": "cafe"}}, {"type": "way", "id": 124975775, "nodes": [1389290297, 1389290303, 1389290301, 1389290294, 1389290297], "tags": {"amenity": "restaurant", "cuisine": "turkish"}}, {"type": "way", "id": 124975784, "nodes": [1389290222, 1389290234, 1389290259, 1389290274, 1389290262, 1389290245, 1389290222], "tags": {"amenity": "restaurant", "cuisine": "turkish"}}, {"type": "way", "id": 252782715, "nodes": [2588122793, 2588122795, 2588122818, 2588122823, 2588122824, 2588122825, 2588122837, 2588122826, 2588122827, 2588122828, 2588122829, 2588122830, 2588122831, 2588122832, 2588122833, 2588122834, 2588122835, 2588122836, 2588122756, 2588122758, 2588122760, 2588122762, 2588122764, 2588122766, 2588122768, 2588122770, 2588122772, 2588122774, 2588122776, 2588122778, 2588122780, 2588122782, 2588122784, 2588122785, 2588122787, 2588122789, 2588122791, 2588122793], "tags": {"amenity": "restaurant", "building": "yes"}}, {"type": "way", "id": 252942605, "nodes": [2589491439, 2589491440, 2589491441, 2589491442, 2589491439], "tags": {"amenity": "restaurant", "building": "yes"}}, {"type": "way", "id": 401287562, "nodes": [4037205012, 4037205013, 4037205014, 4037205015, 4037205012], "tags": {"amenity": "restaurant", "building": "yes", "name": "Kutluay Canl\u0131 Alabal\u0131k Teisleri"}}, {"type": "way", "id": 406607494, "nodes": [4086599626, 4086599627, 4086599628, 4086599629, 4086599626], "tags": {"amenity": "restaurant", "building": "yes", "name": "Z\u00fcbeydenin Yeri"}}, {"type": "way", "id": 408315330, "nodes": [4102677942, 4102677943, 4102677944, 4102677945, 4102677942], "tags": {"amenity": "cafe", "building": "yes"}}, {"type": "way", "id": 464713005, "nodes": [4597967273, 4597967274, 4597967275, 4597967276, 4597967273], "tags": {"addr:city": "Yalova", "addr:housenumber": "260", "addr:neighbourhood": "Kurtk\u00f6y Mahallesi", "addr:postcode": "77202", "addr:street": "1. Cadde", "amenity": "restaurant", "building": "yes", "email": "ahmetyigit30@hotmail.com", "name": "Ormanika - Ahmet Yi\u011fit", "opening_hours": "24/7", "phone": "+905065092076"}}, {"type": "way", "id": 665876363, "nodes": [6233184881, 6233184882, 6233184883, 6233184884, 6233184881], "tags": {"amenity": "cafe", "building": "yes"}}, {"type": "way", "id": 731001287, "nodes": [6846686899, 6846686896, 6846686897, 6846686898, 6846686899], "tags": {"amenity": "cafe", "building": "yes", "name": "Gurup Aile \u00c7ay Bah\u00e7esi"}}, {"type": "way", "id": 731001288, "nodes": [6846686903, 6846686900, 6846686901, 6846686902, 6846686903], "tags": {"amenity": "cafe", "building": "apartments", "name": "Hakan Aile \u00c7ay Bah\u00e7esi"}}, {"type": "way", "id": 731001289, "nodes": [6846686907, 6846686904, 6846686905, 6846686906, 6846686907], "tags": {"amenity": "cafe", "building": "yes", "name": "Damla Aile \u00c7ay Bah\u00e7esi"}}, {"type": "way", "id": 836780557, "nodes": [7809835504, 7809835505, 7809835506, 7809835507, 7809835504], "tags": {"addr:city": "Yalova", "addr:district": "\u00e7iftlikk\u00f6y", "addr:housenumber": "10", "addr:neighbourhood": "sahil mahallesi", "addr:postcode": "77600", "addr:street": "Atat\u00fcrk Caddesi \u0131\u015f\u0131l sokak", "amenity": "cafe", "building": "yes", "cuisine": "tatl\u0131;coffee_shop;kafe", "internet_access": "yes", "name": "Locals Coffe", "opening_hours": "Mo-Su 10:00-24:00", "website": "https://www.instagram.com/locals_coffee.tr/"}}, {"type": "way", "id": 880906330, "nodes": [8193266515, 8193266516, 8193278117, 8193278118, 8193266515], "tags": {"amenity": "restaurant", "building": "yes"}}, {"type": "way", "id": 1218508034, "nodes": [11290795337, 11290795338, 11290795339, 11290795340, 11290795341, 11290795337], "tags": {"amenity": "cafe", "building": "yes", "name": "\u00c7\u0131naralt\u0131 Kafe"}}, {"type": "way", "id": 1218508035, "nodes": [11290795342, 11290795343, 11290795344, 11290795345, 11290795346, 11290795347, 11290795348, 11290795349, 11290795342], "tags": {"amenity": "cafe", "building": "yes"}}, {"type": "way", "id": 1218508038, "nodes": [11290795366, 11290795367, 11290795368, 11290795369, 11290795370, 11290795371, 11290795372, 11290795366], "tags": {"amenity": "cafe", "building": "yes", "name": "Yal\u0131 \u00c7ay Bah\u00e7esi"}}, {"type": "way", "id": 1255628302, "nodes": [11672591214, 11672591215, 11672591216, 11672591217, 11672591214], "tags": {"addr:city": "Yalova", "addr:district": "Merkez", "addr:neighbourhood": "Yalova \u00dcniversitesi Merkez Yerle\u015fkesi", "addr:postcode": "77200", "addr:street": "\u00c7\u0131narc\u0131k Yolu", "amenity": "cafe", "building": "yes", "name": "Merkez Kantin"}}, {"type": "way", "id": 1358498736, "nodes": [12573253582, 12573253585, 12573253586, 12573253581, 12573253582], "tags": {"amenity": "cafe", "building": "yes", "name": "Point Of Port Gemlik"}}, {"type": "way", "id": 1378168753, "nodes": [12760659920, 12760659919, 12760659918, 12760659917, 12760659916, 12760659920], "tags": {"amenity": "cafe", "building": "yes"}}, {"type": "way", "id": 1378168821, "nodes": [12760660261, 12760660260, 12760660259, 12760660258, 12760660261], "tags": {"amenity": "cafe", "building": "yes"}}, {"type": "way", "id": 1378168839, "nodes": [12760660348, 12760660347, 12760660346, 12760660345, 12760660344, 12760660343, 12760660342, 12760660348], "tags": {"amenity": "cafe", "building": "yes"}}]}