{"version": 0.6, "generator": "Overpass API 0.7.62.7 375dc00a", "osm3s": {"timestamp_osm_base": "2025-06-14T14:55:36Z", "copyright": "The data included in this document is from www.openstreetmap.org. The data is made available under ODbL."}, "elements": [{"type": "node", "id": 741690204, "lat": 37.3399851, "lon": 28.1387511, "tags": {"amenity": "restaurant", "name": "ikizler k\u00f6ftecisi"}}, {"type": "node", "id": 741690207, "lat": 37.3403497, "lon": 28.1415782, "tags": {"amenity": "restaurant", "name": "Burcu Pide Salonu"}}, {"type": "node", "id": 861231619, "lat": 37.2953828, "lon": 28.127119, "tags": {"amenity": "restaurant", "name": "P\u0131narba\u015f\u0131 Restaurant"}}, {"type": "node", "id": 861316808, "lat": 37.241501, "lon": 28.1382179, "tags": {"amenity": "cafe", "name": "Belen Kahvesi"}}, {"type": "node", "id": 2125059354, "lat": 37.313304, "lon": 27.7839734, "tags": {"addr:city": "Milas", "addr:district": "Mu\u011fla", "addr:neighbourhood": "Ahmet \u00c7avu\u015f Hay\u0131tl\u0131 Mah.", "addr:postcode": "48200", "addr:street": "\u0130n\u00f6n\u00fc Cad.", "amenity": "cafe", "name": "Aplange\u00e7 \u00c7ayevi"}}, {"type": "node", "id": 4204460610, "lat": 37.6193021, "lon": 28.0488518, "tags": {"amenity": "restaurant", "name": "G\u00f6n\u00fcl Restaurant"}}, {"type": "node", "id": 4735559859, "lat": 37.4275566, "lon": 27.7660496, "tags": {"amenity": "cafe", "name": "Ketendere Kahvesi"}}, {"type": "node", "id": 4899552639, "lat": 37.2284549, "lon": 27.6805606, "tags": {"amenity": "restaurant", "name": "\u00c7aml\u0131k Pide"}}, {"type": "node", "id": 4899699545, "lat": 37.2278451, "lon": 27.6917491}, {"type": "node", "id": 4899699546, "lat": 37.2277806, "lon": 27.6917377}, {"type": "node", "id": 4899699549, "lat": 37.227852, "lon": 27.6917503}, {"type": "node", "id": 4899699550, "lat": 37.2278086, "lon": 27.6914871}, {"type": "node", "id": 4899699551, "lat": 37.2278801, "lon": 27.6914997}, {"type": "node", "id": 5444816625, "lat": 37.6046412, "lon": 28.0592045, "tags": {"amenity": "restaurant", "name": "K\u00f6fteci Tahsin"}}, {"type": "node", "id": 5688794364, "lat": 37.2848011, "lon": 27.7802564, "tags": {"addr:city": "Milas", "addr:district": "Mu\u011fla", "addr:neighbourhood": "Be\u00e7in Mah.", "addr:postcode": "48200", "addr:street": "\u00dcniversite Cad.", "amenity": "cafe", "name": "Societe Cafe"}}, {"type": "node", "id": 5688794365, "lat": 37.2849237, "lon": 27.7802795, "tags": {"addr:city": "Milas", "addr:district": "Mu\u011fla", "addr:housenumber": "29", "addr:neighbourhood": "Be\u00e7in Mah.", "addr:postcode": "48200", "addr:street": "\u00dcniversite Cad.", "amenity": "cafe", "level": "0", "name": "Cafe Ya\u011fmur"}}, {"type": "node", "id": 5688795138, "lat": 37.2929849, "lon": 27.7809392, "tags": {"addr:city": "Milas", "addr:district": "Mu\u011fla", "addr:neighbourhood": "Emek Mah.", "addr:postcode": "48200", "addr:street": "Hamdi Mergen Cad.", "amenity": "cafe", "name": "Kamp\u00fcs Cafe"}}, {"type": "node", "id": 5708847379, "lat": 37.3164889, "lon": 27.7889315, "tags": {"addr:city": "Milas", "addr:district": "Mu\u011fla", "addr:neighbourhood": "Hac\u0131abti Mah.", "addr:postcode": "48200", "addr:street": "Esen Sk.", "amenity": "restaurant", "name": "Esentepe Aile \u00c7ay Bah\u00e7esi"}}, {"type": "node", "id": 5716023871, "lat": 37.3189333, "lon": 27.7896271, "tags": {"addr:city": "Milas", "addr:district": "Mu\u011fla", "addr:neighbourhood": "Hac\u0131abti Mah.", "addr:postcode": "48200", "addr:street": "30 A\u011fustos Cad.", "amenity": "restaurant", "cuisine": "turkish", "name": "Kofteci", "outdoor_seating": "yes", "takeaway": "only"}}, {"type": "node", "id": 5749112248, "lat": 37.2879423, "lon": 27.8057881}, {"type": "node", "id": 5749112249, "lat": 37.2877706, "lon": 27.8057903}, {"type": "node", "id": 5749112250, "lat": 37.2877738, "lon": 27.8062017}, {"type": "node", "id": 5749112251, "lat": 37.2879455, "lon": 27.8061995}, {"type": "node", "id": 5831935938, "lat": 37.2907272, "lon": 27.7798936, "tags": {"amenity": "cafe", "name": "Oreas Cafe"}}, {"type": "node", "id": 5890176476, "lat": 37.3410802, "lon": 28.1344255}, {"type": "node", "id": 5890176477, "lat": 37.3412926, "lon": 28.1348041}, {"type": "node", "id": 5890176478, "lat": 37.3412335, "lon": 28.134673}, {"type": "node", "id": 5890176479, "lat": 37.341202, "lon": 28.1346955}, {"type": "node", "id": 5890176480, "lat": 37.3409541, "lon": 28.1345154}, {"type": "node", "id": 5890176481, "lat": 37.3411351, "lon": 28.1349165}, {"type": "node", "id": 6031716687, "lat": 37.2847448, "lon": 27.6855066, "tags": {"amenity": "cafe", "name": "\u00e7ay", "name:en": "tea"}}, {"type": "node", "id": 7165577285, "lat": 37.6128861, "lon": 28.060845, "tags": {"amenity": "restaurant", "name:zh": "\u65e9\u9910\u7a00\u98ef"}}, {"type": "node", "id": 8060796885, "lat": 37.4776601, "lon": 28.1316517, "tags": {"addr:street": "50.km", "amenity": "cafe", "cuisine": "turkish", "internet_access": "wlan", "name": "Yayla Piknik", "phone": "05050037976"}}, {"type": "node", "id": 8987451904, "lat": 37.289318, "lon": 27.7811143, "tags": {"addr:city": "Milas", "addr:district": "Mu\u011fla", "addr:neighbourhood": "Emek Mah.", "addr:postcode": "48200", "addr:street": "Halil Bey Blv.", "amenity": "restaurant", "name": "Ege Restoran"}}, {"type": "node", "id": 9003325973, "lat": 37.2778733, "lon": 27.7892112, "tags": {"addr:city": "Milas", "addr:district": "Mu\u011fla", "addr:neighbourhood": "Be\u00e7in Mah.", "addr:postcode": "48200", "amenity": "cafe", "name": "Flora Cadde Cafe"}}, {"type": "node", "id": 9396448713, "lat": 37.2604236, "lon": 27.7197071, "tags": {"amenity": "restaurant", "name": "\u0130nciralt\u0131 \u00e7iftli\u011fi"}}, {"type": "node", "id": 9398494828, "lat": 37.3979279, "lon": 27.6553929, "tags": {"amenity": "restaurant", "name": "Onur cheff"}}, {"type": "node", "id": 9868814833, "lat": 37.2854689, "lon": 27.8152841, "tags": {"amenity": "cafe"}}, {"type": "node", "id": 9937841676, "lat": 37.2147876, "lon": 27.8248093, "tags": {"amenity": "cafe"}}, {"type": "node", "id": 10276875710, "lat": 37.3049419, "lon": 27.9192266, "tags": {"amenity": "cafe"}}, {"type": "node", "id": 10564296511, "lat": 37.3827772, "lon": 27.936016, "tags": {"amenity": "cafe"}}, {"type": "node", "id": 10751422059, "lat": 37.3884895, "lon": 27.6622493, "tags": {"amenity": "restaurant", "description": "https://www.facebook.com/agoragurme\nemail: agoragurme@gmail.com\nhours: Monday - Sunday 08.00 to 23.00\ncategory: Restaurants\naddress: 37.387592, 27.662752", "name": "Agora Gurme Restoran ve Y\u00f6resel \u00dcr\u00fcnler", "phone": "0532 416 39 96", "website": "https://www.agoragurme.com/"}}, {"type": "node", "id": 11225569382, "lat": 37.243978, "lon": 27.6733827, "tags": {"amenity": "cafe", "name": "Flavour Market"}}, {"type": "node", "id": 11609509900, "lat": 37.6095895, "lon": 28.0597845, "tags": {"addr:city": "Ayd\u0131n", "addr:district": "\u00c7ine", "addr:housenumber": "121 B", "addr:neighbourhood": "Adnan Menderes Blv.", "amenity": "cafe", "cuisine": "b\u00f6rek;a\u00e7ma;simit;po\u011fa\u00e7a;unlu_mam\u00fc_\u00e7e\u015fitleri", "internet_access": "wlan", "internet_access:fee": "no", "name": "EL\u0130T FIRIN KAFE", "opening_hours": "7/24", "outdoor_seating": "yes"}}, {"type": "node", "id": 11840570642, "lat": 37.3006933, "lon": 27.7799205, "tags": {"amenity": "restaurant", "name": "Hooters Pizza"}}, {"type": "node", "id": 11889797958, "lat": 37.5567081, "lon": 27.8327836, "tags": {"amenity": "cafe"}}, {"type": "node", "id": 12155251264, "lat": 37.5392485, "lon": 27.7856445, "tags": {"amenity": "cafe", "name": "Kahvehane", "outdoor_seating": "yes"}}, {"type": "node", "id": 12155883031, "lat": 37.534205, "lon": 27.7016279, "tags": {"amenity": "cafe", "name": "Kahvehane"}}, {"type": "node", "id": 12880590853, "lat": 37.2988971, "lon": 28.1790961, "tags": {"amenity": "cafe", "name": "Mola Kafe"}}, {"type": "way", "id": 498578319, "nodes": [4899699549, 4899699545, 4899699546, 4899699550, 4899699551, 4899699549], "tags": {"amenity": "restaurant", "building": "yes", "name": "G\u00fcler Ocakba\u015f\u0131"}}, {"type": "way", "id": 606342313, "nodes": [5749112248, 5749112249, 5749112250, 5749112251, 5749112248], "tags": {"addr:city": "Milas", "addr:district": "Mu\u011fla", "addr:neighbourhood": "Mente\u015f Mah.", "addr:postcode": "48200", "addr:street": "Milas - Mu\u011fla Yolu", "amenity": "restaurant", "building": "yes", "cuisine": "turkish", "name": "Mylasa 48"}}, {"type": "way", "id": 623762415, "nodes": [5890176476, 5890176480, 5890176481, 5890176477, 5890176478, 5890176479, 5890176476], "tags": {"addr:city": "Yata\u011fan", "addr:district": "Mu\u011fla", "addr:neighbourhood": "Akyol Mah.", "addr:postcode": "48500", "addr:street": "Mehmet \u00d6zcan Caddesi", "amenity": "cafe", "building": "yes", "name": "Asfad Sanat Kafe", "short_name": "ASK"}}]}