{"version": 0.6, "generator": "Overpass API 0.7.62.7 375dc00a", "osm3s": {"timestamp_osm_base": "2025-06-14T13:52:30Z", "copyright": "The data included in this document is from www.openstreetmap.org. The data is made available under ODbL."}, "elements": [{"type": "node", "id": 306254867, "lat": 37.1054394, "lon": 13.934918, "tags": {"amenity": "restaurant", "name": "La Madia"}}, {"type": "node", "id": 1938244745, "lat": 37.0727444, "lon": 14.2255338}, {"type": "node", "id": 1938244752, "lat": 37.0728428, "lon": 14.2257117}, {"type": "node", "id": 1938244754, "lat": 37.0728406, "lon": 14.2254502}, {"type": "node", "id": 1938244756, "lat": 37.0729401, "lon": 14.2256391}, {"type": "node", "id": 1946228628, "lat": 37.0725389, "lon": 14.2590242}, {"type": "node", "id": 1946228635, "lat": 37.0726257, "lon": 14.259087}, {"type": "node", "id": 1946228654, "lat": 37.0725551, "lon": 14.2590359}, {"type": "node", "id": 2119976924, "lat": 37.0754412, "lon": 14.2208949, "tags": {"amenity": "restaurant", "name": "Pizzeria La Casareccia"}}, {"type": "node", "id": 2120489390, "lat": 37.0647978, "lon": 14.2523631, "tags": {"amenity": "restaurant", "name": "La Piazzetta"}}, {"type": "node", "id": 2120490360, "lat": 37.0674221, "lon": 14.2493028, "tags": {"addr:housenumber": "51", "addr:street": "Via Damaggio Fischetti", "amenity": "restaurant", "contact:phone": "+39 0933 912674", "name": "Trattoria San Giovanni"}}, {"type": "node", "id": 2121476869, "lat": 37.0738943, "lon": 14.2311079, "tags": {"amenity": "cafe", "contact:city": "Gela", "contact:housenumber": "118", "contact:postcode": "93012", "contact:street": "Via Palazzi", "name": "Palazzi Caf\u00e8"}}, {"type": "node", "id": 2121494355, "lat": 37.0746342, "lon": 14.2334351}, {"type": "node", "id": 2121494363, "lat": 37.0744323, "lon": 14.2334653}, {"type": "node", "id": 2121494367, "lat": 37.0744616, "lon": 14.2333222}, {"type": "node", "id": 2121494408, "lat": 37.0744877, "lon": 14.2334984}, {"type": "node", "id": 2121494411, "lat": 37.0745379, "lon": 14.2335374}, {"type": "node", "id": 2121494422, "lat": 37.0744568, "lon": 14.23348}, {"type": "node", "id": 2188374045, "lat": 37.0686128, "lon": 14.2597085}, {"type": "node", "id": 2188374067, "lat": 37.0685202, "lon": 14.2595613}, {"type": "node", "id": 2188374106, "lat": 37.068618, "lon": 14.2596911}, {"type": "node", "id": 2188374120, "lat": 37.0686348, "lon": 14.2596348}, {"type": "node", "id": 2188374128, "lat": 37.06864, "lon": 14.2596173}, {"type": "node", "id": 2188374135, "lat": 37.0684931, "lon": 14.2596525}, {"type": "node", "id": 2199490224, "lat": 37.0637371, "lon": 14.2496571}, {"type": "node", "id": 2225805239, "lat": 37.0735182, "lon": 14.2324357, "tags": {"addr:housenumber": "92", "addr:postcode": "93012", "addr:street": "Via Palazzi", "amenity": "restaurant", "contact:city": "Gela", "contact:email": "egmc4@tiscali.it", "contact:housenumber": "92", "contact:phone": "+39 0933 938937", "contact:postcode": "93012", "contact:street": "Via Palazzi", "cuisine": "pizza", "name": "Playtime", "operator": "Emanuele Martini", "ref:vatin": "IT01386880858"}}, {"type": "node", "id": 2260117857, "lat": 37.0736256, "lon": 14.2482055, "tags": {"addr:housenumber": "262", "addr:postcode": "93012", "addr:street": "Via Venezia", "amenity": "restaurant", "contact:email": "posta@lozingaro.it", "contact:phone": "+39 0933 917950", "name": "Lo Zingaro", "operator": "Fidone Giuseppe & Co snc", "website": "http://www.lozingaro.it"}}, {"type": "node", "id": 2266449336, "lat": 37.0708641, "lon": 14.2371716, "tags": {"addr:housenumber": "377", "addr:street": "Corso Salvatore Aldisio", "amenity": "restaurant", "cuisine": "pizza", "name": "Pizzeria Rustica"}}, {"type": "node", "id": 2310737079, "lat": 37.071064, "lon": 14.2324157, "tags": {"amenity": "restaurant", "cuisine": "pizza"}}, {"type": "node", "id": 2376765587, "lat": 37.0994302, "lon": 13.941611, "tags": {"addr:housenumber": "5", "addr:street": "Via Brigadiere Salvo D'Acquisto", "amenity": "restaurant", "contact:phone": "+39 0922 773002 ", "cuisine": "italian", "name": "Logico", "smoking": "yes"}}, {"type": "node", "id": 2593956430, "lat": 37.0684434, "lon": 14.2584035, "tags": {"addr:housenumber": "81", "addr:street": "Via Venezia", "amenity": "restaurant", "contact:mobile": "+39 347 2656924", "contact:phone": "+39 0933 925976", "cuisine": "seafood", "name": "Sarago", "operator": "Sarago S.r.l.", "ref:vatin": "IT01507190856", "wheelchair": "yes"}}, {"type": "node", "id": 2603431719, "lat": 37.0736541, "lon": 14.2275061, "tags": {"addr:housenumber": "32", "addr:postcode": "93012", "addr:street": "Via Francia", "amenity": "restaurant", "contact:city": "Gela", "contact:housenumber": "32", "contact:phone": "+39 0933 930186", "contact:postcode": "93012", "contact:street": "Via Francia", "name": "Eschilo II", "operator": "Palmeri Angelo & C. Snc"}}, {"type": "node", "id": 2604299376, "lat": 37.0749921, "lon": 14.2280112, "tags": {"addr:city": "Gela", "addr:housenumber": "212", "addr:postcode": "93012", "addr:street": "Via Palazzi", "amenity": "restaurant", "contact:city": "Gela", "contact:housenumber": "212", "contact:phone": "+39 0933 935431", "contact:postcode": "93012", "contact:street": "Via Palazzi", "cuisine": "pizza", "name": "La Brace", "ref:vatin": "IT01267280855"}}, {"type": "node", "id": 2606108034, "lat": 37.0743482, "lon": 14.2456844, "tags": {"addr:housenumber": "313 C", "addr:postcode": "93012", "addr:street": "Via Venezia", "amenity": "cafe", "name": "Gior\u00e0 Caf\u00e9", "ref:vatin": "IT01584790859"}}, {"type": "node", "id": 2606108045, "lat": 37.0744879, "lon": 14.2454518, "tags": {"addr:housenumber": "219", "addr:street": "Via Venezia", "amenity": "restaurant", "cuisine": "pizza", "name": "Speedy Pizza"}}, {"type": "node", "id": 3000069600, "lat": 37.0677584, "lon": 14.2271981, "tags": {"amenity": "restaurant", "name": "La Luna del Porto"}}, {"type": "node", "id": 3053072959, "lat": 37.0979048, "lon": 14.1692235}, {"type": "node", "id": 3053072982, "lat": 37.0974728, "lon": 14.1692624}, {"type": "node", "id": 3053073002, "lat": 37.0974861, "lon": 14.1682505}, {"type": "node", "id": 3156157723, "lat": 37.0774815, "lon": 14.2180464}, {"type": "node", "id": 3156157729, "lat": 37.0775682, "lon": 14.2181571}, {"type": "node", "id": 3156157730, "lat": 37.0775845, "lon": 14.2179538}, {"type": "node", "id": 3156157734, "lat": 37.0776385, "lon": 14.2182468}, {"type": "node", "id": 3156157736, "lat": 37.0776783, "lon": 14.2182976}, {"type": "node", "id": 3156157744, "lat": 37.0777926, "lon": 14.2182193}, {"type": "node", "id": 3270868570, "lat": 37.0635483, "lon": 14.2504377}, {"type": "node", "id": 3270868582, "lat": 37.0633462, "lon": 14.2504606}, {"type": "node", "id": 3270868591, "lat": 37.0634133, "lon": 14.2503675}, {"type": "node", "id": 3270868592, "lat": 37.0633878, "lon": 14.2503521}, {"type": "node", "id": 3270868593, "lat": 37.0635031, "lon": 14.2505553}, {"type": "node", "id": 3270868599, "lat": 37.0633716, "lon": 14.250476}, {"type": "node", "id": 3297269490, "lat": 37.1083327, "lon": 14.0925908}, {"type": "node", "id": 3297269522, "lat": 37.1083504, "lon": 14.0923444}, {"type": "node", "id": 3297269793, "lat": 37.1083241, "lon": 14.0924551}, {"type": "node", "id": 3297269817, "lat": 37.1083616, "lon": 14.0924691}, {"type": "node", "id": 3297269918, "lat": 37.1082063, "lon": 14.0925436}, {"type": "node", "id": 3297269945, "lat": 37.1082615, "lon": 14.0923111}, {"type": "node", "id": 3297270086, "lat": 37.1089294, "lon": 14.0938482, "tags": {"amenity": "restaurant", "name": "Ristorante Scirocco"}}, {"type": "node", "id": 3521046810, "lat": 37.0660378, "lon": 14.2556885, "tags": {"amenity": "cafe"}}, {"type": "node", "id": 3521085296, "lat": 37.0665523, "lon": 14.2578577}, {"type": "node", "id": 3521113497, "lat": 37.0665179, "lon": 14.2579486}, {"type": "node", "id": 3521113498, "lat": 37.0666113, "lon": 14.258004}, {"type": "node", "id": 3805586901, "lat": 37.0974577, "lon": 14.1690808}, {"type": "node", "id": 3805586903, "lat": 37.0974624, "lon": 14.1688925}, {"type": "node", "id": 3805586915, "lat": 37.0979069, "lon": 14.1690753}, {"type": "node", "id": 3805586916, "lat": 37.0979107, "lon": 14.1687556}, {"type": "node", "id": 3805586917, "lat": 37.0979125, "lon": 14.1686055}, {"type": "node", "id": 3808651793, "lat": 37.0974751, "lon": 14.1690815}, {"type": "node", "id": 3914277722, "lat": 37.074175, "lon": 14.2295233, "tags": {"addr:housenumber": "187", "addr:street": "Via Palazzi", "amenity": "cafe", "contact:city": "Gela", "contact:facebook": "https://www.facebook.com/coffeeshopgela/", "contact:housenumber": "187", "contact:phone": "+39 347 4981634", "contact:postcode": "93012", "contact:street": "Via Palazzi", "cuisine": "coffee_shop", "name": "coffee shop"}}, {"type": "node", "id": 3919943011, "lat": 37.0778733, "lon": 14.2183189}, {"type": "node", "id": 3919943012, "lat": 37.077699, "lon": 14.2182721}, {"type": "node", "id": 3919943016, "lat": 37.0774545, "lon": 14.2180072}, {"type": "node", "id": 3919943020, "lat": 37.0777798, "lon": 14.2183935}, {"type": "node", "id": 3919943039, "lat": 37.0775695, "lon": 14.2179219}, {"type": "node", "id": 3920005943, "lat": 37.064197, "lon": 14.2485807, "tags": {"addr:housenumber": "116", "addr:street": "Lungomare Federico II di Svevia", "amenity": "restaurant", "cuisine": "pizza", "indoor_seating": "yes", "name": "Pizzeria Company 2", "outdoor_seating": "yes"}}, {"type": "node", "id": 3920005945, "lat": 37.0648592, "lon": 14.2469396, "tags": {"addr:housenumber": "158", "addr:postcode": "93012", "addr:street": "Lungomare Federico II di Svevia", "amenity": "restaurant", "name": "Trattoria del Mare"}}, {"type": "node", "id": 3920005946, "lat": 37.0645627, "lon": 14.2475891, "tags": {"addr:housenumber": "152", "addr:street": "Lungomare Federico II di Svevia", "alt_name": "Pizzeria da Orazio", "amenity": "restaurant", "contact:mobile": "+39 347 6308456", "contact:phone": "+39 0933 636028", "cuisine": "pizza", "name": "Pizzeria Schetta e Maritata"}}, {"type": "node", "id": 3920111991, "lat": 37.065613, "lon": 14.2515059}, {"type": "node", "id": 3920112006, "lat": 37.0656031, "lon": 14.2513575}, {"type": "node", "id": 3920112010, "lat": 37.0655612, "lon": 14.2514761}, {"type": "node", "id": 3920112018, "lat": 37.0656298, "lon": 14.2513724, "tags": {"entrance": "main"}}, {"type": "node", "id": 3920112025, "lat": 37.0656552, "lon": 14.2513865}, {"type": "node", "id": 3923211188, "lat": 37.0746604, "lon": 14.227833, "tags": {"amenity": "cafe", "name": "RSA Caposoprano Cafe"}}, {"type": "node", "id": 3923244977, "lat": 37.0659329, "lon": 14.2513695, "tags": {"addr:housenumber": "236", "addr:street": "Corso Vittorio Emanuele", "amenity": "cafe", "contact:phone": "+39 0933 922555", "name": "Caffetteria La Palma", "opening_hours": "Mo-Sa 06:15-12:30; Su 07:00-12:30"}}, {"type": "node", "id": 3937282547, "lat": 37.0728091, "lon": 14.2256507}, {"type": "node", "id": 3937282595, "lat": 37.0728942, "lon": 14.2256674}, {"type": "node", "id": 3937282598, "lat": 37.0729003, "lon": 14.2256791}, {"type": "node", "id": 3937282600, "lat": 37.072901, "lon": 14.2255595}, {"type": "node", "id": 3937282603, "lat": 37.0729068, "lon": 14.2255545}, {"type": "node", "id": 3937282609, "lat": 37.0729176, "lon": 14.2255741}, {"type": "node", "id": 3937282612, "lat": 37.0729261, "lon": 14.2256137}, {"type": "node", "id": 3937282622, "lat": 37.0729352, "lon": 14.2256058}, {"type": "node", "id": 3937449263, "lat": 37.0973812, "lon": 14.1690778}, {"type": "node", "id": 3937449264, "lat": 37.0973859, "lon": 14.1688895}, {"type": "node", "id": 3937449267, "lat": 37.0974145, "lon": 14.1690794, "tags": {"entrance": "main"}}, {"type": "node", "id": 3937449273, "lat": 37.0974744, "lon": 14.1691403}, {"type": "node", "id": 3937449274, "lat": 37.0974832, "lon": 14.1688933}, {"type": "node", "id": 3937449275, "lat": 37.0974834, "lon": 14.168836}, {"type": "node", "id": 3937449276, "lat": 37.0974837, "lon": 14.1687732}, {"type": "node", "id": 3937449277, "lat": 37.097484, "lon": 14.1687037}, {"type": "node", "id": 3937449278, "lat": 37.0974848, "lon": 14.1685314}, {"type": "node", "id": 3937449460, "lat": 37.0976409, "lon": 14.1682278}, {"type": "node", "id": 3937449466, "lat": 37.097649, "lon": 14.1682611}, {"type": "node", "id": 3937449475, "lat": 37.097703, "lon": 14.1682516}, {"type": "node", "id": 3937449476, "lat": 37.0977045, "lon": 14.1682148}, {"type": "node", "id": 3937449508, "lat": 37.0979171, "lon": 14.1681785}, {"type": "node", "id": 4721395573, "lat": 37.1078249, "lon": 13.9696536}, {"type": "node", "id": 4721397033, "lat": 37.1079591, "lon": 13.9703321}, {"type": "node", "id": 4721397034, "lat": 37.1075503, "lon": 13.9704592}, {"type": "node", "id": 4721397035, "lat": 37.1074251, "lon": 13.9697779}, {"type": "node", "id": 4784768526, "lat": 37.0999179, "lon": 13.9387243, "tags": {"addr:housenumber": "9", "addr:street": "Via Sant'Andrea", "amenity": "restaurant", "name": "Taverna del Duca", "name:it": "Taverna del Duca"}}, {"type": "node", "id": 4784768527, "lat": 37.1026361, "lon": 13.9370454, "tags": {"addr:housenumber": "22", "addr:street": "Corso Roma", "amenity": "cafe", "name": "Drogheria", "name:it": "Drogheria"}}, {"type": "node", "id": 4907264281, "lat": 37.0710852, "lon": 14.2366478, "tags": {"addr:housenumber": "8", "addr:street": "Largo San Biagio", "amenity": "cafe", "contact:city": "Gela", "contact:housenumber": "8", "contact:postcode": "93012", "contact:street": "Largo San Biagio", "indoor_seating": "yes", "name": "Bar Brasibecca", "outdoor_seating": "yes"}}, {"type": "node", "id": 4911971850, "lat": 37.0717188, "lon": 14.2358143, "tags": {"addr:housenumber": "37", "addr:street": "Via Palazzi", "amenity": "cafe", "contact:city": "Gela", "contact:housenumber": "37", "contact:postcode": "93012", "contact:street": "Via Palazzi", "name": "Milk & Cofee"}}, {"type": "node", "id": 4914728773, "lat": 37.0732761, "lon": 14.2333135, "tags": {"addr:housenumber": "64", "addr:street": "Via Palazzi", "amenity": "cafe", "contact:housenumber": "64", "name": "Joseph Cafe"}}, {"type": "node", "id": 4934951145, "lat": 37.0660006, "lon": 14.2434272}, {"type": "node", "id": 4934951146, "lat": 37.0660903, "lon": 14.2434508}, {"type": "node", "id": 5277493894, "lat": 37.0708223, "lon": 14.2527817, "tags": {"amenity": "restaurant", "name": "Speedy Junior"}}, {"type": "node", "id": 5284414497, "lat": 37.0680721, "lon": 14.2596138, "tags": {"addr:housenumber": "71", "addr:street": "Via Venezia", "amenity": "restaurant", "cuisine": "pizza", "name": "Doppiozero", "takeaway": "yes"}}, {"type": "node", "id": 5292071056, "lat": 37.07228, "lon": 14.2509429, "tags": {"amenity": "restaurant", "name": "Bar Italia"}}, {"type": "node", "id": 5340607168, "lat": 37.0843211, "lon": 14.2307949, "tags": {"amenity": "cafe", "name": "Bar Energy"}}, {"type": "node", "id": 5340662720, "lat": 37.0809214, "lon": 14.2315397, "tags": {"amenity": "restaurant", "name": "Capital Food"}}, {"type": "node", "id": 5345101634, "lat": 37.0718781, "lon": 14.235304, "tags": {"amenity": "cafe", "name": "Caf\u00e8 Naif"}}, {"type": "node", "id": 5345292654, "lat": 37.0679407, "lon": 14.2518998, "tags": {"amenity": "cafe", "name": "Bar Scollo"}}, {"type": "node", "id": 5345365927, "lat": 37.0655776, "lon": 14.2446218}, {"type": "node", "id": 5345365932, "lat": 37.0656921, "lon": 14.2446774}, {"type": "node", "id": 5345365934, "lat": 37.0655542, "lon": 14.2446973}, {"type": "node", "id": 5345365935, "lat": 37.0656688, "lon": 14.2447529}, {"type": "node", "id": 5345435980, "lat": 37.0650067, "lon": 14.2464935}, {"type": "node", "id": 5345435982, "lat": 37.0649733, "lon": 14.2465953}, {"type": "node", "id": 5345435989, "lat": 37.0650652, "lon": 14.2466431}, {"type": "node", "id": 5347717649, "lat": 37.0651223, "lon": 14.2465536}, {"type": "node", "id": 5349385167, "lat": 37.0743057, "lon": 14.2404068, "tags": {"amenity": "cafe", "name": "Coffee Shop"}}, {"type": "node", "id": 5354343558, "lat": 37.0669985, "lon": 14.2533197, "tags": {"amenity": "restaurant", "name": "Ristorante Centrale Tot\u00f2"}}, {"type": "node", "id": 5385203145, "lat": 37.0632355, "lon": 14.2508326}, {"type": "node", "id": 5385203146, "lat": 37.0633274, "lon": 14.2508869}, {"type": "node", "id": 5606221174, "lat": 37.0675432, "lon": 14.2618753, "tags": {"addr:housenumber": "11", "addr:street": "Via Venezia", "amenity": "restaurant", "contact:email": "metropolis.smecca@libero.it", "contact:phone": "+39 0933 921312", "name": "Metropolis", "opening_hours": "Mo-Su 19:00-24:00", "ref:vatin": "IT01480970852", "website": "https://metropolisgela.it"}}, {"type": "node", "id": 5996276703, "lat": 37.0976262, "lon": 13.9297781, "tags": {"amenity": "cafe"}}, {"type": "node", "id": 6139886188, "lat": 37.0726983, "lon": 14.2591394}, {"type": "node", "id": 6139886189, "lat": 37.0726479, "lon": 14.259249}, {"type": "node", "id": 6139886190, "lat": 37.0724885, "lon": 14.2591338}, {"type": "node", "id": 6140882657, "lat": 37.0630439, "lon": 14.2513532}, {"type": "node", "id": 6140882659, "lat": 37.0631149, "lon": 14.2513967}, {"type": "node", "id": 6140882661, "lat": 37.0630809, "lon": 14.2514838}, {"type": "node", "id": 6140882662, "lat": 37.0630099, "lon": 14.2514403}, {"type": "node", "id": 6140882663, "lat": 37.0631124, "lon": 14.2511775}, {"type": "node", "id": 6140882672, "lat": 37.0632255, "lon": 14.2508591, "tags": {"addr:housenumber": "74", "addr:street": "Lungomare Federico II di Svevia"}}, {"type": "node", "id": 6140882673, "lat": 37.0631476, "lon": 14.2509449}, {"type": "node", "id": 6140882674, "lat": 37.0632159, "lon": 14.2508847}, {"type": "node", "id": 6140882675, "lat": 37.0631785, "lon": 14.2508627}, {"type": "node", "id": 6140882676, "lat": 37.0631849, "lon": 14.2509669}, {"type": "node", "id": 6140882677, "lat": 37.0632769, "lon": 14.2510212}, {"type": "node", "id": 6140882678, "lat": 37.063207, "lon": 14.2508158}, {"type": "node", "id": 6140882679, "lat": 37.0632759, "lon": 14.2507251}, {"type": "node", "id": 6140882680, "lat": 37.0632474, "lon": 14.2507083}, {"type": "node", "id": 6140882681, "lat": 37.0634168, "lon": 14.2503584}, {"type": "node", "id": 6140882682, "lat": 37.0633735, "lon": 14.2507643}, {"type": "node", "id": 6140882683, "lat": 37.0632816, "lon": 14.25071}, {"type": "node", "id": 6140883410, "lat": 37.0638026, "lon": 14.2496994}, {"type": "node", "id": 6140883411, "lat": 37.0638508, "lon": 14.2495822}, {"type": "node", "id": 6140883412, "lat": 37.0638047, "lon": 14.2495525}, {"type": "node", "id": 6140883414, "lat": 37.0638089, "lon": 14.2494825}, {"type": "node", "id": 6140883415, "lat": 37.0638283, "lon": 14.2494951}, {"type": "node", "id": 6174443241, "lat": 37.0659813, "lon": 14.2434221}, {"type": "node", "id": 6174443242, "lat": 37.065996, "lon": 14.2433345}, {"type": "node", "id": 6174443243, "lat": 37.0660153, "lon": 14.2433396}, {"type": "node", "id": 6174443244, "lat": 37.066105, "lon": 14.2433632}, {"type": "node", "id": 6174456107, "lat": 37.0649862, "lon": 14.246556}, {"type": "node", "id": 6174456108, "lat": 37.0649935, "lon": 14.2465337}, {"type": "node", "id": 6174456114, "lat": 37.0656478, "lon": 14.2444449, "tags": {"addr:city": "Gela", "addr:housenumber": "196", "addr:postcode": "93012", "addr:street": "Lungomare Federico II di Svevia", "amenity": "restaurant", "contact:phone": "+39 328 7968762", "indoor_seating": "yes", "name": "Giorgetti", "outdoor_seating": "yes"}}, {"type": "node", "id": 6198944063, "lat": 37.06449, "lon": 14.2477716, "tags": {"addr:housenumber": "142", "addr:postcode": "93012", "addr:street": "Lungomare Federico II di Svevia", "amenity": "restaurant", "name": "La Suprema"}}, {"type": "node", "id": 6198944298, "lat": 37.065159, "lon": 14.2465737}, {"type": "node", "id": 6198944301, "lat": 37.0651284, "lon": 14.2466705}, {"type": "node", "id": 6198944315, "lat": 37.0655411, "lon": 14.2447398, "tags": {"addr:housenumber": "190", "addr:postcode": "93012", "addr:street": "Lungomare Federico II di Svevia", "amenity": "restaurant", "indoor_seating": "yes", "name": "Il Tempio del Gusto", "outdoor_seating": "yes"}}, {"type": "node", "id": 6220497446, "lat": 37.0630461, "lon": 14.2514624}, {"type": "node", "id": 6220497447, "lat": 37.0630805, "lon": 14.2513756}, {"type": "node", "id": 6220497788, "lat": 37.0629755, "lon": 14.2514192}, {"type": "node", "id": 6220497789, "lat": 37.0630095, "lon": 14.2513321}, {"type": "node", "id": 6220497790, "lat": 37.0631293, "lon": 14.2512975}, {"type": "node", "id": 6220497791, "lat": 37.0631638, "lon": 14.251209}, {"type": "node", "id": 6220497792, "lat": 37.0630704, "lon": 14.2511518}, {"type": "node", "id": 6220497793, "lat": 37.0630359, "lon": 14.2512402}, {"type": "node", "id": 6220497794, "lat": 37.0630779, "lon": 14.251266}, {"type": "node", "id": 6354269695, "lat": 37.1104586, "lon": 14.0142438, "tags": {"amenity": "cafe", "name": "Saint Louis"}}, {"type": "node", "id": 6360419732, "lat": 37.079803, "lon": 14.2331498, "tags": {"amenity": "restaurant", "name": "Soli e Lune"}}, {"type": "node", "id": 7100724487, "lat": 37.0802805, "lon": 14.232915, "tags": {"amenity": "cafe", "name": "Bar Gramillano"}}, {"type": "node", "id": 7125690265, "lat": 37.0797518, "lon": 14.2348944, "tags": {"amenity": "cafe", "name": "Bar Sanremo"}}, {"type": "node", "id": 7139904235, "lat": 37.0746899, "lon": 14.2462422}, {"type": "node", "id": 7139904236, "lat": 37.0746524, "lon": 14.2462975}, {"type": "node", "id": 7139904237, "lat": 37.0746536, "lon": 14.2462037}, {"type": "node", "id": 7139904254, "lat": 37.0746162, "lon": 14.246259}, {"type": "node", "id": 7320162351, "lat": 37.0687673, "lon": 14.2364029}, {"type": "node", "id": 7320162352, "lat": 37.0688283, "lon": 14.2364183}, {"type": "node", "id": 7320162353, "lat": 37.068816, "lon": 14.2364949}, {"type": "node", "id": 7320162354, "lat": 37.068755, "lon": 14.2364795}, {"type": "node", "id": 8296094707, "lat": 37.1070702, "lon": 13.9705474}, {"type": "node", "id": 8296094708, "lat": 37.1069614, "lon": 13.9699217}, {"type": "node", "id": 8381416247, "lat": 37.0775111, "lon": 14.2179652, "tags": {"addr:housenumber": "8", "addr:postcode": "93012", "addr:street": "Via La Paz"}}, {"type": "node", "id": 8528936912, "lat": 37.0806669, "lon": 14.2540876, "tags": {"amenity": "cafe", "name": "Centro Cialde SB"}}, {"type": "node", "id": 8533443055, "lat": 37.0723907, "lon": 14.2518598, "tags": {"amenity": "restaurant", "name": "Le Mille Voglie"}}, {"type": "node", "id": 8712862112, "lat": 37.0744118, "lon": 14.2334547}, {"type": "node", "id": 8712862113, "lat": 37.0744356, "lon": 14.2334673}, {"type": "node", "id": 8712862114, "lat": 37.0744284, "lon": 14.2334038, "tags": {"addr:city": "Gela", "addr:housenumber": "102", "addr:postcode": "93012", "addr:street": "Via Cicerone"}}, {"type": "node", "id": 10022615971, "lat": 37.0957564, "lon": 14.1716621, "tags": {"amenity": "restaurant", "name": "Bar Pisano", "operator": "a", "outdoor_seating": "yes", "wheelchair": "designated"}}, {"type": "node", "id": 10287549900, "lat": 37.0643349, "lon": 14.2482369, "tags": {"amenity": "restaurant", "cuisine": "pizza", "indoor_seating": "yes", "name": "Roxy Bar", "outdoor_seating": "yes", "toilets": "yes", "wheelchair": "designated"}}, {"type": "node", "id": 10568310157, "lat": 37.1133997, "lon": 13.9696634, "tags": {"addr:street": "Strada Statale 115 Sud Occidentale Sicula", "amenity": "restaurant", "contact:email": "info@hotelsombrero.it", "contact:phone": "+39 0922 801003", "name": "Hotel Ristorante El Sombrero", "ref:vatin": "IT02542920844", "tourism": "hotel", "website": "http://ristoranteilsombrero.it"}}, {"type": "node", "id": 10737815571, "lat": 37.0802388, "lon": 14.2344967, "tags": {"amenity": "restaurant", "cuisine": "sushi", "name": "Sushi Club", "opening_hours": "Mo-Su 12:00-15:00,19:30-24:00"}}, {"type": "node", "id": 10776310785, "lat": 37.0665988, "lon": 14.2578853, "tags": {"addr:housenumber": "28", "addr:street": "Via Niscemi"}}, {"type": "node", "id": 10776310786, "lat": 37.0666456, "lon": 14.2579132}, {"type": "node", "id": 11446280362, "lat": 37.0646675, "lon": 14.2492624, "tags": {"amenity": "restaurant"}}, {"type": "node", "id": 11476313481, "lat": 37.0642606, "lon": 14.2623865, "tags": {"amenity": "cafe", "authorization": "44", "name": "Bar Tabacchi Pisano", "tobacco": "yes"}}, {"type": "node", "id": 11476329946, "lat": 37.0648586, "lon": 14.2475781, "tags": {"amenity": "restaurant"}}, {"type": "node", "id": 11478637394, "lat": 37.1205587, "lon": 14.1322123, "tags": {"amenity": "cafe", "indoor_seating": "yes", "name": "Ristoro", "outdoor_seating": "yes", "wheelchair": "yes"}}, {"type": "node", "id": 11478987724, "lat": 37.1835331, "lon": 13.7689397, "tags": {"amenity": "cafe"}}, {"type": "node", "id": 11486139352, "lat": 37.1130523, "lon": 13.9282101, "tags": {"air_conditioning": "yes", "amenity": "cafe", "indoor_seating": "yes", "opening_hours": "Mo-Fr 09:00-20:30; Sa,Su 09:00-21:00", "outdoor_seating": "yes", "wheelchair": "yes"}}, {"type": "node", "id": 11486631960, "lat": 37.0698298, "lon": 14.2403387, "tags": {"amenity": "cafe"}}, {"type": "node", "id": 11486640634, "lat": 37.0692887, "lon": 14.2414836, "tags": {"amenity": "cafe", "indoor_seating": "yes", "outdoor_seating": "yes"}}, {"type": "node", "id": 11486654792, "lat": 37.0709374, "lon": 14.2374566, "tags": {"amenity": "cafe"}}, {"type": "node", "id": 11486655743, "lat": 37.0704447, "lon": 14.2386502, "tags": {"amenity": "cafe"}}, {"type": "node", "id": 11486657873, "lat": 37.0705454, "lon": 14.2383179, "tags": {"amenity": "cafe", "indoor_seating": "yes", "outdoor_seating": "no"}}, {"type": "node", "id": 11486703940, "lat": 37.0684393, "lon": 14.2443188, "tags": {"amenity": "cafe"}}, {"type": "node", "id": 11486754163, "lat": 37.0686442, "lon": 14.243733, "tags": {"amenity": "cafe"}}, {"type": "node", "id": 11527703908, "lat": 37.0745865, "lon": 14.2335517}, {"type": "node", "id": 11676904713, "lat": 37.0654431, "lon": 14.2452805, "tags": {"amenity": "cafe", "indoor_seating": "yes", "outdoor_seating": "yes"}}, {"type": "node", "id": 11676905375, "lat": 37.0636864, "lon": 14.2496789, "tags": {"amenity": "restaurant", "indoor_seating": "yes", "name": "Da Oreste", "outdoor_seating": "yes", "wheelchair": "yes"}}, {"type": "node", "id": 11897499809, "lat": 37.1113805, "lon": 13.9208425, "tags": {"amenity": "cafe", "outdoor_seating": "yes"}}, {"type": "node", "id": 12508227816, "lat": 37.0638578, "lon": 14.2500832, "tags": {"amenity": "restaurant"}}, {"type": "node", "id": 12848509101, "lat": 37.0681785, "lon": 14.2592696, "tags": {"amenity": "cafe", "cuisine": "caribbean;coffee_shop;italian_pizza;sandwich", "name:en": "Bare Raquette"}}, {"type": "node", "id": 12895596999, "lat": 37.0979218, "lon": 13.9389321, "tags": {"addr:city": "Licata", "addr:postcode": "92027", "addr:street": "Via Principe di Napoli", "amenity": "restaurant", "cuisine": "italian", "name": "Ristorante al Granchio Blu", "phone": "+399221555229"}}, {"type": "node", "id": 12895597000, "lat": 37.0978795, "lon": 13.9392285, "tags": {"addr:city": "Licata", "addr:housenumber": "3", "addr:postcode": "92027", "addr:street": "Via Principe di Napoli", "amenity": "restaurant", "cuisine": "italian", "name": "Restaurante de Gustibus", "phone": "+39922835349", "website": "https://www.ristorantedegustibus.it/"}}, {"type": "node", "id": 12895657101, "lat": 37.0979743, "lon": 13.9379646, "tags": {"addr:city": "Licata", "addr:housenumber": "27", "addr:postcode": "92027", "addr:street": "Via Principe di Napoli", "amenity": "restaurant", "cuisine": "pizza", "name": "L'Arte della Pizza"}}, {"type": "node", "id": 12895657103, "lat": 37.0979571, "lon": 13.9406579, "tags": {"addr:city": "Licata", "addr:housenumber": "2", "addr:postcode": "92027", "addr:street": "Via Castello", "amenity": "restaurant", "cuisine": "burger;pizza", "name": "Senza Funnu", "phone": "+39 9221896351"}}, {"type": "way", "id": 183455263, "nodes": [1938244754, 1938244745, 3937282547, 1938244752, 3937282595, 3937282598, 1938244756, 3937282612, 3937282622, 3937282609, 3937282603, 3937282600, 1938244754], "tags": {"amenity": "restaurant", "building": "yes", "contact:city": "Gela", "contact:housenumber": "11", "contact:postcode": "93012", "contact:street": "Viale Indipendenza", "cuisine": "pizza", "height": "9", "name": "Ristorante Pizzeria Le Mimose"}}, {"type": "way", "id": 208551523, "nodes": [2188374067, 2188374135, 2188374045, 2188374106, 2188374120, 2188374128, 2188374067], "tags": {"amenity": "cafe", "building": "yes", "name": "Eni Caf\u00e9 & Shop"}}, {"type": "way", "id": 301205596, "nodes": [3805586903, 3937449274, 3937449275, 3937449276, 3937449277, 3937449278, 3053073002, 3937449460, 3937449466, 3937449475, 3937449476, 3937449508, 3805586917, 3805586916, 3805586915, 3053072959, 3053072982, 3937449273, 3808651793, 3805586901, 3937449267, 3937449263, 3937449264, 3805586903], "tags": {"amenity": "restaurant", "contact:email": "digiacomo04@gmail.com", "contact:mobile": "+39 339 724 6814", "cuisine": "pizza;seafood", "diet:gluten_free": "yes", "name": "Malib\u00f9", "ref:vatin": "IT01931050858"}}, {"type": "way", "id": 320545441, "nodes": [3270868570, 6140882681, 3270868591, 3270868592, 3270868582, 3270868599, 3270868593, 3270868570], "tags": {"addr:housenumber": "44", "addr:street": "Lungomare Federico II di Svevia", "amenity": "restaurant", "contact:phone": "+39 0933 901273", "indoor_seating": "yes", "name": "Athena", "outdoor_seating": "yes", "wheelchair": "yes"}}, {"type": "way", "id": 322934403, "nodes": [3297269522, 3297269945, 3297269918, 3297269490, 3297269817, 3297269793, 3297269522], "tags": {"amenity": "restaurant", "building": "yes", "name": "Ristorante Sottovento"}}, {"type": "way", "id": 345428737, "nodes": [3521113498, 3521113497, 3521085296, 10776310785, 10776310786, 3521113498], "tags": {"amenity": "cafe", "building": "yes"}}, {"type": "way", "id": 388817024, "nodes": [3156157744, 3156157730, 3919943039, 8381416247, 3919943016, 3156157723, 3156157729, 3156157734, 3156157736, 3919943012, 3919943020, 3919943011, 3156157744], "tags": {"amenity": "restaurant", "contact:city": "Gela", "contact:housenumber": "8", "contact:mobile": "+39 347 7514298", "contact:phone": "+39 0933 938492", "contact:postcode": "93012", "contact:street": "Via La Paz", "name": "Pizzeria Scavone"}}, {"type": "way", "id": 388832065, "nodes": [3920112025, 3920111991, 3920112010, 3920112006, 3920112018, 3920112025], "tags": {"addr:housenumber": "291", "addr:street": "Corso Vittorio Emanuele", "alt_name": "Miseria e Nobilt\u00e0", "amenity": "restaurant", "contact:email": "info@osteriamiseriaenobilta.it", "contact:phone": "+39 0933 914447", "cuisine": "barbecue;italian;regional", "name": "Osteria Miseria e Nobilt\u00e0", "opening_hours": "Mo 12:00-15:00,20:00-24:00; Tu-Sa 00:00-00:30,12:00-15:00,20:00-24:00; We 00:00-00:30,20:00-24:00; Su 00:00-00:30,12:00-15:00", "website": "http://osteriamiseriaenobilta.it"}}, {"type": "way", "id": 553810271, "nodes": [5345365927, 5345365932, 5345365935, 5345365934, 5345365927], "tags": {"addr:city": "Gela", "addr:housenumber": "192", "addr:postcode": "93012", "addr:street": "Lungomare Federico II di Svevia", "amenity": "cafe", "building": "yes", "indoor_seating": "yes", "name": "Cofee Time", "operator": "Gibaldi Angelo & C. S.a.s.", "outdoor_seating": "yes", "ref:vatin": "IT01885500858", "wheelchair": "yes"}}, {"type": "way", "id": 655297100, "nodes": [6139886190, 6139886189, 6139886188, 1946228635, 1946228654, 1946228628, 6139886190], "tags": {"amenity": "cafe", "indoor": "room", "level": "0", "wheelchair": "yes"}}, {"type": "way", "id": 655433690, "nodes": [6140882675, 6140882674, 6140882672, 5385203145, 5385203146, 6140882677, 6140882676, 6140882673, 6140882675], "tags": {"addr:housenumber": "74", "addr:street": "Lungomare Federico II di Svevia", "amenity": "restaurant", "indoor_seating": "yes", "name": "Antida", "outdoor_seating": "yes", "restaurant": "pizza", "wheelchair": "yes"}}, {"type": "way", "id": 655433692, "nodes": [6140882680, 6140882679, 6140882683, 6140882682, 5385203146, 5385203145, 6140882678, 6140882680], "tags": {"addr:housenumber": "76", "addr:street": "Lungomare Federico II di Svevia", "amenity": "restaurant", "contact:phone": "+39 0933 907722", "cuisine": "pizza", "indoor_seating": "yes", "name": "Ristorante Flaita", "outdoor_seating": "yes", "wheelchair": "yes"}}, {"type": "way", "id": 655433705, "nodes": [6140883414, 6140883415, 6140883412, 6140883411, 6140883410, 2199490224, 6140883414], "tags": {"addr:city": "Gela", "addr:housenumber": "102", "addr:postcode": "93012", "addr:street": "Lungomare Federico II di Svevia", "amenity": "restaurant", "building": "yes", "cuisine": "regional;italian;pasta", "diet:gluten_free": "yes", "diet:local": "yes", "diet:mediterranean": "yes", "diet:omnivore": "yes", "diet:vegetarian": "yes", "indoor_seating": "yes", "internet_access": "yes", "name": "AFFAURIRI", "operator": "Per Bacco S.r.l.s.", "outdoor_seating": "yes", "payment:cash": "yes", "payment:credit_cards": "yes", "payment:debit_cards": "yes", "payment:mastercard": "yes", "payment:visa": "yes", "phone": "+393515137902", "wheelchair": "yes"}}, {"type": "way", "id": 659475274, "nodes": [6174443244, 6174443243, 6174443242, 6174443241, 4934951145, 4934951146, 6174443244], "tags": {"addr:housenumber": "214", "addr:street": "Lungomare Federico II di Svevia", "amenity": "restaurant", "contact:phone": "+39 0933 917097", "cuisine": "fish;regional;pizza", "indoor_seating": "yes", "name": "Ristorante L'Ancora", "outdoor_seating": "yes", "wheelchair": "yes"}}, {"type": "way", "id": 662128379, "nodes": [5347717649, 6198944298, 6198944301, 5345435989, 5345435982, 6174456107, 6174456108, 5345435980, 5347717649], "tags": {"addr:housenumber": "160", "addr:postcode": "93012", "addr:street": "Lungomare Federico II di Svevia", "amenity": "restaurant", "cuisine": "fish;pizza", "indoor_seating": "yes", "name": "La Nave", "outdoor_seating": "yes", "wheelchair": "yes"}}, {"type": "way", "id": 664582667, "nodes": [6220497789, 6140882657, 6220497447, 6140882659, 6140882661, 6220497446, 6140882662, 6220497788, 6220497789], "tags": {"amenity": "cafe", "indoor": "area", "indoor_seating": "yes", "level": "0", "name": "Caff\u00e8 Svevia", "outdoor_seating": "yes", "wheelchair": "yes"}}, {"type": "way", "id": 664582668, "nodes": [6220497794, 6220497793, 6220497792, 6140882663, 6220497791, 6220497790, 6220497794], "tags": {"addr:housenumber": "70", "addr:postcode": "93012", "addr:street": "Lungomare Federico II di Svevia", "amenity": "restaurant", "indoor": "area", "indoor_seating": "yes", "level": "0", "name": "Daniele Cacciuolo", "outdoor_seating": "yes", "wheelchair": "yes"}}, {"type": "way", "id": 764247091, "nodes": [7139904236, 7139904235, 7139904237, 7139904254, 7139904236], "tags": {"amenity": "cafe", "level": "0", "name": "Bar Arisen"}}, {"type": "way", "id": 783721254, "nodes": [7320162354, 7320162351, 7320162352, 7320162353, 7320162354], "tags": {"addr:housenumber": "1", "addr:street": "Piazza Lagrange", "alt_name": "L'Elite Chioscobar", "amenity": "cafe", "building": "yes", "contact:phone": "+39 349 492 6370", "name": "L'Elite"}}, {"type": "way", "id": 892602628, "nodes": [4721397035, 8296094708, 8296094707, 4721397034, 4721397033, 4721395573, 4721397035], "tags": {"addr:housenumber": "11", "addr:street": "Via Sergente Profumo", "amenity": "restaurant", "contact:phone": "+39 0922 803494", "cuisine": "fish", "diet:gluten_free": "yes", "diet:vegetarian": "yes", "leisure": "beach_resort", "name": "Oasi Beach Osteria Del Mare"}}, {"type": "way", "id": 940799679, "nodes": [8712862114, 2121494367, 2121494355, 11527703908, 2121494411, 2121494408, 2121494422, 8712862113, 2121494363, 8712862112, 8712862114], "tags": {"amenity": "restaurant", "contact:city": "Gela", "contact:housenumber": "102", "contact:postcode": "93012", "contact:street": "Via Cicerone", "cuisine": "pizza", "name": "Al Fantasy", "operator": "Di Stefano G. & C. S.n.c.", "ref:vatin": "IT01489530855", "takeaway": "yes"}}]}