{"version": 0.6, "generator": "Overpass API 0.7.62.7 375dc00a", "osm3s": {"timestamp_osm_base": "2025-06-14T13:51:30Z", "copyright": "The data included in this document is from www.openstreetmap.org. The data is made available under ODbL."}, "elements": [{"type": "node", "id": 305896808, "lat": 37.2603892, "lon": 13.5906514, "tags": {"amenity": "restaurant", "cuisine": "seafood;regional", "name": "Trattoria Caico", "website": "https://www.trattoriacaico.it/"}}, {"type": "node", "id": 306254868, "lat": 37.2808163, "lon": 13.601183, "tags": {"amenity": "restaurant", "cuisine": "italian", "name": "Kokalos"}}, {"type": "node", "id": 465242670, "lat": 37.4927352, "lon": 13.215927}, {"type": "node", "id": 465291505, "lat": 37.299142, "lon": 13.4942698, "tags": {"amenity": "cafe", "cuisine": "ice_cream", "name": "Gelateria La Sosta"}}, {"type": "node", "id": 918327143, "lat": 37.2627086, "lon": 13.5785139, "tags": {"amenity": "restaurant", "check_date": "2023-05-02", "cuisine": "seafood;regional", "name": "Il Molo"}}, {"type": "node", "id": 919452786, "lat": 37.2606625, "lon": 13.5898617, "tags": {"amenity": "restaurant", "cuisine": "seafood;regional", "name": "Capriccio del Mare"}}, {"type": "node", "id": 919520188, "lat": 37.2659794, "lon": 13.5913514, "tags": {"addr:housenumber": "62", "amenity": "restaurant", "cuisine": "pizza", "name": "La pizzarella"}}, {"type": "node", "id": 919520191, "lat": 37.261104, "lon": 13.582645, "tags": {"amenity": "restaurant", "cuisine": "pizza;seafood;regional", "name": "La Scogliera", "website": "www.ristorantepizzerialascogliera.com"}}, {"type": "node", "id": 919520207, "lat": 37.2622915, "lon": 13.5805619, "tags": {"amenity": "restaurant", "check_date": "2023-05-02", "cuisine": "seafood;regional", "name": "Trattoria Il Pescatore"}}, {"type": "node", "id": 919520212, "lat": 37.2621936, "lon": 13.5807404, "tags": {"addr:city": "Agrigento", "addr:housenumber": "26", "addr:postcode": "92100", "addr:street": "Lungomare Falcone e Borsellino", "amenity": "restaurant", "cuisine": "pizza;seafood;regional", "name": "Al Porticciolo", "wheelchair": "yes"}}, {"type": "node", "id": 919520216, "lat": 37.2612131, "lon": 13.5824444, "tags": {"amenity": "restaurant", "cuisine": "pizza;seafood;regional", "name": "Il Canale"}}, {"type": "node", "id": 919520221, "lat": 37.2620392, "lon": 13.5809201, "tags": {"amenity": "cafe", "name": "Mojito Caf\u00e9"}}, {"type": "node", "id": 919520223, "lat": 37.2612469, "lon": 13.5822934, "tags": {"amenity": "cafe", "name": "Caff\u00e9 Sport"}}, {"type": "node", "id": 919520234, "lat": 37.2607985, "lon": 13.5831645, "tags": {"amenity": "restaurant", "cuisine": "seafood;regional", "name": "Mirasole", "old_name": "Piper", "website": "https://www.ristorantemirasole.it/"}}, {"type": "node", "id": 919614794, "lat": 37.2608035, "lon": 13.58541, "tags": {"amenity": "restaurant", "cuisine": "pizza;seafood;regional", "name": "Il Giardino delle Palme", "website": "www.ristorantegiardinodellepalme.it"}}, {"type": "node", "id": 919614810, "lat": 37.2609988, "lon": 13.5878547, "tags": {"amenity": "cafe", "name": "Bar La Vela"}}, {"type": "node", "id": 919614813, "lat": 37.2607366, "lon": 13.5848109, "tags": {"amenity": "cafe", "name": "Bar Azzurro"}}, {"type": "node", "id": 919614854, "lat": 37.2610405, "lon": 13.588087, "tags": {"amenity": "cafe", "name": "Tropical Bar"}}, {"type": "node", "id": 920269220, "lat": 37.4390517, "lon": 13.2653258}, {"type": "node", "id": 920269236, "lat": 37.4389643, "lon": 13.265506}, {"type": "node", "id": 920269243, "lat": 37.4390499, "lon": 13.265506}, {"type": "node", "id": 920269249, "lat": 37.4389654, "lon": 13.2653244}, {"type": "node", "id": 962993062, "lat": 37.3114701, "lon": 13.5764012, "tags": {"amenity": "restaurant", "name": "Ruga Reali"}}, {"type": "node", "id": 1135637263, "lat": 37.3113689, "lon": 13.5809111, "tags": {"addr:city": "Agrigento", "addr:country": "IT", "addr:housenumber": "2", "addr:postcode": "92100", "addr:street": "Via Giambertoni", "amenity": "restaurant", "check_date:opening_hours": "2024-06-22", "cuisine": "italian;regional", "name": "L'Ambasciata Di Sicilia", "opening_hours:signed": "no", "operator": "Lo Burgio Dario", "outdoor_seating": "yes", "phone": "+39 0922 20526"}}, {"type": "node", "id": 1299689235, "lat": 37.5980739, "lon": 13.2889904}, {"type": "node", "id": 1299689248, "lat": 37.5981328, "lon": 13.2890369}, {"type": "node", "id": 1299689951, "lat": 37.5986793, "lon": 13.2911878}, {"type": "node", "id": 1299690102, "lat": 37.5986072, "lon": 13.2913261}, {"type": "node", "id": 1299690182, "lat": 37.5982212, "lon": 13.2888541}, {"type": "node", "id": 1299690392, "lat": 37.5981757, "lon": 13.2888153}, {"type": "node", "id": 1299690430, "lat": 37.5981371, "lon": 13.2888817}, {"type": "node", "id": 1299690972, "lat": 37.5986861, "lon": 13.2912279}, {"type": "node", "id": 1299691264, "lat": 37.5985778, "lon": 13.2912263}, {"type": "node", "id": 1299691679, "lat": 37.5986965, "lon": 13.291289}, {"type": "node", "id": 1329706443, "lat": 37.2951743, "lon": 13.4668135}, {"type": "node", "id": 1329706445, "lat": 37.2952172, "lon": 13.4668467}, {"type": "node", "id": 1329706447, "lat": 37.2952255, "lon": 13.466632}, {"type": "node", "id": 1329706450, "lat": 37.2953207, "lon": 13.4668132}, {"type": "node", "id": 1329706461, "lat": 37.295242, "lon": 13.4662899}, {"type": "node", "id": 1329706465, "lat": 37.2954004, "lon": 13.4666809}, {"type": "node", "id": 1329706491, "lat": 37.2953856, "lon": 13.4663334}, {"type": "node", "id": 1329706504, "lat": 37.2955152, "lon": 13.4663692}, {"type": "node", "id": 1530190232, "lat": 37.4926991, "lon": 13.2161399}, {"type": "node", "id": 1530190239, "lat": 37.4925965, "lon": 13.2161123}, {"type": "node", "id": 1530190259, "lat": 37.4926326, "lon": 13.2158994}, {"type": "node", "id": 1770569416, "lat": 37.3105245, "lon": 13.5835433, "tags": {"addr:city": "Agrigento", "addr:housenumber": "8", "addr:postcode": "92100", "addr:street": "Via Porcello", "amenity": "restaurant", "name": "Trattoria Concordia"}}, {"type": "node", "id": 1921785179, "lat": 37.3113549, "lon": 13.5867838, "tags": {"amenity": "cafe", "name": "Oasi bar"}}, {"type": "node", "id": 2002999231, "lat": 37.2726404, "lon": 13.5856488, "tags": {"amenity": "restaurant", "cuisine": "pizza", "name": "Pizzeria Da Peppuccio"}}, {"type": "node", "id": 2002999237, "lat": 37.2733901, "lon": 13.585323, "tags": {"amenity": "cafe", "name": "bar La conchiglia di Danile"}}, {"type": "node", "id": 2260203745, "lat": 37.3194278, "lon": 13.5820051, "tags": {"amenity": "restaurant", "cuisine": "pizza", "name": "Pizzeria del Quadrivio"}}, {"type": "node", "id": 2319482247, "lat": 37.5148447, "lon": 13.4339888, "tags": {"amenity": "restaurant", "cuisine": "pizza"}}, {"type": "node", "id": 2319485905, "lat": 37.521344, "lon": 13.4348444, "tags": {"amenity": "restaurant", "cuisine": "italian", "name": "Rosticceria"}}, {"type": "node", "id": 2319490736, "lat": 37.5213929, "lon": 13.431784, "tags": {"amenity": "cafe", "name": "L'Arcobaleno"}}, {"type": "node", "id": 2331991787, "lat": 37.5205676, "lon": 13.4321108, "tags": {"amenity": "restaurant", "cuisine": "pizza", "name": "Pizzeria"}}, {"type": "node", "id": 2413017395, "lat": 37.2735505, "lon": 13.5710874, "tags": {"amenity": "restaurant", "name": "Maddalusa Beach"}}, {"type": "node", "id": 2413380580, "lat": 37.3985989, "lon": 13.532678, "tags": {"addr:city": "Raffadali", "addr:housenumber": "177", "addr:street": "Via Porta Agrigento", "amenity": "cafe", "contact:phone": "+39 0922 471506", "name": "Coffee Break Di Benedetto Francesco"}}, {"type": "node", "id": 2429460229, "lat": 37.5230392, "lon": 13.4316823, "tags": {"amenity": "restaurant", "cuisine": "pizza", "name": "Lady Rose"}}, {"type": "node", "id": 2671246208, "lat": 37.3091087, "lon": 13.5862526, "tags": {"addr:street": "Piazzetta San Calogero", "amenity": "cafe", "name": "Bar La Piazzetta"}}, {"type": "node", "id": 2671248196, "lat": 37.3084485, "lon": 13.5870981, "tags": {"addr:street": "Viale della Vittoria", "amenity": "restaurant", "cuisine": "regional;pizza", "indoor_seating": "yes", "name": "Queto", "outdoor_seating": "sidewalk"}}, {"type": "node", "id": 2671251412, "lat": 37.306965, "lon": 13.5906119, "tags": {"addr:city": "Agrigento", "addr:housenumber": "141", "addr:postcode": "92100", "addr:street": "Viale della Vittoria", "amenity": "cafe", "name": "Bar Sajeva", "opening_hours": "Mo-Sa 07:00-22:00; Th 07:00-15:00", "outdoor_seating": "yes", "phone": "+39 0922 20671"}}, {"type": "node", "id": 2671254125, "lat": 37.3044763, "lon": 13.5963225, "tags": {"addr:street": "Viale della Vittoria", "amenity": "cafe", "name": "Bar Uaddan"}}, {"type": "node", "id": 2671266761, "lat": 37.3059683, "lon": 13.5929188, "tags": {"addr:street": "Viale della Vittoria", "amenity": "cafe", "name": "Bar del Viale"}}, {"type": "node", "id": 2671280523, "lat": 37.3080292, "lon": 13.5886653, "tags": {"addr:street": "Piazza Cavour", "amenity": "restaurant", "name": "La posata di Federico II"}}, {"type": "node", "id": 2671280524, "lat": 37.3066412, "lon": 13.5912049, "tags": {"addr:street": "Viale della Vittoria", "amenity": "cafe"}}, {"type": "node", "id": 2671280525, "lat": 37.3070916, "lon": 13.5902634, "tags": {"addr:street": "Viale della Vittoria", "amenity": "cafe", "name": "Ficus"}}, {"type": "node", "id": 2671372517, "lat": 37.3082406, "lon": 13.5875234, "tags": {"addr:city": "Agrigento", "addr:country": "IT", "addr:postcode": "92100", "addr:street": "Viale della Vittoria", "amenity": "restaurant", "check_date": "2025-06-03", "check_date:diet:vegetarian": "2025-06-03", "cuisine": "italian", "diet:vegetarian": "yes", "indoor_seating": "yes", "name": "Ristorante Pizzeria Boulevard", "outdoor_seating": "sidewalk", "payment:credit_cards": "yes", "payment:debit_cards": "yes"}}, {"type": "node", "id": 2671372518, "lat": 37.3081607, "lon": 13.5877499, "tags": {"addr:city": "Agrigento", "addr:country": "IT", "addr:housenumber": "15/17", "addr:postcode": "92100", "addr:street": "Viale della Vittoria", "amenity": "restaurant", "check_date": "2024-07-02", "cuisine": "italian", "name": "Ristorante Capotavola", "phone": "+39 0922 21484", "website": "http://www.ristorantecapotavola.it/"}}, {"type": "node", "id": 2903843492, "lat": 37.3809409, "lon": 13.3071493}, {"type": "node", "id": 2903843493, "lat": 37.3808278, "lon": 13.3070355}, {"type": "node", "id": 2903843494, "lat": 37.3807438, "lon": 13.3071493}, {"type": "node", "id": 2903843495, "lat": 37.3808634, "lon": 13.3072672}, {"type": "node", "id": 2903843496, "lat": 37.380676, "lon": 13.3078648}, {"type": "node", "id": 2903843497, "lat": 37.3805855, "lon": 13.3077551}, {"type": "node", "id": 2903843498, "lat": 37.3804014, "lon": 13.3079705}, {"type": "node", "id": 2903843499, "lat": 37.3804951, "lon": 13.3080844}, {"type": "node", "id": 3002650910, "lat": 37.2945428, "lon": 13.525886, "tags": {"addr:housenumber": "12", "addr:street": "Via dello Sport", "amenity": "cafe", "name": "Cristal Bar"}}, {"type": "node", "id": 3006335663, "lat": 37.2877145, "lon": 13.4816431}, {"type": "node", "id": 3006335664, "lat": 37.2877311, "lon": 13.4817247}, {"type": "node", "id": 3006335668, "lat": 37.2877686, "lon": 13.4818031}, {"type": "node", "id": 3006335669, "lat": 37.2877789, "lon": 13.4816224}, {"type": "node", "id": 3006335671, "lat": 37.2877861, "lon": 13.4817975}, {"type": "node", "id": 3006335672, "lat": 37.2877868, "lon": 13.4816609}, {"type": "node", "id": 3006335673, "lat": 37.2877898, "lon": 13.4818157}, {"type": "node", "id": 3006335675, "lat": 37.2878269, "lon": 13.481648}, {"type": "node", "id": 3006335678, "lat": 37.2878613, "lon": 13.4817927}, {"type": "node", "id": 3006335679, "lat": 37.2878663, "lon": 13.4818174}, {"type": "node", "id": 3006335688, "lat": 37.2879202, "lon": 13.4817411}, {"type": "node", "id": 3006335691, "lat": 37.2879296, "lon": 13.4817201}, {"type": "node", "id": 3006335692, "lat": 37.2879315, "lon": 13.4817964}, {"type": "node", "id": 3006335724, "lat": 37.2881901, "lon": 13.4777846}, {"type": "node", "id": 3006335727, "lat": 37.2882029, "lon": 13.4777609}, {"type": "node", "id": 3006335729, "lat": 37.288212, "lon": 13.4777687}, {"type": "node", "id": 3006335730, "lat": 37.288215, "lon": 13.4778057}, {"type": "node", "id": 3006335738, "lat": 37.2882472, "lon": 13.4777033}, {"type": "node", "id": 3006335739, "lat": 37.2882629, "lon": 13.4777166}, {"type": "node", "id": 3006335841, "lat": 37.2887458, "lon": 13.4781934}, {"type": "node", "id": 3006335861, "lat": 37.2887989, "lon": 13.4780746}, {"type": "node", "id": 3006335865, "lat": 37.2888061, "lon": 13.478236}, {"type": "node", "id": 3006335883, "lat": 37.2888592, "lon": 13.4781171}, {"type": "node", "id": 3006337292, "lat": 37.2951892, "lon": 13.4667606}, {"type": "node", "id": 3006337295, "lat": 37.2952651, "lon": 13.4667687}, {"type": "node", "id": 3006337297, "lat": 37.2953561, "lon": 13.4666449}, {"type": "node", "id": 3006337298, "lat": 37.2953893, "lon": 13.4663072}, {"type": "node", "id": 3006337299, "lat": 37.2954868, "lon": 13.4663462}, {"type": "node", "id": 3135952655, "lat": 37.3383627, "lon": 13.3859574, "tags": {"amenity": "restaurant", "check_date": "2023-05-06", "cuisine": "italian", "name": "La Scogliera", "website": "https://www.ristorantelascogliera.com/index.htm"}}, {"type": "node", "id": 3135952656, "lat": 37.3386052, "lon": 13.3856844, "tags": {"addr:city": "Siculiana", "addr:postcode": "92010", "addr:street": "Via Principe di Piemonte", "amenity": "restaurant", "check_date": "2023-05-06", "cuisine": "italian", "name": "Lustru di Luna", "website": "https://www.lustrudiluna.it/"}}, {"type": "node", "id": 3282511296, "lat": 37.3911274, "lon": 13.2896223}, {"type": "node", "id": 3282511299, "lat": 37.391018, "lon": 13.2895923}, {"type": "node", "id": 3282511300, "lat": 37.3909399, "lon": 13.2900434}, {"type": "node", "id": 3282511301, "lat": 37.3909952, "lon": 13.2900586}, {"type": "node", "id": 3282511302, "lat": 37.3909785, "lon": 13.290155}, {"type": "node", "id": 3282511303, "lat": 37.3910326, "lon": 13.2901698}, {"type": "node", "id": 3579287492, "lat": 37.4952492, "lon": 13.206148, "tags": {"amenity": "restaurant", "name": "Villa dei Paladini", "website": "https://www.villadeipaladini.com/"}}, {"type": "node", "id": 3706819252, "lat": 37.6235837, "lon": 13.6234639, "tags": {"amenity": "restaurant", "cuisine": "italian", "name": "La Cava di Giosi"}}, {"type": "node", "id": 3733201131, "lat": 37.2996946, "lon": 13.5969252, "tags": {"amenity": "restaurant", "cuisine": "italian", "indoor_seating": "yes", "name": "Io e Te", "outdoor_seating": "yes"}}, {"type": "node", "id": 3733201132, "lat": 37.2994897, "lon": 13.5972668, "tags": {"amenity": "restaurant", "indoor_seating": "yes", "name": "Bonamorone", "outdoor_seating": "yes"}}, {"type": "node", "id": 3733243925, "lat": 37.299607, "lon": 13.595206, "tags": {"amenity": "restaurant", "cuisine": "italian", "name": "Colleverde", "outdoor_seating": "yes"}}, {"type": "node", "id": 3734286630, "lat": 37.2995494, "lon": 13.5971718, "tags": {"amenity": "restaurant", "indoor_seating": "yes", "name": "Mitos", "outdoor_seating": "yes"}}, {"type": "node", "id": 3911746190, "lat": 37.5723236, "lon": 13.2119919, "tags": {"amenity": "restaurant", "name": "Caterina"}}, {"type": "node", "id": 3911746191, "lat": 37.5714825, "lon": 13.2101707, "tags": {"amenity": "restaurant", "cuisine": "italian", "name": "Il Giardino del Gusto"}}, {"type": "node", "id": 3911746247, "lat": 37.5769135, "lon": 13.2157343, "tags": {"amenity": "cafe"}}, {"type": "node", "id": 3993893357, "lat": 37.2946126, "lon": 13.4586606, "tags": {"amenity": "restaurant", "cuisine": "italian", "name": "Trattoria del Pesce"}}, {"type": "node", "id": 3993899157, "lat": 37.2967129, "lon": 13.4561029, "tags": {"addr:city": "Realmonte", "addr:housenumber": "6", "addr:place": "Lido Rossello", "addr:street": "Via Antares", "amenity": "restaurant", "cuisine": "italian", "name": "Ba\u00eca"}}, {"type": "node", "id": 4264221853, "lat": 37.4991964, "lon": 13.1248388, "tags": {"amenity": "restaurant"}}, {"type": "node", "id": 4377589441, "lat": 37.2619736, "lon": 13.581041, "tags": {"amenity": "restaurant", "name": "Portobello"}}, {"type": "node", "id": 4393778689, "lat": 37.3096124, "lon": 13.5841495, "tags": {"amenity": "restaurant", "name": "Marra drink and restaurant"}}, {"type": "node", "id": 4428268602, "lat": 37.3134542, "lon": 13.658318, "tags": {"amenity": "restaurant", "name": "Ginger People & Food"}}, {"type": "node", "id": 4439107397, "lat": 37.2581182, "lon": 13.5959723, "tags": {"addr:street": "Viale delle Dune", "amenity": "restaurant", "cuisine": "italian_pizza;italian;ice_cream", "internet_access": "wlan", "name": "Albatross", "phone": "+39 0922 411876"}}, {"type": "node", "id": 4450561404, "lat": 37.3130644, "lon": 13.6550456, "tags": {"amenity": "restaurant"}}, {"type": "node", "id": 4488318989, "lat": 37.3110785, "lon": 13.5769343, "tags": {"amenity": "cafe", "name": "Avenue caf\u00e8"}}, {"type": "node", "id": 4737195922, "lat": 37.2877513, "lon": 13.4817182}, {"type": "node", "id": 4756958383, "lat": 37.3349959, "lon": 13.3934771}, {"type": "node", "id": 4756958384, "lat": 37.3348626, "lon": 13.3935844}, {"type": "node", "id": 4756958385, "lat": 37.3349629, "lon": 13.3937721}, {"type": "node", "id": 4756958386, "lat": 37.3350439, "lon": 13.3937051}, {"type": "node", "id": 4756958387, "lat": 37.3350748, "lon": 13.3937212}, {"type": "node", "id": 4756958388, "lat": 37.3351164, "lon": 13.3936461}, {"type": "node", "id": 4756958389, "lat": 37.3350652, "lon": 13.3936085}, {"type": "node", "id": 4879010048, "lat": 37.3068977, "lon": 13.4620499, "tags": {"amenity": "restaurant", "cuisine": "italian", "name": "Osteria dei Folli"}}, {"type": "node", "id": 4905170006, "lat": 37.307768, "lon": 13.4624947, "tags": {"addr:housenumber": "161", "addr:street": "Via Grande", "amenity": "restaurant", "cuisine": "italian", "name": "Spaghetteria Eclisse Cafe'"}}, {"type": "node", "id": 4995345421, "lat": 37.3118976, "lon": 13.5798641, "tags": {"addr:housenumber": "239/241", "addr:postcode": "92100", "addr:street": "Via Atenea", "amenity": "restaurant", "name": "Oper\u00e1", "phone": "+39 0922 664456"}}, {"type": "node", "id": 5015497421, "lat": 37.4351962, "lon": 13.23964, "tags": {"amenity": "restaurant", "cuisine": "pizza", "name": "Pizza", "name:it": "Pizza"}}, {"type": "node", "id": 5018881928, "lat": 37.3040541, "lon": 13.5892575, "tags": {"addr:housenumber": "123", "addr:street": "Via Esseneto", "amenity": "cafe", "cuisine": "breakfast;italian;ice_cream;tea;cake;local;coffee_shop", "name": "Pasticcieria Albanese", "phone": "+39 0922 25904"}}, {"type": "node", "id": 5018882022, "lat": 37.3038967, "lon": 13.5910151, "tags": {"amenity": "cafe", "name": "Venerine Balli", "name:it": "Venerine Balli"}}, {"type": "node", "id": 5018882026, "lat": 37.3061161, "lon": 13.5862046, "tags": {"amenity": "cafe", "cuisine": "regional;breakfast;ice_cream;tea;cake;coffee_shop;local;italian", "name": "Bar Manzoni - Tavola Calda Pasticceria Gelateria", "name:it": "Bar Manzoni - Tavola Calda Pasticceria Gelateria"}}, {"type": "node", "id": 5027815022, "lat": 37.288501, "lon": 13.529539, "tags": {"amenity": "cafe", "name": "Caf\u00e9", "name:pt": "Caf\u00e9"}}, {"type": "node", "id": 5119885824, "lat": 37.4232426, "lon": 13.6050607, "tags": {"addr:city": "Aragona", "addr:postcode": "92021", "amenity": "restaurant", "name": "Agriturismo Baglio del melograno"}}, {"type": "node", "id": 5266187017, "lat": 37.311502, "lon": 13.6628241, "tags": {"amenity": "restaurant", "name": "Punto Caldo Cicchiddru"}}, {"type": "node", "id": 5369089317, "lat": 37.3121677, "lon": 13.6615824, "tags": {"amenity": "restaurant", "name": "Al Casello"}}, {"type": "node", "id": 5421354967, "lat": 37.3230204, "lon": 13.6715998, "tags": {"amenity": "cafe", "name": "Mega Bar"}}, {"type": "node", "id": 5480804861, "lat": 37.3098438, "lon": 13.5850223}, {"type": "node", "id": 5480804887, "lat": 37.310611, "lon": 13.5850836, "tags": {"amenity": "restaurant", "name": "L\u2018antica Pannineria"}}, {"type": "node", "id": 5480804920, "lat": 37.3100385, "lon": 13.5854232}, {"type": "node", "id": 5480809064, "lat": 37.3116262, "lon": 13.5783401, "tags": {"amenity": "restaurant", "name": "Trattoria del Mare"}}, {"type": "node", "id": 5480809085, "lat": 37.3095971, "lon": 13.5846487, "tags": {"amenity": "restaurant", "check_date": "2024-06-30", "indoor_seating": "yes", "name": "Terracotta", "opening_hours": "Tu-Su 19:00-23:00; Mo off", "outdoor_seating": "yes", "payment:credit_cards": "yes", "payment:debit_cards": "yes"}}, {"type": "node", "id": 5480809322, "lat": 37.3100474, "lon": 13.585321}, {"type": "node", "id": 5480809335, "lat": 37.3104528, "lon": 13.5850517, "tags": {"amenity": "cafe", "name": "Espressamente"}}, {"type": "node", "id": 5480809337, "lat": 37.3100944, "lon": 13.5854364}, {"type": "node", "id": 5480809350, "lat": 37.3098879, "lon": 13.5850346}, {"type": "node", "id": 5480809434, "lat": 37.3118883, "lon": 13.5800421, "tags": {"addr:city": "Agrigento", "addr:housenumber": "170", "addr:postcode": "92100", "addr:province": "AG", "addr:street": "Via Atenea", "amenity": "restaurant", "check_date:opening_hours": "2024-07-02", "cuisine": "regional", "name": "Gambrinus", "note": "come minchia si taggano i ristobar?", "opening_hours:signed": "no", "outdoor_seating": "yes", "payment:mastercard": "yes", "payment:visa": "yes", "phone": "+39 0922 21051;+39 380 796 8706"}}, {"type": "node", "id": 5480809455, "lat": 37.3101092, "lon": 13.5853387}, {"type": "node", "id": 5550446405, "lat": 37.3154682, "lon": 13.662433, "tags": {"addr:city": "Favara", "addr:housenumber": "440", "addr:postcode": "92026", "addr:street": "Corso Vittorio Veneto", "air_conditioning": "yes", "amenity": "restaurant", "brand": "MBS prenotazioni;Heineken Birra;Coca Cola;Panna Acqua;Vecchio Amaro del Capo;SCUOLA DELLA PIZZA ITALIA-MALTA;Solania-Pomodoro San Marzano D.O.P. dell'agro Sarnese", "cuisine": "pizza", "indoor_seating": "yes", "name": "Pistritto Pizzeria & Bistrot", "note": "it_IT:\nSolania-Pomodoro https://solaniasrl.it\nCoca Cola https://www.coca-colaitalia.it\nPanna https://www.acquapanna.com\nMBS http://www.mbs-srl.com\nHeineken https://www.heineken.com\nVecchio Amaro del Capo https://www.vecchioamarodelcapo.com", "opening_hours": "Tu-Sa 16:00-00:00", "outdoor_seating": "yes", "phone": "+39 0922660602", "ref:vatin": "IT02680040843", "stars": "3.5", "start_date": "2012-06-15", "takeaway": "yes", "website": "https://www.pistritto.it/", "wheelchair": "yes"}}, {"type": "node", "id": 5654497233, "lat": 37.3112016, "lon": 13.5823102, "tags": {"amenity": "restaurant", "name": "Osteria Ninin", "shop": "vacant"}}, {"type": "node", "id": 5684326225, "lat": 37.3097732, "lon": 13.5865015, "tags": {"amenity": "restaurant", "name": "Ristorante Pititto"}}, {"type": "node", "id": 5700344994, "lat": 37.3109359, "lon": 13.5777444, "tags": {"addr:city": "Agrigento", "addr:housenumber": "12", "addr:street": "Via Vullo", "amenity": "restaurant", "check_date": "2024-06-25", "name": "Civicododici"}}, {"type": "node", "id": 5766349190, "lat": 37.506568, "lon": 13.1190976}, {"type": "node", "id": 5766349191, "lat": 37.5065975, "lon": 13.1191721}, {"type": "node", "id": 5766349192, "lat": 37.5064409, "lon": 13.1192585}, {"type": "node", "id": 5766349193, "lat": 37.5064106, "lon": 13.1191751}, {"type": "node", "id": 5872941477, "lat": 37.2611602, "lon": 13.582406, "tags": {"amenity": "restaurant", "name": "Ristorante Pizzeria Canale"}}, {"type": "node", "id": 5874099271, "lat": 37.3112761, "lon": 13.5875829, "tags": {"amenity": "restaurant", "name": "Pizzeria Chez Jean 2"}}, {"type": "node", "id": 5892710801, "lat": 37.3113319, "lon": 13.5772508, "tags": {"addr:city": "Agrigento", "addr:country": "IT", "addr:housenumber": "36", "addr:postcode": "92100", "addr:street": "Piazza Pirandello", "amenity": "cafe", "cuisine": "regional", "name": "Caffe' Concordia", "operator": "Andrea Saito", "outdoor_seating": "yes", "phone": "+39 92225894", "takeaway": "yes"}}, {"type": "node", "id": 5911716112, "lat": 37.313782, "lon": 13.6592889, "tags": {"addr:housenumber": "1", "addr:street": "Piazza dei Vespri", "amenity": "cafe", "cuisine": "ice_cream", "name": "Apericena Caff\u00e8 Matrice", "operator": "Arnone Giuseppina", "outdoor_seating": "yes", "takeaway": "yes", "wheelchair": "no"}}, {"type": "node", "id": 5913224022, "lat": 37.2887678, "lon": 13.5284702, "tags": {"addr:housenumber": "49", "addr:street": "Via Roma", "amenity": "cafe", "cuisine": "ice_cream", "name": "Caffetteria Azzurra", "operator": "Lavignani Giuseppe", "outdoor_seating": "yes", "ref:vatin": "IT02157190840", "takeaway": "yes"}}, {"type": "node", "id": 5913224024, "lat": 37.2886126, "lon": 13.5282288, "tags": {"addr:housenumber": "71", "addr:street": "Via Roma", "amenity": "cafe", "name": "Gio Bar"}}, {"type": "node", "id": 5913224025, "lat": 37.2874394, "lon": 13.5244469, "tags": {"addr:housenumber": "62", "addr:street": "Via Francesco Crispi", "amenity": "restaurant", "cuisine": "fish", "name": "Osteria La lampara", "outdoor_seating": "yes", "phone": "+39 327 1127833"}}, {"type": "node", "id": 6020371481, "lat": 37.2523705, "lon": 13.6035911, "tags": {"amenity": "restaurant", "cuisine": "sushi", "name": "Misushi"}}, {"type": "node", "id": 6020371519, "lat": 37.2585492, "lon": 13.594353, "tags": {"amenity": "restaurant", "name": "Gatto Matto"}}, {"type": "node", "id": 6352355410, "lat": 37.2567695, "lon": 13.6183105, "tags": {"amenity": "cafe", "name": "L'arte del pane"}}, {"type": "node", "id": 6436443321, "lat": 37.5417935, "lon": 13.6449686, "tags": {"amenity": "restaurant"}}, {"type": "node", "id": 6515530319, "lat": 37.3208718, "lon": 13.6655755, "tags": {"amenity": "restaurant", "cuisine": "pizza", "name": "Mamma Mia che Pizza!"}}, {"type": "node", "id": 6515530328, "lat": 37.319454, "lon": 13.6636969, "tags": {"amenity": "restaurant", "cuisine": "pizza", "name": "Pizzeria da Peppe"}}, {"type": "node", "id": 6516117870, "lat": 37.3146216, "lon": 13.6593898, "tags": {"amenity": "restaurant", "name": "U Maccicuni"}}, {"type": "node", "id": 6516117871, "lat": 37.3142332, "lon": 13.6596694, "tags": {"amenity": "restaurant", "name": "Pepe Nero"}}, {"type": "node", "id": 6517998040, "lat": 37.2896353, "lon": 13.5950463, "tags": {"amenity": "cafe", "indoor_seating": "yes", "name": "Cafe Ristoro Arcosoli", "outdoor_seating": "yes", "wheelchair": "yes"}}, {"type": "node", "id": 6573120586, "lat": 37.2787818, "lon": 13.5732181, "tags": {"amenity": "restaurant", "cuisine": "italian;mediterranean;seafood", "name": "Accademia del Buon Gusto", "opening_hours": "Mo-Su 19:00-23:30", "operator": "+390922511061", "website": "https://www.accademiadelbuongusto.it/"}}, {"type": "node", "id": 6581526886, "lat": 37.3103194, "lon": 13.584782, "tags": {"addr:housenumber": "9", "addr:street": "Via Atenea", "amenity": "restaurant", "name": "Tipiko", "opening_hours": "Mo-Su 12:00-13:00, 19:00-23:30"}}, {"type": "node", "id": 6688432336, "lat": 37.3104959, "lon": 13.5830275, "tags": {"addr:city": "Agrigento", "addr:housenumber": "72", "addr:postcode": "92100", "addr:street": "Via Atenea", "amenity": "restaurant", "cuisine": "italian", "name": "La Scala", "phone": "+39 0922 660497"}}, {"type": "node", "id": 6733275283, "lat": 37.3114796, "lon": 13.6088796}, {"type": "node", "id": 6733307485, "lat": 37.3113875, "lon": 13.6087705}, {"type": "node", "id": 6733307487, "lat": 37.3113229, "lon": 13.6087679}, {"type": "node", "id": 6733307488, "lat": 37.3113202, "lon": 13.608873}, {"type": "node", "id": 6760611987, "lat": 37.3099213, "lon": 13.5846704, "tags": {"amenity": "restaurant", "name": "Sal8"}}, {"type": "node", "id": 6761219900, "lat": 37.2439566, "lon": 13.6139337, "tags": {"amenity": "restaurant", "disused": "restaurant"}}, {"type": "node", "id": 6881867579, "lat": 37.3113984, "lon": 13.608821, "tags": {"amenity": "cafe", "name": "Bar della Valle"}}, {"type": "node", "id": 6932894221, "lat": 37.2899429, "lon": 13.4776456, "tags": {"amenity": "restaurant", "cuisine": "italian"}}, {"type": "node", "id": 6933102391, "lat": 37.2926257, "lon": 13.5020167, "tags": {"amenity": "restaurant", "cuisine": "italian"}}, {"type": "node", "id": 6979723685, "lat": 37.2970482, "lon": 13.5986491, "tags": {"amenity": "restaurant", "name": "Il Re Di Girgenti"}}, {"type": "node", "id": 7078768778, "lat": 37.313972, "lon": 13.6620212, "tags": {"amenity": "restaurant", "cuisine": "pizza"}}, {"type": "node", "id": 7428913198, "lat": 37.4666246, "lon": 13.1954214}, {"type": "node", "id": 7428913199, "lat": 37.466742, "lon": 13.1955508}, {"type": "node", "id": 7428913200, "lat": 37.4664583, "lon": 13.1959451}, {"type": "node", "id": 7428913201, "lat": 37.466341, "lon": 13.1957911}, {"type": "node", "id": 7428913202, "lat": 37.4664828, "lon": 13.1956124}, {"type": "node", "id": 7704439265, "lat": 37.3105098, "lon": 13.5829818, "tags": {"amenity": "cafe", "check_date": "2022-11-21", "name": "Caf\u00e8 Girasole", "outdoor_seating": "yes"}}, {"type": "node", "id": 7813971386, "lat": 37.3151386, "lon": 13.5719071, "tags": {"addr:housenumber": "31", "addr:postcode": "92100", "addr:street": "Via Venticinque Aprile", "amenity": "restaurant", "cuisine": "pizza", "name": "La tana del lupo pizzeria", "opening_hours": "Mo-Su 19:00-00:00", "phone": "+39092226334", "website": "https://antoniolupo.com/"}}, {"type": "node", "id": 7906500569, "lat": 37.3354547, "lon": 13.4233061, "tags": {"addr:housenumber": "27", "addr:street": "Via della Libert\u00e0", "amenity": "restaurant", "contact:facebook": "La Giara Siculiana", "contact:instagram": "lagiara_siculiana", "contact:mobile": "+39 329 25 988 83", "cuisine": "pizza", "description": "Pizzeria Ristorante - Pizzeria Restaurant", "name": "Ristorante Pizzeria La Giara", "opening_hours": "Tu-Su 10:30-14:15,18:00-24:00", "phone": "+39 0922 155 3614", "takeaway": "yes"}}, {"type": "node", "id": 7906500570, "lat": 37.335883, "lon": 13.4343688, "tags": {"amenity": "restaurant", "fixme": "hours not 100% certain/confirmed", "name": "La Ginestra", "opening_hours": "12:00-15:00, 19:00-23:00"}}, {"type": "node", "id": 7906500571, "lat": 37.3365459, "lon": 13.4196448, "tags": {"amenity": "cafe", "bar": "yes"}}, {"type": "node", "id": 8084257106, "lat": 37.4303609, "lon": 13.2472351}, {"type": "node", "id": 8084257107, "lat": 37.4303992, "lon": 13.2473008}, {"type": "node", "id": 8084257108, "lat": 37.4302736, "lon": 13.2474322}, {"type": "node", "id": 8084257109, "lat": 37.4302278, "lon": 13.2473665}, {"type": "node", "id": 8084257110, "lat": 37.4302906, "lon": 13.2473075}, {"type": "node", "id": 8173401540, "lat": 37.5064189, "lon": 13.1191646}, {"type": "node", "id": 8173401541, "lat": 37.5064148, "lon": 13.1191157}, {"type": "node", "id": 8173401542, "lat": 37.5065213, "lon": 13.1191111}, {"type": "node", "id": 8173401543, "lat": 37.5065111, "lon": 13.1190944}, {"type": "node", "id": 8464349217, "lat": 37.3104398, "lon": 13.5848433, "tags": {"addr:housenumber": "13", "addr:postcode": "92100", "addr:street": "salita Madonna degli Angeli", "amenity": "restaurant", "cuisine": "italian_pizza;pasta;pizza", "name": "Manhattan", "opening_hours": "Mo-Sa 12:00-15:00, 19:00-23:00"}}, {"type": "node", "id": 8826316518, "lat": 37.289466, "lon": 13.4849665, "tags": {"addr:housenumber": "34", "addr:postcode": "92010", "addr:street": "Via Lampedusa", "amenity": "restaurant", "name": "+39 335 138 0140", "name:en": "Maragi\u00e0", "name:it": "Maragi\u00e0", "phone": "+39 335 138 0140"}}, {"type": "node", "id": 8826320217, "lat": 37.2895542, "lon": 13.4863605, "tags": {"addr:housenumber": "14", "addr:postcode": "92010", "addr:street": "Via Nereo", "amenity": "restaurant", "name": "Kaeso", "phone": "+39 0922 814511", "website": "https://www.kaesoseafoodrelax.com/"}}, {"type": "node", "id": 8826324317, "lat": 37.2879955, "lon": 13.4791609, "tags": {"addr:postcode": "92010", "amenity": "restaurant", "internet_access": "wlan", "internet_access:fee": "no", "internet_access:type": "wifi", "name": "Lounge Beach", "opening_hours": "Mo-Su 10:00-02:00", "phone": "+39 0922 468634", "website": "https://www.lbscaladeiturchi.com/"}}, {"type": "node", "id": 8948806417, "lat": 37.2915186, "lon": 13.5268815, "tags": {"amenity": "restaurant", "cuisine": "italian", "name": "Coltello e Forchetta"}}, {"type": "node", "id": 8953417017, "lat": 37.4983905, "lon": 13.258722, "tags": {"amenity": "cafe"}}, {"type": "node", "id": 9037677517, "lat": 37.2936405, "lon": 13.5095967, "tags": {"amenity": "restaurant", "cuisine": "pizza", "name": "Pizza Maseria", "name:en": "Vecchia Masseria", "name:fr": "Vecchia Masseria", "name:it": "Vecchia Masseria"}}, {"type": "node", "id": 9453981982, "lat": 37.4101404, "lon": 13.6196551, "tags": {"addr:city": "Aragona", "addr:housenumber": "155", "addr:postcode": "92021", "addr:street": "Via Baldassarre Naselli", "amenity": "restaurant", "contact:facebook": "https://www.facebook.com/pizzachicAragona", "cuisine": "pizza", "name": "Pizza Chic - di Marrella", "opening_hours": "Mo-Su 18:30-22:00; Tu off", "operator": "Rosario Marrella", "phone": "+39 349 7323397", "takeaway": "only", "website": "https://www.facebook.com/pizzachicAragona"}}, {"type": "node", "id": 9471784494, "lat": 37.3880786, "lon": 13.6277455, "tags": {"amenity": "restaurant", "name": "Maccalube"}}, {"type": "node", "id": 9519335551, "lat": 37.397032, "lon": 13.6199287, "tags": {"addr:city": "Aragona", "addr:postcode": "92021", "addr:street": "Via Salvatore La Rosa", "amenity": "restaurant", "cuisine": "pizza", "name": "Pizzeria Trattoria Olimpia", "phone": "+39 0922 37171"}}, {"type": "node", "id": 9603796661, "lat": 37.4006695, "lon": 13.6177798, "tags": {"addr:city": "Aragona", "addr:housenumber": "285", "addr:postcode": "92021", "addr:street": "Via Roma", "amenity": "restaurant", "name": "Lo Sperdicchio Bar Ristorante Pizzeria"}}, {"type": "node", "id": 9603825472, "lat": 37.3880842, "lon": 13.5558039, "tags": {"addr:city": "Joppolo Giancaxio", "addr:housenumber": "16", "addr:postcode": "92010", "addr:street": "Via Roma", "amenity": "restaurant", "mobile": "+39 3407141844", "name": "Trattoria da Carmelo"}}, {"type": "node", "id": 9613453958, "lat": 37.3869065, "lon": 13.5543413, "tags": {"amenity": "cafe", "name": "La Preferita"}}, {"type": "node", "id": 9739563619, "lat": 37.3107441, "lon": 13.5834793, "tags": {"addr:city": "Agrigento AG", "addr:country": "IT", "addr:housenumber": "18/20", "addr:postcode": "92100", "addr:street": "Via Porcello", "amenity": "restaurant", "cuisine": "italian", "name": "Putia Bottega Siciliana", "outdoor_seating": "yes", "phone": "+39 0922 20743"}}, {"type": "node", "id": 9847483423, "lat": 37.3899464, "lon": 13.3512197, "tags": {"amenity": "restaurant"}}, {"type": "node", "id": 9920522797, "lat": 37.3946489, "lon": 13.3502958, "tags": {"amenity": "restaurant", "name": "Zu Micheli"}}, {"type": "node", "id": 9920531220, "lat": 37.3950904, "lon": 13.3503026, "tags": {"amenity": "restaurant", "cuisine": "italian;pizza", "name": "Trenta Quattro 34"}}, {"type": "node", "id": 9922811557, "lat": 37.3969694, "lon": 13.3295326, "tags": {"addr:city": "Montallegro", "addr:postcode": "92010", "addr:street": "Strada Provinciale 87", "air_conditioning": "no", "amenity": "restaurant", "cuisine": "italian;fish;pizza", "diet:vegan": "no", "diet:vegetarian": "yes", "indoor_seating": "no", "internet_access": "no", "level": "0", "name": "Le Tre Terre De Gorgo", "opening_hours": "Mo-Su 19:30+; PH closed", "outdoor_seating": "yes", "smoking": "outside", "wheelchair": "yes"}}, {"type": "node", "id": 9929981600, "lat": 37.3921097, "lon": 13.3500136, "tags": {"amenity": "restaurant", "cuisine": "pizza", "level": "0", "name": "Pizzeria Camelot", "outdoor_seating": "yes", "smoking": "outside"}}, {"type": "node", "id": 9999968719, "lat": 37.3107915, "lon": 13.4642328, "tags": {"amenity": "restaurant", "cuisine": "pizza", "name": "Pizzi Cotti", "outdoor_seating": "yes", "website": "https://pizzicottipizzeria.it/", "wheelchair": "no"}}, {"type": "node", "id": 10061913991, "lat": 37.2662508, "lon": 13.5915694, "tags": {"addr:housenumber": "70", "addr:postcode": "92100", "addr:street": "Viale dei Giardini", "amenity": "restaurant", "name": "Doctor Fish"}}, {"type": "node", "id": 10061913995, "lat": 37.2611958, "lon": 13.5883407, "tags": {"amenity": "cafe", "name": "Agor\u00e0", "shop": "bakery"}}, {"type": "node", "id": 10156871590, "lat": 37.4384885, "lon": 13.3952491, "tags": {"addr:city": "Cattolica Eraclea", "addr:housenumber": "52", "addr:postcode": "92011", "addr:street": "Via Collegio", "amenity": "restaurant", "name": "Al Casale di Magazzu' Giuseppina"}}, {"type": "node", "id": 10207599329, "lat": 37.3104163, "lon": 13.5829462, "tags": {"amenity": "restaurant", "check_date": "2022-11-21", "name": "Chapeau"}}, {"type": "node", "id": 10221711324, "lat": 37.2680245, "lon": 13.6205436, "tags": {"amenity": "restaurant", "cuisine": "regional;pizza", "name": "La Focacceria Pizzeria"}}, {"type": "node", "id": 10243309816, "lat": 37.2702593, "lon": 13.6225972, "tags": {"amenity": "restaurant", "cuisine": "asian;sushi", "name": "JD Sushi"}}, {"type": "node", "id": 10298373195, "lat": 37.3044207, "lon": 13.5964177, "tags": {"addr:housenumber": "315", "addr:street": "Viale della Vittoria", "amenity": "restaurant", "description": "restaurant - pizzeria", "name": "Anima e Cori"}}, {"type": "node", "id": 10921116213, "lat": 37.3380388, "lon": 13.3857666}, {"type": "node", "id": 10921116214, "lat": 37.3380185, "lon": 13.3857321}, {"type": "node", "id": 10921116215, "lat": 37.3378695, "lon": 13.3859452}, {"type": "node", "id": 10921116216, "lat": 37.3378141, "lon": 13.3858631}, {"type": "node", "id": 10921116217, "lat": 37.3378749, "lon": 13.3857969}, {"type": "node", "id": 10921116218, "lat": 37.3380043, "lon": 13.3856666}, {"type": "node", "id": 10921116219, "lat": 37.3380333, "lon": 13.3856722}, {"type": "node", "id": 10921116220, "lat": 37.3380322, "lon": 13.385717}, {"type": "node", "id": 10946885696, "lat": 37.3911177, "lon": 13.2896785}, {"type": "node", "id": 11175374863, "lat": 37.2870786, "lon": 13.5270064, "tags": {"addr:street": "Via 4 Novembre, Porto Empedocle, IT 92014", "amenity": "restaurant", "name": "Scrusciu di Mari - Caff\u00e8 Bistrot", "phone": "+393209090458"}}, {"type": "node", "id": 11220461140, "lat": 37.3109597, "lon": 13.5762222, "tags": {"amenity": "restaurant", "indoor_seating": "yes", "name": "Osteria Expanificio", "outdoor_seating": "yes"}}, {"type": "node", "id": 11221901792, "lat": 37.3101014, "lon": 13.5853922}, {"type": "node", "id": 11221967934, "lat": 37.3100412, "lon": 13.5853462}, {"type": "node", "id": 11221967935, "lat": 37.3100317, "lon": 13.5853967}, {"type": "node", "id": 11221967936, "lat": 37.310061, "lon": 13.5854363}, {"type": "node", "id": 11222026374, "lat": 37.3098315, "lon": 13.5851104}, {"type": "node", "id": 11222026375, "lat": 37.3098768, "lon": 13.5851194}, {"type": "node", "id": 11227811297, "lat": 37.3521437, "lon": 13.5217051}, {"type": "node", "id": 11227811298, "lat": 37.3520538, "lon": 13.5216697}, {"type": "node", "id": 11227811299, "lat": 37.3520137, "lon": 13.5218405}, {"type": "node", "id": 11227811300, "lat": 37.3521056, "lon": 13.5218719}, {"type": "node", "id": 11227811328, "lat": 37.3521241, "lon": 13.5217909}, {"type": "node", "id": 11227811329, "lat": 37.352132, "lon": 13.5217561}, {"type": "node", "id": 11227811330, "lat": 37.3520991, "lon": 13.5217446}, {"type": "node", "id": 11227811331, "lat": 37.3520912, "lon": 13.5217784}, {"type": "node", "id": 11231270722, "lat": 37.2982318, "lon": 13.5907289, "tags": {"addr:city": "Agrigento", "addr:housenumber": "14", "addr:postcode": "92100", "addr:street": "Via Passeggiata Archeologica", "amenity": "restaurant", "indoor_seating": "yes", "name": "La Promenade dei Templi", "outdoor_seating": "yes", "wheelchair": "no"}}, {"type": "node", "id": 11248342483, "lat": 37.2632671, "lon": 13.5790184, "tags": {"amenity": "restaurant", "check_date": "2023-05-02", "cuisine": "pizza;seafood;regional", "name": "Ristorante Marco Polo"}}, {"type": "node", "id": 11331283871, "lat": 37.5976857, "lon": 13.2924445, "tags": {"amenity": "restaurant", "name": "Ristorante Garella"}}, {"type": "node", "id": 11331335739, "lat": 37.5974233, "lon": 13.2886331, "tags": {"amenity": "cafe", "name": "Bar Pizzeria Trieste"}}, {"type": "node", "id": 11358713272, "lat": 37.5737569, "lon": 13.3023177, "tags": {"amenity": "restaurant", "name": "Pizzeria Ristorante Galbasa"}}, {"type": "node", "id": 11482378452, "lat": 37.2744765, "lon": 13.6140939, "tags": {"amenity": "cafe", "indoor_seating": "yes", "outdoor_seating": "yes"}}, {"type": "node", "id": 11482396520, "lat": 37.2985856, "lon": 13.5537297, "tags": {"air_conditioning": "yes", "amenity": "cafe"}}, {"type": "node", "id": 11482518874, "lat": 37.2891436, "lon": 13.5290052, "tags": {"amenity": "restaurant"}}, {"type": "node", "id": 11482690878, "lat": 37.290148, "lon": 13.5164543}, {"type": "node", "id": 11482690882, "lat": 37.2902245, "lon": 13.5162595}, {"type": "node", "id": 11482690884, "lat": 37.2903955, "lon": 13.5163617}, {"type": "node", "id": 11482690886, "lat": 37.2902822, "lon": 13.5163933}, {"type": "node", "id": 11482690889, "lat": 37.2902381, "lon": 13.5165053}, {"type": "node", "id": 11482690890, "lat": 37.2903585, "lon": 13.5164409}, {"type": "node", "id": 11508010957, "lat": 37.4999344, "lon": 13.2669237, "tags": {"amenity": "restaurant", "name": "Special Burgers"}}, {"type": "node", "id": 11525249162, "lat": 37.299663, "lon": 13.5578306, "tags": {"amenity": "restaurant", "name": "Il Casale di Federico"}}, {"type": "node", "id": 11526147214, "lat": 37.3114695, "lon": 13.6087739}, {"type": "node", "id": 11526147215, "lat": 37.3114823, "lon": 13.6087745}, {"type": "node", "id": 11533531445, "lat": 37.2990394, "lon": 13.5506266, "tags": {"amenity": "cafe", "name": "Bar Il Chiosco"}}, {"type": "node", "id": 11533983913, "lat": 37.2923455, "lon": 13.55183, "tags": {"amenity": "cafe", "name": "Caff\u00e8 Letterario Pirandello"}}, {"type": "node", "id": 11581573302, "lat": 37.4221841, "lon": 13.2703747, "tags": {"amenity": "restaurant", "name": "Trattoria del Gallo", "wheelchair": "yes"}}, {"type": "node", "id": 11581640651, "lat": 37.3889873, "lon": 13.3512372, "tags": {"amenity": "cafe", "indoor_seating": "yes", "outdoor_seating": "yes"}}, {"type": "node", "id": 11581923516, "lat": 37.2887507, "lon": 13.5836255, "tags": {"amenity": "restaurant", "name": "Villa Hera"}}, {"type": "node", "id": 11584467986, "lat": 37.2982175, "lon": 13.5908372, "tags": {"amenity": "restaurant", "name": "Caruso", "wheelchair": "yes"}}, {"type": "node", "id": 11586762593, "lat": 37.3050872, "lon": 13.6492398, "tags": {"amenity": "restaurant", "indoor_seating": "yes", "name": "Alchimia", "outdoor_seating": "yes"}}, {"type": "node", "id": 11586782135, "lat": 37.3059674, "lon": 13.6515681, "tags": {"amenity": "cafe", "indoor_seating": "yes", "outdoor_seating": "yes"}}, {"type": "node", "id": 11660233993, "lat": 37.5061129, "lon": 13.1088468, "tags": {"amenity": "restaurant", "cuisine": "pizza", "name": "Pizzeria da Massimo"}}, {"type": "node", "id": 11662869372, "lat": 37.2997614, "lon": 13.5967988, "tags": {"amenity": "restaurant", "indoor_seating": "yes", "name": "Trattoria dei Templi", "outdoor_seating": "yes"}}, {"type": "node", "id": 11662963398, "lat": 37.3037813, "lon": 13.5861079, "tags": {"amenity": "restaurant", "name": "Akropolis"}}, {"type": "node", "id": 11842254155, "lat": 37.3111511, "lon": 13.5822958, "tags": {"addr:city": "Agrigento", "addr:housenumber": "33", "addr:postcode": "92100", "addr:street": "Via Ficani", "amenity": "restaurant", "cuisine": "fish", "name": "Cus\u00e0 fish"}}, {"type": "node", "id": 11862589509, "lat": 37.2961611, "lon": 13.4966212, "tags": {"amenity": "restaurant", "cuisine": "pizza;seafood", "name": "La Spinola", "toilets": "yes", "wheelchair": "designated"}}, {"type": "node", "id": 11876005069, "lat": 37.3123325, "lon": 13.5757027, "tags": {"addr:housenumber": "28", "addr:postcode": "92100", "addr:street": "Via Oblati", "amenity": "restaurant", "cuisine": "fine_dining", "email": "info@salvatorecozzitorto.it", "name": "Cozzitorto", "phone": "3881888604"}}, {"type": "node", "id": 11881362033, "lat": 37.3106193, "lon": 13.5770902, "tags": {"addr:city": "Agrigento", "addr:housenumber": "21", "addr:postcode": "92100", "addr:street": "Via Empedocle", "amenity": "restaurant", "name": "Ginger people and food"}}, {"type": "node", "id": 11893723458, "lat": 37.4992421, "lon": 13.2690078, "tags": {"amenity": "restaurant", "cuisine": "pizza", "name": "Buongustaio", "opening_hours": "Tu-Su 17:00-12:00"}}, {"type": "node", "id": 12015163841, "lat": 37.3233068, "lon": 13.5929543, "tags": {"amenity": "cafe", "name": "Bar Genova"}}, {"type": "node", "id": 12149909285, "lat": 37.4085694, "lon": 13.6437941, "tags": {"amenity": "cafe", "name": "Le Zolfare"}}, {"type": "node", "id": 12255396801, "lat": 37.3106491, "lon": 13.4642517, "tags": {"amenity": "cafe", "name": "Manhattan"}}, {"type": "node", "id": 12285019483, "lat": 37.2892491, "lon": 13.589986, "tags": {"amenity": "cafe", "name": "Casa Barbadoro"}}, {"type": "node", "id": 12895408201, "lat": 37.5762172, "lon": 13.2189411, "tags": {"amenity": "restaurant", "name": "Mates"}}, {"type": "way", "id": 78418360, "nodes": [920269243, 920269236, 920269249, 920269220, 920269243], "tags": {"amenity": "cafe", "building": "yes", "indoor_seating": "yes", "name:signed": "no", "outdoor_seating": "yes", "wheelchair": "yes"}}, {"type": "way", "id": 114816361, "nodes": [1299690182, 1299689248, 1299689235, 1299690430, 1299690392, 1299690182], "tags": {"amenity": "cafe", "building": "yes", "name": "Caffetteria Tabaccheria Arrigo"}}, {"type": "way", "id": 114816533, "nodes": [1299690102, 1299691679, 1299690972, 1299689951, 1299691264, 1299690102], "tags": {"amenity": "cafe", "building": "yes", "name": "Bar San Giuseppe"}}, {"type": "way", "id": 118184946, "nodes": [1329706461, 3006337298, 1329706491, 3006337299, 1329706504, 3006337297, 1329706465, 1329706450, 3006337295, 1329706445, 1329706443, 3006337292, 1329706447, 1329706461], "tags": {"addr:housenumber": "100", "addr:postcode": "92010", "addr:street": "Via Panoramica", "amenity": "restaurant", "building": "yes", "name": "Madison", "website": "http://www.madison-restaurant.com"}}, {"type": "way", "id": 139606992, "nodes": [465242670, 1530190232, 1530190239, 1530190259, 465242670], "tags": {"amenity": "restaurant", "building": "yes", "cuisine": "pizza", "name": "Pizzeria Ristorante Tre Vulcani"}}, {"type": "way", "id": 286707185, "nodes": [2903843492, 2903843493, 2903843494, 2903843495, 2903843492], "tags": {"amenity": "restaurant", "building": "yes", "check_date": "2023-05-11", "cuisine": "italian", "name": "Canaima"}}, {"type": "way", "id": 286707186, "nodes": [2903843496, 2903843497, 2903843498, 2903843499, 2903843496], "tags": {"amenity": "restaurant", "building": "yes", "capacity": "100", "cuisine": "italian;pizza", "name": "Don Pablo", "operator": "Lunas Minoica"}}, {"type": "way", "id": 296814423, "nodes": [3006335688, 3006335692, 3006335679, 3006335678, 3006335673, 3006335671, 3006335668, 4737195922, 3006335664, 3006335663, 3006335669, 3006335672, 3006335675, 3006335691, 3006335688], "tags": {"amenity": "restaurant", "building": "yes", "internet_access": "wlan", "name": "Majata Beach"}}, {"type": "way", "id": 296814425, "nodes": [3006335883, 3006335865, 3006335841, 3006335861, 3006335883], "tags": {"addr:city": "Realmonte", "addr:country": "IT", "addr:hamlet": "Contrada Scavuzzo", "addr:postcode": "92010", "addr:province": "Agrigento", "addr:state": "Italia", "amenity": "restaurant", "building": "retail", "cuisine": "fish;italian;pizza;regional", "name": "Lido Scala dei Turchi", "name:it": "Lido Scala dei Turchi", "opening_hours": "Tu-Su 13:00-15:00, 19:00-23:00", "phone": "+39 0922 814563", "website": "https://ristorante-lido-scala-dei-turchi.business.site/"}}, {"type": "way", "id": 296814632, "nodes": [3006335739, 3006335730, 3006335724, 3006335727, 3006335729, 3006335738, 3006335739], "tags": {"amenity": "cafe", "building": "retail", "name": "Lido Scala dei Turchi", "operator": "Monachino Giovanni", "outdoor_seating": "yes", "takeaway": "yes"}}, {"type": "way", "id": 321501684, "nodes": [3282511296, 3282511299, 3282511300, 3282511301, 3282511302, 3282511303, 10946885696, 3282511296], "tags": {"addr:city": "Eraclea Minoa", "amenity": "restaurant", "building": "yes", "capacity": "50", "cuisine": "regional", "name": "Lido Garibaldi", "website": "http://www.lidogaribaldi.it"}}, {"type": "way", "id": 482919473, "nodes": [4756958383, 4756958384, 4756958385, 4756958386, 4756958387, 4756958388, 4756958389, 4756958383], "tags": {"addr:city": "Siculiana Marina", "amenity": "restaurant", "building": "residential", "capacity": "150", "cuisine": "italian", "name": "Pizzeria le Canne", "opening_hours": "19:00-23:00", "phone": "+39 338 747 6660", "takeaway": "yes"}}, {"type": "way", "id": 570022459, "nodes": [5480809350, 11222026375, 11222026374, 5480804861, 5480809350], "tags": {"amenity": "cafe", "building": "kiosk", "check_date": "2022-11-21", "name": "Bar Portap\u00f2"}}, {"type": "way", "id": 570022583, "nodes": [5480809322, 11221967934, 11221967935, 5480804920, 11221967936, 5480809337, 11221901792, 5480809455, 5480809322], "tags": {"amenity": "cafe", "building": "yes", "check_date": "2025-05-09", "name": "Bar Milano", "outdoor_seating": "yes"}}, {"type": "way", "id": 608696862, "nodes": [5766349190, 5766349191, 5766349192, 5766349193, 8173401540, 8173401541, 8173401543, 8173401542, 5766349190], "tags": {"addr:city": "Sciacca", "addr:housenumber": "10", "addr:postcode": "92019", "addr:street": "Via Fratelli Lo Boj", "amenity": "restaurant", "building": "yes", "cuisine": "italian", "name": "IL Marchese"}}, {"type": "way", "id": 716888570, "nodes": [6733275283, 11526147215, 11526147214, 6733307485, 6733307487, 6733307488, 6733275283], "tags": {"amenity": "cafe", "building": "yes", "name": "Bar della Valle"}}, {"type": "way", "id": 794289064, "nodes": [7428913198, 7428913199, 7428913200, 7428913201, 7428913202, 7428913198], "tags": {"amenity": "restaurant", "building": "yes", "name": "Amare"}}, {"type": "way", "id": 867268997, "nodes": [8084257106, 8084257107, 8084257108, 8084257109, 8084257110, 8084257106], "tags": {"addr:city": "Secca Grande", "addr:postcode": "92016", "addr:street": "Via Leonardo da Vinci", "air_conditioning": "yes", "amenity": "restaurant", "building": "yes", "check_date": "2023-05-09", "cuisine": "pizza;seafood;regional", "name": "Ristorante America Bar", "opening_hours": "Mo-Su 09:00-00:45", "phone": "+39 3389243861", "takeaway": "no", "website": "https://american-bar-restaurant.business.site", "wheelchair": "yes"}}, {"type": "way", "id": 1175256373, "nodes": [10921116214, 10921116213, 10921116215, 10921116216, 10921116217, 10921116218, 10921116219, 10921116220, 10921116214], "tags": {"amenity": "restaurant", "building": "yes"}}, {"type": "way", "id": 1211913600, "nodes": [11227811330, 11227811331, 11227811328, 11227811300, 11227811299, 11227811298, 11227811297, 11227811329, 11227811330], "tags": {"amenity": "restaurant", "building": "yes", "building:levels": "4", "cuisine": "italian;pizza", "name": "Montemare"}}, {"type": "way", "id": 1236591917, "nodes": [11482690884, 11482690882, 11482690878, 11482690889, 11482690886, 11482690890, 11482690884], "tags": {"amenity": "restaurant", "building": "yes"}}]}