{"version": 0.6, "generator": "Overpass API 0.7.62.7 375dc00a", "osm3s": {"timestamp_osm_base": "2025-06-14T13:58:38Z", "copyright": "The data included in this document is from www.openstreetmap.org. The data is made available under ODbL."}, "elements": [{"type": "node", "id": 2406994106, "lat": 39.726715, "lon": 16.4839272}, {"type": "node", "id": 2406994107, "lat": 39.7267139, "lon": 16.4840606}, {"type": "node", "id": 2406994108, "lat": 39.7267652, "lon": 16.4840579}, {"type": "node", "id": 2406994109, "lat": 39.7267705, "lon": 16.4841872}, {"type": "node", "id": 2406994110, "lat": 39.7268794, "lon": 16.4839217}, {"type": "node", "id": 2406994111, "lat": 39.7268877, "lon": 16.4840892}, {"type": "node", "id": 2406994112, "lat": 39.7268961, "lon": 16.4841777}, {"type": "node", "id": 2406994113, "lat": 39.7268982, "lon": 16.4842199}, {"type": "node", "id": 2406994114, "lat": 39.7269286, "lon": 16.4840838}, {"type": "node", "id": 2406994115, "lat": 39.7269317, "lon": 16.4842186}, {"type": "node", "id": 2705558218, "lat": 39.6153471, "lon": 16.7019383, "tags": {"amenity": "restaurant"}}, {"type": "node", "id": 2705558292, "lat": 39.6153161, "lon": 16.7021207, "tags": {"amenity": "cafe"}}, {"type": "node", "id": 2705564548, "lat": 39.6157231, "lon": 16.7028878, "tags": {"amenity": "cafe"}}, {"type": "node", "id": 2824209285, "lat": 39.8808782, "lon": 16.542821}, {"type": "node", "id": 2824209293, "lat": 39.8809466, "lon": 16.5429147}, {"type": "node", "id": 2824209298, "lat": 39.880996, "lon": 16.5426749}, {"type": "node", "id": 2824209303, "lat": 39.8810644, "lon": 16.5427686}, {"type": "node", "id": 3016570747, "lat": 39.6115219, "lon": 16.64201, "tags": {"addr:street": "Contrada Foti", "amenity": "restaurant", "name": "Vaccheria Foti", "opening_hours": "\"Su appuntamento\""}}, {"type": "node", "id": 3120150358, "lat": 39.9755642, "lon": 16.6175937}, {"type": "node", "id": 3120150360, "lat": 39.9758294, "lon": 16.6176018}, {"type": "node", "id": 3120150361, "lat": 39.9755827, "lon": 16.6177413}, {"type": "node", "id": 3120150363, "lat": 39.9758014, "lon": 16.6175091}, {"type": "node", "id": 3120150376, "lat": 39.9756518, "lon": 16.6175928}, {"type": "node", "id": 3120150381, "lat": 39.975558, "lon": 16.6176688}, {"type": "node", "id": 3120150386, "lat": 39.9756135, "lon": 16.6175669}, {"type": "node", "id": 3124060526, "lat": 39.9718035, "lon": 16.6202954, "tags": {"addr:city": "Roseto Capo Spulico", "addr:housenumber": "82", "addr:postcode": "87070", "addr:street": "Via Nazionale", "amenity": "restaurant", "name": "Al Campo di Grano"}}, {"type": "node", "id": 3485278248, "lat": 39.8459639, "lon": 16.4542558, "tags": {"addr:city": "Villapiana", "addr:postcode": "87076", "addr:street": "mapsia Abbruzzo", "amenity": "restaurant", "cuisine": "pizza;coffee_shop;regional", "name": "Bar Rosticceria \"Il Postino \"", "takeaway": "yes"}}, {"type": "node", "id": 3598494783, "lat": 39.8617576, "lon": 16.3812773, "tags": {"amenity": "restaurant", "name": "Fontana vecchia"}}, {"type": "node", "id": 3598494784, "lat": 39.8616855, "lon": 16.3813256, "tags": {"amenity": "cafe"}}, {"type": "node", "id": 3624007521, "lat": 39.8450124, "lon": 16.4547242, "tags": {"amenity": "cafe", "name": "Rovitti"}}, {"type": "node", "id": 3624007527, "lat": 39.8449317, "lon": 16.4548049, "tags": {"amenity": "restaurant"}}, {"type": "node", "id": 3899099578, "lat": 39.5697727, "lon": 16.3489796, "tags": {"amenity": "restaurant", "cuisine": "italian", "name": "Ristorante Corsini"}}, {"type": "node", "id": 3903859070, "lat": 39.6209852, "lon": 16.3307816, "tags": {"amenity": "restaurant", "cuisine": "italian", "name": "Ristorante Quercia Rotonda"}}, {"type": "node", "id": 3904549594, "lat": 39.569248, "lon": 16.3576323, "tags": {"amenity": "restaurant", "check_date": "2023-11-15", "name": "Speedy Pizza da Fabio"}}, {"type": "node", "id": 4689027897, "lat": 39.6632967, "lon": 16.4504875}, {"type": "node", "id": 4689027907, "lat": 39.6633349, "lon": 16.4505492}, {"type": "node", "id": 4689027918, "lat": 39.6633969, "lon": 16.4504942}, {"type": "node", "id": 4689027920, "lat": 39.6634051, "lon": 16.4503963}, {"type": "node", "id": 4689027923, "lat": 39.6634103, "lon": 16.450521}, {"type": "node", "id": 4689027927, "lat": 39.6634351, "lon": 16.4504942}, {"type": "node", "id": 4689027930, "lat": 39.6634537, "lon": 16.4504835}, {"type": "node", "id": 4810615354, "lat": 39.82723, "lon": 16.3131184}, {"type": "node", "id": 4810615355, "lat": 39.8272784, "lon": 16.3131291}, {"type": "node", "id": 4810615356, "lat": 39.8273031, "lon": 16.3131479}, {"type": "node", "id": 4810615357, "lat": 39.8272949, "lon": 16.3131908}, {"type": "node", "id": 4810615358, "lat": 39.8272454, "lon": 16.3132082}, {"type": "node", "id": 4810615359, "lat": 39.8271744, "lon": 16.3132056}, {"type": "node", "id": 4810615360, "lat": 39.8270704, "lon": 16.3132552}, {"type": "node", "id": 4810615361, "lat": 39.8270786, "lon": 16.3131063}, {"type": "node", "id": 4810615530, "lat": 39.8261648, "lon": 16.3152641}, {"type": "node", "id": 4810615531, "lat": 39.8262514, "lon": 16.3153593}, {"type": "node", "id": 4810615532, "lat": 39.826105, "lon": 16.3155848}, {"type": "node", "id": 4810615533, "lat": 39.8260185, "lon": 16.3154895}, {"type": "node", "id": 4811664046, "lat": 39.8269928, "lon": 16.3131395, "tags": {"amenity": "cafe", "cuisine": "coffee_shop", "name": "Euro Bar 2000"}}, {"type": "node", "id": 4811664155, "lat": 39.8277282, "lon": 16.3129892, "tags": {"amenity": "restaurant", "cuisine": "pizza"}}, {"type": "node", "id": 4811664160, "lat": 39.8271308, "lon": 16.3128283, "tags": {"amenity": "cafe", "cuisine": "coffee_shop"}}, {"type": "node", "id": 4867817855, "lat": 39.8644392, "lon": 16.5327724, "tags": {"amenity": "restaurant", "cuisine": "pizza", "name": "Capri"}}, {"type": "node", "id": 4867817856, "lat": 39.8632656, "lon": 16.531834, "tags": {"amenity": "restaurant", "cuisine": "pizza", "name": "Lido Carlino"}}, {"type": "node", "id": 4867817886, "lat": 39.5746927, "lon": 16.6344983, "tags": {"amenity": "cafe", "name": "Mango"}}, {"type": "node", "id": 4867817960, "lat": 39.867945, "lon": 16.5352288, "tags": {"amenity": "restaurant", "cuisine": "pizza", "name": "Da Raffaele"}}, {"type": "node", "id": 4867817996, "lat": 39.8292707, "lon": 16.3154509, "tags": {"amenity": "cafe", "name": "L'oasi del raganello"}}, {"type": "node", "id": 4867818038, "lat": 39.8635476, "lon": 16.5320579, "tags": {"amenity": "restaurant", "cuisine": "pizza", "name": "La Barca"}}, {"type": "node", "id": 4867818039, "lat": 39.8662612, "lon": 16.5296177, "tags": {"amenity": "cafe", "name": "Carpe Diem"}}, {"type": "node", "id": 4989102824, "lat": 39.8809777, "lon": 16.5450952, "tags": {"amenity": "restaurant", "name": "pizzeria capraro"}}, {"type": "node", "id": 5098855521, "lat": 39.745823, "lon": 16.4845556, "tags": {"amenity": "restaurant", "name": "Aquarium Ristorante Pizzeria", "name:it": "Aquarium Ristorante Pizzeria"}}, {"type": "node", "id": 5098878733, "lat": 39.730004, "lon": 16.506195, "tags": {"amenity": "restaurant", "name": "Anto's", "name:it": "Anto's"}}, {"type": "node", "id": 5098923729, "lat": 39.7359599, "lon": 16.5048245, "tags": {"amenity": "restaurant", "name": "Mary Gyu Restaurante", "name:it": "Mary Gyu Restaurante"}}, {"type": "node", "id": 5098933326, "lat": 39.7454372, "lon": 16.4497656, "tags": {"amenity": "restaurant", "name": "Il Focolaio", "name:it": "Il Focolaio"}}, {"type": "node", "id": 5098949421, "lat": 39.7277551, "lon": 16.5138412, "tags": {"amenity": "restaurant", "name": "Oleandro", "name:it": "Oleandro"}}, {"type": "node", "id": 5122666038, "lat": 39.6917463, "lon": 16.5202158}, {"type": "node", "id": 5122666039, "lat": 39.6920822, "lon": 16.5200912}, {"type": "node", "id": 5122666040, "lat": 39.6920429, "lon": 16.5199121}, {"type": "node", "id": 5122666041, "lat": 39.691707, "lon": 16.5200367}, {"type": "node", "id": 5235087732, "lat": 39.6137843, "lon": 16.6123259, "tags": {"amenity": "restaurant"}}, {"type": "node", "id": 5235267160, "lat": 39.8118265, "lon": 16.4905402, "tags": {"amenity": "restaurant", "name": "Trattoria Pizzeria Mare blu"}}, {"type": "node", "id": 5235267173, "lat": 39.8013365, "lon": 16.4844999, "tags": {"amenity": "restaurant", "name": "Ristorante La Fonte"}}, {"type": "node", "id": 5235269757, "lat": 39.7569995, "lon": 16.4640909, "tags": {"amenity": "restaurant"}}, {"type": "node", "id": 5254290692, "lat": 39.6600718, "lon": 16.5131485, "tags": {"amenity": "restaurant", "name": "Ristorante Pizzeria La Tavola"}}, {"type": "node", "id": 5546522556, "lat": 39.5705661, "lon": 16.3582713, "tags": {"amenity": "restaurant", "check_date": "2023-11-15", "name": "Pizzeria Pit Stop"}}, {"type": "node", "id": 5667830822, "lat": 39.6020361, "lon": 16.6402885, "tags": {"amenity": "cafe", "name": "American Bar"}}, {"type": "node", "id": 5901243181, "lat": 39.7017716, "lon": 16.5256049}, {"type": "node", "id": 5901243182, "lat": 39.7017559, "lon": 16.5257637}, {"type": "node", "id": 5901243183, "lat": 39.7019434, "lon": 16.525795}, {"type": "node", "id": 5901243184, "lat": 39.7019591, "lon": 16.5256362}, {"type": "node", "id": 6444141520, "lat": 39.8466014, "lon": 16.4526707, "tags": {"amenity": "restaurant", "name": "Osteria Cavour"}}, {"type": "node", "id": 6561621238, "lat": 39.7478625, "lon": 16.4536798, "tags": {"amenity": "restaurant", "name": "Lo Stadio"}}, {"type": "node", "id": 6747294285, "lat": 39.8277211, "lon": 16.3129949, "tags": {"amenity": "restaurant", "name": "Agora"}}, {"type": "node", "id": 7126843122, "lat": 39.816601, "lon": 16.4852631}, {"type": "node", "id": 7126843139, "lat": 39.8165171, "lon": 16.4850032}, {"type": "node", "id": 7126843145, "lat": 39.8167412, "lon": 16.4853108}, {"type": "node", "id": 7126843147, "lat": 39.8164734, "lon": 16.4852194}, {"type": "node", "id": 7126843151, "lat": 39.8167848, "lon": 16.4850948}, {"type": "node", "id": 7126843155, "lat": 39.8166845, "lon": 16.4852914}, {"type": "node", "id": 7473023672, "lat": 39.6490541, "lon": 16.5364899, "tags": {"addr:city": "Corigliano Calabro", "addr:housenumber": "37", "addr:postcode": "87064", "addr:street": "Via degli Iris", "amenity": "restaurant", "contact:instagram": "https://instagram.com/giuseppe_pizzeriailportico", "cuisine": "pizza", "email": "pizzeriailportico@libero.it", "name": "Il Portico", "opening_hours": "Mo-Su 18:30-24:00", "phone": "+39 0983 030882;+39 0983 524684", "phone:mobile": "+39 328 595 1552", "website": "https://pizzeriailportico.it.gg/"}}, {"type": "node", "id": 7669399284, "lat": 39.6609916, "lon": 16.5133699, "tags": {"amenity": "restaurant", "description": "tavola calda, bar, tabacchi", "name": "I 5 gradini"}}, {"type": "node", "id": 7933834259, "lat": 39.5751682, "lon": 16.6331894, "tags": {"amenity": "cafe", "name": "Caff\u00e8 Tagliaferri", "outdoor_seating": "yes"}}, {"type": "node", "id": 8358555642, "lat": 39.9796524, "lon": 16.6176963}, {"type": "node", "id": 8358555643, "lat": 39.9796959, "lon": 16.6176392}, {"type": "node", "id": 8358555644, "lat": 39.9796693, "lon": 16.6175046}, {"type": "node", "id": 8358555645, "lat": 39.9796766, "lon": 16.6175417}, {"type": "node", "id": 8358555646, "lat": 39.9796252, "lon": 16.6175163}, {"type": "node", "id": 8358555647, "lat": 39.979582, "lon": 16.6175379}, {"type": "node", "id": 8358555648, "lat": 39.979557, "lon": 16.6175972}, {"type": "node", "id": 8358555649, "lat": 39.9795628, "lon": 16.6176476}, {"type": "node", "id": 8358555650, "lat": 39.9795891, "lon": 16.6176874}, {"type": "node", "id": 8358555651, "lat": 39.9797047, "lon": 16.6176837}, {"type": "node", "id": 8358555652, "lat": 39.9799221, "lon": 16.6176105}, {"type": "node", "id": 8358555653, "lat": 39.979885, "lon": 16.6174335}, {"type": "node", "id": 8364219036, "lat": 39.6655557, "lon": 16.4442784, "tags": {"amenity": "cafe", "name": "Bar del passante"}}, {"type": "node", "id": 8375952771, "lat": 39.8095506, "lon": 16.4098473, "tags": {"amenity": "cafe", "tobacco": "yes"}}, {"type": "node", "id": 8375952774, "lat": 39.811533, "lon": 16.4002592, "tags": {"amenity": "cafe"}}, {"type": "node", "id": 8375952775, "lat": 39.8116401, "lon": 16.3999159, "tags": {"amenity": "restaurant", "cuisine": "pizza", "name": "Il Ghiotto"}}, {"type": "node", "id": 8375952798, "lat": 39.8112318, "lon": 16.402401, "tags": {"amenity": "cafe"}}, {"type": "node", "id": 8375952801, "lat": 39.8122713, "lon": 16.4031139, "tags": {"amenity": "cafe"}}, {"type": "node", "id": 8375952807, "lat": 39.812653, "lon": 16.3971645, "tags": {"amenity": "cafe", "shop": "tobacco"}}, {"type": "node", "id": 8375997864, "lat": 39.8190178, "lon": 16.3873216, "tags": {"amenity": "cafe"}}, {"type": "node", "id": 8376101815, "lat": 39.8175412, "lon": 16.3984301, "tags": {"amenity": "restaurant", "name": "La Silva"}}, {"type": "node", "id": 8534518618, "lat": 39.8266499, "lon": 16.3155898, "tags": {"addr:housenumber": "2", "addr:street": "Corso Cavallotti", "amenity": "restaurant", "name": "L'oste d'Arberia"}}, {"type": "node", "id": 8846110563, "lat": 39.986481, "lon": 16.6023748, "tags": {"addr:city": "Roseto Capo Spulico", "addr:postcode": "87070", "addr:street": "Via Giacomo Matteotti", "amenity": "restaurant", "cuisine": "fish", "name": "Al Pozzo Antico"}}, {"type": "node", "id": 8846110567, "lat": 39.9858603, "lon": 16.6045121, "tags": {"addr:city": "Roseto Capo Spulico", "addr:housenumber": "7", "addr:postcode": "87070", "addr:street": "Via Civita", "amenity": "restaurant", "name": "Peperoncino Rosso"}}, {"type": "node", "id": 8846256393, "lat": 39.9751072, "lon": 16.6193069, "tags": {"addr:city": "Borgata Marina", "addr:housenumber": "13", "addr:postcode": "87070", "addr:street": "Via Lungomare degli Achei", "amenity": "restaurant", "check_date:opening_hours": "2023-12-12", "indoor_seating": "yes", "name": "La Vela", "opening_hours:signed": "no", "outdoor_seating": "yes", "wheelchair": "yes"}}, {"type": "node", "id": 8846256394, "lat": 39.9736423, "lon": 16.6191814, "tags": {"addr:city": "Roseto Capo Spulico", "addr:housenumber": "9", "addr:postcode": "87070", "addr:street": "Strada Statale 106 Jonica", "amenity": "restaurant", "name": "Bar Ristorante Pizzeria B&B Da Mario"}}, {"type": "node", "id": 8846256396, "lat": 39.9718336, "lon": 16.6211864, "tags": {"addr:city": "Borgata Marina", "addr:postcode": "87070", "addr:street": "Via Siris", "amenity": "cafe", "name": "Bar Sport"}}, {"type": "node", "id": 8846256399, "lat": 39.9730669, "lon": 16.6213344, "tags": {"addr:city": "Borgata Marina", "addr:housenumber": "124", "addr:postcode": "87070", "addr:street": "Via Lungomare degli Achei", "amenity": "restaurant", "cuisine": "pizza", "name": "Old School Pizzeria"}}, {"type": "node", "id": 8846256401, "lat": 39.9706037, "lon": 16.6210972, "tags": {"addr:city": "Borgata Marina", "addr:housenumber": "136", "addr:postcode": "87070", "addr:street": "Strada Statale 106 Jonica", "amenity": "cafe", "name": "Bar Caffetteria Napoli"}}, {"type": "node", "id": 8846256403, "lat": 39.9697815, "lon": 16.6215364, "tags": {"addr:city": "Borgata Marina", "addr:postcode": "87070", "addr:street": "Strada Statale 106 Jonica", "amenity": "restaurant", "name": "La Fermata"}}, {"type": "node", "id": 8846256404, "lat": 39.9694562, "lon": 16.6216484, "tags": {"addr:city": "Roseto Capo Spulico", "addr:housenumber": "3", "addr:postcode": "87070", "addr:street": "Via Campania", "amenity": "restaurant", "name": "Ristorante Nettuno"}}, {"type": "node", "id": 8846256406, "lat": 39.969996, "lon": 16.624399, "tags": {"addr:city": "Borgata Marina", "addr:housenumber": "46", "addr:postcode": "87070", "addr:street": "Via Metaponto", "amenity": "restaurant", "name": "La terrazza del gusto"}}, {"type": "node", "id": 8846256407, "lat": 39.9700889, "lon": 16.6246347, "tags": {"addr:city": "Borgata Marina", "addr:postcode": "87070", "addr:street": "Via Lungomare degli Achei", "amenity": "restaurant", "cuisine": "pizza", "name": "Ristorante Pizzeria La Stiva"}}, {"type": "node", "id": 8982439431, "lat": 39.6547032, "lon": 16.5412369}, {"type": "node", "id": 8982439432, "lat": 39.6547838, "lon": 16.5413111}, {"type": "node", "id": 8982439433, "lat": 39.6547425, "lon": 16.5413867}, {"type": "node", "id": 8982439434, "lat": 39.6546619, "lon": 16.5413124}, {"type": "node", "id": 9532642099, "lat": 39.9796016, "lon": 16.6175227}, {"type": "node", "id": 9532642100, "lat": 39.9796775, "lon": 16.6176755}, {"type": "node", "id": 9532642101, "lat": 39.9796209, "lon": 16.6177017}, {"type": "node", "id": 9532642102, "lat": 39.9795762, "lon": 16.6176735}, {"type": "node", "id": 9532642103, "lat": 39.9795624, "lon": 16.6175718}, {"type": "node", "id": 9532642104, "lat": 39.9796555, "lon": 16.6175237}, {"type": "node", "id": 9803886417, "lat": 39.6165097, "lon": 16.6383195, "tags": {"amenity": "restaurant", "name": "Bella Napoli"}}, {"type": "node", "id": 9804109418, "lat": 39.6184214, "lon": 16.6367406, "tags": {"amenity": "restaurant", "name": "La Torre"}}, {"type": "node", "id": 9804123017, "lat": 39.6192403, "lon": 16.6405411, "tags": {"amenity": "restaurant", "name": "La Balera"}}, {"type": "node", "id": 9804428317, "lat": 39.6191018, "lon": 16.6455386, "tags": {"amenity": "restaurant", "name": "LulaPaluza"}}, {"type": "node", "id": 9804736517, "lat": 39.6187376, "lon": 16.6382453, "tags": {"amenity": "restaurant", "name": "il Fondaco"}}, {"type": "node", "id": 9838756229, "lat": 39.7482628, "lon": 16.4539152, "tags": {"amenity": "cafe", "name": "Sibacioc", "website": "https://www.facebook.com/Bar-Caffetteria-Sibacioc-1208845605939083/"}}, {"type": "node", "id": 9838766153, "lat": 39.747731, "lon": 16.4542784, "tags": {"amenity": "cafe", "name": "Vesuvius"}}, {"type": "node", "id": 9838777764, "lat": 39.7494038, "lon": 16.4539296, "tags": {"amenity": "cafe", "name": "Caffetteria del Nonno"}}, {"type": "node", "id": 10016884625, "lat": 39.8414046, "lon": 16.4025959, "tags": {"amenity": "cafe"}}, {"type": "node", "id": 10173625721, "lat": 39.6486629, "lon": 16.5473372, "tags": {"amenity": "restaurant", "cuisine": "fish;italian;mediterranean", "name": "Il Caciucco", "outdoor_seating": "yes", "phone": "+39 0983 878868"}}, {"type": "node", "id": 11010513067, "lat": 39.7386917, "lon": 16.471943}, {"type": "node", "id": 11010513070, "lat": 39.7386218, "lon": 16.4720043}, {"type": "node", "id": 11010513071, "lat": 39.7388303, "lon": 16.4718214}, {"type": "node", "id": 11010513072, "lat": 39.7387192, "lon": 16.4716073}, {"type": "node", "id": 11010513073, "lat": 39.7384643, "lon": 16.4718309}, {"type": "node", "id": 11010513074, "lat": 39.7385753, "lon": 16.472045}, {"type": "node", "id": 11010513075, "lat": 39.7385004, "lon": 16.4719005}, {"type": "node", "id": 11010513076, "lat": 39.7384503, "lon": 16.4719445}, {"type": "node", "id": 11010513077, "lat": 39.7385178, "lon": 16.4720747}, {"type": "node", "id": 11010513078, "lat": 39.7385679, "lon": 16.4720307}, {"type": "node", "id": 11010513091, "lat": 39.7384853, "lon": 16.4718124}, {"type": "node", "id": 11010513093, "lat": 39.738702, "lon": 16.4716224}, {"type": "node", "id": 11045894362, "lat": 39.658633, "lon": 16.5345395, "tags": {"amenity": "cafe", "cuisine": "regional;coffee_shop;italian;sandwich;ice_cream;breakfast", "name": "La Perla Ionica", "outdoor_seating": "yes"}}, {"type": "node", "id": 11412763057, "lat": 39.9506461, "lon": 16.6185557, "tags": {"amenity": "cafe", "check_date:opening_hours": "2023-12-12", "indoor_seating": "no", "name": "Chiosco Alla Torre", "opening_hours:signed": "no", "outdoor_seating": "yes", "wheelchair": "yes"}}, {"type": "node", "id": 11415270440, "lat": 39.6063521, "lon": 16.7231813, "tags": {"amenity": "cafe"}}, {"type": "node", "id": 11415472304, "lat": 39.6742998, "lon": 16.5046297, "tags": {"amenity": "cafe", "indoor_seating": "yes", "name": "Nero Caff\u00e8", "outdoor_seating": "no", "wheelchair": "yes"}}, {"type": "node", "id": 11506153578, "lat": 39.6036023, "lon": 16.5740885, "tags": {"amenity": "restaurant", "name": "La Dolce Vita"}}, {"type": "node", "id": 11530053787, "lat": 39.650526, "lon": 16.5397593, "tags": {"amenity": "cafe", "name": "Gilda"}}, {"type": "node", "id": 11548030283, "lat": 39.6315676, "lon": 16.5053004, "tags": {"amenity": "restaurant", "cuisine": "sushi", "name": "OYA sushi"}}, {"type": "node", "id": 11833932669, "lat": 39.5967052, "lon": 16.6328136, "tags": {"addr:housenumber": "22", "addr:postcode": "87067", "addr:street": "Piazza Dante", "amenity": "restaurant", "cuisine": "fine_dining;fish;italian;local", "name": "Ristorante Il Graticcio", "name:en": "Il Graticcio", "opening_hours": "Mo-Su 10:30-22:30", "phone": "0983510605"}}, {"type": "node", "id": 11882084826, "lat": 39.5806429, "lon": 16.8193774, "tags": {"addr:city": "Calopezzati", "addr:country": "IT", "addr:housenumber": "47", "addr:postcode": "87060", "addr:street": "Viale Luigi De Mundo", "amenity": "cafe", "mobile": "+39 327 3704258", "name": "Bar delle Rose"}}, {"type": "node", "id": 11882084831, "lat": 39.5805722, "lon": 16.8191976, "tags": {"addr:city": "Calopezzati", "addr:housenumber": "3", "addr:postcode": "87060", "addr:street": "Via De Marco", "amenity": "restaurant", "name": "La lanterna", "phone": "+39 0983 44300", "ref:vatin": "IT02037130784"}}, {"type": "node", "id": 12035136268, "lat": 39.5808704, "lon": 16.8183791, "tags": {"addr:city": "Calopezzati", "addr:country": "IT", "addr:housenumber": "3", "addr:postcode": "87060", "addr:street": "Viale 8 marzo", "amenity": "cafe", "name": "Pit stop"}}, {"type": "node", "id": 12244117326, "lat": 39.6193867, "lon": 16.6284413, "tags": {"amenity": "restaurant", "name": "Il Ristorante by Oriental Park"}}, {"type": "node", "id": 12244179804, "lat": 39.687882, "lon": 16.5216435, "tags": {"amenity": "restaurant"}}, {"type": "node", "id": 12330980138, "lat": 40.0077358, "lon": 16.4820044, "tags": {"amenity": "restaurant", "contact:facebook": "https://www.facebook.com/agriturismo.nonnamaria", "name": "Agriturismo Nonna Maria", "opening_hours": "Mo-Th 12:00-15:00,19:00-00:00", "phone": "+393477950565", "website": "http://agriturismononnamaria.eatbu.com/"}}, {"type": "node", "id": 12334251464, "lat": 39.562093, "lon": 16.4153887, "tags": {"amenity": "restaurant", "name": "Il cacciatore"}}, {"type": "way", "id": 232342993, "nodes": [2406994106, 2406994110, 2406994111, 2406994114, 2406994115, 2406994113, 2406994112, 2406994109, 2406994108, 2406994107, 2406994106], "tags": {"amenity": "restaurant", "building": "yes", "capacity": "50", "cuisine": "italian", "diet:vegan": "yes", "diet:vegetarian": "yes", "name": "Ciao Ciao", "opening_hours": "PH,Tu-Su 05:00-22:00"}}, {"type": "way", "id": 277987708, "nodes": [2824209298, 2824209303, 2824209293, 2824209285, 2824209298], "tags": {"amenity": "restaurant", "building": "yes", "name": "Cockito srl"}}, {"type": "way", "id": 306977601, "nodes": [3120150363, 3120150360, 3120150361, 3120150381, 3120150358, 3120150386, 3120150376, 3120150363], "tags": {"addr:city": "Roseto Capo Spulico", "addr:housenumber": "9", "addr:postcode": "87070", "addr:street": "Via Nazionale", "amenity": "restaurant", "building": "yes", "name": "Il Gelso", "phone": "+39 0981 913109"}}, {"type": "way", "id": 475098922, "nodes": [4689027920, 4689027897, 4689027907, 4689027918, 4689027923, 4689027927, 4689027930, 4689027920], "tags": {"amenity": "cafe", "building": "yes", "outdoor_seating": "yes"}}, {"type": "way", "id": 488771329, "nodes": [4810615361, 4810615360, 4810615359, 4810615358, 4810615357, 4810615356, 4810615355, 4810615354, 4810615361], "tags": {"amenity": "restaurant", "building": "yes", "name": "Kamastra"}}, {"type": "way", "id": 488771380, "nodes": [4810615533, 4810615530, 4810615531, 4810615532, 4810615533], "tags": {"amenity": "restaurant", "building": "yes", "cuisine": "regional", "name": "L'ulivo"}}, {"type": "way", "id": 526863898, "nodes": [5122666041, 5122666040, 5122666039, 5122666038, 5122666041], "tags": {"amenity": "restaurant"}}, {"type": "way", "id": 625005221, "nodes": [5901243184, 5901243183, 5901243182, 5901243181, 5901243184], "tags": {"amenity": "restaurant", "building": "yes", "cuisine": "italian;pizza;seafood", "name": "Lido Aurora", "outdoor_seating": "yes", "phone": "+39 0983 851341", "website": "https://www.lidoaurora.it/"}}, {"type": "way", "id": 762717223, "nodes": [7126843151, 7126843145, 7126843155, 7126843122, 7126843147, 7126843139, 7126843151], "tags": {"amenity": "cafe", "building": "yes", "cuisine": "italian", "image": "https://www.mapillary.com/map/im/iBna2IE1J9r1HdtHY0Sf7w", "mapillary": "iBna2IE1J9r1HdtHY0Sf7w", "name": "Cokito Caff\u00e8"}}, {"type": "way", "id": 899611278, "nodes": [8358555653, 8358555652, 8358555651, 8358555643, 9532642100, 8358555642, 9532642101, 8358555650, 9532642102, 8358555649, 8358555648, 9532642103, 8358555647, 9532642099, 8358555646, 9532642104, 8358555645, 8358555644, 8358555653], "tags": {"amenity": "restaurant", "building": "yes", "name": "Laguna Blu"}}, {"type": "way", "id": 970576265, "nodes": [8982439431, 8982439432, 8982439433, 8982439434, 8982439431], "tags": {"amenity": "restaurant", "bar": "yes", "building": "yes", "contact:facebook": "https://www.facebook.com/FridaBeachAversente", "contact:mobile": "+39 376 0424898", "description": "Lido, Stabilimento Balneare, Bar, Ristorante", "name": "Frida Beach", "opening_hours": "8:00-20:30", "takeaway": "yes", "wheelchair": "yes"}}, {"type": "way", "id": 1185488494, "nodes": [11010513078, 11010513074, 11010513070, 11010513067, 11010513071, 11010513072, 11010513093, 11010513091, 11010513073, 11010513075, 11010513076, 11010513077, 11010513078], "tags": {"amenity": "cafe", "building": "yes", "cuisine": "italian;pizza;coffee_shop;ice_cream;dessert", "name": "Bar Pasticceria Martucci", "outdoor_seating": "no", "payment:cash": "yes", "payment:credit_cards": "yes", "payment:debit_cards": "yes"}}]}