{"version": 0.6, "generator": "Overpass API 0.7.62.7 375dc00a", "osm3s": {"timestamp_osm_base": "2025-06-14T14:55:36Z", "copyright": "The data included in this document is from www.openstreetmap.org. The data is made available under ODbL."}, "elements": [{"type": "node", "id": 1769811872, "lat": 39.6289269, "lon": 28.3854142, "tags": {"amenity": "restaurant", "name": "Su\u00e7\u0131kt\u0131 Adema\u011fa Tesisleri"}}, {"type": "node", "id": 4439732179, "lat": 39.642551, "lon": 27.8865605, "tags": {"amenity": "restaurant", "name": "Pier Cafe Bistro"}}, {"type": "node", "id": 4440380134, "lat": 39.6157969, "lon": 27.8935526, "tags": {"addr:city": "Bal\u0131kesir", "addr:housenumber": "1/A", "addr:street": "Plevne Mah .226. Sok.", "amenity": "restaurant", "brand": "K\u00f6fteci Yusuf", "brand:wikidata": "Q126125081", "cuisine": "turkish", "name": "K\u00f6fteci Yusuf", "phone": "2662213021"}}, {"type": "node", "id": 4849125759, "lat": 39.6652582, "lon": 27.9098634, "tags": {"addr:city": "Bal\u0131kesir", "addr:district": "Karesi", "amenity": "restaurant"}}, {"type": "node", "id": 5001991221, "lat": 39.6379023, "lon": 27.8795368, "tags": {"amenity": "cafe"}}, {"type": "node", "id": 5137001096, "lat": 39.6568478, "lon": 27.8481507}, {"type": "node", "id": 5137001097, "lat": 39.6569183, "lon": 27.8482706}, {"type": "node", "id": 5137001098, "lat": 39.6568297, "lon": 27.8483586}, {"type": "node", "id": 5137001099, "lat": 39.6567591, "lon": 27.8482387}, {"type": "node", "id": 5137409588, "lat": 39.6551057, "lon": 27.8586558}, {"type": "node", "id": 5137409589, "lat": 39.6549882, "lon": 27.8585902}, {"type": "node", "id": 5137409590, "lat": 39.6549421, "lon": 27.8587295}, {"type": "node", "id": 5137409591, "lat": 39.6550595, "lon": 27.8587952}, {"type": "node", "id": 5144487870, "lat": 39.6257911, "lon": 27.8996683, "tags": {"addr:city": "Bal\u0131kesir", "addr:district": "Alt\u0131eyl\u00fcl", "addr:housenumber": "139", "addr:neighbourhood": "Bah\u00e7elievler Mahallesi", "addr:postcode": "10100", "addr:street": "100. Y\u0131l Teknik Lisesi Caddesi", "amenity": "restaurant", "cuisine": "meat;barbecue;kebab", "delivery": "yes", "name": "Palaz Et Restaurant", "phone": "+90 266 245 65 00", "takeaway": "yes", "website": "https://www.palazet.com.tr/"}}, {"type": "node", "id": 5328120197, "lat": 39.6208096, "lon": 27.9008235}, {"type": "node", "id": 5328120198, "lat": 39.6207923, "lon": 27.9007734}, {"type": "node", "id": 5328120199, "lat": 39.6207171, "lon": 27.9008169}, {"type": "node", "id": 5328120200, "lat": 39.6207343, "lon": 27.900867}, {"type": "node", "id": 5337643763, "lat": 39.6289285, "lon": 27.8944687}, {"type": "node", "id": 5337643764, "lat": 39.6290448, "lon": 27.8944733}, {"type": "node", "id": 5337643765, "lat": 39.6290424, "lon": 27.8946582}, {"type": "node", "id": 5337643766, "lat": 39.6289202, "lon": 27.894652}, {"type": "node", "id": 5374627456, "lat": 39.6591974, "lon": 27.8684749, "tags": {"addr:housenumber": "37", "addr:neighbourhood": "1. Sakarya Mahallesi", "addr:street": "Ertu\u011frul Gazi Caddesi", "amenity": "restaurant", "capacity": "1220", "cuisine": "turkish", "delivery": "yes", "diet:meat": "yes", "name": "Vagon D\u00f6ner \u0130skender & Et Restoran", "outdoor_seating": "yes", "parking": "surface", "phone": "+90 266 224 08 00", "smoking": "outside", "takeaway": "only", "website": "https://www.vagondoner.com.tr", "year": "2016"}}, {"type": "node", "id": 5377245470, "lat": 39.5365399, "lon": 28.0079758, "tags": {"amenity": "cafe"}}, {"type": "node", "id": 5379892004, "lat": 39.5369994, "lon": 28.0122588, "tags": {"amenity": "cafe"}}, {"type": "node", "id": 5387488921, "lat": 39.6298031, "lon": 27.8982328, "tags": {"amenity": "cafe", "cuisine": "cake;bagel;tea;savory_pancakes", "name": "Asl\u0131-Irmak"}}, {"type": "node", "id": 5482530857, "lat": 39.6698409, "lon": 27.8910273, "tags": {"amenity": "restaurant", "cuisine": "meat", "name": "Sefa K\u00f6y K\u00f6ftecisi"}}, {"type": "node", "id": 5482530875, "lat": 39.6692555, "lon": 27.8907349, "tags": {"amenity": "restaurant", "cuisine": "soup", "name": "Bal\u0131kesir \u00c7orbac\u0131s\u0131"}}, {"type": "node", "id": 5482530912, "lat": 39.6688339, "lon": 27.8903212, "tags": {"amenity": "restaurant", "cuisine": "meat", "name": "K\u00f6fteci"}}, {"type": "node", "id": 5482530965, "lat": 39.6666985, "lon": 27.8876954, "tags": {"amenity": "restaurant", "cuisine": "pizza;pide;lahmacun", "name": "Lider"}}, {"type": "node", "id": 5515682462, "lat": 39.6549889, "lon": 27.9010556, "tags": {"addr:city": "Bal\u0131kesir", "addr:district": "Karesi", "addr:housenumber": "2", "addr:neighbourhood": "Atat\u00fcrk Mahallesi", "addr:street": "Band\u0131rma Caddesi", "amenity": "cafe", "cuisine": "coffee_shop", "name": "Kahvecizade", "phone": "+90 850 303 07 68"}}, {"type": "node", "id": 5611384316, "lat": 39.6921524, "lon": 27.9543225}, {"type": "node", "id": 5621291857, "lat": 39.6290182, "lon": 27.8806133, "tags": {"amenity": "restaurant", "cuisine": "kebab;turkish;soup", "delivery": "yes", "name": "Hanc\u0131 Kebap Izgara", "outdoor_seating": "yes", "phone": "+90 266 221 60 20", "takeaway": "yes", "website": "http://www.mazahancikebap.com/"}}, {"type": "node", "id": 5647040284, "lat": 39.6433831, "lon": 27.8910943, "tags": {"amenity": "restaurant", "name": "Elit Pide", "opening_hours": "Mo-Su 10:00-21:30", "phone": "+90 266 241 32 41"}}, {"type": "node", "id": 5817135165, "lat": 39.6647246, "lon": 27.8931462, "tags": {"amenity": "restaurant", "name": "Nev\u015fehir Pide"}}, {"type": "node", "id": 5886937356, "lat": 39.6515025, "lon": 27.899912, "tags": {"amenity": "cafe", "brand": "Starbucks", "brand:wikidata": "Q37158", "brand:wikipedia": "en:Starbucks", "cuisine": "coffee_shop", "name": "Starbucks", "official_name": "Starbucks Coffee", "takeaway": "yes"}}, {"type": "node", "id": 5887475051, "lat": 39.6920821, "lon": 27.9543885}, {"type": "node", "id": 5903271266, "lat": 39.6528109, "lon": 27.8924494, "tags": {"amenity": "cafe"}}, {"type": "node", "id": 5903300071, "lat": 39.6536606, "lon": 27.8905952}, {"type": "node", "id": 5903300072, "lat": 39.6536175, "lon": 27.8908487}, {"type": "node", "id": 5903300073, "lat": 39.6535345, "lon": 27.8908334}, {"type": "node", "id": 5903300074, "lat": 39.6535525, "lon": 27.8907176}, {"type": "node", "id": 5903300075, "lat": 39.6535361, "lon": 27.8907084}, {"type": "node", "id": 5903300076, "lat": 39.6535525, "lon": 27.8906484}, {"type": "node", "id": 5903300077, "lat": 39.653576, "lon": 27.8906606}, {"type": "node", "id": 5903300078, "lat": 39.6535979, "lon": 27.8905681}, {"type": "node", "id": 6004328859, "lat": 39.6455803, "lon": 27.8822342, "tags": {"amenity": "cafe", "name": "Keyf-i Alem"}}, {"type": "node", "id": 6004328883, "lat": 39.6462624, "lon": 27.882448, "tags": {"amenity": "restaurant", "cuisine": "kebab", "name": "Y\u0131ld\u0131z Yemek Kebap"}}, {"type": "node", "id": 6007634190, "lat": 39.6479299, "lon": 27.8888486, "tags": {"amenity": "cafe", "name": "Karesi Cafe"}}, {"type": "node", "id": 6007646386, "lat": 39.6467867, "lon": 27.8795128, "tags": {"amenity": "cafe", "name": "Green Cafe"}}, {"type": "node", "id": 6009174190, "lat": 39.7505174, "lon": 28.0007202, "tags": {"addr:city": "Bal\u0131kesir", "amenity": "restaurant", "name": "Tellio\u011flu De\u011firmen Cafe & Restaurant", "outdoor_seating": "yes", "smoking": "separated", "website": "http://www.telliogludegirmen.com/"}}, {"type": "node", "id": 6009686551, "lat": 39.6921651, "lon": 27.9545378}, {"type": "node", "id": 6009686552, "lat": 39.6923245, "lon": 27.9543881}, {"type": "node", "id": 6009686553, "lat": 39.6922415, "lon": 27.9542388}, {"type": "node", "id": 6009694702, "lat": 39.7083008, "lon": 27.9685676, "tags": {"amenity": "restaurant", "name": "Y\u00fccel Et Restaurant"}}, {"type": "node", "id": 6038452897, "lat": 39.6573594, "lon": 27.86848, "tags": {"amenity": "cafe", "name": "Kafe Ak\u0131n"}}, {"type": "node", "id": 6043371377, "lat": 39.6343455, "lon": 27.8935102, "tags": {"amenity": "restaurant", "name": "Bah\u00e7elievler Pide Lahmacun Kebap Salonu"}}, {"type": "node", "id": 6043371388, "lat": 39.6352195, "lon": 27.8923206, "tags": {"amenity": "cafe", "name": "Coffe Gentlemen"}}, {"type": "node", "id": 6056566930, "lat": 39.6566978, "lon": 27.8525037, "tags": {"amenity": "cafe"}}, {"type": "node", "id": 6062980472, "lat": 39.6475877, "lon": 27.879119, "tags": {"amenity": "cafe"}}, {"type": "node", "id": 6076470840, "lat": 39.645711, "lon": 27.8826714, "tags": {"amenity": "cafe"}}, {"type": "node", "id": 6084962885, "lat": 39.5908285, "lon": 27.8499949, "tags": {"amenity": "cafe", "cuisine": "coffee_shop", "name": "Bi Kahve"}}, {"type": "node", "id": 6098266864, "lat": 39.6462014, "lon": 27.8842774, "tags": {"amenity": "cafe", "name": "Mid Plus Cafe"}}, {"type": "node", "id": 6098266869, "lat": 39.6470532, "lon": 27.885446, "tags": {"amenity": "cafe", "name": "Bayramefendi Osmanl\u0131 Kahvecisi", "phone": "+90 266 249 01 01"}}, {"type": "node", "id": 6098645917, "lat": 39.6401866, "lon": 27.8830795, "tags": {"amenity": "cafe", "name": "Kafe Byaku\u015f"}}, {"type": "node", "id": 6105114351, "lat": 39.6234219, "lon": 27.8992901, "tags": {"amenity": "cafe", "brand": "Mado", "brand:wikidata": "Q17116336", "brand:wikipedia": "en:Mado (food company)", "cuisine": "coffee_shop", "name": "Mado", "takeaway": "yes"}}, {"type": "node", "id": 6112368584, "lat": 39.6563325, "lon": 27.9049792, "tags": {"amenity": "cafe"}}, {"type": "node", "id": 6117628897, "lat": 39.6645082, "lon": 27.9192853, "tags": {"addr:city": "Bal\u0131kesir", "addr:neighbourhood": "Pa\u015faalan\u0131 Mahallesi", "addr:postcode": "10020", "amenity": "restaurant", "cuisine": "soup;turkish", "name": "\u0130mren Yemek Sanayi"}}, {"type": "node", "id": 6117628937, "lat": 39.6654439, "lon": 27.919842, "tags": {"amenity": "restaurant"}}, {"type": "node", "id": 6174565226, "lat": 39.6480764, "lon": 27.8874045}, {"type": "node", "id": 6174565227, "lat": 39.6482871, "lon": 27.8876621}, {"type": "node", "id": 6174887395, "lat": 39.6773321, "lon": 27.9335943, "tags": {"amenity": "cafe", "name": "Nefes Cafe"}}, {"type": "node", "id": 6277962890, "lat": 39.6584599, "lon": 27.8809159, "tags": {"amenity": "restaurant", "name": "\u00c7\u0131nar Lahmacun ve Pide Salonu"}}, {"type": "node", "id": 6304980135, "lat": 39.6458082, "lon": 27.8833502, "tags": {"amenity": "restaurant", "cuisine": "grill;turkish", "name": "Eti G\u00fczel"}}, {"type": "node", "id": 6304986039, "lat": 39.6462735, "lon": 27.882857, "tags": {"amenity": "cafe", "name": "Yasa"}}, {"type": "node", "id": 7266418697, "lat": 39.6530641, "lon": 27.8957278, "tags": {"addr:city": "Balikesir", "addr:housename": "Tellioglu", "addr:neighborhood": "Atat\u00fcrk Mh.", "addr:postcode": "10020", "addr:street": "Band\u0131rma Cad", "alt_name": "Ateli\u00e9r Fiori 52", "amenity": "restaurant", "designation": "Restaurant", "int_name": "Ateli\u00e9r Fiori 52", "name": "Ateli\u00e9r Fiori 52", "old_name": "Ateli\u00e9r Fiori 52", "source": "GPS"}}, {"type": "node", "id": 7335611719, "lat": 39.8770314, "lon": 28.1678471, "tags": {"amenity": "restaurant", "cuisine": "turkish"}}, {"type": "node", "id": 8259126057, "lat": 39.628098, "lon": 27.8937875}, {"type": "node", "id": 8259126058, "lat": 39.6284223, "lon": 27.8943107}, {"type": "node", "id": 8259126059, "lat": 39.627927, "lon": 27.8947751}, {"type": "node", "id": 8259126060, "lat": 39.6276243, "lon": 27.8941984}, {"type": "node", "id": 8259141518, "lat": 39.6269831, "lon": 27.8900908}, {"type": "node", "id": 8259141519, "lat": 39.6269238, "lon": 27.8899859}, {"type": "node", "id": 8259141520, "lat": 39.6268206, "lon": 27.8899987}, {"type": "node", "id": 8259141521, "lat": 39.6267788, "lon": 27.8901167}, {"type": "node", "id": 8259141522, "lat": 39.6268412, "lon": 27.8902271}, {"type": "node", "id": 8259141523, "lat": 39.626939, "lon": 27.890213}, {"type": "node", "id": 10699643850, "lat": 39.6463221, "lon": 27.8720556}, {"type": "node", "id": 10699643851, "lat": 39.6462909, "lon": 27.8722581}, {"type": "node", "id": 10699643852, "lat": 39.6466048, "lon": 27.8723422}, {"type": "node", "id": 10701268617, "lat": 39.6505277, "lon": 27.8684478}, {"type": "node", "id": 10701268618, "lat": 39.6504924, "lon": 27.8684834}, {"type": "node", "id": 10701268619, "lat": 39.6504501, "lon": 27.8685018}, {"type": "node", "id": 10701268620, "lat": 39.6504054, "lon": 27.8685007}, {"type": "node", "id": 10701268621, "lat": 39.6503636, "lon": 27.8684803}, {"type": "node", "id": 10701268622, "lat": 39.6503294, "lon": 27.868443}, {"type": "node", "id": 10701268623, "lat": 39.6503068, "lon": 27.868393}, {"type": "node", "id": 10701268624, "lat": 39.6502983, "lon": 27.8683361}, {"type": "node", "id": 10701268625, "lat": 39.6503049, "lon": 27.8682787}, {"type": "node", "id": 10701268626, "lat": 39.6503259, "lon": 27.8682275}, {"type": "node", "id": 10701268627, "lat": 39.6503568, "lon": 27.86819}, {"type": "node", "id": 10701268628, "lat": 39.6503953, "lon": 27.8681672}, {"type": "node", "id": 10701268629, "lat": 39.6504374, "lon": 27.8681614}, {"type": "node", "id": 10701268630, "lat": 39.6504787, "lon": 27.8681731}, {"type": "node", "id": 10701268631, "lat": 39.650515, "lon": 27.8682013}, {"type": "node", "id": 10701268632, "lat": 39.6505426, "lon": 27.8682429}, {"type": "node", "id": 10701268633, "lat": 39.6505587, "lon": 27.8682938}, {"type": "node", "id": 10701268634, "lat": 39.6505615, "lon": 27.8683486}, {"type": "node", "id": 10701268635, "lat": 39.6505508, "lon": 27.8684018}, {"type": "node", "id": 10701335504, "lat": 39.6515444, "lon": 27.9008314}, {"type": "node", "id": 10701335505, "lat": 39.6513924, "lon": 27.9008687}, {"type": "node", "id": 10701335506, "lat": 39.6514204, "lon": 27.901061}, {"type": "node", "id": 10701335507, "lat": 39.6515734, "lon": 27.9010199}, {"type": "node", "id": 10701335579, "lat": 39.6522196, "lon": 27.9049257}, {"type": "node", "id": 10701335580, "lat": 39.652078, "lon": 27.9049641}, {"type": "node", "id": 10701335581, "lat": 39.6521504, "lon": 27.9054175}, {"type": "node", "id": 10701335582, "lat": 39.6522864, "lon": 27.9053864}, {"type": "node", "id": 11117433005, "lat": 39.6485675, "lon": 27.8844259, "tags": {"addr:housenumber": "3 No'lu", "addr:street": "Otopark Yan\u0131 Soka\u011f\u0131", "amenity": "restaurant", "cuisine": "fish", "name": "Balik\u00e7i Korkmazlar", "website": "http://www.korkmazlarbalikcilik.com"}}, {"type": "node", "id": 11204371083, "lat": 39.7562642, "lon": 27.9617313, "tags": {"amenity": "cafe", "cuisine": "coffee_shop", "name": "Starbucks"}}, {"type": "node", "id": 11276136032, "lat": 39.646629, "lon": 27.8721417, "tags": {"highway": "crossing"}}, {"type": "node", "id": 11368422503, "lat": 39.6499322, "lon": 27.8803316, "tags": {"addr:city": "Bal\u0131kesir", "addr:district": "Karesi", "addr:housenumber": "1", "addr:neighbourhood": "Karesi Mahallesi", "addr:postcode": "10010", "addr:street": "Alankuyu Soka\u011f\u0131", "amenity": "cafe", "cuisine": "coffee_shop;pasta;sandwich", "internet_access": "no", "name": "On On Kafe", "opening_hours": "10:00-01:00", "outdoor_seating": "yes", "website": "https://ononkafe.com/", "wheelchair": "yes"}}, {"type": "node", "id": 11368422504, "lat": 39.64895, "lon": 27.8794319, "tags": {"amenity": "cafe", "name": "Ta\u015f Kahve", "wheelchair": "yes"}}, {"type": "node", "id": 11368422505, "lat": 39.6495148, "lon": 27.8794241, "tags": {"amenity": "cafe", "name": "\u00c7\u0131naralt\u0131", "wheelchair": "yes"}}, {"type": "node", "id": 11381987269, "lat": 39.6489357, "lon": 27.8804002, "tags": {"addr:housenumber": "4", "addr:postcode": "10010", "addr:street": "Turan Caddesi", "amenity": "restaurant", "cuisine": "turkish", "name": "Kanaat lokantas\u0131", "opening_hours": "Mo-Su 05:00-20:00"}}, {"type": "node", "id": 11451719869, "lat": 39.758535, "lon": 27.9619644, "tags": {"amenity": "restaurant", "name": "\u0130kbal"}}, {"type": "node", "id": 12201058959, "lat": 39.6481517, "lon": 27.8876384, "tags": {"addr:city": "Bal\u0131kesir", "addr:district": "Karesi", "addr:neighbourhood": "Ak\u0131nc\u0131lar, Gazi Blv., 10010 Bal\u0131kesir Karesi/Bal\u0131kesir", "addr:postcode": "10010", "addr:street": "Gazi Bulvar\u0131", "amenity": "cafe", "cuisine": "coffee_shop;sandwich;pasta", "name": "On On Kafe TTM"}}, {"type": "node", "id": 12201211514, "lat": 39.6482269, "lon": 27.8878785}, {"type": "node", "id": 12201211515, "lat": 39.6479613, "lon": 27.887546}, {"type": "node", "id": 12411502449, "lat": 39.668195, "lon": 27.9026242}, {"type": "node", "id": 12411502450, "lat": 39.6679226, "lon": 27.9025693}, {"type": "node", "id": 12411502451, "lat": 39.6678872, "lon": 27.9028294}, {"type": "node", "id": 12411502452, "lat": 39.6681664, "lon": 27.9028896}, {"type": "node", "id": 12787006271, "lat": 39.6541276, "lon": 27.858074}, {"type": "node", "id": 12787006272, "lat": 39.6540263, "lon": 27.858016}, {"type": "node", "id": 12787006273, "lat": 39.6540584, "lon": 27.8579091}, {"type": "node", "id": 12787006274, "lat": 39.6539652, "lon": 27.8578581}, {"type": "node", "id": 12787006275, "lat": 39.6539304, "lon": 27.8579657}, {"type": "node", "id": 12787006276, "lat": 39.6538938, "lon": 27.8579466}, {"type": "node", "id": 12787006277, "lat": 39.6538111, "lon": 27.8581962}, {"type": "node", "id": 12787006278, "lat": 39.6539755, "lon": 27.8582884}, {"type": "node", "id": 12787006279, "lat": 39.6540433, "lon": 27.858091}, {"type": "node", "id": 12787006280, "lat": 39.6541098, "lon": 27.8581289}, {"type": "node", "id": 12829037701, "lat": 39.6463397, "lon": 27.882953, "tags": {"amenity": "restaurant", "name": "Burger Savran"}}, {"type": "node", "id": 12829054101, "lat": 39.6464937, "lon": 27.8829604, "tags": {"amenity": "cafe", "name": "City Box Coffee"}}, {"type": "way", "id": 528654838, "nodes": [5137001096, 5137001097, 5137001098, 5137001099, 5137001096], "tags": {"addr:city": "Bal\u0131kesir", "addr:district": "Karesi", "addr:housenumber": "1/1", "addr:neighbourhood": "Adnan Menderes", "addr:postcode": "10010", "addr:street": "5064 Sokak", "amenity": "restaurant", "building": "yes", "cuisine": "kebab", "name": "Kebap10 Ocakba\u015f\u0131"}}, {"type": "way", "id": 528713288, "nodes": [5137409588, 5137409589, 5137409590, 5137409591, 5137409588], "tags": {"amenity": "cafe", "building": "yes", "name": "Kervan", "outdoor_seating": "yes"}}, {"type": "way", "id": 551731856, "nodes": [5328120197, 5328120198, 5328120199, 5328120200, 5328120197], "tags": {"amenity": "cafe", "building": "yes", "name": "Cezvem Kafe", "outdoor_seating": "yes"}}, {"type": "way", "id": 552898979, "nodes": [5337643763, 5337643764, 5337643765, 5337643766, 5337643763], "tags": {"amenity": "cafe", "building": "yes", "name": "F\u0131r\u0131nta\u015f kafe"}}, {"type": "way", "id": 625217562, "nodes": [5903300071, 5903300072, 5903300073, 5903300074, 5903300075, 5903300076, 5903300077, 5903300078, 5903300071], "tags": {"amenity": "cafe", "building": "yes", "name": "Bostanc\u0131 Kafe"}}, {"type": "way", "id": 637466557, "nodes": [5887475051, 6009686551, 6009686552, 6009686553, 5611384316, 5887475051], "tags": {"amenity": "restaurant", "building": "yes", "name": "\u00c7erkezin Yeri Et Lokantas\u0131"}}, {"type": "way", "id": 888341739, "nodes": [8259126057, 8259126058, 8259126059, 8259126060, 8259126057], "tags": {"addr:city": "Bal\u0131kesir", "addr:district": "Alt\u0131eyl\u00fcl", "addr:housenumber": "23", "addr:neighbourhood": "Bah\u00e7elievler Mahallesi", "addr:postcode": "10100", "addr:street": "D\u00fczg\u00fcn Sokak", "amenity": "restaurant", "building": "yes", "cuisine": "kebab;meat", "name": "Kebap\u00e7\u0131", "opening_hours": "Mo-Su 09:00-22:00", "opening_hours:covid19": "restricted", "phone": "(0266) 221 39 91", "website": "https://www.akakar.com.tr/"}}, {"type": "way", "id": 888342248, "nodes": [8259141518, 8259141519, 8259141520, 8259141521, 8259141522, 8259141523, 8259141518], "tags": {"addr:city": "Bal\u0131kesir", "addr:district": "Alt\u0131eyl\u00fcl", "addr:housenumber": "185", "addr:neighbourhood": "Plevne Mahallesi", "addr:postcode": "10050", "addr:street": "Eser Caddesi", "amenity": "cafe", "building": "yes", "internet_access": "wlan", "internet_access:fee": "no", "name": "Bal\u0131kesir Millet K\u0131raathanesi", "opening_hours": "08:00-00:00", "opening_hours:covid19": "restricted", "outdoor_seating": "yes"}}, {"type": "way", "id": 1150175628, "nodes": [11276136032, 10699643850, 10699643851, 10699643852, 11276136032], "tags": {"addr:city": "bal\u0131kesir", "addr:district": "Karesi", "addr:housenumber": "No:9", "addr:neighbourhood": "K\u0131zp\u0131nar Mahallesi", "addr:postcode": "10010", "addr:street": "\u00c7aml\u0131k Tepesi A Blok", "amenity": "cafe", "cuisine": "coffee_shop;sandwich;pasta", "internet_access": "no", "name": "On On Kafe", "opening_hours": "Mo-Su 11:00-02:00", "outdoor_seating": "yes", "website": "https://ononkafe.com/"}}, {"type": "way", "id": 1150367854, "nodes": [10701268635, 10701268617, 10701268618, 10701268619, 10701268620, 10701268621, 10701268622, 10701268623, 10701268624, 10701268625, 10701268626, 10701268627, 10701268628, 10701268629, 10701268630, 10701268631, 10701268632, 10701268633, 10701268634, 10701268635], "tags": {"amenity": "restaurant", "building": "yes", "name": "Onhann Gurme"}}, {"type": "way", "id": 1150376332, "nodes": [10701335504, 10701335505, 10701335506, 10701335507, 10701335504], "tags": {"amenity": "cafe", "building": "yes", "name": "Kocatepe 1919 Kahve Evi", "outdoor_seating": "no"}}, {"type": "way", "id": 1150376345, "nodes": [10701335579, 10701335580, 10701335581, 10701335582, 10701335579], "tags": {"addr:city": "Bal\u0131kesir", "addr:district": "Alt\u0131eyl\u00fcl", "addr:neighbourhood": "G\u00fcm\u00fc\u015f\u00e7e\u015fme Mahallesi", "addr:postcode": "10040", "addr:street": "Avlu", "amenity": "cafe", "cuisine": "coffee_shop;sandwich;pasta", "internet_access": "no", "name": "On On Kafe", "opening_hours": "10:00-01:00", "outdoor_seating": "yes", "website": "https://ononkafe.com/"}}, {"type": "way", "id": 1318342830, "nodes": [6174565227, 12201211514, 12201211515, 6174565226, 6174565227], "tags": {"amenity": "cafe", "building": "yes"}}, {"type": "way", "id": 1341729569, "nodes": [12411502449, 12411502450, 12411502451, 12411502452, 12411502449], "tags": {"amenity": "cafe", "building": "yes", "name": "Karesi Belediyesi Logo Kafe"}}, {"type": "way", "id": 1381262754, "nodes": [12787006271, 12787006272, 12787006273, 12787006274, 12787006275, 12787006276, 12787006277, 12787006278, 12787006279, 12787006280, 12787006271], "tags": {"addr:city": "Bal\u0131kesir", "addr:district": "Karesi", "addr:housenumber": "4/1", "addr:neighbourhood": "Adnan Menderes Mahallesi", "addr:postcode": "10010", "addr:street": "5202 Cadde", "amenity": "cafe", "building": "yes", "cuisine": "tea;burger;sandwich", "name": "F\u0131r\u0131nta\u015f De\u011firmen Cafe", "toilets": "yes"}}]}