{"version": 0.6, "generator": "Overpass API 0.7.62.7 375dc00a", "osm3s": {"timestamp_osm_base": "2025-06-14T15:20:06Z", "copyright": "The data included in this document is from www.openstreetmap.org. The data is made available under ODbL."}, "elements": [{"type": "node", "id": 677747368, "lat": 34.7510611, "lon": 36.7000038, "tags": {"alt_name": "\u0642\u0644\u0639\u0629 \u062d\u0645\u0635", "amenity": "restaurant", "name": "\u0642\u0644\u0639\u0629 \u062d\u0645\u0635", "name:ar": "\u0642\u0644\u0639\u0629 \u062d\u0645\u0635", "name:en": "Emesa Castle"}}, {"type": "node", "id": 1048743405, "lat": 34.6007153, "lon": 36.7198006, "tags": {"amenity": "restaurant", "name": "\u0645\u0637\u0639\u0645 \u0628\u0648\u0627\u0628\u0629 \u062d\u0645\u0635"}}, {"type": "node", "id": 1773966657, "lat": 34.7376796, "lon": 36.6747772, "tags": {"amenity": "restaurant", "name": "\u0627\u0644\u062e\u064a\u0627\u0645", "name:en": "al-Khaymah"}}, {"type": "node", "id": 1829235097, "lat": 34.5998786, "lon": 36.7172983, "tags": {"amenity": "restaurant", "name": "\u0627\u0633\u062a\u0631\u0627\u062d\u0629"}}, {"type": "node", "id": 1829236768, "lat": 34.5774249, "lon": 36.727682, "tags": {"amenity": "restaurant", "name": "\u0627\u0633\u062a\u0631\u0627\u062d\u0629 \u0627\u0644\u0646\u0627\u0637\u0648\u0631"}}, {"type": "node", "id": 1829236884, "lat": 34.5958073, "lon": 36.7220163, "tags": {"amenity": "restaurant", "name": "Auto Gran \u0623\u0648\u062a\u0648 \u062c\u0631\u0627\u0646\u062f"}}, {"type": "node", "id": 1829237740, "lat": 34.5969753, "lon": 36.7216167, "tags": {"amenity": "restaurant", "name": "\u0627\u0633\u062a\u0631\u0627\u062d\u0629"}}, {"type": "node", "id": 1829250576, "lat": 34.6484307, "lon": 36.7076459, "tags": {"amenity": "restaurant", "name": "\u0627\u0633\u062a\u0631\u0627\u062d\u0629"}}, {"type": "node", "id": 4311858188, "lat": 34.7288475, "lon": 36.7000859, "tags": {"amenity": "cafe", "cuisine": "italian", "description": "This place was THE place before 2011. Best and probably only frappaccinos in town.", "internet_access": "yes", "name": "Java Cafe", "name:en": "Java Cafe", "opening_hours": "Morning-1AM", "smoking": "yes"}}, {"type": "node", "id": 4311858189, "lat": 34.7297998, "lon": 36.700405}, {"type": "node", "id": 4311858190, "lat": 34.7298919, "lon": 36.700422}, {"type": "node", "id": 4311858191, "lat": 34.7298775, "lon": 36.7005385}, {"type": "node", "id": 4311858192, "lat": 34.7297932, "lon": 36.7005231}, {"type": "node", "id": 4311858193, "lat": 34.7296984, "lon": 36.700448}, {"type": "node", "id": 4311858194, "lat": 34.7297138, "lon": 36.7003541}, {"type": "node", "id": 4311858201, "lat": 34.7323888, "lon": 36.7006317, "tags": {"addr:street": "Al-Hamra Street", "amenity": "restaurant", "cuisine": "mediterranean", "description": "The \"other one\"-- still amazing, better individual falafels, but Batool has the better sandwiches.", "name": "Falafel Faisal", "name:en": "Falafel Faisal", "takeaway": "only"}}, {"type": "node", "id": 4311858213, "lat": 34.729382, "lon": 36.6991779, "tags": {"amenity": "restaurant", "cuisine": "regional", "name": "La Luna", "name:en": "La Luna"}}, {"type": "node", "id": 4311858214, "lat": 34.7292321, "lon": 36.6991243, "tags": {"amenity": "restaurant", "cuisine": "greek", "name": "Troy", "name:en": "Troy"}}, {"type": "node", "id": 4465447090, "lat": 34.7257193, "lon": 36.7002099, "tags": {"amenity": "cafe", "internet_access": "wlan", "name": "\u0641\u064a\u0631\u062c\u064a\u0646 \u0643\u0627\u0641\u064a", "name:ar": "\u0641\u064a\u0631\u062c\u064a\u0646 \u0643\u0627\u0641\u064a", "name:en": "Virgin caf\u00e9 lounge", "opening_hours": "Mo-Su 10:00-23:00"}}, {"type": "node", "id": 5091059122, "lat": 34.7144378, "lon": 36.7140093, "tags": {"addr:street": "\u202b\u0627\u0644\u062d\u0636\u0627\u0631\u0629\u202c\u200e", "amenity": "cafe", "cuisine": "sandwich;buschenschank;donut;deli;tea;coffee_shop", "email": "shadee56@hotmail.com", "internet_access": "wlan", "name": "\u0628\u0644\u0627\u0632\u0627\u0643\u0627\u0641\u064a\u0647", "name:ar": "\u0628\u0644\u0627\u0632\u0627\u0643\u0627\u0641\u064a\u0647", "name:en": "Blaza caffe", "opening_hours": "Mo-Su 08:00-12:00", "operator": "\u0643\u0648\u0643\u062a\u064a\u0644\u0627\u062a. \u0627\u0631\u0643\u064a\u0644\u0629. \u0645\u0634\u0631\u0648\u0628\u0627\u062a", "phone": "0935619318", "website": "http://shadee56@hotmail.com"}}, {"type": "node", "id": 5548040123, "lat": 34.7234408, "lon": 36.6869364, "tags": {"amenity": "restaurant", "name": "\u0627\u0644\u0642\u0635\u0631"}}, {"type": "node", "id": 6074127434, "lat": 34.7103686, "lon": 36.7192385, "tags": {"amenity": "restaurant", "name": "\u0645\u0633\u0628\u062d \u0648 \u0645\u0637\u0639\u0645 \u0635\u062d\u0627\u0631\u0649"}}, {"type": "node", "id": 6083337785, "lat": 34.72417, "lon": 36.6986006, "tags": {"amenity": "restaurant", "name": "\u0628\u0644\u0648 \u0628\u064a\u0631\u064a", "name:en": "Blueberry"}}, {"type": "node", "id": 6124340610, "lat": 34.7320722, "lon": 36.7088361, "tags": {"amenity": "restaurant", "name": "\u0646\u0627\u062f\u064a \u0627\u0644\u0636\u0628\u0627\u0637"}}, {"type": "node", "id": 6124348842, "lat": 34.7319061, "lon": 36.7109236, "tags": {"amenity": "cafe", "name": "\u0645\u0642\u0647\u0649 \u0627\u0644\u0631\u0648\u0636\u0629", "wikidata": "Q60575917", "wikipedia": "ar:\u0645\u0642\u0647\u0649 \u0627\u0644\u0631\u0648\u0636\u0629 (\u062d\u0645\u0635)"}}, {"type": "node", "id": 6124348844, "lat": 34.7316967, "lon": 36.7108211, "tags": {"amenity": "restaurant"}}, {"type": "node", "id": 6464194686, "lat": 34.7284019, "lon": 36.7401257, "tags": {"addr:street": "\u202b\u0634\u0627\u0631\u0639 \u0627\u0644\u0623\u0631\u0645\u0646\u202c\u200e", "amenity": "restaurant", "name": "\u0645\u0637\u0639\u0645 \u062d\u0628\u0648\u0633", "name:en": "Al Bustan Restaurant", "shop": "bakery"}}, {"type": "node", "id": 6467998689, "lat": 34.7286838, "lon": 36.7205059, "tags": {"amenity": "cafe", "name": "\u0645\u0637\u0639\u0645 \u0627\u0644\u0628\u0633\u062a\u0627\u0646"}}, {"type": "node", "id": 6761863048, "lat": 34.7293801, "lon": 36.7053906, "tags": {"amenity": "restaurant", "name": "Alitalia restaurant"}}, {"type": "node", "id": 6937701787, "lat": 34.7125014, "lon": 36.7175389, "tags": {"amenity": "cafe", "name": "Cafe Java"}}, {"type": "node", "id": 7058068585, "lat": 34.7297382, "lon": 36.6992626, "tags": {"addr:street": "\u202b\u0632\u0643\u064a \u0627\u0644\u0627\u0631\u0633\u0648\u0632\u064a\u202c\u200e", "amenity": "restaurant", "email": "Jalal.a.kseibi@gmail.com", "internet_access": "wlan", "name": "\u0645\u0637\u0639\u0645 \u062c\u0648\u0631\u064a", "name:en": "Jouri c&r", "opening_hours": "Mo-Su 09:00-23:30", "phone": "0312222251"}}, {"type": "node", "id": 7217574685, "lat": 34.7316175, "lon": 36.71849, "tags": {"amenity": "cafe", "name": "\u0648\u0631\u062f \u0643\u0627\u0641\u064a\u0647", "name:fr": "Je T'aime"}}, {"type": "node", "id": 7490822785, "lat": 34.7288252, "lon": 36.7090705, "tags": {"addr:street": "\u0634\u0627\u0631\u0639 \u0647\u0627\u0634\u0645 \u0627\u0644\u0623\u062a\u0627\u0633\u064a", "amenity": "cafe", "internet_access": "wlan", "name:en": "Coffee Time", "opening_hours": "Mo-Su 11:00-00:00", "phone": "+963312488334"}}, {"type": "node", "id": 7639742489, "lat": 34.7147964, "lon": 36.7137788, "tags": {"amenity": "restaurant", "name": "\u0645\u0637\u0639\u0645 \u0627\u0644\u0633\u064a\u0641", "name:en": "Hadara Pos"}}, {"type": "node", "id": 8757626417, "lat": 34.7265709, "lon": 36.7100875, "tags": {"addr:street": "\u202b\u0637\u0631\u064a\u0642 \u0627\u0644\u0634\u0627\u0645", "amenity": "restaurant", "name": "\u0645\u0637\u0639\u0645 \u0627\u0644\u062c\u0627\u062c\u0647", "name:en": "Al jajeh resturant"}}, {"type": "node", "id": 9139915317, "lat": 34.7295171, "lon": 36.7211354, "tags": {"amenity": "restaurant", "name": "\u0645\u0637\u0639\u0645 \u0642\u0635\u0631 \u062c\u0648\u0644\u064a\u0627"}}, {"type": "node", "id": 9243972317, "lat": 34.7137438, "lon": 36.7153588, "tags": {"amenity": "restaurant", "name": "Gusto"}}, {"type": "node", "id": 9682307717, "lat": 34.5970936, "lon": 36.7213891, "tags": {"amenity": "restaurant", "name": "\u0645\u0637\u0639\u0645 \u0648\u0627\u0633\u062a\u0631\u0627\u062d\u0629 \u0627\u0634\u0628\u064a\u0644\u064a\u0629 (m&h)"}}, {"type": "node", "id": 10036278443, "lat": 34.7376934, "lon": 36.7387538, "tags": {"amenity": "restaurant", "name": "\u0627\u0644\u0648\u062c\u0628\u0629 \u0627\u0644\u0634\u0647\u064a\u0629"}}, {"type": "node", "id": 10036323756, "lat": 34.7347295, "lon": 36.7548033, "tags": {"amenity": "restaurant", "name": "\u0635\u0627\u0644\u0629 \u0633\u062d\u0631 \u0627\u0644\u0634\u0631\u0642"}}, {"type": "node", "id": 10036375093, "lat": 34.7297086, "lon": 36.7416406, "tags": {"amenity": "restaurant", "name": "\u0645\u0637\u0639\u0645 \u0627\u0644\u0633\u064a\u0641"}}, {"type": "node", "id": 10036435564, "lat": 34.7330012, "lon": 36.7402971, "tags": {"amenity": "cafe", "name": "\u0643\u0627\u0641\u062a\u064a\u0631\u064a\u0627 \u0627\u0644\u0644\u0627\u0631\u0648\u0632"}}, {"type": "node", "id": 10036435748, "lat": 34.7321008, "lon": 36.7411528, "tags": {"amenity": "restaurant", "name": "\u0645\u0637\u0639\u0645 \u063a\u0644\u0648\u0628\u0627\u0644 \u0641\u0648\u062f"}}, {"type": "node", "id": 10036472875, "lat": 34.7578655, "lon": 36.7425682, "tags": {"amenity": "restaurant", "name": "\u0645\u0637\u0639\u0645 \u0627\u0628\u0648 \u062d\u0645\u062f"}}, {"type": "node", "id": 10041176678, "lat": 34.7274706, "lon": 36.7721707, "tags": {"amenity": "cafe", "name": "\u0636\u064a\u0639\u062a\u0646\u0627 \u0643\u0627\u0641\u064a\u0629"}}, {"type": "node", "id": 10041176679, "lat": 34.700267, "lon": 36.7565957, "tags": {"amenity": "restaurant", "name": "\u0645\u0637\u0639\u0645 \u0648\u0627\u0633\u062a\u0631\u0627\u062d\u0629 \u0627\u0644\u0632\u0627\u0648\u064a\u0629"}}, {"type": "node", "id": 10041187572, "lat": 34.7208182, "lon": 36.7687683, "tags": {"amenity": "cafe", "name": "Zaidal Happy Land"}}, {"type": "node", "id": 10041195713, "lat": 34.7249695, "lon": 36.7732485, "tags": {"amenity": "restaurant", "name": "\u0645\u0637\u0639\u0645 \u0632\u0627\u062f \u0627\u0644\u062e\u064a\u0631"}}, {"type": "node", "id": 10041202823, "lat": 34.700545, "lon": 36.7621326, "tags": {"amenity": "restaurant", "name": "\u0645\u0637\u0639\u0645 \u0648\u0627\u0633\u062a\u0631\u0627\u062d\u0629 \u0627\u0644\u0632\u0627\u0648\u064a\u0629"}}, {"type": "node", "id": 10041206408, "lat": 34.7004581, "lon": 36.7416336, "tags": {"amenity": "restaurant", "name": "\u0645\u0637\u0639\u0645 \u0648\u0645\u0633\u0628\u062d \u0637\u0631\u064a\u0642 \u0627\u0644\u0646\u062d\u0644"}}, {"type": "node", "id": 10041207751, "lat": 34.6614743, "lon": 36.7078093, "tags": {"amenity": "restaurant", "name": "Hadi Restaurant"}}, {"type": "node", "id": 10041315277, "lat": 34.7686554, "lon": 36.7218416, "tags": {"amenity": "restaurant", "name": "\u0645\u0637\u0639\u0645 \u0627\u0644\u0634\u0627\u0645\u064a"}}, {"type": "node", "id": 10041315278, "lat": 34.750776, "lon": 36.7294519, "tags": {"amenity": "restaurant", "name": "Restaurant & Cafe Bayada Rock"}}, {"type": "node", "id": 10041363630, "lat": 34.7310043, "lon": 36.718495, "tags": {"amenity": "restaurant", "name": "\u0645\u0637\u0639\u0645 \u062a\u0634\u064a\u0644\u0644\u0648"}}, {"type": "node", "id": 10041372650, "lat": 34.7320154, "lon": 36.7194681, "tags": {"amenity": "restaurant", "name": "Ma'zaher"}}, {"type": "node", "id": 10041372795, "lat": 34.7321532, "lon": 36.7183496, "tags": {"amenity": "cafe", "name": "\u0646\u0627\u062f\u064a \u0627\u0644\u0633\u0631\u064a\u0627\u0646 \u0627\u0644\u0627\u0631\u062b\u0648\u0630\u0643\u0633"}}, {"type": "node", "id": 10041378128, "lat": 34.7331099, "lon": 36.7185826, "tags": {"amenity": "cafe", "name": "\u0643\u0627\u0641\u064a\u0647 \u0645\u064a\u0644\u0627\u0646", "name:ar": "\u0643\u0627\u0641\u064a\u0647 \u0645\u064a\u0644\u0627\u0646", "name:fr": "Caf\u00e9 Milan"}}, {"type": "node", "id": 10041389444, "lat": 34.7282692, "lon": 36.7187497, "tags": {"amenity": "cafe", "name": "\u0643\u0627\u0641\u064a\u0647 \u0631\u064e\u0648\u0652\u062d", "name:ar": "\u0643\u0627\u0641\u064a\u0647 \u0631\u064e\u0648\u0652\u062d", "name:fr": "Caf\u00e9 Rouh"}}, {"type": "node", "id": 10041397060, "lat": 34.7290096, "lon": 36.7192779, "tags": {"amenity": "restaurant", "name": "Burger House"}}, {"type": "node", "id": 10044100426, "lat": 34.7181319, "lon": 36.7231131, "tags": {"amenity": "cafe", "name": "Sary Cafe"}}, {"type": "node", "id": 10044110543, "lat": 34.7163135, "lon": 36.7220008, "tags": {"amenity": "cafe", "name": "\u0643\u0627\u0641\u064a\u0647 \u0633\u0645\u0627"}}, {"type": "node", "id": 10044114669, "lat": 34.7154704, "lon": 36.7219638, "tags": {"amenity": "cafe", "name": "Maroush Caf\u00e9"}}, {"type": "node", "id": 10044114899, "lat": 34.7150336, "lon": 36.7224828, "tags": {"amenity": "restaurant", "name": "\u0645\u0637\u0639\u0645 \u0627\u0644\u0645\u0644\u0643 \u0627\u0644\u0630\u0647\u0628\u064a"}}, {"type": "node", "id": 10044140592, "lat": 34.7020601, "lon": 36.7231502, "tags": {"amenity": "restaurant", "cuisine": "pizza", "name": "\u0628\u064a\u062a\u0632\u0627 \u0641\u0627\u0645\u064a\u0644\u064a"}}, {"type": "node", "id": 10044161205, "lat": 34.6957402, "lon": 36.7289215, "tags": {"amenity": "restaurant", "name": "\u0645\u0637\u0639\u0645 \u0627\u0644\u0648\u0627\u062f\u064a"}}, {"type": "node", "id": 10044165841, "lat": 34.7133896, "lon": 36.7158552, "tags": {"amenity": "cafe", "name": "\u0628\u0648\u0631\u062f\u0648"}}, {"type": "node", "id": 10044179591, "lat": 34.7078918, "lon": 36.7203448, "tags": {"amenity": "restaurant", "name": "\u0645\u0637\u0639\u0645 \u0628\u064a\u062a \u0627\u0644\u064a\u0627\u0633\u0645\u064a\u0646"}}, {"type": "node", "id": 10044199450, "lat": 34.7095884, "lon": 36.7166002, "tags": {"amenity": "cafe", "name": "\u0643\u0627\u0641\u064a\u0647 \u062e\u0644\u0648\u0641"}}, {"type": "node", "id": 10044202904, "lat": 34.7121616, "lon": 36.7158552, "tags": {"amenity": "cafe", "name": "Nostalgi Cafe"}}, {"type": "node", "id": 10044203732, "lat": 34.7146254, "lon": 36.715271, "tags": {"amenity": "restaurant", "name": "Spicy Restaurant"}}, {"type": "node", "id": 10044205959, "lat": 34.7131298, "lon": 36.7163052, "tags": {"amenity": "cafe", "name": "\u062d\u0628\u0642 \u0643\u0627\u0641\u064a\u0647"}}, {"type": "node", "id": 10050188371, "lat": 34.7137483, "lon": 36.7193981, "tags": {"amenity": "restaurant", "name": "\u0645\u0637\u0639\u0645 \u0627\u0644\u062f\u0648\u0627\u0631"}}, {"type": "node", "id": 10050195282, "lat": 34.7217734, "lon": 36.7165764, "tags": {"amenity": "restaurant", "name": "\u0645\u0637\u0639\u0645 \u0623\u0643\u0644\u0627\u062a \u0634\u0627\u0645\u064a\u0629"}}, {"type": "node", "id": 10050204409, "lat": 34.7141275, "lon": 36.7165335, "tags": {"amenity": "cafe", "name": "\u0643\u0627\u0641\u062a\u064a\u0631\u064a\u0627 \u0631\u0648\u062a\u0627\u0646\u0627"}}, {"type": "node", "id": 10050205505, "lat": 34.7150712, "lon": 36.7164906, "tags": {"amenity": "cafe", "name": "\u0643\u0627\u0641\u064a\u0647 \u0634\u0627\u0644"}}, {"type": "node", "id": 10050262275, "lat": 34.7171436, "lon": 36.7176493, "tags": {"amenity": "cafe", "name": "Spot light"}}, {"type": "node", "id": 10050315862, "lat": 34.7150271, "lon": 36.7207284, "tags": {"amenity": "cafe", "name": "\u0643\u0631\u0645\u064a\u0644 \u0643\u0627\u0641\u064a\u0647"}}, {"type": "node", "id": 10050337280, "lat": 34.7145949, "lon": 36.7168446, "tags": {"amenity": "restaurant", "name": "\u0645\u0637\u0639\u0645 \u0633\u0627\u0631\u0648\u062c\u0627"}}, {"type": "node", "id": 10050364880, "lat": 34.7376448, "lon": 36.7090233, "tags": {"amenity": "restaurant", "name": "\u062a\u0634\u0643\u0646 \u0633\u0628\u0627\u064a\u0633\u064a"}}, {"type": "node", "id": 10050392157, "lat": 34.7401311, "lon": 36.7074032, "tags": {"amenity": "restaurant", "name": "\u0645\u0637\u0639\u0645 \u0627\u0644\u0633\u0644\u0627\u0645 \u0641\u0631\u0639 1"}}, {"type": "node", "id": 10050392162, "lat": 34.7247715, "lon": 36.7072316, "tags": {"amenity": "cafe", "name": "study zone"}}, {"type": "node", "id": 10050398119, "lat": 34.7329983, "lon": 36.7123278, "tags": {"amenity": "restaurant", "name": "\u0645\u0637\u0639\u0645 \u063a\u0627\u0632\u064a \u0627\u0644\u0641\u0631\u0639 \u0627\u0644\u0623\u0633\u0627\u0633\u064a"}}, {"type": "node", "id": 10050489680, "lat": 34.7246056, "lon": 36.6254585, "tags": {"amenity": "cafe", "name": "\u0644\u0633\u062a\u0631\u0627\u062d\u0629 \u0627\u0644\u0634\u062d\u0631\u0648\u0631"}}, {"type": "node", "id": 10050513939, "lat": 34.7240483, "lon": 36.6254585, "tags": {"amenity": "cafe", "name": "\u0627\u0633\u062a\u0631\u0627\u062d\u0629 \u0623\u0628\u0648 \u062d\u0633\u0646"}}, {"type": "node", "id": 10050522020, "lat": 34.7467477, "lon": 36.6810468, "tags": {"amenity": "restaurant", "name": "\u0645\u0637\u0639\u0645 \u0623\u0628\u0648 \u0631\u0627\u0645\u0632"}}, {"type": "node", "id": 10050532532, "lat": 34.7270501, "lon": 36.6582434, "tags": {"amenity": "restaurant", "name": "\u0645\u0637\u0639\u0645 \u0623\u0628\u0648 \u0639\u0644\u064a"}}, {"type": "node", "id": 10050850772, "lat": 34.7323335, "lon": 36.7320045, "tags": {"amenity": "restaurant", "name": "\u0628\u064a\u062a\u0632\u0627 \u0648 \u0645\u0639\u062c\u0646\u0627\u062a \u0627\u0644\u0645\u0644\u0643 \u0627\u0644\u0630\u0647\u0628\u064a"}}, {"type": "node", "id": 10055336272, "lat": 34.7294294, "lon": 36.7197356, "tags": {"amenity": "cafe", "name": "Caf\u00e9 Cube", "name:fr": "Caf\u00e9 Cube"}}, {"type": "node", "id": 10055352324, "lat": 34.7333985, "lon": 36.71445, "tags": {"amenity": "restaurant", "name": "\u0645\u0637\u0639\u0645 \u0623\u0628\u0648 \u0623\u062d\u0645\u062f \u0627\u0644\u0645\u0631\u0639\u064a"}}, {"type": "node", "id": 10055371605, "lat": 34.7297257, "lon": 36.7198678, "tags": {"amenity": "cafe", "name": "T\u00eate \u00e0 t\u00eate"}}, {"type": "node", "id": 10055561126, "lat": 34.7230007, "lon": 36.6255036, "tags": {"amenity": "cafe", "name": "\u0627\u0633\u062a\u0631\u0627\u062d\u0629 \u0627\u0644\u0634\u062d\u0631\u0648\u0631"}}, {"type": "node", "id": 10055566763, "lat": 34.7048024, "lon": 36.6323303, "tags": {"amenity": "cafe", "cuisine": "coffee_shop", "name": "\u0645\u0637\u0639\u0645 \u0648 \u0627\u0633\u062a\u0631\u0627\u062d\u0629 \u0627\u0644\u062a\u062d\u0648\u064a\u0644\u0629"}}, {"type": "node", "id": 10055566876, "lat": 34.7020238, "lon": 36.6417534, "tags": {"amenity": "restaurant", "name": "\u0645\u0644\u062d\u0645\u0629 \u062d\u0645\u0648\u062f\u064a \u064a\u0627\u062e\u0627\u0644"}}, {"type": "node", "id": 10055597548, "lat": 34.6550838, "lon": 36.7048814, "tags": {"amenity": "restaurant", "name": "\u0627\u0633\u062a\u0631\u0627\u062d\u0629 \u0627\u0644\u0634\u062d\u0631\u0648\u0631"}}, {"type": "node", "id": 10055608666, "lat": 34.757627, "lon": 36.7016415, "tags": {"amenity": "cafe", "name": "\u0627\u0644\u062d\u0635\u0648\u064a\u0629"}}, {"type": "node", "id": 10055610532, "lat": 34.7412096, "lon": 36.6839534, "tags": {"amenity": "cafe", "name": "\u0645\u0642\u0647\u0649 \u0627\u0644\u0643\u0648\u0627\u0643\u0628\u064a"}}, {"type": "node", "id": 10055617746, "lat": 34.7485833, "lon": 36.6991437, "tags": {"amenity": "restaurant", "name": "\u0645\u0637\u0639\u0645 \u062f\u064a\u0643 \u0627\u0644\u062c\u0646"}}, {"type": "node", "id": 10055628155, "lat": 34.7415023, "lon": 36.6848438, "tags": {"amenity": "restaurant", "name": "\u0628\u0627\u0628\u0627 \u062c\u0648\u064a\u0632"}}, {"type": "node", "id": 10055638683, "lat": 34.750115, "lon": 36.6994059, "tags": {"amenity": "restaurant", "name": "\u0645\u0637\u0639\u0645 \u0627\u0644\u0623\u0647\u0631\u0627\u0645"}}, {"type": "node", "id": 10055648107, "lat": 34.7495885, "lon": 36.6992797, "tags": {"amenity": "restaurant", "name": "\u0645\u0637\u0639\u0645 \u0645\u0631\u0633\u064a\u0629"}}, {"type": "node", "id": 10055652376, "lat": 34.747961, "lon": 36.6974543, "tags": {"amenity": "restaurant", "name": "\u0645\u0637\u0639\u0645 \u0627\u0644\u0644\u0627\u0632\u064a\u0646\u0629"}}, {"type": "node", "id": 10055656893, "lat": 34.7489343, "lon": 36.6992797, "tags": {"amenity": "restaurant", "name": "\u0645\u0637\u0639\u0645 \u0627\u0644\u0632\u0647\u0648\u0631"}}, {"type": "node", "id": 10055724191, "lat": 34.7237077, "lon": 36.6873407, "tags": {"amenity": "restaurant", "name": "\u0645\u0637\u0627\u0639\u0645 \u062c\u0646\u0629 \u062d\u0645\u0635"}}, {"type": "node", "id": 10055735661, "lat": 34.7196266, "lon": 36.6970424, "tags": {"amenity": "restaurant", "name": "\u0639 \u0643\u064a\u0641\u0643. \u0645\u0634\u0627\u0648\u064a \u0639\u0627\u0644\u0641\u062d\u0645"}}, {"type": "node", "id": 10055756797, "lat": 34.7215627, "lon": 36.6924989, "tags": {"amenity": "restaurant", "name": "\u0645\u0637\u0628\u062e \u0623\u064a\u0627\u0645 \u0632\u0645\u0627\u0646"}}, {"type": "node", "id": 10055782587, "lat": 34.7121236, "lon": 36.6904744, "tags": {"amenity": "restaurant", "name": "\u0645\u0637\u0639\u0645 \u0634\u0648\u0641\u0627\u0646"}}, {"type": "node", "id": 10055849773, "lat": 34.702678, "lon": 36.7347368, "tags": {"amenity": "restaurant", "name": "\u0645\u0637\u0639\u0645 \u0641\u0644\u0627\u0641\u0644 \u0627\u0644\u0631\u064a\u0645"}}, {"type": "node", "id": 10055889136, "lat": 34.721354, "lon": 36.7379828, "tags": {"amenity": "restaurant", "name": "\u0645\u0637\u0639\u0645 \u0633\u0627\u0645\u0631 \u0627\u0644\u062d\u0645\u0635\u064a"}}, {"type": "node", "id": 10984602306, "lat": 34.7150677, "lon": 36.7144319, "tags": {"amenity": "cafe", "name": "\u062c\u062f\u0644", "name:ar": "\u0645\u0642\u0647\u0649/ \u0628\u0627\u0631 \"\u062c\u062f\u0644\"", "name:en": "Jadal caf\u00e9/bar"}}, {"type": "node", "id": 10984602405, "lat": 34.7298741, "lon": 36.7086611, "tags": {"amenity": "cafe", "name": "\u0645\u0642\u0647\u0649 \u0635\u0628\u062d\u064a \u0634\u0648\u064a\u0628", "name:ar": "\u0645\u0642\u0647\u0649 \u0635\u0628\u062d\u064a \u0634\u0639\u064a\u0628", "name:en": "Sobhi Shu\u2019ayeb (with art gallery)"}}, {"type": "node", "id": 10984602505, "lat": 34.7146291, "lon": 36.7165848, "tags": {"amenity": "cafe", "name": "\u062d\u064a\u062f\u0631 \u0645\u0642\u0647\u0649", "name:en": "Coffee Art by Haidar"}}, {"type": "node", "id": 10984602506, "lat": 34.7139468, "lon": 36.7164152, "tags": {"amenity": "cafe", "name": "\u0647\u0627\u0631\u064a \u0628\u0648\u062a\u064a\u0631 \u0643\u0627\u0641\u062a\u064a\u0631\u064a\u0627", "name:en": "Harry Potter cafe"}}, {"type": "node", "id": 11019786505, "lat": 34.6558425, "lon": 36.6926898, "tags": {"amenity": "restaurant", "name": "\u0645\u0637\u0639\u0645 \u0627\u0644\u0627\u0646\u0648\u0627\u0631 m&h"}}, {"type": "way", "id": 431980524, "nodes": [4311858189, 4311858190, 4311858191, 4311858192, 4311858193, 4311858194, 4311858189], "tags": {"amenity": "restaurant", "building": "yes", "capacity": "25", "cuisine": "mediterranean", "description": "This place isn't just a restaurant. It's a house of worship. This is the best falafel sandwich in town. Year after year, no matter how good Falafel Faisal is on Hamra Street, Batool is the most consistent.", "name": "Falafel Al-Batool", "name:en": "Falafel Al-Batool", "takeaway": "only"}}]}