{"version": 0.6, "generator": "Overpass API 0.7.62.7 375dc00a", "osm3s": {"timestamp_osm_base": "2025-06-14T15:11:57Z", "copyright": "The data included in this document is from www.openstreetmap.org. The data is made available under ODbL."}, "elements": [{"type": "node", "id": 281944194, "lat": 25.7365194, "lon": 32.6120835, "tags": {"amenity": "restaurant", "source": "survey"}}, {"type": "node", "id": 1329638452, "lat": 25.7222302, "lon": 32.6540774}, {"type": "node", "id": 3413178742, "lat": 25.7019602, "lon": 32.6437635, "tags": {"amenity": "restaurant", "cuisine": "regional", "name": "Chez Omar / Egyptian Corner"}}, {"type": "node", "id": 3700107646, "lat": 25.7022396, "lon": 32.6439769, "tags": {"amenity": "restaurant", "cuisine": "regional", "name": "\u0627\u0645 \u0647\u0627\u0634\u0645", "name:ar": "\u0627\u0645 \u0647\u0627\u0634\u0645", "name:en": "Oum Hashim"}}, {"type": "node", "id": 4352375626, "lat": 25.7016527, "lon": 32.6431414, "tags": {"addr:city": "Luxor", "addr:street": "Sh. Abd el-Hameed Taha", "amenity": "cafe", "cuisine": "coffee_shop", "internet_access": "wlan", "name": "Coffee Shop Aal al\u2011Bayt", "name:ar": "\u0643\u0627\u0641\u0649 \u0634\u0648\u0628 \u0622\u0644 \u0627\u0644\u0628\u064a\u062a", "name:de": "Coffee Shop Aal al\u2011Bayt", "opening_hours": "24/7", "phone": "+20 101 291 9989", "smoking": "yes", "website": "https://www.aalalbayt.com"}}, {"type": "node", "id": 4701248653, "lat": 25.7099723, "lon": 32.638827}, {"type": "node", "id": 4701248654, "lat": 25.7100234, "lon": 32.6388792}, {"type": "node", "id": 4701248655, "lat": 25.7099285, "lon": 32.6390058}, {"type": "node", "id": 4701248656, "lat": 25.7098775, "lon": 32.6389341}, {"type": "node", "id": 4701267141, "lat": 25.6981936, "lon": 32.6395917, "tags": {"amenity": "cafe", "name": "Ali Baba Cafe"}}, {"type": "node", "id": 4701267142, "lat": 25.697345, "lon": 32.6393623, "tags": {"amenity": "restaurant", "name": "Sibads"}}, {"type": "node", "id": 4701267143, "lat": 25.6985836, "lon": 32.6401539, "tags": {"amenity": "restaurant", "name": "Aboudi Restaurant"}}, {"type": "node", "id": 4701476478, "lat": 25.7020453, "lon": 32.6312768}, {"type": "node", "id": 4701476479, "lat": 25.7019168, "lon": 32.6311677}, {"type": "node", "id": 4701476480, "lat": 25.7019867, "lon": 32.6310837}, {"type": "node", "id": 4701476481, "lat": 25.7021021, "lon": 32.631169}, {"type": "node", "id": 4702725243, "lat": 25.6948929, "lon": 32.6422607, "tags": {"amenity": "restaurant", "cuisine": "egyptian", "name": "Sofra", "wheelchair": "no"}}, {"type": "node", "id": 4705541867, "lat": 25.7007861, "lon": 32.6490503}, {"type": "node", "id": 4705541868, "lat": 25.7007011, "lon": 32.6491464}, {"type": "node", "id": 4705541869, "lat": 25.7006514, "lon": 32.6490894}, {"type": "node", "id": 4705541870, "lat": 25.7007348, "lon": 32.648988}, {"type": "node", "id": 4705821550, "lat": 25.7185151, "lon": 32.6522294}, {"type": "node", "id": 4705821551, "lat": 25.7186375, "lon": 32.652397}, {"type": "node", "id": 4705821552, "lat": 25.7185776, "lon": 32.652452}, {"type": "node", "id": 4705821553, "lat": 25.7184552, "lon": 32.6522785}, {"type": "node", "id": 4705821554, "lat": 25.7150503, "lon": 32.6492584}, {"type": "node", "id": 4705821555, "lat": 25.7151329, "lon": 32.649319}, {"type": "node", "id": 4705821556, "lat": 25.7150799, "lon": 32.6493952}, {"type": "node", "id": 4705821557, "lat": 25.7150004, "lon": 32.649338}, {"type": "node", "id": 4705821562, "lat": 25.7216207, "lon": 32.6535552}, {"type": "node", "id": 4705821563, "lat": 25.721701, "lon": 32.6536033}, {"type": "node", "id": 4705821564, "lat": 25.7216185, "lon": 32.653755}, {"type": "node", "id": 4705821565, "lat": 25.7217725, "lon": 32.6538416}, {"type": "node", "id": 4705821566, "lat": 25.7218181, "lon": 32.6537381}, {"type": "node", "id": 4705821567, "lat": 25.7219135, "lon": 32.6537863}, {"type": "node", "id": 4705821568, "lat": 25.7217855, "lon": 32.6540318}, {"type": "node", "id": 4705821569, "lat": 25.7215036, "lon": 32.6538802}, {"type": "node", "id": 4705821570, "lat": 25.721573, "lon": 32.6537502}, {"type": "node", "id": 4705821571, "lat": 25.7215296, "lon": 32.6537285}, {"type": "node", "id": 4707454400, "lat": 25.7297916, "lon": 32.6566598}, {"type": "node", "id": 4707454401, "lat": 25.7297362, "lon": 32.6566336}, {"type": "node", "id": 4707454402, "lat": 25.7297212, "lon": 32.6566728}, {"type": "node", "id": 4707454403, "lat": 25.7297766, "lon": 32.656699}, {"type": "node", "id": 4707454408, "lat": 25.7286904, "lon": 32.6585086}, {"type": "node", "id": 4707454409, "lat": 25.7286784, "lon": 32.6585271}, {"type": "node", "id": 4707454410, "lat": 25.7286302, "lon": 32.6584839}, {"type": "node", "id": 4707454411, "lat": 25.7286395, "lon": 32.6584655}, {"type": "node", "id": 4707454412, "lat": 25.7292599, "lon": 32.6589623}, {"type": "node", "id": 4707454413, "lat": 25.7292879, "lon": 32.658983}, {"type": "node", "id": 4707454414, "lat": 25.7292759, "lon": 32.6590022}, {"type": "node", "id": 4707454415, "lat": 25.7292473, "lon": 32.65898}, {"type": "node", "id": 4711878584, "lat": 25.696583, "lon": 32.6439375, "tags": {"amenity": "restaurant", "name": "Elhaty Restaurant"}}, {"type": "node", "id": 5030321222, "lat": 25.6985239, "lon": 32.6400151, "tags": {"amenity": "cafe", "cuisine": "ice_cream;cake;tea;coffee_shop", "internet_access": "wlan", "name:en": "Caf\u00e9 Latte"}}, {"type": "node", "id": 5097452268, "lat": 25.7229511, "lon": 32.6533295}, {"type": "node", "id": 5097452269, "lat": 25.7232738, "lon": 32.6526897}, {"type": "node", "id": 5097452270, "lat": 25.7234469, "lon": 32.6528076}, {"type": "node", "id": 5097452271, "lat": 25.7235826, "lon": 32.6532728}, {"type": "node", "id": 5097452272, "lat": 25.7234213, "lon": 32.6536201}, {"type": "node", "id": 5097452282, "lat": 25.7223368, "lon": 32.6539379}, {"type": "node", "id": 5097452283, "lat": 25.7224519, "lon": 32.6540462}, {"type": "node", "id": 5097452284, "lat": 25.7223452, "lon": 32.6541858}, {"type": "node", "id": 5171806538, "lat": 25.7046954, "lon": 32.6335257, "tags": {"addr:street": "al tmsalyn", "amenity": "restaurant", "name:en": "African Cuisine Restaurant"}}, {"type": "node", "id": 5270086121, "lat": 25.7020452, "lon": 32.6332761, "tags": {"amenity": "restaurant", "cuisine": "arab;mediterranean", "name": "Blue Sky Restaurant", "name:en": "Blue Sky Restaurant"}}, {"type": "node", "id": 5275164422, "lat": 25.6958799, "lon": 32.6417511, "tags": {"amenity": "cafe", "internet_access": "wlan", "name": "Abo Eltaher"}}, {"type": "node", "id": 5310680821, "lat": 25.7172119, "lon": 32.6013218, "tags": {"addr:street": "Habou", "amenity": "cafe", "internet_access": "wlan", "name:en": "Desert Rose", "opening_hours": "Mo-Su 08:00-10:00", "operator": "Mahhmud"}}, {"type": "node", "id": 5313984355, "lat": 25.694829, "lon": 32.6399547, "tags": {"addr:street": "Salah El-Din Square", "amenity": "restaurant", "cuisine": "Pizza, Shawrma, Falafel, Chips, Sandwich", "name": "El Zaeem", "phone": "01157999333"}}, {"type": "node", "id": 5347046068, "lat": 25.705269, "lon": 32.6319193, "tags": {"addr:city": "Gezira al Bairat", "amenity": "restaurant", "capacity": "100+", "cuisine": "regional;international", "delivery": "no", "email": "contact@hotelsheherazade.com", "name": "Hotel Sheherazade", "outdoor_seating": "yes", "phone": "+20 100 6115939", "smoking": "outside", "takeaway": "no", "tourism": "hotel", "website": "https://hotelsheherazade.com"}}, {"type": "node", "id": 5516147821, "lat": 25.7172423, "lon": 32.5957457, "tags": {"addr:street": "street el malkata", "amenity": "restaurant", "cuisine": "arab", "email": "nourelbaladhotel@yahoo.com", "internet_access": "wlan", "name": "Nour el balad", "opening_hours": "24/7", "phone": "00201001295812"}}, {"type": "node", "id": 6135558186, "lat": 25.7017363, "lon": 32.6436201, "tags": {"amenity": "restaurant", "cuisine": "kebab", "name": "Kher and Baraka restaurant"}}, {"type": "node", "id": 6158688092, "lat": 25.7300187, "lon": 32.6143532, "tags": {"amenity": "restaurant", "cuisine": "barbecue", "internet_access:fee": "no", "name": "Panorama Restaurant & Coffee", "outdoor_seating": "yes", "smoking": "yes", "takeaway": "yes", "toilets": "yes", "toilets:wheelchair": "no", "wheelchair": "no"}}, {"type": "node", "id": 6161808991, "lat": 25.7052581, "lon": 32.6315787, "tags": {"amenity": "restaurant", "cuisine": "regional;international", "name": "El Fayrouz", "outdoor_seating": "yes"}}, {"type": "node", "id": 6167939886, "lat": 25.6953885, "lon": 32.6420551, "tags": {"amenity": "restaurant", "cuisine": "arab", "name:en": "Abu el Hasan Shazly"}}, {"type": "node", "id": 6200730286, "lat": 25.7182172, "lon": 32.6023209, "tags": {"amenity": "restaurant", "internet_access": "wlan", "name:en": "Maratonga"}}, {"type": "node", "id": 6201392585, "lat": 25.6961773, "lon": 32.6442514, "tags": {"amenity": "restaurant"}}, {"type": "node", "id": 6291195286, "lat": 25.7198199, "lon": 32.6109272, "tags": {"amenity": "cafe"}}, {"type": "node", "id": 6345984186, "lat": 25.6956629, "lon": 32.6420172, "tags": {"amenity": "restaurant", "cuisine": "friture", "name": "\u0645\u0637\u0639\u0645 \u0623\u062d\u0628\u0627\u0628 \u0627\u0644\u062d\u0628\u064a\u0628", "name:ar": "\u0645\u0637\u0639\u0645 \u0623\u062d\u0628\u0627\u0628 \u0627\u0644\u062d\u0628\u064a\u0628", "opening_hours": "24/7"}}, {"type": "node", "id": 6362915886, "lat": 25.7150704, "lon": 32.6493255, "tags": {"amenity": "cafe", "name": "Moaa", "name:ar": "Moaaz caf\u00e9"}}, {"type": "node", "id": 6402743788, "lat": 25.7050079, "lon": 32.6438871, "tags": {"amenity": "restaurant", "internet_access": "wlan", "name:en": "Oasis Palace"}}, {"type": "node", "id": 6576727386, "lat": 25.6976647, "lon": 32.6430015, "tags": {"amenity": "restaurant", "name": "Abo Ashraf"}}, {"type": "node", "id": 6848284085, "lat": 25.6994016, "lon": 32.6411458, "tags": {"amenity": "restaurant", "name": "Alaa el Din"}}, {"type": "node", "id": 6848284086, "lat": 25.6979606, "lon": 32.6424375, "tags": {"amenity": "restaurant", "cuisine": "pizza"}}, {"type": "node", "id": 6935745685, "lat": 25.7033308, "lon": 32.6331176, "tags": {"amenity": "restaurant", "name": "\u0645\u0637\u0639\u0645 \u0643\u0631\u0648\u0643\u0648\u062f\u0627\u064a\u0644", "name:ar": "\u0645\u0637\u0639\u0645 \u0643\u0631\u0648\u0643\u0648\u062f\u0627\u064a\u0644", "name:en": "Crocodile"}}, {"type": "node", "id": 6981250085, "lat": 25.7024206, "lon": 32.6427341, "tags": {"amenity": "restaurant", "name:en": "Al-Sahaby Lane"}}, {"type": "node", "id": 6981429086, "lat": 25.7011892, "lon": 32.6426272, "tags": {"amenity": "restaurant", "name:en": "Jamboree Restaurant"}}, {"type": "node", "id": 6981429087, "lat": 25.7025305, "lon": 32.6335594, "tags": {"amenity": "restaurant", "name": "Tout Ankh Amun Restaurant", "name:en": "Tout Ankh Amun Restaurant"}}, {"type": "node", "id": 6982647985, "lat": 25.7015002, "lon": 32.642333, "tags": {"amenity": "restaurant", "name:en": "Al-Sahaby Lane Restaurant"}}, {"type": "node", "id": 7101443286, "lat": 25.7030792, "lon": 32.6334097, "tags": {"amenity": "restaurant", "name": "Sunflower Restaurant", "name:en": "Sunflower Restaurant"}}, {"type": "node", "id": 8500304717, "lat": 25.7014565, "lon": 32.643919, "tags": {"amenity": "restaurant", "name:en": "El Zaeem Restaurant"}}, {"type": "node", "id": 8565861117, "lat": 25.7108749, "lon": 32.645977, "tags": {"amenity": "restaurant", "cuisine": "local", "name:en": "Peace Abou Zeid"}}, {"type": "node", "id": 9194534617, "lat": 25.7225074, "lon": 32.6046519, "tags": {"amenity": "restaurant", "name:en": "Restaurant Mohammed"}}, {"type": "node", "id": 9195765917, "lat": 25.6945083, "lon": 32.6356881, "tags": {"amenity": "restaurant", "name:en": "Al zaeem"}}, {"type": "node", "id": 9196215117, "lat": 25.6986224, "lon": 32.6414552, "tags": {"amenity": "restaurant", "name:en": "Koshari"}}, {"type": "node", "id": 9196315530, "lat": 25.7056247, "lon": 32.6321968, "tags": {"amenity": "restaurant", "name:en": "Sunflower Garden"}}, {"type": "node", "id": 9391460364, "lat": 25.7141281, "lon": 32.6478525, "tags": {"amenity": "restaurant", "description": "riverside restaurant & cafe", "int_name": "Hawaii", "name": "\u0647\u0627\u0648\u0627\u0649", "name:en": "Hawaii"}}, {"type": "node", "id": 9592258517, "lat": 25.6981257, "lon": 32.6422509, "tags": {"amenity": "cafe", "name:en": "Juice Bar"}}, {"type": "node", "id": 9979442117, "lat": 25.7012653, "lon": 32.6424968, "tags": {"amenity": "cafe", "name:fr": "Oui Kalyhoum"}}, {"type": "node", "id": 10133143317, "lat": 25.7019412, "lon": 32.6332095, "tags": {"amenity": "restaurant", "cuisine": "regional", "name": "THEBES Restaurant", "name:en": "THEBES Restaurant", "phone": "01096462646"}}, {"type": "node", "id": 10135250117, "lat": 25.7289528, "lon": 32.6121196, "tags": {"amenity": "restaurant", "name:en": "Al Ramsseum"}}, {"type": "node", "id": 10295530109, "lat": 25.7092195, "lon": 32.6312569, "tags": {"addr:postcode": "1345153", "addr:street": "\u0637\u0631\u064a\u0642 \u0627\u0644\u0642\u0631\u0646\u0629", "amenity": "cafe", "cuisine": "regional", "name:en": "El Sayeda Zainab Restaurant", "phone": "+20 100 134 8902"}}, {"type": "node", "id": 10312924641, "lat": 25.7403104, "lon": 32.6017652, "tags": {"amenity": "cafe"}}, {"type": "node", "id": 10841479505, "lat": 25.6967102, "lon": 32.6360606, "tags": {"amenity": "restaurant", "name": "El Kababgy", "outdoor_seating": "yes"}}, {"type": "node", "id": 11494733860, "lat": 25.7000119, "lon": 32.6321575, "tags": {"amenity": "restaurant", "cuisine": "seafood", "name": "Alcaptain Restaurant"}}, {"type": "node", "id": 11494800607, "lat": 25.7004732, "lon": 32.630979, "tags": {"amenity": "restaurant", "name": "Green Oasis", "name:en": "Green Oasis"}}, {"type": "node", "id": 11694121404, "lat": 25.7006373, "lon": 32.6404472, "tags": {"amenity": "cafe", "outdoor_seating": "yes"}}, {"type": "node", "id": 11700272616, "lat": 25.7050771, "lon": 32.632831, "tags": {"amenity": "restaurant", "name": "Hotel El Gezira"}}, {"type": "node", "id": 11717365887, "lat": 25.7174397, "lon": 32.6586411, "tags": {"amenity": "cafe"}}, {"type": "node", "id": 11724824773, "lat": 25.6965167, "lon": 32.6447497, "tags": {"amenity": "cafe", "cuisine": "coffee_shop", "level": "0", "name": "\u0643\u0627\u0641\u062a\u064a\u0631\u064a\u0627 \u0627\u0644\u0645\u062d\u0637\u0629", "name:ar": "\u0643\u0627\u0641\u062a\u064a\u0631\u064a\u0627 \u0627\u0644\u0645\u062d\u0637\u0629", "name:en": "Station Cafeteria"}}, {"type": "node", "id": 12404687608, "lat": 25.7180993, "lon": 32.6022361, "tags": {"amenity": "restaurant", "name": "Ramses Restaurant & Cafe", "opening_hours": "Mo-Su 07:00-17:00", "phone": "+21028707245"}}, {"type": "node", "id": 12633873602, "lat": 25.6994094, "lon": 32.6317498, "tags": {"amenity": "restaurant", "name": "Nile Rose Caf\u00e9 Restaurant"}}, {"type": "node", "id": 12681401503, "lat": 25.7046764, "lon": 32.6325544, "tags": {"amenity": "restaurant", "name:en": "Wannas Art Cafe Vegitarian Restaurant"}}, {"type": "node", "id": 12684895903, "lat": 25.7035565, "lon": 32.6329136, "tags": {"amenity": "cafe", "name:en": "Moon Cafe"}}, {"type": "node", "id": 12811637221, "lat": 25.6999952, "lon": 32.631807, "tags": {"amenity": "restaurant", "cuisine": "egyptian", "diet:vegan": "yes", "diet:vegetarian": "yes", "name": "Nile Freedom", "outdoor_seating": "yes", "toilets": "yes", "toilets:access": "customers"}}, {"type": "way", "id": 476622392, "nodes": [4701248653, 4701248654, 4701248655, 4701248656, 4701248653], "tags": {"amenity": "restaurant", "building": "yes", "name": "LX_NW_P001_RESTAURANT1"}}, {"type": "way", "id": 476649237, "nodes": [4701476479, 4701476480, 4701476481, 4701476478, 4701476479], "tags": {"amenity": "restaurant", "building": "yes", "name": "Sunset", "name:en": "Sunset"}}, {"type": "way", "id": 477163277, "nodes": [4705541867, 4705541868, 4705541869, 4705541870, 4705541867], "tags": {"amenity": "restaurant", "building": "yes", "cuisine": "italian", "name": "Assad younan"}}, {"type": "way", "id": 477192301, "nodes": [4705821550, 4705821551, 4705821552, 4705821553, 4705821550], "tags": {"amenity": "cafe", "building": "yes", "name": "Karnak Stuff"}}, {"type": "way", "id": 477192302, "nodes": [4705821554, 4705821555, 4705821556, 4705821557, 4705821554], "tags": {"amenity": "cafe", "building": "yes", "name": "Ghoreya Cafe"}}, {"type": "way", "id": 477192304, "nodes": [4705821562, 4705821563, 4705821564, 4705821565, 4705821566, 4705821567, 4705821568, 4705821569, 4705821570, 4705821571, 4705821562], "tags": {"amenity": "restaurant", "building": "yes", "name": "El Karnak"}}, {"type": "way", "id": 477380221, "nodes": [4707454400, 4707454401, 4707454402, 4707454403, 4707454400], "tags": {"amenity": "restaurant", "name": "Olives"}}, {"type": "way", "id": 477380223, "nodes": [4707454408, 4707454409, 4707454410, 4707454411, 4707454408], "tags": {"amenity": "cafe", "building": "yes", "name": "Genesis"}}, {"type": "way", "id": 477380224, "nodes": [4707454412, 4707454413, 4707454414, 4707454415, 4707454412], "tags": {"amenity": "restaurant", "building": "yes", "name": "Gerda's Garden"}}, {"type": "way", "id": 523656247, "nodes": [5097452268, 5097452269, 5097452270, 5097452271, 5097452272, 5097452268], "tags": {"amenity": "restaurant"}}, {"type": "way", "id": 523656254, "nodes": [5097452282, 5097452283, 5097452284, 1329638452, 5097452282], "tags": {"amenity": "cafe", "building": "yes"}}]}